{"lon":"11.2571347","lat":"44.544808","number":"16","street":"VIA DEL VIVAIO","unit":"","city":"BARGELLINO","district":"Borgo Panigale","region":"","postcode":"40132"},
{"lon":"11.2534205","lat":"44.5413091","number":"5/3","street":"VIA PUNTA","unit":"","city":"CASE SPARSE","district":"Borgo Panigale","region":"","postcode":"40132"},
{"lon":"11.352368","lat":"44.5425999","number":"65","street":"VIA DELL'ARCOVEGGIO","unit":"","city":"BOLOGNA","district":"Navile","region":"","postcode":"40129"},
{"lon":"11.3784081","lat":"44.5473215","number":"180/2","street":"VIA FERRARESE","unit":"","city":"OSTERIA","district":"Navile","region":"","postcode":"40128"},
{"lon":"11.3541982","lat":"44.5516335","number":"313","street":"VIA DI CORTICELLA","unit":"","city":"BOLOGNA","district":"Navile","region":"","postcode":"40128"},
{"lon":"11.3708126","lat":"44.551102","number":"111/2","street":"VIA DEL TUSCOLANO","unit":"","city":"BOLOGNA","district":"Navile","region":"","postcode":"40128"},
{"lon":"11.355798","lat":"44.5417922","number":"208/2","street":"VIA DI CORTICELLA","unit":"","city":"BOLOGNA","district":"Navile","region":"","postcode":"40128"},
{"lon":"11.3570673","lat":"44.5473472","number":"55","street":"VIA GENUZIO BENTINI","unit":"","city":"BOLOGNA","district":"Navile","region":"","postcode":"40128"},
{"lon":"11.3536465","lat":"44.5499998","number":"264/6","street":"VIA DI CORTICELLA","unit":"","city":"BOLOGNA","district":"Navile","region":"","postcode":"40128"},
{"lon":"11.3544676","lat":"44.5447501","number":"1/5","street":"VIA DELLE FONTI","unit":"","city":"BOLOGNA","district":"Navile","region":"","postcode":"40128"},
{"lon":"11.3622544","lat":"44.5491805","number":"2","street":"VIA BYRON","unit":"","city":"BOLOGNA","district":"Navile","region":"","postcode":"40128"},
{"lon":"11.3543963","lat":"44.5492518","number":"2","street":"VIA S.SAVINO","unit":"","city":"BOLOGNA","district":"Navile","region":"","postcode":"40128"},
{"lon":"11.3566505","lat":"44.5442438","number":"3","street":"VIA COLOMBAROLA","unit":"","city":"BOLOGNA","district":"Navile","region":"","postcode":"40128"},
{"lon":"11.3500638","lat":"44.5468443","number":"29","street":"VIA AMILCARE BORTOLOTTI","unit":"","city":"BOLOGNA","district":"Navile","region":"","postcode":"40128"},
{"lon":"11.2819809","lat":"44.5454144","number":"7/5","street":"VIA FOSSA CAVA","unit":"","city":"CASE SPARSE","district":"Borgo Panigale","region":"","postcode":"40132"},
{"lon":"11.3541026","lat":"44.5464265","number":"31","street":"VIA DELLE FONTI","unit":"","city":"BOLOGNA","district":"Navile","region":"","postcode":"40128"},
{"lon":"11.3536368","lat":"44.5486324","number":"10","street":"VIA S.SAVINO","unit":"","city":"BOLOGNA","district":"Navile","region":"","postcode":"40128"},
{"lon":"11.3715189","lat":"44.5399202","number":"221/7","street":"VIA FERRARESE","unit":"","city":"SANT'ANNA","district":"Navile","region":"","postcode":"40128"},
{"lon":"11.3592788","lat":"44.5460727","number":"6","street":"VIA MASSIMO GORKI","unit":"","city":"BOLOGNA","district":"Navile","region":"","postcode":"40128"},
{"lon":"11.3652106","lat":"44.5430555","number":"54","street":"VIA DEL TUSCOLANO","unit":"","city":"BOLOGNA","district":"Navile","region":"","postcode":"40128"},
{"lon":"11.3810778","lat":"44.539117","number":"52","street":"VIA DEL BORDONE","unit":"","city":"CASE SPARSE","district":"Navile","region":"","postcode":"40127"},
{"lon":"11.3592196","lat":"44.5455227","number":"23","street":"VIA MASSIMO GORKI","unit":"","city":"BOLOGNA","district":"Navile","region":"","postcode":"40128"},
{"lon":"11.2689286","lat":"44.5319817","number":"7","street":"VIA PERSICETANA VECCHIA","unit":"","city":"BOLOGNA","district":"Borgo Panigale","region":"","postcode":"40132"},
{"lon":"11.3143508","lat":"44.5325604","number":"408","street":"VIA FRANCESCO ZANARDI","unit":"","city":"BOLOGNA","district":"Navile","region":"","postcode":"40131"},
{"lon":"11.3615186","lat":"44.5384573","number":"50/3","street":"VIA DEL TUSCOLANO","unit":"","city":"BOLOGNA","district":"Navile","region":"","postcode":"40128"},
{"lon":"11.3482978","lat":"44.5333297","number":"8","street":"VIA GIUSEPPE ROLLI","unit":"","city":"BOLOGNA","district":"Navile","region":"","postcode":"40129"},
{"lon":"11.3388802","lat":"44.5318222","number":"21","street":"VIA CRISTOFORO COLOMBO","unit":"","city":"BOLOGNA","district":"Navile","region":"","postcode":"40131"},
{"lon":"11.3899214","lat":"44.5344157","number":"27/20","street":"VIA CADRIANO","unit":"","city":"CASE SPARSE","district":"San Donato","region":"","postcode":"40127"},
{"lon":"11.3186761","lat":"44.5335178","number":"399/4","street":"VIA FRANCESCO ZANARDI","unit":"","city":"BOLOGNA","district":"Navile","region":"","postcode":"40131"},
{"lon":"11.3583683","lat":"44.5348046","number":"12","street":"VIA SIGISMONDO CAMPAGNOLI","unit":"","city":"BOLOGNA","district":"Navile","region":"","postcode":"40128"},
{"lon":"11.3970563","lat":"44.536963","number":"3","street":"VIA FRABAZZA","unit":"","city":"CASE SPARSE","district":"San Donato","region":"","postcode":"40127"},
{"lon":"11.3528158","lat":"44.5322892","number":"8/1","street":"VIA GIOVANNI PAPINI","unit":"","city":"BOLOGNA","district":"Navile","region":"","postcode":"40128"},
{"lon":"11.3451847","lat":"44.537559","number":"11","street":"VIA DEI TERRAIOLI","unit":"","city":"BOLOGNA","district":"Navile","region":"","postcode":"40129"},
{"lon":"11.3496088","lat":"44.5370593","number":"80","street":"VIA DELL'ARCOVEGGIO","unit":"","city":"BOLOGNA","district":"Navile","region":"","postcode":"40129"},
{"lon":"11.2537611","lat":"44.5390492","number":"8/11","street":"VIA DEL VIVAIO","unit":"","city":"CASE SPARSE","district":"Borgo Panigale","region":"","postcode":"40132"},
{"lon":"11.3475124","lat":"44.5311114","number":"49/8","street":"VIA DELL'ARCOVEGGIO","unit":"","city":"BOLOGNA","district":"Navile","region":"","postcode":"40129"},
{"lon":"11.357598","lat":"44.5342001","number":"23","street":"VIA FRATELLI PINARDI","unit":"","city":"BOLOGNA","district":"Navile","region":"","postcode":"40128"},
{"lon":"11.3151411","lat":"44.533192","number":"498","street":"VIA FRANCESCO ZANARDI","unit":"","city":"BOLOGNA","district":"Navile","region":"","postcode":"40131"},
{"lon":"11.3503336","lat":"44.5307998","number":"12","street":"VIA CESARE ALBICINI","unit":"","city":"BOLOGNA","district":"Navile","region":"","postcode":"40128"},
{"lon":"11.3702305","lat":"44.5337195","number":"10/5","street":"VIA DEL GOMITO","unit":"","city":"BOLOGNA","district":"Navile","region":"","postcode":"40127"},
{"lon":"11.3148017","lat":"44.5329122","number":"458","street":"VIA FRANCESCO ZANARDI","unit":"","city":"BOLOGNA","district":"Navile","region":"","postcode":"40131"},
{"lon":"11.2314044","lat":"44.5329901","number":"343","street":"VIA MARCO EMILIO LEPIDO","unit":"","city":"LAVINO DI MEZZO","district":"Borgo Panigale","region":"","postcode":"40132"},
{"lon":"11.359349","lat":"44.535993","number":"34","street":"VIA DEL TUSCOLANO","unit":"","city":"BOLOGNA","district":"Navile","region":"","postcode":"40128"},
{"lon":"11.316696","lat":"44.5328416","number":"393/17","street":"VIA FRANCESCO ZANARDI","unit":"","city":"BOLOGNA","district":"Navile","region":"","postcode":"40131"},
{"lon":"11.3537884","lat":"44.5304978","number":"2/1","street":"VIA FORLI'","unit":"","city":"BOLOGNA","district":"Navile","region":"","postcode":"40128"},
{"lon":"11.3544775","lat":"44.5335864","number":"193","street":"VIA DI CORTICELLA","unit":"","city":"BOLOGNA","district":"Navile","region":"","postcode":"40128"},
{"lon":"11.3157559","lat":"44.5256571","number":"272","street":"VIA AGUCCHI","unit":"","city":"BOLOGNA","district":"Navile","region":"","postcode":"40131"},
{"lon":"11.3474797","lat":"44.524118","number":"5","street":"VIA FRANCESCA E.DE GIOVANNI","unit":"","city":"BOLOGNA","district":"Navile","region":"","postcode":"40129"},
{"lon":"11.3615992","lat":"44.5253755","number":"2","street":"VIA DON CARLO GNOCCHI","unit":"","city":"BOLOGNA","district":"Navile","region":"","postcode":"40128"},
{"lon":"11.3646321","lat":"44.5282573","number":"156/21","street":"VIA FERRARESE","unit":"","city":"BOLOGNA","district":"Navile","region":"","postcode":"40128"},
{"lon":"11.2321994","lat":"44.5326318","number":"289","street":"VIA MARCO EMILIO LEPIDO","unit":"","city":"LAVINO DI MEZZO","district":"Borgo Panigale","region":"","postcode":"40132"},
{"lon":"11.3318456","lat":"44.5257691","number":"242","street":"VIA DELLA BEVERARA","unit":"","city":"BOLOGNA","district":"Navile","region":"","postcode":"40131"},
{"lon":"11.3624044","lat":"44.529963","number":"93","street":"VIA ANDREA DA FORMIGINE","unit":"","city":"BOLOGNA","district":"Navile","region":"","postcode":"40128"},
{"lon":"11.3674394","lat":"44.5279194","number":"87","street":"VIA STALINGRADO","unit":"","city":"BOLOGNA","district":"Navile","region":"","postcode":"40128"},
{"lon":"11.3616197","lat":"44.5296931","number":"71","street":"VIA ANDREA DA FORMIGINE","unit":"","city":"BOLOGNA","district":"Navile","region":"","postcode":"40128"},
{"lon":"11.319793","lat":"44.5273559","number":"46/4","street":"VIA DELLA SELVA PESCAROLA","unit":"","city":"BOLOGNA","district":"Navile","region":"","postcode":"40131"},
{"lon":"11.339255","lat":"44.5282889","number":"90","street":"VIA DEL SOSTEGNO","unit":"","city":"BOLOGNA","district":"Navile","region":"","postcode":"40131"},
{"lon":"11.3138446","lat":"44.5306875","number":"366","street":"VIA FRANCESCO ZANARDI","unit":"","city":"BOLOGNA","district":"Navile","region":"","postcode":"40131"},
{"lon":"11.3752906","lat":"44.5273851","number":"28/10","street":"VIA CADRIANO","unit":"","city":"CASE SPARSE","district":"Navile","region":"","postcode":"40127"},
{"lon":"11.363958","lat":"44.527283","number":"156/6","street":"VIA FERRARESE","unit":"","city":"BOLOGNA","district":"Navile","region":"","postcode":"40128"},
{"lon":"11.3496808","lat":"44.5263263","number":"180/2","street":"VIA DI CORTICELLA","unit":"","city":"BOLOGNA","district":"Navile","region":"","postcode":"40128"},
{"lon":"11.2854906","lat":"44.5262404","number":"5","street":"VIA DELL'AEROPORTO","unit":"","city":"CASE SPARSE","district":"Borgo Panigale","region":"","postcode":"40132"},
{"lon":"11.3371738","lat":"44.5278936","number":"36","street":"VIA DEL SOSTEGNO","unit":"","city":"BOLOGNA","district":"Navile","region":"","postcode":"40131"},
{"lon":"11.3607993","lat":"44.5287501","number":"55","street":"VIA ANDREA DA FORMIGINE","unit":"","city":"BOLOGNA","district":"Navile","region":"","postcode":"40128"},
{"lon":"11.2477263","lat":"44.5280673","number":"17","street":"VIA DEL VIVAIO","unit":"","city":"CASE SPARSE","district":"Borgo Panigale","region":"","postcode":"40132"},
{"lon":"11.360005","lat":"44.5258455","number":"18/2","street":"VIA DON CARLO GNOCCHI","unit":"","city":"BOLOGNA","district":"Navile","region":"","postcode":"40128"},
{"lon":"11.3417424","lat":"44.5291071","number":"58","street":"VIA ERBOSA","unit":"","city":"BOLOGNA","district":"Navile","region":"","postcode":"40129"},
{"lon":"11.3164178","lat":"44.5264955","number":"290/12","street":"VIA FRANCESCO ZANARDI","unit":"","city":"BOLOGNA","district":"Navile","region":"","postcode":"40131"},
{"lon":"11.3166824","lat":"44.5278604","number":"311/3","street":"VIA FRANCESCO ZANARDI","unit":"","city":"BOLOGNA","district":"Navile","region":"","postcode":"40131"},
{"lon":"11.4243666","lat":"44.5185281","number":"8","street":"VIA PIRATINO","unit":"","city":"BOLOGNA","district":"San Donato","region":"","postcode":"40127"},
{"lon":"11.3989284","lat":"44.5197017","number":"192","street":"VIA S.DONATO","unit":"","city":"BOLOGNA","district":"San Donato","region":"","postcode":"40127"},
{"lon":"11.2668239","lat":"44.5239554","number":"10","street":"VIA PONTIDA","unit":"","city":"BOLOGNA","district":"Borgo Panigale","region":"","postcode":"40132"},
{"lon":"11.2884513","lat":"44.5251426","number":"6","street":"VIA DELL'AEROPORTO","unit":"","city":"CASE SPARSE","district":"Borgo Panigale","region":"","postcode":"40132"},
{"lon":"11.319744","lat":"44.5242969","number":"10","street":"VIA MOLINO DI PESCAROLA","unit":"","city":"BOLOGNA","district":"Navile","region":"","postcode":"40131"},
{"lon":"11.3469844","lat":"44.523759","number":"18/2","street":"VIA FRANCESCA E.DE GIOVANNI","unit":"","city":"BOLOGNA","district":"Navile","region":"","postcode":"40129"},
{"lon":"11.3483562","lat":"44.5213672","number":"119","street":"VIA DI CORTICELLA","unit":"","city":"BOLOGNA","district":"Navile","region":"","postcode":"40128"},
{"lon":"11.3208566","lat":"44.5210608","number":"7","street":"VIA DI BERTALIA","unit":"","city":"BOLOGNA","district":"Navile","region":"","postcode":"40131"},
{"lon":"11.3185118","lat":"44.5227918","number":"1/4","street":"VIA DELLE BORRE","unit":"","city":"BOLOGNA","district":"Navile","region":"","postcode":"40131"},
{"lon":"11.3206856","lat":"44.5217604","number":"158","street":"VIA FRANCESCO ZANARDI","unit":"","city":"BOLOGNA","district":"Navile","region":"","postcode":"40131"},
{"lon":"11.2949095","lat":"44.521498","number":"42/2","street":"VIA DEL TRIUMVIRATO","unit":"","city":"BOLOGNA","district":"Borgo Panigale","region":"","postcode":"40132"},
{"lon":"11.3182969","lat":"44.5225471","number":"1/9","street":"VIA DELLE BORRE","unit":"","city":"BOLOGNA","district":"Navile","region":"","postcode":"40131"},
{"lon":"11.2749523","lat":"44.524631","number":"7/2","street":"VIA DELL'OSPEDALETTO","unit":"","city":"BOLOGNA","district":"Borgo Panigale","region":"","postcode":"40132"},
{"lon":"11.2781684","lat":"44.5226046","number":"24","street":"VIA DELL'OSPEDALETTO","unit":"","city":"BOLOGNA","district":"Borgo Panigale","region":"","postcode":"40132"},
{"lon":"11.2632907","lat":"44.5236695","number":"48","street":"VIA NORMANDIA","unit":"","city":"BOLOGNA","district":"Borgo Panigale","region":"","postcode":"40132"},
{"lon":"11.2939395","lat":"44.5222032","number":"13","street":"VIA DE LA BIRRA","unit":"","city":"BOLOGNA","district":"Borgo Panigale","region":"","postcode":"40132"},
{"lon":"11.3196324","lat":"44.5224179","number":"176","street":"VIA FRANCESCO ZANARDI","unit":"","city":"BOLOGNA","district":"Navile","region":"","postcode":"40131"},
{"lon":"11.2644924","lat":"44.5243949","number":"126","street":"VIA NORMANDIA","unit":"","city":"BOLOGNA","district":"Borgo Panigale","region":"","postcode":"40132"},
{"lon":"11.3474674","lat":"44.5208499","number":"118/5","street":"VIA DI CORTICELLA","unit":"","city":"BOLOGNA","district":"Navile","region":"","postcode":"40128"},
{"lon":"11.2955366","lat":"44.5212737","number":"107","street":"VIA DEL TRIUMVIRATO","unit":"","city":"BOLOGNA","district":"Borgo Panigale","region":"","postcode":"40132"},
{"lon":"11.3186413","lat":"44.5208555","number":"38/2","street":"VIA DELLE BORRE","unit":"","city":"BOLOGNA","district":"Navile","region":"","postcode":"40131"},
{"lon":"11.3197123","lat":"44.5234588","number":"197","street":"VIA FRANCESCO ZANARDI","unit":"","city":"BOLOGNA","district":"Navile","region":"","postcode":"40131"},
{"lon":"11.3300127","lat":"44.5177453","number":"100","street":"VIA DELLA BEVERARA","unit":"","city":"BOLOGNA","district":"Navile","region":"","postcode":"40131"},
{"lon":"11.2789658","lat":"44.5193394","number":"22","street":"VIA PANIGALE","unit":"","city":"BOLOGNA","district":"Borgo Panigale","region":"","postcode":"40132"},
{"lon":"11.3257809","lat":"44.5196987","number":"12","street":"VIA ANTONIOTTO USODIMARE","unit":"","city":"BOLOGNA","district":"Navile","region":"","postcode":"40131"},
{"lon":"11.296339","lat":"44.5196415","number":"50","street":"VIA DELLA BERLETA","unit":"","city":"BOLOGNA","district":"Borgo Panigale","region":"","postcode":"40132"},
{"lon":"11.2751019","lat":"44.5194527","number":"11","street":"VIA BRUNO BENCIVENNI","unit":"","city":"BOLOGNA","district":"Borgo Panigale","region":"","postcode":"40132"},
{"lon":"11.3296184","lat":"44.5196613","number":"46","street":"VIA VITTORIO BOTTEGO","unit":"","city":"BOLOGNA","district":"Navile","region":"","postcode":"40131"},
{"lon":"11.3311441","lat":"44.5180966","number":"71","street":"VIA DELLA BEVERARA","unit":"","city":"BOLOGNA","district":"Navile","region":"","postcode":"40131"},
{"lon":"11.3301277","lat":"44.5195922","number":"20","street":"VIA VITTORIO BOTTEGO","unit":"","city":"BOLOGNA","district":"Navile","region":"","postcode":"40131"},
{"lon":"11.3532242","lat":"44.5183193","number":"24","street":"VIA DON GIOVANNI FORNASINI","unit":"","city":"BOLOGNA","district":"Navile","region":"","postcode":"40128"},
{"lon":"11.3317431","lat":"44.5189703","number":"2","street":"VIA DEL NAVILE","unit":"","city":"BOLOGNA","district":"Navile","region":"","postcode":"40131"},
{"lon":"11.3180633","lat":"44.5203788","number":"39","street":"VIA DI BERTALIA","unit":"","city":"BOLOGNA","district":"Navile","region":"","postcode":"40131"},
{"lon":"11.3405644","lat":"44.5178459","number":"6","street":"VIA EZIO CESARINI","unit":"","city":"BOLOGNA","district":"Navile","region":"","postcode":"40129"},
{"lon":"11.3565107","lat":"44.5193863","number":"46","street":"VIA JACOPO DI PAOLO","unit":"","city":"BOLOGNA","district":"Navile","region":"","postcode":"40128"},
{"lon":"11.2934444","lat":"44.5194911","number":"3","street":"VIA PIER FORTUNATO CALVI","unit":"","city":"BOLOGNA","district":"Borgo Panigale","region":"","postcode":"40132"},
{"lon":"11.3331129","lat":"44.5193167","number":"21","street":"VIA CARLO DARWIN","unit":"","city":"BOLOGNA","district":"Navile","region":"","postcode":"40131"},
{"lon":"11.3309235","lat":"44.5186732","number":"132/2","street":"VIA DELLA BEVERARA","unit":"","city":"BOLOGNA","district":"Navile","region":"","postcode":"40131"},
{"lon":"11.3417859","lat":"44.5198121","number":"18","street":"VIA FRATELLI GRUPPI","unit":"","city":"BOLOGNA","district":"Navile","region":"","postcode":"40129"},
{"lon":"11.2769447","lat":"44.51982","number":"31","street":"VIA RAFFAELE BOMBELLI","unit":"","city":"BOLOGNA","district":"Borgo Panigale","region":"","postcode":"40132"},
{"lon":"11.3953879","lat":"44.5178945","number":"186/7","street":"VIA S.DONATO","unit":"","city":"BOLOGNA","district":"San Donato","region":"","postcode":"40127"},
{"lon":"11.292717","lat":"44.5193801","number":"16","street":"VIA PIER FORTUNATO CALVI","unit":"","city":"BOLOGNA","district":"Borgo Panigale","region":"","postcode":"40132"},
{"lon":"11.3950185","lat":"44.5177466","number":"184","street":"VIA S.DONATO","unit":"","city":"BOLOGNA","district":"San Donato","region":"","postcode":"40127"},
{"lon":"11.396128","lat":"44.5178473","number":"195","street":"VIA S.DONATO","unit":"","city":"BOLOGNA","district":"San Donato","region":"","postcode":"40127"},
{"lon":"11.3556344","lat":"44.5178273","number":"102/3","street":"VIA FERRARESE","unit":"","city":"BOLOGNA","district":"Navile","region":"","postcode":"40128"},
{"lon":"11.3339196","lat":"44.5190354","number":"25","street":"VIA DEL NAVILE","unit":"","city":"BOLOGNA","district":"Navile","region":"","postcode":"40131"},
{"lon":"11.3288761","lat":"44.5178791","number":"21/3","street":"VIA MARCO POLO","unit":"","city":"BOLOGNA","district":"Navile","region":"","postcode":"40131"},
{"lon":"11.3297701","lat":"44.5187632","number":"132/5","street":"VIA DELLA BEVERARA","unit":"","city":"BOLOGNA","district":"Navile","region":"","postcode":"40131"},
{"lon":"11.3597742","lat":"44.5145834","number":"2","street":"VIA ALFREDO CALZONI","unit":"","city":"BOLOGNA","district":"San Donato","region":"","postcode":"40128"},
{"lon":"11.3396827","lat":"44.5173753","number":"113/4","street":"VIA FRANCESCO BARBIERI","unit":"","city":"BOLOGNA","district":"Navile","region":"","postcode":"40129"},
{"lon":"11.3400405","lat":"44.5173653","number":"113/3","street":"VIA FRANCESCO BARBIERI","unit":"","city":"BOLOGNA","district":"Navile","region":"","postcode":"40129"},
{"lon":"11.3312024","lat":"44.5168189","number":"13","street":"VIA YURI GAGARIN","unit":"","city":"BOLOGNA","district":"Navile","region":"","postcode":"40131"},
{"lon":"11.3439011","lat":"44.5150535","number":"42","street":"VIA LIONELLO SPADA","unit":"","city":"BOLOGNA","district":"Navile","region":"","postcode":"40129"},
{"lon":"11.3657035","lat":"44.5160838","number":"65/11","street":"VIA STALINGRADO","unit":"","city":"BOLOGNA","district":"San Donato","region":"","postcode":"40128"},
{"lon":"11.3501031","lat":"44.5171443","number":"17","street":"VIA BARTOLOMEO PASSAROTTI","unit":"","city":"BOLOGNA","district":"Navile","region":"","postcode":"40128"},
{"lon":"11.3405497","lat":"44.5148266","number":"3/3","street":"VIA GIUSEPPE PARINI","unit":"","city":"BOLOGNA","district":"Navile","region":"","postcode":"40129"},
{"lon":"11.3603415","lat":"44.5168304","number":"59/4","street":"VIA STALINGRADO","unit":"","city":"BOLOGNA","district":"San Donato","region":"","postcode":"40128"},
{"lon":"11.3510219","lat":"44.5146425","number":"7/5","street":"VIA GIORGIO VASARI","unit":"","city":"BOLOGNA","district":"Navile","region":"","postcode":"40128"},
{"lon":"11.3372681","lat":"44.5171127","number":"133","street":"VIA FRANCESCO BARBIERI","unit":"","city":"BOLOGNA","district":"Navile","region":"","postcode":"40129"},
{"lon":"11.3288504","lat":"44.5138033","number":"3","street":"VIA MARCO POLO","unit":"","city":"BOLOGNA","district":"Navile","region":"","postcode":"40131"},
{"lon":"11.3279143","lat":"44.516565","number":"14/2","street":"VIA MARCO POLO","unit":"","city":"BOLOGNA","district":"Navile","region":"","postcode":"40131"},
{"lon":"11.3138926","lat":"44.5176476","number":"29","street":"VIA DALLA VOLTA","unit":"","city":"BOLOGNA","district":"Navile","region":"","postcode":"40131"},
{"lon":"11.3530673","lat":"44.5152326","number":"48","street":"VIA FERRARESE","unit":"","city":"BOLOGNA","district":"Navile","region":"","postcode":"40128"},
{"lon":"11.345557","lat":"44.5162506","number":"29","street":"VIA ANDREA DA FAENZA","unit":"","city":"BOLOGNA","district":"Navile","region":"","postcode":"40129"},
{"lon":"11.3445143","lat":"44.5167559","number":"37","street":"VIA FRANCESCO BARBIERI","unit":"","city":"BOLOGNA","district":"Navile","region":"","postcode":"40129"},
{"lon":"11.3254571","lat":"44.5164854","number":"81/3","street":"VIA FRANCESCO ZANARDI","unit":"","city":"BOLOGNA","district":"Navile","region":"","postcode":"40131"},
{"lon":"11.3454395","lat":"44.5169007","number":"62","street":"VIA ANDREA DA FAENZA","unit":"","city":"BOLOGNA","district":"Navile","region":"","postcode":"40129"},
{"lon":"11.3383153","lat":"44.514432","number":"37","street":"VIA PIERO GOBETTI","unit":"","city":"BOLOGNA","district":"Navile","region":"","postcode":"40129"},
{"lon":"11.2753746","lat":"44.5175336","number":"51","street":"VIA MARCO EMILIO LEPIDO","unit":"","city":"BOLOGNA","district":"Borgo Panigale","region":"","postcode":"40132"},
{"lon":"11.3537811","lat":"44.515076","number":"163","street":"VIA FERRARESE","unit":"","city":"BOLOGNA","district":"Navile","region":"","postcode":"40128"},
{"lon":"11.281508","lat":"44.5156256","number":"3","street":"VIA PANIGALE","unit":"","city":"BOLOGNA","district":"Borgo Panigale","region":"","postcode":"40132"},
{"lon":"11.3484233","lat":"44.516579","number":"6","street":"VIA ALFONSO LOMBARDI","unit":"","city":"BOLOGNA","district":"Navile","region":"","postcode":"40128"},
{"lon":"11.3367125","lat":"44.5168719","number":"106","street":"VIA FRANCESCO BARBIERI","unit":"","city":"BOLOGNA","district":"Navile","region":"","postcode":"40129"},
{"lon":"11.2819959","lat":"44.515567","number":"3","street":"VIA MARCO CELIO","unit":"","city":"BOLOGNA","district":"Borgo Panigale","region":"","postcode":"40132"},
{"lon":"11.2749183","lat":"44.5178944","number":"57/2","street":"VIA MARCO EMILIO LEPIDO","unit":"","city":"BOLOGNA","district":"Borgo Panigale","region":"","postcode":"40132"},
{"lon":"11.3381066","lat":"44.5160313","number":"10","street":"VIA FRANCESCO FLORA","unit":"","city":"BOLOGNA","district":"Navile","region":"","postcode":"40129"},
{"lon":"11.2547761","lat":"44.5153168","number":"118/2","street":"VIA ANTONIO CAVALIERI DUCATI","unit":"","city":"BOLOGNA","district":"Borgo Panigale","region":"","postcode":"40132"},
{"lon":"11.4016917","lat":"44.509665","number":"55","street":"VIA LARGA","unit":"","city":"BOLOGNA","district":"San Donato","region":"","postcode":"40127"},
{"lon":"11.3619569","lat":"44.5100566","number":"10","street":"VIALE ALDO MORO","unit":"","city":"BOLOGNA","district":"San Donato","region":"","postcode":"40127"},
{"lon":"11.3432355","lat":"44.5133615","number":"20","street":"VIA CAMILLO PROCACCINI","unit":"","city":"BOLOGNA","district":"Navile","region":"","postcode":"40129"},
{"lon":"11.3439821","lat":"44.5141131","number":"65","street":"VIA NICOLO' DALL'ARCA","unit":"","city":"BOLOGNA","district":"Navile","region":"","postcode":"40129"},
{"lon":"11.2860186","lat":"44.5127877","number":"336","street":"VIA EMILIA PONENTE","unit":"","city":"BOLOGNA","district":"Borgo Panigale","region":"","postcode":"40132"},
{"lon":"11.3889089","lat":"44.5122447","number":"6","street":"VIA LUIGI PIRANDELLO","unit":"","city":"BOLOGNA","district":"San Donato","region":"","postcode":"40127"},
{"lon":"11.3461918","lat":"44.5114973","number":"1/4","street":"VIA PELLEGRINO TIBALDI","unit":"","city":"BOLOGNA","district":"Navile","region":"","postcode":"40129"},
{"lon":"11.3526574","lat":"44.5137984","number":"147","street":"VIA FERRARESE","unit":"","city":"BOLOGNA","district":"Navile","region":"","postcode":"40128"},
{"lon":"11.3845153","lat":"44.5110068","number":"167/4","street":"VIA S.DONATO","unit":"","city":"BOLOGNA","district":"San Donato","region":"","postcode":"40127"},
{"lon":"11.3980763","lat":"44.5116942","number":"13","street":"VIA DINO CAMPANA","unit":"","city":"BOLOGNA","district":"San Donato","region":"","postcode":"40127"},
{"lon":"11.3538017","lat":"44.5132729","number":"133/4","street":"VIA FERRARESE","unit":"","city":"BOLOGNA","district":"Navile","region":"","postcode":"40128"},
{"lon":"11.342799","lat":"44.5114512","number":"38","street":"VIA PELLEGRINO TIBALDI","unit":"","city":"BOLOGNA","district":"Navile","region":"","postcode":"40129"},
{"lon":"11.3009408","lat":"44.5138725","number":"88","street":"VIA AGUCCHI","unit":"","city":"BOLOGNA","district":"Reno","region":"","postcode":"40133"},
{"lon":"11.2830774","lat":"44.5149202","number":"32/2","street":"VIA MARCO CELIO","unit":"","city":"BOLOGNA","district":"Borgo Panigale","region":"","postcode":"40132"},
{"lon":"11.3437311","lat":"44.5111075","number":"17","street":"VIA LORENZO COSTA","unit":"","city":"BOLOGNA","district":"Navile","region":"","postcode":"40129"},
{"lon":"11.2846478","lat":"44.5141349","number":"449","street":"VIA EMILIA PONENTE","unit":"","city":"BOLOGNA","district":"Borgo Panigale","region":"","postcode":"40132"},
{"lon":"11.3423628","lat":"44.5118735","number":"1","street":"VIA ANGELO MICHELE COLONNA","unit":"","city":"BOLOGNA","district":"Navile","region":"","postcode":"40129"},
{"lon":"11.3450612","lat":"44.5110392","number":"41","street":"VIA ANTONIO DI VINCENZO","unit":"","city":"BOLOGNA","district":"Navile","region":"","postcode":"40129"},
{"lon":"11.286222","lat":"44.5121191","number":"5","street":"VIA DEL PONTELUNGO","unit":"","city":"BOLOGNA","district":"Borgo Panigale","region":"","postcode":"40132"},
{"lon":"11.2863734","lat":"44.5121699","number":"1/2","street":"VIA DEL PONTELUNGO","unit":"","city":"BOLOGNA","district":"Borgo Panigale","region":"","postcode":"40132"},
{"lon":"11.3808274","lat":"44.5065276","number":"5","street":"VIA FRANCOFORTE","unit":"","city":"BOLOGNA","district":"San Donato","region":"","postcode":"40127"},
{"lon":"11.297627","lat":"44.51112","number":"5","street":"VIA ANDREA MANTEGNA","unit":"","city":"BOLOGNA","district":"Reno","region":"","postcode":"40133"},
{"lon":"11.3292962","lat":"44.5097268","number":"3","street":"VIA DELLA BEVERARA","unit":"","city":"BOLOGNA","district":"Navile","region":"","postcode":"40131"},
{"lon":"11.2877623","lat":"44.509889","number":"31/11","street":"VIA DEL GRETO","unit":"","city":"BOLOGNA","district":"Borgo Panigale","region":"","postcode":"40132"},
{"lon":"11.2980307","lat":"44.5103061","number":"77/2","street":"VIA AGUCCHI","unit":"","city":"BOLOGNA","district":"Reno","region":"","postcode":"40133"},
{"lon":"11.3954888","lat":"44.5075329","number":"44","street":"VIA LARGA","unit":"","city":"BOLOGNA","district":"San Donato","region":"","postcode":"40127"},
{"lon":"11.348548","lat":"44.5105225","number":"5/2","street":"VIA DONATO CRETI","unit":"","city":"BOLOGNA","district":"Navile","region":"","postcode":"40128"},
{"lon":"11.301849","lat":"44.5094963","number":"25","street":"VIA DELLA VIOLA","unit":"","city":"BOLOGNA","district":"Reno","region":"","postcode":"40133"},
{"lon":"11.3083201","lat":"44.5114698","number":"16/2","street":"VIA DEL CHIU'","unit":"","city":"BOLOGNA","district":"Reno","region":"","postcode":"40133"},
{"lon":"11.3600963","lat":"44.5080101","number":"39","street":"VIALE DELLA REPUBBLICA","unit":"","city":"BOLOGNA","district":"San Donato","region":"","postcode":"40127"},
{"lon":"11.3937652","lat":"44.5081006","number":"15/5","street":"VIA DEL PILASTRO","unit":"","city":"BOLOGNA","district":"San Donato","region":"","postcode":"40127"},
{"lon":"11.2952918","lat":"44.5094173","number":"1","street":"VIA ANGELO PIO'","unit":"","city":"BOLOGNA","district":"Reno","region":"","postcode":"40133"},
{"lon":"11.378161","lat":"44.5099023","number":"11","street":"VIA GIAMBATTISTA VICO","unit":"","city":"BOLOGNA","district":"San Donato","region":"","postcode":"40127"},
{"lon":"11.2971424","lat":"44.5116455","number":"22","street":"VIA PONTE ROMANO","unit":"","city":"BOLOGNA","district":"Reno","region":"","postcode":"40133"},
{"lon":"11.3014453","lat":"44.5093475","number":"22/2","street":"VIA DELLA VIOLA","unit":"","city":"BOLOGNA","district":"Reno","region":"","postcode":"40133"},
{"lon":"11.2866363","lat":"44.5116556","number":"9/2","street":"VIA DELLA PIETRA","unit":"","city":"BOLOGNA","district":"Borgo Panigale","region":"","postcode":"40132"},
{"lon":"11.2989894","lat":"44.5093364","number":"8/2","street":"VIA DEL GIGLIO","unit":"","city":"BOLOGNA","district":"Reno","region":"","postcode":"40133"},
{"lon":"11.2983354","lat":"44.5113449","number":"72","street":"VIA AGUCCHI","unit":"","city":"BOLOGNA","district":"Reno","region":"","postcode":"40133"},
{"lon":"11.2828521","lat":"44.5109761","number":"45","street":"VIA DEL FAGGIOLO","unit":"","city":"BOLOGNA","district":"Borgo Panigale","region":"","postcode":"40132"},
{"lon":"11.3953085","lat":"44.5092593","number":"9","street":"VIA ITALO SVEVO","unit":"","city":"BOLOGNA","district":"San Donato","region":"","postcode":"40127"},
{"lon":"11.3634264","lat":"44.5085449","number":"52","street":"VIALE ALDO MORO","unit":"","city":"BOLOGNA","district":"San Donato","region":"","postcode":"40127"},
{"lon":"11.3587853","lat":"44.5093859","number":"20","street":"VIA ATHOS BELLETTINI","unit":"","city":"BOLOGNA","district":"San Donato","region":"","postcode":"40127"},
{"lon":"11.351806","lat":"44.5102306","number":"47","street":"VIA DONATO CRETI","unit":"","city":"BOLOGNA","district":"Navile","region":"","postcode":"40128"},
{"lon":"11.2956683","lat":"44.5105706","number":"16/2","street":"VIA DEL MILLIARIO","unit":"","city":"BOLOGNA","district":"Reno","region":"","postcode":"40133"},
{"lon":"11.2738591","lat":"44.5102991","number":"2/5","street":"VIALE ALCIDE DE GASPERI","unit":"","city":"CASE SPARSE","district":"Borgo Panigale","region":"","postcode":"40132"},
{"lon":"11.3614251","lat":"44.5073964","number":"11","street":"VIA CADUTI DELLA VIA FANI","unit":"","city":"BOLOGNA","district":"San Donato","region":"","postcode":"40127"},
{"lon":"11.3774891","lat":"44.5093406","number":"22","street":"VIA CARLO GOLDONI","unit":"","city":"BOLOGNA","district":"San Donato","region":"","postcode":"40127"},
{"lon":"11.3476326","lat":"44.5081084","number":"6","street":"VIA JACOPO DELLA QUERCIA","unit":"","city":"BOLOGNA","district":"Navile","region":"","postcode":"40128"},
{"lon":"11.2966618","lat":"44.5104928","number":"32/4","street":"VIA AGUCCHI","unit":"","city":"BOLOGNA","district":"Reno","region":"","postcode":"40133"},
{"lon":"11.2959145","lat":"44.5067","number":"35","street":"VIA SPERANZA","unit":"","city":"BOLOGNA","district":"Reno","region":"","postcode":"40133"},
{"lon":"11.4264247","lat":"44.5045616","number":"130","street":"VIA ENRICO MATTEI","unit":"","city":"BOLOGNA","district":"San Vitale","region":"","postcode":"40138"},
{"lon":"11.4057352","lat":"44.504229","number":"4","street":"VIA DEL FONDITORE","unit":"","city":"BOLOGNA","district":"San Vitale","region":"","postcode":"40138"},
{"lon":"11.4212077","lat":"44.5050526","number":"11","street":"VIA DEL VETRAIO","unit":"","city":"BOLOGNA","district":"San Vitale","region":"","postcode":"40138"},
{"lon":"11.370901","lat":"44.5068514","number":"13","street":"VIA EDOARDO FERRAVILLA","unit":"","city":"BOLOGNA","district":"San Donato","region":"","postcode":"40127"},
{"lon":"11.2978686","lat":"44.5079868","number":"49","street":"VIA DECUMANA","unit":"","city":"BOLOGNA","district":"Reno","region":"","postcode":"40133"},
{"lon":"11.380142","lat":"44.5072624","number":"9","street":"VIA VALPARAISO","unit":"","city":"BOLOGNA","district":"San Donato","region":"","postcode":"40127"},
{"lon":"11.3043134","lat":"44.5067278","number":"1/3","street":"VIA DELLA FERRIERA","unit":"","city":"BOLOGNA","district":"Reno","region":"","postcode":"40133"},
{"lon":"11.2954786","lat":"44.5090143","number":"186","street":"VIA EMILIA PONENTE","unit":"","city":"BOLOGNA","district":"Reno","region":"","postcode":"40133"},
{"lon":"11.2999477","lat":"44.5076232","number":"41/6","street":"VIA DECUMANA","unit":"","city":"BOLOGNA","district":"Reno","region":"","postcode":"40133"},
{"lon":"11.3010345","lat":"44.5069974","number":"26","street":"VIA DECUMANA","unit":"","city":"BOLOGNA","district":"Reno","region":"","postcode":"40133"},
{"lon":"11.3604439","lat":"44.5066673","number":"19","street":"VIA CLETO TOMBA","unit":"","city":"BOLOGNA","district":"San Donato","region":"","postcode":"40127"},
{"lon":"11.3577178","lat":"44.5075767","number":"8","street":"VIA BRUNO LANZARINI","unit":"","city":"BOLOGNA","district":"San Donato","region":"","postcode":"40127"},
{"lon":"11.3322926","lat":"44.506788","number":"2/3","street":"VIA PAOLO BOVI CAMPEGGI","unit":"","city":"BOLOGNA","district":"Porto","region":"","postcode":"40131"},
{"lon":"11.3008667","lat":"44.5075133","number":"29","street":"VIA DECUMANA","unit":"","city":"BOLOGNA","district":"Reno","region":"","postcode":"40133"},
{"lon":"11.307532","lat":"44.5065364","number":"115","street":"VIA EMILIA PONENTE","unit":"","city":"BOLOGNA","district":"Reno","region":"","postcode":"40133"},
{"lon":"11.2970286","lat":"44.5068294","number":"24","street":"VIA SPERANZA","unit":"","city":"BOLOGNA","district":"Reno","region":"","postcode":"40133"},
{"lon":"11.3009846","lat":"44.5066574","number":"1/11","street":"VIA LEMONIA","unit":"","city":"BOLOGNA","district":"Reno","region":"","postcode":"40133"},
{"lon":"11.3428876","lat":"44.5076643","number":"4","street":"VIA MARIO DE MARIA","unit":"","city":"BOLOGNA","district":"Navile","region":"","postcode":"40129"},
{"lon":"11.3008137","lat":"44.5066256","number":"1/12","street":"VIA LEMONIA","unit":"","city":"BOLOGNA","district":"Reno","region":"","postcode":"40133"},
{"lon":"11.3721412","lat":"44.5063798","number":"8","street":"VIA GIOVANNI BERTINI","unit":"","city":"BOLOGNA","district":"San Donato","region":"","postcode":"40127"},
{"lon":"11.4260853","lat":"44.5046749","number":"16","street":"VIA SERAGNOLI","unit":"","city":"BOLOGNA","district":"San Vitale","region":"","postcode":"40138"},
{"lon":"11.2976512","lat":"44.5060032","number":"5/3","street":"VIA LICINIA","unit":"","city":"BOLOGNA","district":"Reno","region":"","postcode":"40133"},
{"lon":"11.3015984","lat":"44.5051307","number":"13","street":"VIA AMEDEO MODIGLIANI","unit":"","city":"BOLOGNA","district":"Reno","region":"","postcode":"40133"},
{"lon":"11.3020169","lat":"44.5058359","number":"28","street":"VIA BATTINDARNO","unit":"","city":"BOLOGNA","district":"Reno","region":"","postcode":"40133"},
{"lon":"11.4163442","lat":"44.5027379","number":"8/2","street":"VIA DEL SELCIATORE","unit":"","city":"BOLOGNA","district":"San Vitale","region":"","postcode":"40138"},
{"lon":"11.3634643","lat":"44.5030247","number":"43/2","street":"VIA S.DONATO","unit":"","city":"BOLOGNA","district":"San Donato","region":"","postcode":"40127"},
{"lon":"11.3323908","lat":"44.5057385","number":"7","street":"VIA PAOLO BOVI CAMPEGGI","unit":"","city":"BOLOGNA","district":"Porto","region":"","postcode":"40131"},
{"lon":"11.3381345","lat":"44.5035324","number":"15","street":"VIA FRATELLI ROSSELLI","unit":"","city":"BOLOGNA","district":"Porto","region":"","postcode":"40121"},
{"lon":"11.2987096","lat":"44.5064472","number":"46","street":"VIA LEMONIA","unit":"","city":"BOLOGNA","district":"Reno","region":"","postcode":"40133"},
{"lon":"11.3675136","lat":"44.5029104","number":"16","street":"VIA DELL'ARTIGIANO","unit":"","city":"BOLOGNA","district":"San Donato","region":"","postcode":"40127"},
{"lon":"11.3318958","lat":"44.5058243","number":"3","street":"VIA PAOLO BOVI CAMPEGGI","unit":"","city":"BOLOGNA","district":"Porto","region":"","postcode":"40131"},
{"lon":"11.3096719","lat":"44.5042235","number":"8","street":"VIA CARAVAGGIO","unit":"","city":"BOLOGNA","district":"Porto","region":"","postcode":"40133"},
{"lon":"11.2800035","lat":"44.5065899","number":"47","street":"VIA ENRICO DE NICOLA","unit":"","city":"BOLOGNA","district":"Borgo Panigale","region":"","postcode":"40132"},
{"lon":"11.3007716","lat":"44.5041794","number":"3","street":"VIA GIOVANNI SEGANTINI","unit":"","city":"BOLOGNA","district":"Reno","region":"","postcode":"40133"},
{"lon":"11.3735651","lat":"44.504363","number":"1","street":"VIA FRANCESCO BARTOLI","unit":"","city":"BOLOGNA","district":"San Donato","region":"","postcode":"40127"},
{"lon":"11.4090847","lat":"44.5019433","number":"7","street":"VIA DELL'IDRAULICO","unit":"","city":"BOLOGNA","district":"San Vitale","region":"","postcode":"40138"},
{"lon":"11.4144695","lat":"44.5038781","number":"3","street":"VIA DEL BATTIRAME","unit":"","city":"BOLOGNA","district":"San Vitale","region":"","postcode":"40138"},
{"lon":"11.3277895","lat":"44.5032816","number":"28","street":"VIA DELLO SCALO","unit":"","city":"BOLOGNA","district":"Porto","region":"","postcode":"40131"},
{"lon":"11.2804066","lat":"44.5059375","number":"19/3","street":"VIALE GAETANO SALVEMINI","unit":"","city":"BOLOGNA","district":"Borgo Panigale","region":"","postcode":"40132"},
{"lon":"11.3024116","lat":"44.5041695","number":"23","street":"VIA CAMONIA","unit":"","city":"BOLOGNA","district":"Reno","region":"","postcode":"40133"},
{"lon":"11.3716308","lat":"44.5040318","number":"5","street":"VIA GHERARDO GHERARDI","unit":"","city":"BOLOGNA","district":"San Donato","region":"","postcode":"40127"},
{"lon":"11.3715481","lat":"44.503336","number":"16","street":"VIA ARGIA MAGAZZARI","unit":"","city":"BOLOGNA","district":"San Donato","region":"","postcode":"40127"},
{"lon":"11.3436983","lat":"44.5043681","number":"5","street":"GALLERIA 2 AGOSTO 1980","unit":"","city":"BOLOGNA","district":"Porto","region":"","postcode":"40121"},
{"lon":"11.3590699","lat":"44.5035831","number":"6","street":"VIA VEZZA","unit":"","city":"BOLOGNA","district":"San Donato","region":"","postcode":"40127"},
{"lon":"11.2996394","lat":"44.5054714","number":"15","street":"VIA POMPONIA","unit":"","city":"BOLOGNA","district":"Reno","region":"","postcode":"40133"},
{"lon":"11.293365","lat":"44.5049044","number":"25","street":"VIA ARMANDO SPADINI","unit":"","city":"BOLOGNA","district":"Reno","region":"","postcode":"40133"},
{"lon":"11.3720648","lat":"44.5023789","number":"18","street":"VIA ADELAIDE RISTORI","unit":"","city":"BOLOGNA","district":"San Donato","region":"","postcode":"40127"},
{"lon":"11.3290919","lat":"44.5040817","number":"28","street":"VIA CAMILLO CASARINI","unit":"","city":"BOLOGNA","district":"Porto","region":"","postcode":"40131"},
{"lon":"11.3020023","lat":"44.5053095","number":"8","street":"VIA AMEDEO MODIGLIANI","unit":"","city":"BOLOGNA","district":"Reno","region":"","postcode":"40133"},
{"lon":"11.2942034","lat":"44.5045492","number":"5","street":"VIA ARMANDO SPADINI","unit":"","city":"BOLOGNA","district":"Reno","region":"","postcode":"40133"},
{"lon":"11.3578576","lat":"44.5037054","number":"5","street":"VIA VEZZA","unit":"","city":"BOLOGNA","district":"San Donato","region":"","postcode":"40127"},
{"lon":"11.3245337","lat":"44.501777","number":"10/2","street":"VIA SAN PIO V","unit":"","city":"BOLOGNA","district":"Porto","region":"","postcode":"40131"},
{"lon":"11.3149189","lat":"44.5014896","number":"11","street":"VIA RAGAZZI DEL '99","unit":"","city":"BOLOGNA","district":"Porto","region":"","postcode":"40133"},
{"lon":"11.3076151","lat":"44.5031172","number":"66/2","street":"VIA BERRETTA ROSSA","unit":"","city":"BOLOGNA","district":"Reno","region":"","postcode":"40133"},
{"lon":"11.3135539","lat":"44.5019573","number":"10","street":"VIA CIMABUE","unit":"","city":"BOLOGNA","district":"Porto","region":"","postcode":"40133"},
{"lon":"11.3423089","lat":"44.5029674","number":"10","street":"VIA MONTEBELLO","unit":"","city":"BOLOGNA","district":"Porto","region":"","postcode":"40121"},
{"lon":"11.3611721","lat":"44.5008265","number":"119","street":"VIA PAOLO FABBRI","unit":"","city":"BOLOGNA","district":"San Vitale","region":"","postcode":"40138"},
{"lon":"11.3650647","lat":"44.5025669","number":"20","street":"VIA ERMANNO GALEOTTI","unit":"","city":"BOLOGNA","district":"San Donato","region":"","postcode":"40127"},
{"lon":"11.3382188","lat":"44.502296","number":"8","street":"VIA DON GIOVANNI MINZONI","unit":"","city":"BOLOGNA","district":"Porto","region":"","postcode":"40121"},
{"lon":"11.3332174","lat":"44.5020157","number":"1","street":"PIAZZA VII NOVEMBRE 1944","unit":"","city":"BOLOGNA","district":"Porto","region":"","postcode":"40122"},
{"lon":"11.3509657","lat":"44.5020164","number":"4","street":"VIA GUIDO ZUCCHINI","unit":"","city":"BOLOGNA","district":"San Vitale","region":"","postcode":"40126"},
{"lon":"11.3615163","lat":"44.5012176","number":"38","street":"VIA VEZZA","unit":"","city":"BOLOGNA","district":"San Donato","region":"","postcode":"40127"},
{"lon":"11.3040026","lat":"44.5027355","number":"41","street":"VIA GIOVANNI SEGANTINI","unit":"","city":"BOLOGNA","district":"Reno","region":"","postcode":"40133"},
{"lon":"11.3316252","lat":"44.5019394","number":"16","street":"VIALE ANTONIO SILVANI","unit":"","city":"BOLOGNA","district":"Porto","region":"","postcode":"40122"},
{"lon":"11.3270373","lat":"44.5023741","number":"17","street":"VIA INNOCENZO MALVASIA","unit":"","city":"BOLOGNA","district":"Porto","region":"","postcode":"40131"},
{"lon":"11.3339984","lat":"44.5013343","number":"109","street":"VIA DELLE LAME","unit":"","city":"BOLOGNA","district":"Porto","region":"","postcode":"40122"},
{"lon":"11.3024016","lat":"44.5030696","number":"40","street":"VIA MELOZZO DA FORLI'","unit":"","city":"BOLOGNA","district":"Reno","region":"","postcode":"40133"},
{"lon":"11.2974008","lat":"44.5037592","number":"12","street":"VIA VITTORIA","unit":"","city":"BOLOGNA","district":"Reno","region":"","postcode":"40133"},
{"lon":"11.3636818","lat":"44.5007048","number":"18","street":"VIA DELLA CONCORDIA","unit":"","city":"BOLOGNA","district":"San Donato","region":"","postcode":"40127"},
{"lon":"11.3647622","lat":"44.5020804","number":"1","street":"PIAZZA ADAM MICKIEWICZ","unit":"","city":"BOLOGNA","district":"San Donato","region":"","postcode":"40127"},
{"lon":"11.3436341","lat":"44.5020003","number":"62","street":"VIA GALLIERA","unit":"","city":"BOLOGNA","district":"Porto","region":"","postcode":"40121"},
{"lon":"11.350303","lat":"44.5021799","number":"134","street":"VIA DEL BORGO DI S.PIETRO","unit":"","city":"BOLOGNA","district":"San Vitale","region":"","postcode":"40126"},
{"lon":"11.3512494","lat":"44.5008264","number":"86","street":"VIA MASCARELLA","unit":"","city":"BOLOGNA","district":"San Vitale","region":"","postcode":"40126"},
{"lon":"11.4037089","lat":"44.5014122","number":"12","street":"VIA DEL FONDITORE","unit":"","city":"BOLOGNA","district":"San Vitale","region":"","postcode":"40138"},
{"lon":"11.310131","lat":"44.5020721","number":"6","street":"VIA ALFREDO BERGAMI","unit":"","city":"BOLOGNA","district":"Porto","region":"","postcode":"40133"},
{"lon":"11.3023036","lat":"44.5028396","number":"42","street":"VIA MELOZZO DA FORLI'","unit":"","city":"BOLOGNA","district":"Reno","region":"","postcode":"40133"},
{"lon":"11.279238","lat":"44.5028775","number":"12","street":"VIA CADUTI DI CASTELDEBOLE","unit":"","city":"BOLOGNA","district":"Borgo Panigale","region":"","postcode":"40132"},
{"lon":"11.2753019","lat":"44.5034383","number":"30","street":"VIA GALEAZZA","unit":"","city":"BOLOGNA","district":"Borgo Panigale","region":"","postcode":"40132"},
{"lon":"11.3008875","lat":"44.5023164","number":"9","street":"VIA BENVENUTO TISI","unit":"","city":"BOLOGNA","district":"Reno","region":"","postcode":"40133"},
{"lon":"11.2989922","lat":"44.5028676","number":"256","street":"VIA BATTINDARNO","unit":"","city":"BOLOGNA","district":"Reno","region":"","postcode":"40133"},
{"lon":"11.3716443","lat":"44.5006399","number":"1","street":"VIA LUIGI NEGRELLI","unit":"","city":"BOLOGNA","district":"San Donato","region":"","postcode":"40127"},
{"lon":"11.3074095","lat":"44.5015098","number":"3","street":"VIA ALDO CIVIDALI","unit":"","city":"BOLOGNA","district":"Porto","region":"","postcode":"40133"},
{"lon":"11.2969998","lat":"44.5003791","number":"3","street":"VIA PIERO DELLA FRANCESCA","unit":"","city":"BOLOGNA","district":"Reno","region":"","postcode":"40133"},
{"lon":"11.3471742","lat":"44.5006675","number":"6","street":"VIA IRNERIO","unit":"","city":"BOLOGNA","district":"San Vitale","region":"","postcode":"40126"},
{"lon":"11.362984","lat":"44.4995229","number":"97","street":"VIA PAOLO FABBRI","unit":"","city":"BOLOGNA","district":"San Vitale","region":"","postcode":"40138"},
{"lon":"11.325795","lat":"44.499629","number":"6","street":"VIA AURELIO SAFFI","unit":"","city":"BOLOGNA","district":"Porto","region":"","postcode":"40131"},
{"lon":"11.333292","lat":"44.5009604","number":"4","street":"VIA ALESSANDRO CERVELLATI","unit":"","city":"BOLOGNA","district":"Porto","region":"","postcode":"40122"},
{"lon":"11.3502703","lat":"44.4993284","number":"37","street":"VIA MASCARELLA","unit":"","city":"BOLOGNA","district":"San Vitale","region":"","postcode":"40126"},
{"lon":"11.3468575","lat":"44.4999294","number":"10","street":"VIA ALESSANDRINI","unit":"","city":"BOLOGNA","district":"San Vitale","region":"","postcode":"40126"},
{"lon":"11.3079973","lat":"44.500557","number":"10","street":"VIA ALDO CIVIDALI","unit":"","city":"BOLOGNA","district":"Porto","region":"","postcode":"40133"},
{"lon":"11.3432148","lat":"44.5002128","number":"5","street":"VIA S.GIUSEPPE","unit":"","city":"BOLOGNA","district":"Porto","region":"","postcode":"40121"},
{"lon":"11.3444175","lat":"44.4997543","number":"51","street":"VIA DELL'INDIPENDENZA","unit":"","city":"BOLOGNA","district":"San Vitale","region":"","postcode":"40121"},
{"lon":"11.3150376","lat":"44.5007377","number":"33","street":"VIA PIAVE","unit":"","city":"BOLOGNA","district":"Porto","region":"","postcode":"40133"},
{"lon":"11.3447672","lat":"44.4997938","number":"31","street":"PIAZZA DELL'OTTO AGOSTO","unit":"","city":"BOLOGNA","district":"San Vitale","region":"","postcode":"40126"},
{"lon":"11.3706393","lat":"44.4985016","number":"22","street":"VIA DELLA TORRETTA","unit":"","city":"BOLOGNA","district":"San Donato","region":"","postcode":"40127"},
{"lon":"11.3215691","lat":"44.5009053","number":"2","street":"VIA VITTORIO VENETO","unit":"","city":"BOLOGNA","district":"Porto","region":"","postcode":"40131"},
{"lon":"11.3430399","lat":"44.4991031","number":"3","street":"VIA DE' FALEGNAMI","unit":"","city":"BOLOGNA","district":"Porto","region":"","postcode":"40121"},
{"lon":"11.3402513","lat":"44.5001714","number":"4","street":"VIA FONTANINA","unit":"","city":"BOLOGNA","district":"Porto","region":"","postcode":"40121"},
{"lon":"11.3279431","lat":"44.4995713","number":"1","street":"VIALE ANTONIO SILVANI","unit":"","city":"BOLOGNA","district":"Porto","region":"","postcode":"40122"},
{"lon":"11.3713709","lat":"44.4995707","number":"45","street":"VIA MONDO","unit":"","city":"BOLOGNA","district":"San Donato","region":"","postcode":"40127"},
{"lon":"11.3004772","lat":"44.5004807","number":"2","street":"VIA GARZIA FIORESI","unit":"","city":"BOLOGNA","district":"Reno","region":"","postcode":"40133"},
{"lon":"11.3488071","lat":"44.4999079","number":"50","street":"VIA DEL BORGO DI S.PIETRO","unit":"","city":"BOLOGNA","district":"San Vitale","region":"","postcode":"40126"},
{"lon":"11.2791771","lat":"44.5006689","number":"34/6","street":"VIA CADUTI DI CASTELDEBOLE","unit":"","city":"BOLOGNA","district":"Borgo Panigale","region":"","postcode":"40132"},
{"lon":"11.3466882","lat":"44.4996004","number":"8","street":"VIA ALESSANDRINI","unit":"","city":"BOLOGNA","district":"San Vitale","region":"","postcode":"40126"},
{"lon":"11.3493054","lat":"44.5003386","number":"59","street":"VIA DEL BORGO DI S.PIETRO","unit":"","city":"BOLOGNA","district":"San Vitale","region":"","postcode":"40126"},
{"lon":"11.2949109","lat":"44.5001797","number":"23","street":"VIA NINO BERTOCCHI","unit":"","city":"BOLOGNA","district":"Reno","region":"","postcode":"40133"},
{"lon":"11.3400015","lat":"44.5005244","number":"26","street":"VIA POLESE","unit":"","city":"BOLOGNA","district":"Porto","region":"","postcode":"40122"},
{"lon":"11.3459285","lat":"44.4990859","number":"3","street":"VIA AGAMENNONE ZAPPOLI","unit":"","city":"BOLOGNA","district":"San Vitale","region":"","postcode":"40126"},
{"lon":"11.3264555","lat":"44.5008156","number":"10","street":"VIA DELLA GHISILIERA","unit":"","city":"BOLOGNA","district":"Porto","region":"","postcode":"40131"},
{"lon":"11.3399822","lat":"44.4984755","number":"8","street":"VIA S.MARIA MAGGIORE","unit":"","city":"BOLOGNA","district":"Porto","region":"","postcode":"40121"},
{"lon":"11.3624638","lat":"44.4983286","number":"77","street":"VIA PAOLO FABBRI","unit":"","city":"BOLOGNA","district":"San Vitale","region":"","postcode":"40138"},
{"lon":"11.3291673","lat":"44.4978966","number":"17/3","street":"VIA DELLA GRADA","unit":"","city":"BOLOGNA","district":"Saragozza","region":"","postcode":"40122"},
{"lon":"11.3361823","lat":"44.4987773","number":"68","street":"VIA RIVA DI RENO","unit":"","city":"BOLOGNA","district":"Porto","region":"","postcode":"40122"},
{"lon":"11.3461573","lat":"44.4987933","number":"32","street":"VIA AUGUSTO RIGHI","unit":"","city":"BOLOGNA","district":"San Vitale","region":"","postcode":"40126"},
{"lon":"11.3490635","lat":"44.4979895","number":"2/2","street":"VIA MASCARELLA","unit":"","city":"BOLOGNA","district":"San Vitale","region":"","postcode":"40126"},
{"lon":"11.3373393","lat":"44.4986377","number":"55","street":"VIA RIVA DI RENO","unit":"","city":"BOLOGNA","district":"Porto","region":"","postcode":"40122"},
{"lon":"11.3447083","lat":"44.4982282","number":"7","street":"VICOLO CATTANI","unit":"","city":"BOLOGNA","district":"San Vitale","region":"","postcode":"40126"},
{"lon":"11.333929","lat":"44.4986615","number":"56","street":"VIA RIVA DI RENO","unit":"","city":"BOLOGNA","district":"Porto","region":"","postcode":"40122"},
{"lon":"11.3493005","lat":"44.4981858","number":"5","street":"VIA MASCARELLA","unit":"","city":"BOLOGNA","district":"San Vitale","region":"","postcode":"40126"},
{"lon":"11.28932","lat":"44.499507","number":"22","street":"VIA ARGENTINA ALTOBELLI","unit":"","city":"BOLOGNA","district":"Reno","region":"","postcode":"40133"},
{"lon":"11.3620502","lat":"44.4985388","number":"94","street":"VIA PAOLO FABBRI","unit":"","city":"BOLOGNA","district":"San Vitale","region":"","postcode":"40138"},
{"lon":"11.2872158","lat":"44.4993889","number":"12","street":"VIA GIOVANNI CHIARINI","unit":"","city":"BOLOGNA","district":"Reno","region":"","postcode":"40133"},
{"lon":"11.3210664","lat":"44.499021","number":"4/2","street":"VIA GORIZIA","unit":"","city":"BOLOGNA","district":"Porto","region":"","postcode":"40131"},
{"lon":"11.3450668","lat":"44.4988109","number":"11","street":"VIA AUGUSTO RIGHI","unit":"","city":"BOLOGNA","district":"San Vitale","region":"","postcode":"40126"},
{"lon":"11.295507","lat":"44.4987625","number":"346/3","street":"VIA BATTINDARNO","unit":"","city":"BOLOGNA","district":"Reno","region":"","postcode":"40133"},
{"lon":"11.3415127","lat":"44.4979343","number":"4","street":"VIA DE' PRETI","unit":"","city":"BOLOGNA","district":"Porto","region":"","postcode":"40121"},
{"lon":"11.3614649","lat":"44.4984358","number":"74","street":"VIA ORESTE REGNOLI","unit":"","city":"BOLOGNA","district":"San Vitale","region":"","postcode":"40138"},
{"lon":"11.3077141","lat":"44.4985632","number":"20","street":"LARGO VITTIME LAGER NAZISTI","unit":"","city":"BOLOGNA","district":"Reno","region":"","postcode":"40134"},
{"lon":"11.3727083","lat":"44.4971429","number":"4","street":"VIA NUOVA","unit":"","city":"BOLOGNA","district":"San Donato","region":"","postcode":"40127"},
{"lon":"11.3390752","lat":"44.4985755","number":"10","street":"VIA GIOVAN BATTISTA MORGAGNI","unit":"","city":"BOLOGNA","district":"Porto","region":"","postcode":"40122"},
{"lon":"11.354402","lat":"44.4969428","number":"8","street":"VIA S.GIACOMO","unit":"","city":"BOLOGNA","district":"San Vitale","region":"","postcode":"40126"},
{"lon":"11.3641439","lat":"44.4982709","number":"115","street":"VIA GIUSEPPE BENTIVOGLI","unit":"","city":"BOLOGNA","district":"San Vitale","region":"","postcode":"40138"},
{"lon":"11.3620234","lat":"44.4973501","number":"10","street":"VIA MASSENZIO MASIA","unit":"","city":"BOLOGNA","district":"San Vitale","region":"","postcode":"40138"},
{"lon":"11.3919149","lat":"44.4978642","number":"44","street":"GALLERIA VIALARGA","unit":"","city":"BOLOGNA","district":"San Vitale","region":"","postcode":"40138"},
{"lon":"11.3466347","lat":"44.4985705","number":"15","street":"VIA DELLE MOLINE","unit":"","city":"BOLOGNA","district":"San Vitale","region":"","postcode":"40126"},
{"lon":"11.2960576","lat":"44.4985744","number":"17","street":"VIA TINTORETTO","unit":"","city":"BOLOGNA","district":"Reno","region":"","postcode":"40133"},
{"lon":"11.3401705","lat":"44.4961121","number":"2","street":"VIA DEGLI USBERTI","unit":"","city":"BOLOGNA","district":"Porto","region":"","postcode":"40121"},
{"lon":"11.3243388","lat":"44.4968521","number":"8","street":"VIA SABOTINO","unit":"","city":"BOLOGNA","district":"Saragozza","region":"","postcode":"40131"},
{"lon":"11.3084712","lat":"44.4983417","number":"63","street":"VIA DELLA CERTOSA","unit":"","city":"BOLOGNA","district":"Reno","region":"","postcode":"40134"},
{"lon":"11.3215287","lat":"44.4969539","number":"5","street":"VIA OLINDO GUERRINI","unit":"","city":"BOLOGNA","district":"Saragozza","region":"","postcode":"40134"},
{"lon":"11.4072863","lat":"44.4962153","number":"54","street":"VIA ENRICO MATTEI","unit":"","city":"BOLOGNA","district":"San Vitale","region":"","postcode":"40138"},
{"lon":"11.33693","lat":"44.4968569","number":"15","street":"VIA DELLE LAME","unit":"","city":"BOLOGNA","district":"Porto","region":"","postcode":"40122"},
{"lon":"11.3483415","lat":"44.4970666","number":"7/2","street":"VICOLO DE' FACCHINI","unit":"","city":"BOLOGNA","district":"San Vitale","region":"","postcode":"40126"},
{"lon":"11.3087998","lat":"44.4983198","number":"6","street":"LARGO VITTIME LAGER NAZISTI","unit":"","city":"BOLOGNA","district":"Reno","region":"","postcode":"40134"},
{"lon":"11.2846817","lat":"44.4953173","number":"24","street":"VIA LEONARDO DA VINCI","unit":"","city":"BOLOGNA","district":"Reno","region":"","postcode":"40133"},
{"lon":"11.3157988","lat":"44.4973833","number":"26","street":"VIA TOLMINO","unit":"","city":"BOLOGNA","district":"Saragozza","region":"","postcode":"40134"},
{"lon":"11.3270046","lat":"44.4963648","number":"1","street":"VIA PASQUALE MURATORI","unit":"","city":"BOLOGNA","district":"Saragozza","region":"","postcode":"40134"},
{"lon":"11.3559526","lat":"44.4972314","number":"5/2","street":"MURA ANTEO ZAMBONI","unit":"","city":"BOLOGNA","district":"San Vitale","region":"","postcode":"40126"},
{"lon":"11.348693","lat":"44.4963683","number":"30","street":"VIA MARSALA","unit":"","city":"BOLOGNA","district":"San Vitale","region":"","postcode":"40126"},
{"lon":"11.3750957","lat":"44.4956653","number":"10","street":"VIA SCANDELLARA","unit":"","city":"BOLOGNA","district":"San Vitale","region":"","postcode":"40138"},
{"lon":"11.2957606","lat":"44.4982852","number":"2","street":"VIA PAOLO VERONESE","unit":"","city":"BOLOGNA","district":"Reno","region":"","postcode":"40133"},
{"lon":"11.3377091","lat":"44.4963759","number":"10","street":"VIA BELVEDERE","unit":"","city":"BOLOGNA","district":"Porto","region":"","postcode":"40121"},
{"lon":"11.2928744","lat":"44.4982654","number":"1","street":"VIA AUGUSTO PULEGA","unit":"","city":"BOLOGNA","district":"Reno","region":"","postcode":"40133"},
{"lon":"11.343096","lat":"44.4962026","number":"11","street":"VIA DELL'INDIPENDENZA","unit":"","city":"BOLOGNA","district":"San Vitale","region":"","postcode":"40121"},
{"lon":"11.2928228","lat":"44.4973148","number":"9","street":"VIA AUGUSTO PULEGA","unit":"","city":"BOLOGNA","district":"Reno","region":"","postcode":"40133"},
{"lon":"11.3210025","lat":"44.4973994","number":"27","street":"VIA MONTELLO","unit":"","city":"BOLOGNA","district":"Porto","region":"","postcode":"40131"},
{"lon":"11.3188232","lat":"44.496754","number":"27","street":"VIA DELLA CROCETTA","unit":"","city":"BOLOGNA","district":"Saragozza","region":"","postcode":"40134"},
{"lon":"11.3328319","lat":"44.4971862","number":"42","street":"VIA S.FELICE","unit":"","city":"BOLOGNA","district":"Saragozza","region":"","postcode":"40122"},
{"lon":"11.3213447","lat":"44.4970711","number":"22","street":"VIA SABOTINO","unit":"","city":"BOLOGNA","district":"Saragozza","region":"","postcode":"40131"},
{"lon":"11.2743825","lat":"44.4982634","number":"104","street":"VIA CADUTI DI CASTELDEBOLE","unit":"","city":"BOLOGNA","district":"Borgo Panigale","region":"","postcode":"40132"},
{"lon":"11.3754195","lat":"44.4958515","number":"18","street":"VIA SCANDELLARA","unit":"","city":"BOLOGNA","district":"San Vitale","region":"","postcode":"40138"},
{"lon":"11.2871978","lat":"44.4972374","number":"2","street":"VIA CARLO COLLODI","unit":"","city":"BOLOGNA","district":"Reno","region":"","postcode":"40133"},
{"lon":"11.3873112","lat":"44.4959927","number":"22","street":"VIA BENVENUTO CELLINI","unit":"","city":"BOLOGNA","district":"San Vitale","region":"","postcode":"40138"},
{"lon":"11.3215266","lat":"44.4953226","number":"70","street":"VIA ANDREA COSTA","unit":"","city":"BOLOGNA","district":"Saragozza","region":"","postcode":"40134"},
{"lon":"11.3309999","lat":"44.4950986","number":"56","street":"VIA PIETRALATA","unit":"","city":"BOLOGNA","district":"Saragozza","region":"","postcode":"40122"},
{"lon":"11.331299","lat":"44.4963267","number":"51","street":"VIA PIETRALATA","unit":"","city":"BOLOGNA","district":"Saragozza","region":"","postcode":"40122"},
{"lon":"11.3308802","lat":"44.495458","number":"70","street":"VIA DEL PRATELLO","unit":"","city":"BOLOGNA","district":"Saragozza","region":"","postcode":"40122"},
{"lon":"11.3421449","lat":"44.4964692","number":"4","street":"VIA MANZONI","unit":"","city":"BOLOGNA","district":"Porto","region":"","postcode":"40121"},
{"lon":"11.3630082","lat":"44.4948974","number":"39","street":"VIA PAOLO FABBRI","unit":"","city":"BOLOGNA","district":"San Vitale","region":"","postcode":"40138"},
{"lon":"11.2837588","lat":"44.4973001","number":"22","street":"VIA CORIOLANO VIGHI","unit":"","city":"BOLOGNA","district":"Reno","region":"","postcode":"40133"},
{"lon":"11.3306366","lat":"44.4956991","number":"69/2","street":"VIA PIETRALATA","unit":"","city":"BOLOGNA","district":"Saragozza","region":"","postcode":"40122"},
{"lon":"11.3770251","lat":"44.4943983","number":"35","street":"VIA NICOLO' PISANO","unit":"","city":"BOLOGNA","district":"San Vitale","region":"","postcode":"40138"},
{"lon":"11.3649969","lat":"44.4955175","number":"8","street":"VIA GIUSEPPE CENERI","unit":"","city":"BOLOGNA","district":"San Vitale","region":"","postcode":"40138"},
{"lon":"11.3344529","lat":"44.4950768","number":"6","street":"PIAZZA S.FRANCESCO","unit":"","city":"BOLOGNA","district":"Saragozza","region":"","postcode":"40122"},
{"lon":"11.3353668","lat":"44.4956452","number":"13","street":"VIA DEL PRATELLO","unit":"","city":"BOLOGNA","district":"Saragozza","region":"","postcode":"40122"},
{"lon":"11.3388418","lat":"44.4953844","number":"10/2","street":"VIA UGO BASSI","unit":"","city":"BOLOGNA","district":"Saragozza","region":"","postcode":"40121"},
{"lon":"11.3259448","lat":"44.4953899","number":"4","street":"VIA GIUSEPPE PACCHIONI","unit":"","city":"BOLOGNA","district":"Saragozza","region":"","postcode":"40134"},
{"lon":"11.3128944","lat":"44.4965441","number":"13","street":"VIA SACCO E VANZETTI","unit":"","city":"BOLOGNA","district":"Saragozza","region":"","postcode":"40134"},
{"lon":"11.3387318","lat":"44.4948553","number":"5","street":"VIA CESARE BATTISTI","unit":"","city":"BOLOGNA","district":"Saragozza","region":"","postcode":"40123"},
{"lon":"11.3152782","lat":"44.4964925","number":"12","street":"VIA MONTEFIORINO","unit":"","city":"BOLOGNA","district":"Saragozza","region":"","postcode":"40134"},
{"lon":"11.3413185","lat":"44.4950381","number":"2","street":"VIA UGO BASSI","unit":"","city":"BOLOGNA","district":"Saragozza","region":"","postcode":"40121"},
{"lon":"11.3285676","lat":"44.4957991","number":"7","street":"VIA MONALDO CALARI","unit":"","city":"BOLOGNA","district":"Saragozza","region":"","postcode":"40122"},
{"lon":"11.3803997","lat":"44.4944856","number":"7","street":"VIA CHIUSA","unit":"","city":"BOLOGNA","district":"San Vitale","region":"","postcode":"40138"},
{"lon":"11.3535808","lat":"44.4953016","number":"10","street":"VIA DELL'UNIONE","unit":"","city":"BOLOGNA","district":"San Vitale","region":"","postcode":"40126"},
{"lon":"11.3525383","lat":"44.4950975","number":"7","street":"VIA FRANCESCO ACRI","unit":"","city":"BOLOGNA","district":"San Vitale","region":"","postcode":"40126"},
{"lon":"11.3544792","lat":"44.4953597","number":"25","street":"VIA S.APOLLONIA","unit":"","city":"BOLOGNA","district":"San Vitale","region":"","postcode":"40126"},
{"lon":"11.3578988","lat":"44.4955505","number":"16","street":"VIALE QUIRICO FILOPANTI","unit":"","city":"BOLOGNA","district":"San Vitale","region":"","postcode":"40126"},
{"lon":"11.3668889","lat":"44.494123","number":"3","street":"VIA SCIPIONE DAL FERRO","unit":"","city":"BOLOGNA","district":"San Vitale","region":"","postcode":"40138"},
{"lon":"11.3624894","lat":"44.495414","number":"38","street":"VIA PAOLO FABBRI","unit":"","city":"BOLOGNA","district":"San Vitale","region":"","postcode":"40138"},
{"lon":"11.3376556","lat":"44.4949051","number":"6","street":"VIA ALFREDO TESTONI","unit":"","city":"BOLOGNA","district":"Saragozza","region":"","postcode":"40123"},
{"lon":"11.3172673","lat":"44.4947542","number":"124/4","street":"VIA ANDREA COSTA","unit":"","city":"BOLOGNA","district":"Saragozza","region":"","postcode":"40134"},
{"lon":"11.3994688","lat":"44.4934924","number":"15/4","street":"VIA TOMMASO MARTELLI","unit":"","city":"BOLOGNA","district":"San Vitale","region":"","postcode":"40138"},
{"lon":"11.3568728","lat":"44.4934534","number":"1","street":"VIALE GIAN BATTISTA ERCOLANI","unit":"","city":"BOLOGNA","district":"San Vitale","region":"","postcode":"40138"},
{"lon":"11.3801654","lat":"44.4941084","number":"3","street":"VIA CHIUSA","unit":"","city":"BOLOGNA","district":"San Vitale","region":"","postcode":"40138"},
{"lon":"11.3821271","lat":"44.493215","number":"171","street":"VIA GIUSEPPE MASSARENTI","unit":"","city":"BOLOGNA","district":"San Vitale","region":"","postcode":"40138"},
{"lon":"11.3531026","lat":"44.4942101","number":"74","street":"VIA S.VITALE","unit":"","city":"BOLOGNA","district":"San Vitale","region":"","postcode":"40125"},
{"lon":"11.3169865","lat":"44.4946411","number":"6/2","street":"VIA DOMENICO BIANCHINI","unit":"","city":"BOLOGNA","district":"Saragozza","region":"","postcode":"40134"},
{"lon":"11.3282438","lat":"44.4938804","number":"78","street":"VIALE CARLO PEPOLI","unit":"","city":"BOLOGNA","district":"Saragozza","region":"","postcode":"40123"},
{"lon":"11.3140047","lat":"44.4953753","number":"4","street":"VIA ORESTE VANCINI","unit":"","city":"BOLOGNA","district":"Saragozza","region":"","postcode":"40134"},
{"lon":"11.3699091","lat":"44.4931715","number":"196","street":"VIA GIUSEPPE MASSARENTI","unit":"","city":"BOLOGNA","district":"San Vitale","region":"","postcode":"40138"},
{"lon":"11.344677","lat":"44.4942896","number":"2","street":"VIA DEGLI ARTIERI","unit":"","city":"BOLOGNA","district":"Santo Stefano","region":"","postcode":"40125"},
{"lon":"11.3718097","lat":"44.4934437","number":"216","street":"VIA GIUSEPPE MASSARENTI","unit":"","city":"BOLOGNA","district":"San Vitale","region":"","postcode":"40138"},
{"lon":"11.3207325","lat":"44.4942453","number":"18","street":"VIA EDOARDO BRIZIO","unit":"","city":"BOLOGNA","district":"Saragozza","region":"","postcode":"40134"},
{"lon":"11.3766623","lat":"44.4940557","number":"24/2","street":"VIA NICOLO' PISANO","unit":"","city":"BOLOGNA","district":"San Vitale","region":"","postcode":"40138"},
{"lon":"11.3144269","lat":"44.4943437","number":"1","street":"VIA MARIO BASTIA","unit":"","city":"BOLOGNA","district":"Saragozza","region":"","postcode":"40134"},
{"lon":"11.3235772","lat":"44.4946119","number":"9","street":"VIA FILIPPO TURATI","unit":"","city":"BOLOGNA","district":"Saragozza","region":"","postcode":"40134"},
{"lon":"11.3520626","lat":"44.4938785","number":"19","street":"PIAZZA ALDROVANDI","unit":"","city":"BOLOGNA","district":"San Vitale","region":"","postcode":"40125"},
{"lon":"11.3231422","lat":"44.4940398","number":"33","street":"VIA FILIPPO TURATI","unit":"","city":"BOLOGNA","district":"Saragozza","region":"","postcode":"40134"},
{"lon":"11.3966433","lat":"44.4923553","number":"15/6","street":"VIA ENRICO MATTEI","unit":"","city":"BOLOGNA","district":"San Vitale","region":"","postcode":"40138"},
{"lon":"11.3440083","lat":"44.4936981","number":"1","street":"VIA PESCHERIE VECCHIE","unit":"","city":"BOLOGNA","district":"Santo Stefano","region":"","postcode":"40124"},
{"lon":"11.2876244","lat":"44.4957675","number":"2","street":"VIA RINALDO RIGOLA","unit":"","city":"BOLOGNA","district":"Reno","region":"","postcode":"40133"},
{"lon":"11.3650826","lat":"44.4929648","number":"5/2","street":"VIA GIUSEPPE BENTIVOGLI","unit":"","city":"BOLOGNA","district":"San Vitale","region":"","postcode":"40138"},
{"lon":"11.3635076","lat":"44.4937407","number":"11","street":"VIA PAOLO FABBRI","unit":"","city":"BOLOGNA","district":"San Vitale","region":"","postcode":"40138"},
{"lon":"11.3391882","lat":"44.492878","number":"5","street":"VIA VOLTO SANTO","unit":"","city":"BOLOGNA","district":"Saragozza","region":"","postcode":"40123"},
{"lon":"11.3431062","lat":"44.4940306","number":"1","street":"PIAZZA MAGGIORE","unit":"","city":"BOLOGNA","district":"Santo Stefano","region":"","postcode":"40124"},
{"lon":"11.368115","lat":"44.4931125","number":"164","street":"VIA GIUSEPPE MASSARENTI","unit":"","city":"BOLOGNA","district":"San Vitale","region":"","postcode":"40138"},
{"lon":"11.3765937","lat":"44.4938466","number":"18","street":"VIA NICOLO' PISANO","unit":"","city":"BOLOGNA","district":"San Vitale","region":"","postcode":"40138"},
{"lon":"11.3871113","lat":"44.4930668","number":"219/2","street":"VIA GIUSEPPE MASSARENTI","unit":"","city":"BOLOGNA","district":"San Vitale","region":"","postcode":"40138"},
{"lon":"11.353596","lat":"44.494035","number":"57","street":"VIA S.VITALE","unit":"","city":"BOLOGNA","district":"San Vitale","region":"","postcode":"40125"},
{"lon":"11.3653378","lat":"44.4922193","number":"19","street":"VIA GIUSEPPE MASSARENTI","unit":"","city":"BOLOGNA","district":"San Vitale","region":"","postcode":"40138"},
{"lon":"11.3317813","lat":"44.4928367","number":"35","street":"VIA FRASSINAGO","unit":"","city":"BOLOGNA","district":"Saragozza","region":"","postcode":"40123"},
{"lon":"11.32574","lat":"44.4936103","number":"18","street":"VIA ALESSANDRO GUIDOTTI","unit":"","city":"BOLOGNA","district":"Saragozza","region":"","postcode":"40134"},
{"lon":"11.3449632","lat":"44.492753","number":"6","street":"VIA MARCHESANA","unit":"","city":"BOLOGNA","district":"Santo Stefano","region":"","postcode":"40124"},
{"lon":"11.3437642","lat":"44.4926207","number":"1","street":"VIA DE' FOSCHERARI","unit":"","city":"BOLOGNA","district":"Santo Stefano","region":"","postcode":"40124"},
{"lon":"11.33373","lat":"44.4937588","number":"5","street":"VIA S.ISAIA","unit":"","city":"BOLOGNA","district":"Saragozza","region":"","postcode":"40123"},
{"lon":"11.3688134","lat":"44.4919676","number":"18","street":"VIA ANGELO VENTUROLI","unit":"","city":"BOLOGNA","district":"San Vitale","region":"","postcode":"40138"},
{"lon":"11.2865377","lat":"44.4942244","number":"27","street":"VIA RINALDO RIGOLA","unit":"","city":"BOLOGNA","district":"Reno","region":"","postcode":"40133"},
{"lon":"11.3549813","lat":"44.4925904","number":"30","street":"VIA BROCCAINDOSSO","unit":"","city":"BOLOGNA","district":"San Vitale","region":"","postcode":"40125"},
{"lon":"11.3326208","lat":"44.4933898","number":"7","street":"VIA FRASSINAGO","unit":"","city":"BOLOGNA","district":"Saragozza","region":"","postcode":"40123"},
{"lon":"11.3176829","lat":"44.4939749","number":"25","street":"VIA CARLO ZUCCHI","unit":"","city":"BOLOGNA","district":"Saragozza","region":"","postcode":"40134"},
{"lon":"11.3246548","lat":"44.4928679","number":"30","street":"VIA FRANCESCO RONCATI","unit":"","city":"BOLOGNA","district":"Saragozza","region":"","postcode":"40134"},
{"lon":"11.3849815","lat":"44.4923535","number":"2/7","street":"VIA DELLO STALLO","unit":"","city":"BOLOGNA","district":"San Vitale","region":"","postcode":"40138"},
{"lon":"11.37472","lat":"44.492213","number":"8/2","street":"VIA DELLA RAMPA","unit":"","city":"BOLOGNA","district":"San Vitale","region":"","postcode":"40138"},
{"lon":"11.2901152","lat":"44.4936027","number":"20","street":"VIA ALCESTE DE AMBRIS","unit":"","city":"BOLOGNA","district":"Reno","region":"","postcode":"40133"},
{"lon":"11.374224","lat":"44.4927828","number":"4","street":"VIA AZZURRA","unit":"","city":"BOLOGNA","district":"San Vitale","region":"","postcode":"40138"},
{"lon":"11.364839","lat":"44.4919264","number":"23","street":"VIA PIETRO ALBERTONI","unit":"","city":"BOLOGNA","district":"San Vitale","region":"","postcode":"40138"},
{"lon":"11.3682746","lat":"44.4923804","number":"45","street":"VIA GIUSEPPE MASSARENTI","unit":"","city":"BOLOGNA","district":"San Vitale","region":"","postcode":"40138"},
{"lon":"11.3731976","lat":"44.4927817","number":"6","street":"VIA CROCIALI","unit":"","city":"BOLOGNA","district":"San Vitale","region":"","postcode":"40138"},
{"lon":"11.3193758","lat":"44.4929211","number":"32","street":"VIA ANTONIO ZANNONI","unit":"","city":"BOLOGNA","district":"Saragozza","region":"","postcode":"40134"},
{"lon":"11.3236424","lat":"44.4936076","number":"5/2","street":"VIA GIROLAMO GIACOBBI","unit":"","city":"BOLOGNA","district":"Saragozza","region":"","postcode":"40134"},
{"lon":"11.306942","lat":"44.4931577","number":"196","street":"VIA ANDREA COSTA","unit":"","city":"BOLOGNA","district":"Saragozza","region":"","postcode":"40134"},
{"lon":"11.3269375","lat":"44.4931055","number":"18/2","street":"VIA RODOLFO AUDINOT","unit":"","city":"BOLOGNA","district":"Saragozza","region":"","postcode":"40134"},
{"lon":"11.3965251","lat":"44.4910973","number":"23/14","street":"VIA TOMMASO MARTELLI","unit":"","city":"BOLOGNA","district":"San Vitale","region":"","postcode":"40138"},
{"lon":"11.3420038","lat":"44.4923637","number":"22","street":"VIA D'AZEGLIO","unit":"","city":"BOLOGNA","district":"Santo Stefano","region":"","postcode":"40123"},
{"lon":"11.3725857","lat":"44.4909472","number":"15/3","street":"VIA CROCIALI","unit":"","city":"BOLOGNA","district":"San Vitale","region":"","postcode":"40138"},
{"lon":"11.3667685","lat":"44.4917037","number":"12","street":"VIA POMPEO VIZZANI","unit":"","city":"BOLOGNA","district":"San Vitale","region":"","postcode":"40138"},
{"lon":"11.3319949","lat":"44.4923499","number":"43/3","street":"VIA FRASSINAGO","unit":"","city":"BOLOGNA","district":"Saragozza","region":"","postcode":"40123"},
{"lon":"11.4007338","lat":"44.4900322","number":"13","street":"VIA MARTIRI CROCE DEL BIACCO","unit":"","city":"BOLOGNA","district":"San Vitale","region":"","postcode":"40138"},
{"lon":"11.3047228","lat":"44.4926567","number":"214/3","street":"VIA ANDREA COSTA","unit":"","city":"BOLOGNA","district":"Saragozza","region":"","postcode":"40134"},
{"lon":"11.3746423","lat":"44.4908331","number":"6","street":"VIA SMERALDO","unit":"","city":"BOLOGNA","district":"San Vitale","region":"","postcode":"40138"},
{"lon":"11.3077383","lat":"44.4926116","number":"13","street":"VIA DELLO SPORT","unit":"","city":"BOLOGNA","district":"Saragozza","region":"","postcode":"40134"},
{"lon":"11.3550994","lat":"44.4919132","number":"12","street":"VICOLO BORCHETTA","unit":"","city":"BOLOGNA","district":"San Vitale","region":"","postcode":"40125"},
{"lon":"11.3061263","lat":"44.4919654","number":"10","street":"VIA BRIGATE PARTIGIANE","unit":"","city":"BOLOGNA","district":"Saragozza","region":"","postcode":"40134"},
{"lon":"11.3544665","lat":"44.4918407","number":"6","street":"VIA BROCCAINDOSSO","unit":"","city":"BOLOGNA","district":"San Vitale","region":"","postcode":"40125"},
{"lon":"11.3307429","lat":"44.4915862","number":"3","street":"MURA DI PORTA SARAGOZZA","unit":"","city":"BOLOGNA","district":"Saragozza","region":"","postcode":"40123"},
{"lon":"11.3151042","lat":"44.4922467","number":"8","street":"VIA DEL PARTIGIANO","unit":"","city":"BOLOGNA","district":"Saragozza","region":"","postcode":"40134"},
{"lon":"11.3692209","lat":"44.4912284","number":"17","street":"VIA BARTOLOMEO TRIACHINI","unit":"","city":"BOLOGNA","district":"San Vitale","region":"","postcode":"40138"},
{"lon":"11.3358124","lat":"44.4912507","number":"20","street":"VIA SENZANOME","unit":"","city":"BOLOGNA","district":"Saragozza","region":"","postcode":"40123"},
{"lon":"11.3735721","lat":"44.491002","number":"19","street":"VIA AZZURRA","unit":"","city":"BOLOGNA","district":"San Vitale","region":"","postcode":"40138"},
{"lon":"11.281851","lat":"44.4930255","number":"10","street":"VIA ALBERTO EINSTEIN","unit":"","city":"BOLOGNA","district":"Reno","region":"","postcode":"40133"},
{"lon":"11.3447157","lat":"44.4909098","number":"3","street":"PIAZZA CALDERINI","unit":"","city":"BOLOGNA","district":"Santo Stefano","region":"","postcode":"40124"},
{"lon":"11.34147","lat":"44.4908753","number":"27","street":"VIA D'AZEGLIO","unit":"","city":"BOLOGNA","district":"Saragozza","region":"","postcode":"40123"},
{"lon":"11.3385838","lat":"44.491823","number":"11","street":"VIA BARBERIA","unit":"","city":"BOLOGNA","district":"Saragozza","region":"","postcode":"40123"},
{"lon":"11.3674411","lat":"44.4907628","number":"22","street":"VIA CARLO ALBERTO PIZZARDI","unit":"","city":"BOLOGNA","district":"San Vitale","region":"","postcode":"40138"},
{"lon":"11.3283425","lat":"44.4920097","number":"4","street":"VIA GIUSEPPE GALLETTI","unit":"","city":"BOLOGNA","district":"Saragozza","region":"","postcode":"40134"},
{"lon":"11.3775177","lat":"44.4903955","number":"10","street":"VIA SPARTACO","unit":"","city":"BOLOGNA","district":"San Vitale","region":"","postcode":"40138"},
{"lon":"11.3384092","lat":"44.4917554","number":"12","street":"VIA BARBERIA","unit":"","city":"BOLOGNA","district":"Saragozza","region":"","postcode":"40123"},
{"lon":"11.3557106","lat":"44.4908172","number":"82","street":"STRADA MAGGIORE","unit":"","city":"BOLOGNA","district":"San Vitale","region":"","postcode":"40125"},
{"lon":"11.3326783","lat":"44.4910711","number":"51","street":"VIA S.CATERINA","unit":"","city":"BOLOGNA","district":"Saragozza","region":"","postcode":"40123"},
{"lon":"11.3220332","lat":"44.4922401","number":"43/4","street":"VIA FILIPPO TURATI","unit":"","city":"BOLOGNA","district":"Saragozza","region":"","postcode":"40134"},
{"lon":"11.3398047","lat":"44.4895871","number":"15","street":"VIA TAGLIAPIETRE","unit":"","city":"BOLOGNA","district":"Saragozza","region":"","postcode":"40123"},
{"lon":"11.3029604","lat":"44.4906368","number":"7","street":"VIA PROSPERO FONTANA","unit":"","city":"BOLOGNA","district":"Saragozza","region":"","postcode":"40135"},
{"lon":"11.3068728","lat":"44.4915886","number":"6","street":"VIA VOLONTARI DELLA LIBERTA'","unit":"","city":"BOLOGNA","district":"Saragozza","region":"","postcode":"40134"},
{"lon":"11.3375611","lat":"44.4901768","number":"1","street":"VIA PALESTRO","unit":"","city":"BOLOGNA","district":"Saragozza","region":"","postcode":"40123"},
{"lon":"11.3433587","lat":"44.4904453","number":"1","street":"VICOLO BARBAZZI","unit":"","city":"BOLOGNA","district":"Santo Stefano","region":"","postcode":"40124"},
{"lon":"11.3015384","lat":"44.491706","number":"203/1","street":"VIA ANDREA COSTA","unit":"","city":"BOLOGNA","district":"Reno","region":"","postcode":"40134"},
{"lon":"11.3615965","lat":"44.4893837","number":"70","street":"VIA MAZZINI","unit":"","city":"BOLOGNA","district":"Santo Stefano","region":"","postcode":"40138"},
{"lon":"11.3041769","lat":"44.4912273","number":"148","street":"VIA PORRETTANA","unit":"","city":"BOLOGNA","district":"Saragozza","region":"","postcode":"40135"},
{"lon":"11.3706978","lat":"44.4900895","number":"41","street":"VIA POMPEO VIZZANI","unit":"","city":"BOLOGNA","district":"San Vitale","region":"","postcode":"40138"},
{"lon":"11.408823","lat":"44.4886242","number":"32/2","street":"VIA DEGLI STRADELLI GUELFI","unit":"","city":"BOLOGNA","district":"San Vitale","region":"","postcode":"40138"},
{"lon":"11.3094643","lat":"44.4910213","number":"25","street":"VIA PORRETTANA","unit":"","city":"BOLOGNA","district":"Saragozza","region":"","postcode":"40135"},
{"lon":"11.3284792","lat":"44.4910316","number":"28","street":"VIALE CARLO PEPOLI","unit":"","city":"BOLOGNA","district":"Saragozza","region":"","postcode":"40123"},
{"lon":"11.3058209","lat":"44.4907909","number":"80","street":"VIA PORRETTANA","unit":"","city":"BOLOGNA","district":"Saragozza","region":"","postcode":"40135"},
{"lon":"11.3207257","lat":"44.4902168","number":"129","street":"VIA FILIPPO TURATI","unit":"","city":"BOLOGNA","district":"Saragozza","region":"","postcode":"40134"},
{"lon":"11.3507622","lat":"44.4902884","number":"28/5","street":"VIA GUERRAZZI","unit":"","city":"BOLOGNA","district":"Santo Stefano","region":"","postcode":"40125"},
{"lon":"11.2921789","lat":"44.4903364","number":"2","street":"VIA VITALE DA BOLOGNA","unit":"","city":"BOLOGNA","district":"Reno","region":"","postcode":"40133"},
{"lon":"11.327078","lat":"44.4904961","number":"93","street":"VIA SARAGOZZA","unit":"","city":"BOLOGNA","district":"Saragozza","region":"","postcode":"40135"},
{"lon":"11.3440303","lat":"44.4904077","number":"1","street":"VIA GAROFALO","unit":"","city":"BOLOGNA","district":"Santo Stefano","region":"","postcode":"40124"},
{"lon":"11.313512","lat":"44.4901266","number":"217/3","street":"VIA SARAGOZZA","unit":"","city":"BOLOGNA","district":"Saragozza","region":"","postcode":"40135"},
{"lon":"11.3369502","lat":"44.4904341","number":"7","street":"VIA SARAGOZZA","unit":"","city":"BOLOGNA","district":"Saragozza","region":"","postcode":"40123"},
{"lon":"11.3262988","lat":"44.4898379","number":"4","street":"VIA BELLINZONA","unit":"","city":"BOLOGNA","district":"Saragozza","region":"","postcode":"40135"},
{"lon":"11.3248112","lat":"44.4904888","number":"109","street":"VIA SARAGOZZA","unit":"","city":"BOLOGNA","district":"Saragozza","region":"","postcode":"40135"},
{"lon":"11.4016608","lat":"44.4886859","number":"14/4","street":"VIA DEGLI STRADELLI GUELFI","unit":"","city":"BOLOGNA","district":"San Vitale","region":"","postcode":"40138"},
{"lon":"11.3553488","lat":"44.4898626","number":"13/2","street":"VIA FONDAZZA","unit":"","city":"BOLOGNA","district":"Santo Stefano","region":"","postcode":"40125"},
{"lon":"11.3416003","lat":"44.4887351","number":"4","street":"VIA DELLE TOVAGLIE","unit":"","city":"BOLOGNA","district":"Santo Stefano","region":"","postcode":"40124"},
{"lon":"11.3156493","lat":"44.4896917","number":"195","street":"VIA SARAGOZZA","unit":"","city":"BOLOGNA","district":"Saragozza","region":"","postcode":"40135"},
{"lon":"11.3631486","lat":"44.4890814","number":"9","street":"VIA PIETRO ALBERTONI","unit":"","city":"BOLOGNA","district":"Santo Stefano","region":"","postcode":"40138"},
{"lon":"11.3318746","lat":"44.4884379","number":"204","street":"VIALE ANTONIO ALDINI","unit":"","city":"BOLOGNA","district":"Santo Stefano","region":"","postcode":"40136"},
{"lon":"11.3076232","lat":"44.4900427","number":"38","street":"VIA PORRETTANA","unit":"","city":"BOLOGNA","district":"Saragozza","region":"","postcode":"40135"},
{"lon":"11.3660422","lat":"44.4880491","number":"6","street":"VIA PELAGIO PALAGI","unit":"","city":"BOLOGNA","district":"Santo Stefano","region":"","postcode":"40138"},
{"lon":"11.3419148","lat":"44.4880834","number":"36","street":"VIA SOLFERINO","unit":"","city":"BOLOGNA","district":"Santo Stefano","region":"","postcode":"40124"},
{"lon":"11.3474109","lat":"44.4887932","number":"41","street":"VIA CASTIGLIONE","unit":"","city":"BOLOGNA","district":"Santo Stefano","region":"","postcode":"40124"},
{"lon":"11.3422332","lat":"44.4885945","number":"33","street":"VIA DELLE TOVAGLIE","unit":"","city":"BOLOGNA","district":"Santo Stefano","region":"","postcode":"40124"},
{"lon":"11.3620391","lat":"44.4871864","number":"2/2","street":"PIAZZA TRENTO E TRIESTE","unit":"","city":"BOLOGNA","district":"Santo Stefano","region":"","postcode":"40137"},
{"lon":"11.3357147","lat":"44.4895359","number":"5","street":"VIA DEI TESSITORI","unit":"","city":"BOLOGNA","district":"Saragozza","region":"","postcode":"40123"},
{"lon":"11.3541739","lat":"44.4882516","number":"59","street":"VIA FONDAZZA","unit":"","city":"BOLOGNA","district":"Santo Stefano","region":"","postcode":"40125"},
{"lon":"11.3375864","lat":"44.4881958","number":"2/4","street":"VIA PASTRENGO","unit":"","city":"BOLOGNA","district":"Saragozza","region":"","postcode":"40123"},
{"lon":"11.3496154","lat":"44.4892321","number":"6","street":"VIA RIALTO","unit":"","city":"BOLOGNA","district":"Santo Stefano","region":"","postcode":"40124"},
{"lon":"11.3628479","lat":"44.4878764","number":"49","street":"VIA MAZZINI","unit":"","city":"BOLOGNA","district":"Santo Stefano","region":"","postcode":"40137"},
{"lon":"11.3242588","lat":"44.4892525","number":"15","street":"VIA MALTA","unit":"","city":"BOLOGNA","district":"Saragozza","region":"","postcode":"40135"},
{"lon":"11.364079","lat":"44.4888193","number":"12/2","street":"VIA CLEMENTE PRIMODI'","unit":"","city":"BOLOGNA","district":"Santo Stefano","region":"","postcode":"40138"},
{"lon":"11.3311948","lat":"44.4886421","number":"216","street":"VIALE ANTONIO ALDINI","unit":"","city":"BOLOGNA","district":"Santo Stefano","region":"","postcode":"40136"},
{"lon":"11.3703865","lat":"44.4871866","number":"9","street":"VIA PIETRO MENGOLI","unit":"","city":"BOLOGNA","district":"San Vitale","region":"","postcode":"40138"},
{"lon":"11.3511311","lat":"44.4889874","number":"57","street":"VIA S.STEFANO","unit":"","city":"BOLOGNA","district":"Santo Stefano","region":"","postcode":"40125"},
{"lon":"11.3417553","lat":"44.4881292","number":"32","street":"VIA SOLFERINO","unit":"","city":"BOLOGNA","district":"Santo Stefano","region":"","postcode":"40124"},
{"lon":"11.4195643","lat":"44.4862805","number":"72","street":"VIA DEGLI STRADELLI GUELFI","unit":"","city":"CASE SPARSE","district":"San Vitale","region":"","postcode":"40138"},
{"lon":"11.3210567","lat":"44.4892566","number":"170","street":"VIA SARAGOZZA","unit":"","city":"BOLOGNA","district":"Saragozza","region":"","postcode":"40135"},
{"lon":"11.349073","lat":"44.4881742","number":"28","street":"VIA RIALTO","unit":"","city":"BOLOGNA","district":"Santo Stefano","region":"","postcode":"40124"},
{"lon":"11.3348568","lat":"44.4871699","number":"5","street":"VIA FRANCESCO PETRARCA","unit":"","city":"BOLOGNA","district":"Santo Stefano","region":"","postcode":"40136"},
{"lon":"11.3110354","lat":"44.4880232","number":"16/5","street":"VIA DEL MELONCELLO","unit":"","city":"BOLOGNA","district":"Saragozza","region":"","postcode":"40135"},
{"lon":"11.3601032","lat":"44.4855182","number":"12","street":"VIA JACOPO DELLA LANA","unit":"","city":"BOLOGNA","district":"Santo Stefano","region":"","postcode":"40137"},
{"lon":"11.4227076","lat":"44.4852971","number":"5","street":"VIA VILLANOVA","unit":"","city":"CASE SPARSE","district":"San Vitale","region":"","postcode":"40138"},
{"lon":"11.3517371","lat":"44.4869206","number":"7/2","street":"VIA DE' BUTTIERI","unit":"","city":"BOLOGNA","district":"Santo Stefano","region":"","postcode":"40125"},
{"lon":"11.3500972","lat":"44.4866803","number":"28","street":"VIA ORFEO","unit":"","city":"BOLOGNA","district":"Santo Stefano","region":"","postcode":"40124"},
{"lon":"11.3303453","lat":"44.4867319","number":"23","street":"VIA VALLESCURA","unit":"","city":"BOLOGNA","district":"Santo Stefano","region":"","postcode":"40136"},
{"lon":"11.3705907","lat":"44.4864756","number":"23","street":"VIA MARIA GAETANA AGNESI","unit":"","city":"BOLOGNA","district":"San Vitale","region":"","postcode":"40138"},
{"lon":"11.2980807","lat":"44.4877859","number":"8","street":"VIA ALDO OGNIBENE","unit":"","city":"BOLOGNA","district":"Saragozza","region":"","postcode":"40135"},
{"lon":"11.3316331","lat":"44.4866085","number":"12/2","street":"VIA VALLESCURA","unit":"","city":"BOLOGNA","district":"Santo Stefano","region":"","postcode":"40136"},
{"lon":"11.342361","lat":"44.4873575","number":"8","street":"VIA MIRAMONTE","unit":"","city":"BOLOGNA","district":"Santo Stefano","region":"","postcode":"40124"},
{"lon":"11.346914","lat":"44.48644","number":"11","street":"VIA DELL'ORO","unit":"","city":"BOLOGNA","district":"Santo Stefano","region":"","postcode":"40124"},
{"lon":"11.3104766","lat":"44.4870457","number":"16/8","street":"VIA DEL MELONCELLO","unit":"","city":"BOLOGNA","district":"Saragozza","region":"","postcode":"40135"},
{"lon":"11.3533646","lat":"44.4872074","number":"91","street":"VIA FONDAZZA","unit":"","city":"BOLOGNA","district":"Santo Stefano","region":"","postcode":"40125"},
{"lon":"11.3610545","lat":"44.4859395","number":"16","street":"VIALE ALFREDO ORIANI","unit":"","city":"BOLOGNA","district":"Santo Stefano","region":"","postcode":"40137"},
{"lon":"11.3419968","lat":"44.4872207","number":"37","street":"VIA MIRASOLE","unit":"","city":"BOLOGNA","district":"Santo Stefano","region":"","postcode":"40124"},
{"lon":"11.3405581","lat":"44.4875822","number":"6","street":"VIA PAGLIETTA","unit":"","city":"BOLOGNA","district":"Santo Stefano","region":"","postcode":"40124"},
{"lon":"11.3336934","lat":"44.4863925","number":"6/3","street":"VIA GRAZIOLO BAMBAGLIOLI","unit":"","city":"BOLOGNA","district":"Santo Stefano","region":"","postcode":"40136"},
{"lon":"11.3729057","lat":"44.4864928","number":"67","street":"VIA AZZURRA","unit":"","city":"BOLOGNA","district":"San Vitale","region":"","postcode":"40138"},
{"lon":"11.3378388","lat":"44.4866742","number":"26","street":"VIALE ANTONIO ALDINI","unit":"","city":"BOLOGNA","district":"Santo Stefano","region":"","postcode":"40136"},
{"lon":"11.3669837","lat":"44.4856759","number":"11","street":"VIA ADOLFO ALBERTAZZI","unit":"","city":"BOLOGNA","district":"Santo Stefano","region":"","postcode":"40137"},
{"lon":"11.3420449","lat":"44.4872707","number":"16","street":"VIA MIRASOLE","unit":"","city":"BOLOGNA","district":"Santo Stefano","region":"","postcode":"40124"},
{"lon":"11.3543033","lat":"44.4861874","number":"130","street":"VIA S.STEFANO","unit":"","city":"BOLOGNA","district":"Santo Stefano","region":"","postcode":"40125"},
{"lon":"11.3351698","lat":"44.4862422","number":"23","street":"VIA FRANCESCO PETRARCA","unit":"","city":"BOLOGNA","district":"Santo Stefano","region":"","postcode":"40136"},
{"lon":"11.3941183","lat":"44.4832939","number":"8/2","street":"VIA DUE MADONNE","unit":"","city":"BOLOGNA","district":"Savena","region":"","postcode":"40139"},
{"lon":"11.3070223","lat":"44.4860316","number":"9","street":"VIA DEL MELONCELLO","unit":"","city":"BOLOGNA","district":"Saragozza","region":"","postcode":"40135"},
{"lon":"11.374068","lat":"44.4836361","number":"9","street":"VIA EMILIA LEVANTE","unit":"","city":"BOLOGNA","district":"Santo Stefano","region":"","postcode":"40139"},
{"lon":"11.360659","lat":"44.4849158","number":"38","street":"VIALE ALFREDO ORIANI","unit":"","city":"BOLOGNA","district":"Santo Stefano","region":"","postcode":"40137"},
{"lon":"11.3809074","lat":"44.483315","number":"4","street":"VIA VITTORE CARPACCIO","unit":"","city":"BOLOGNA","district":"Savena","region":"","postcode":"40139"},
{"lon":"11.3744243","lat":"44.4826628","number":"2","street":"VIA PIETRO DI MATTIOLO","unit":"","city":"BOLOGNA","district":"Santo Stefano","region":"","postcode":"40139"},
{"lon":"11.3988829","lat":"44.484712","number":"13","street":"VIA DUE MADONNE","unit":"","city":"BOLOGNA","district":"Savena","region":"","postcode":"40139"},
{"lon":"11.351131","lat":"44.4854242","number":"11/2","street":"VIALE GIOVANNI GOZZADINI","unit":"","city":"BOLOGNA","district":"Santo Stefano","region":"","postcode":"40124"},
{"lon":"11.3568853","lat":"44.4830289","number":"6","street":"VIA FRANCESCO ZAMBRINI","unit":"","city":"BOLOGNA","district":"Santo Stefano","region":"","postcode":"40137"},
{"lon":"11.3525514","lat":"44.4856601","number":"33/2","street":"VIA ORFEO","unit":"","city":"BOLOGNA","district":"Santo Stefano","region":"","postcode":"40124"},
{"lon":"11.3838145","lat":"44.4820186","number":"7","street":"VIALE ILIC ULJANOV LENIN","unit":"","city":"BOLOGNA","district":"Savena","region":"","postcode":"40139"},
{"lon":"11.3393591","lat":"44.4856228","number":"25","street":"VIA S.MAMOLO","unit":"","city":"BOLOGNA","district":"Santo Stefano","region":"","postcode":"40136"},
{"lon":"11.3620632","lat":"44.4826736","number":"10","street":"VIA CHERUBINO GHIRARDACCI","unit":"","city":"BOLOGNA","district":"Santo Stefano","region":"","postcode":"40137"},
{"lon":"11.3635879","lat":"44.4853023","number":"11","street":"VIA CLOTILDE TAMBRONI","unit":"","city":"BOLOGNA","district":"Santo Stefano","region":"","postcode":"40137"},
{"lon":"11.3665119","lat":"44.4834147","number":"28","street":"VIA GIUSEPPE MEZZOFANTI","unit":"","city":"BOLOGNA","district":"Santo Stefano","region":"","postcode":"40137"},
{"lon":"11.3813079","lat":"44.4839726","number":"15","street":"VIALE FELSINA","unit":"","city":"BOLOGNA","district":"Savena","region":"","postcode":"40139"},
{"lon":"11.3144395","lat":"44.4844969","number":"34","street":"VIA DI CASAGLIA","unit":"","city":"BOLOGNA","district":"Saragozza","region":"","postcode":"40135"},
{"lon":"11.370548","lat":"44.4842263","number":"1/2","street":"VIA ACHILLINI","unit":"","city":"BOLOGNA","district":"Santo Stefano","region":"","postcode":"40137"},
{"lon":"11.3577799","lat":"44.4833345","number":"7","street":"VIA AUGUSTO MURRI","unit":"","city":"BOLOGNA","district":"Santo Stefano","region":"","postcode":"40137"},
{"lon":"11.391661","lat":"44.4834791","number":"26","street":"VIALE ABRAMO LINCOLN","unit":"","city":"BOLOGNA","district":"Savena","region":"","postcode":"40139"},
{"lon":"11.3729389","lat":"44.4829302","number":"66/2","street":"VIA LEANDRO ALBERTI","unit":"","city":"BOLOGNA","district":"Santo Stefano","region":"","postcode":"40139"},
{"lon":"11.3705967","lat":"44.4822523","number":"26","street":"VIA GIAMPIETRO ZANOTTI","unit":"","city":"BOLOGNA","district":"Santo Stefano","region":"","postcode":"40137"},
{"lon":"11.3648979","lat":"44.4841085","number":"20/2","street":"VIA ERNESTO MASI","unit":"","city":"BOLOGNA","district":"Santo Stefano","region":"","postcode":"40137"},
{"lon":"11.3306242","lat":"44.4839172","number":"31","street":"VIA VALLESCURA","unit":"","city":"BOLOGNA","district":"Santo Stefano","region":"","postcode":"40136"},
{"lon":"11.3345358","lat":"44.4844787","number":"19","street":"VIA DELL'OSSERVANZA","unit":"","city":"BOLOGNA","district":"Santo Stefano","region":"","postcode":"40136"},
{"lon":"11.3580909","lat":"44.48511","number":"48","street":"VIALE GIOSUE' CARDUCCI","unit":"","city":"BOLOGNA","district":"Santo Stefano","region":"","postcode":"40125"},
{"lon":"11.3608838","lat":"44.4823478","number":"6/2","street":"VIA CHERUBINO GHIRARDACCI","unit":"","city":"BOLOGNA","district":"Santo Stefano","region":"","postcode":"40137"},
{"lon":"11.3620095","lat":"44.4840032","number":"21","street":"VIA LODOVICO SAVIOLI","unit":"","city":"BOLOGNA","district":"Santo Stefano","region":"","postcode":"40137"},
{"lon":"11.3442885","lat":"44.4810814","number":"4","street":"VIA CESARE TARUFFI","unit":"","city":"BOLOGNA","district":"Santo Stefano","region":"","postcode":"40136"},
{"lon":"11.382568","lat":"44.4795095","number":"7","street":"VIA SAVONA","unit":"","city":"BOLOGNA","district":"Savena","region":"","postcode":"40139"},
{"lon":"11.3141676","lat":"44.480167","number":"22","street":"VIA DI RAVONE","unit":"","city":"BOLOGNA","district":"Saragozza","region":"","postcode":"40135"},
{"lon":"11.3573579","lat":"44.4801102","number":"22","street":"VIA GIOVAN BATTISTA GANDINO","unit":"","city":"BOLOGNA","district":"Santo Stefano","region":"","postcode":"40137"},
{"lon":"11.345511","lat":"44.4826011","number":"60","street":"VIA DELLE ROSE","unit":"","city":"BOLOGNA","district":"Santo Stefano","region":"","postcode":"40136"},
{"lon":"11.3656046","lat":"44.4797975","number":"46","street":"VIA LAURA BASSI VERATTI","unit":"","city":"BOLOGNA","district":"Santo Stefano","region":"","postcode":"40137"},
{"lon":"11.3843589","lat":"44.4808871","number":"14","street":"VIA PAGANINO BONAFEDE","unit":"","city":"BOLOGNA","district":"Savena","region":"","postcode":"40139"},
{"lon":"11.3964579","lat":"44.4796991","number":"22","street":"VIA CARLO CARLI","unit":"","city":"BOLOGNA","district":"Savena","region":"","postcode":"40139"},
{"lon":"11.3568094","lat":"44.4813923","number":"7","street":"VIA DEI BORGOGNONI","unit":"","city":"BOLOGNA","district":"Santo Stefano","region":"","postcode":"40137"},
{"lon":"11.3386939","lat":"44.4824235","number":"3/2","street":"VIA BELLOMBRA","unit":"","city":"BOLOGNA","district":"Santo Stefano","region":"","postcode":"40136"},
{"lon":"11.3975721","lat":"44.4789778","number":"39","street":"VIA CARLO CARLI","unit":"","city":"BOLOGNA","district":"Savena","region":"","postcode":"40139"},
{"lon":"11.3586368","lat":"44.4819844","number":"10","street":"VIA GIOVAN BATTISTA GANDINO","unit":"","city":"BOLOGNA","district":"Santo Stefano","region":"","postcode":"40137"},
{"lon":"11.3894686","lat":"44.4798381","number":"32","street":"VIA FEDERIGO ENRIQUES","unit":"","city":"BOLOGNA","district":"Savena","region":"","postcode":"40139"},
{"lon":"11.3820965","lat":"44.4790985","number":"11","street":"VIA MARCHE","unit":"","city":"BOLOGNA","district":"Savena","region":"","postcode":"40139"},
{"lon":"11.3368149","lat":"44.4824561","number":"21","street":"VIA BAGNI DI MARIO","unit":"","city":"BOLOGNA","district":"Santo Stefano","region":"","postcode":"40136"},
{"lon":"11.3357074","lat":"44.4801526","number":"13","street":"VIA VALVERDE","unit":"","city":"BOLOGNA","district":"Santo Stefano","region":"","postcode":"40136"},
{"lon":"11.3800463","lat":"44.4807493","number":"21","street":"VIA GIOVANNI ANTONIO MAGINI","unit":"","city":"BOLOGNA","district":"Savena","region":"","postcode":"40139"},
{"lon":"11.3837623","lat":"44.4798892","number":"109","street":"VIA EMILIA LEVANTE","unit":"","city":"BOLOGNA","district":"Savena","region":"","postcode":"40139"},
{"lon":"11.3607156","lat":"44.4810817","number":"6","street":"VIA DELLO STERLINO","unit":"","city":"BOLOGNA","district":"Santo Stefano","region":"","postcode":"40137"},
{"lon":"11.3837748","lat":"44.4812232","number":"144/2","street":"VIA EMILIA LEVANTE","unit":"","city":"BOLOGNA","district":"Savena","region":"","postcode":"40139"},
{"lon":"11.336953","lat":"44.4799552","number":"5","street":"VIA RIVABELLA","unit":"","city":"BOLOGNA","district":"Santo Stefano","region":"","postcode":"40136"},
{"lon":"11.3474695","lat":"44.4819592","number":"32","street":"VIA DELLE ROSE","unit":"","city":"BOLOGNA","district":"Santo Stefano","region":"","postcode":"40136"},
{"lon":"11.3957785","lat":"44.4787021","number":"33","street":"VIA CARLO CARLI","unit":"","city":"BOLOGNA","district":"Savena","region":"","postcode":"40139"},
{"lon":"11.3492884","lat":"44.4809461","number":"113","street":"VIA CASTIGLIONE","unit":"","city":"BOLOGNA","district":"Santo Stefano","region":"","postcode":"40136"},
{"lon":"11.3613403","lat":"44.4801147","number":"5","street":"VIA SIEPELUNGA","unit":"","city":"BOLOGNA","district":"Santo Stefano","region":"","postcode":"40137"},
{"lon":"11.3572355","lat":"44.4808621","number":"19","street":"VIA GIOVAN BATTISTA GANDINO","unit":"","city":"BOLOGNA","district":"Santo Stefano","region":"","postcode":"40137"},
{"lon":"11.3701574","lat":"44.4772446","number":"25","street":"VIA DEGLI ORTI","unit":"","city":"BOLOGNA","district":"Santo Stefano","region":"","postcode":"40137"},
{"lon":"11.3976222","lat":"44.4781191","number":"70","street":"VIA ALBERTO DALLOLIO","unit":"","city":"BOLOGNA","district":"Savena","region":"","postcode":"40139"},
{"lon":"11.3946211","lat":"44.4756201","number":"8","street":"VIA FERRARA","unit":"","city":"BOLOGNA","district":"Savena","region":"","postcode":"40139"},
{"lon":"11.3712285","lat":"44.4784522","number":"46","street":"VIA AUGUSTO ROMAGNOLI","unit":"","city":"BOLOGNA","district":"Santo Stefano","region":"","postcode":"40137"},
{"lon":"11.3817306","lat":"44.4759179","number":"30","street":"VIA LOMBARDIA","unit":"","city":"BOLOGNA","district":"Savena","region":"","postcode":"40139"},
{"lon":"11.3350587","lat":"44.4786774","number":"7","street":"VIA MEZZACOSTA","unit":"","city":"BOLOGNA","district":"Santo Stefano","region":"","postcode":"40136"},
{"lon":"11.3782434","lat":"44.4769227","number":"84","street":"VIA PONTEVECCHIO","unit":"","city":"BOLOGNA","district":"Savena","region":"","postcode":"40139"},
{"lon":"11.3794258","lat":"44.4775968","number":"40","street":"VIA PONTEVECCHIO","unit":"","city":"BOLOGNA","district":"Savena","region":"","postcode":"40139"},
{"lon":"11.3808162","lat":"44.4765363","number":"3","street":"VIA LONGARONE","unit":"","city":"BOLOGNA","district":"Savena","region":"","postcode":"40139"},
{"lon":"11.2977078","lat":"44.4793463","number":"28","street":"VIA DI S.LUCA","unit":"","city":"CASE SPARSE","district":"Saragozza","region":"","postcode":"40135"},
{"lon":"11.397745","lat":"44.4763688","number":"43","street":"VIA GAETANO TACCONI","unit":"","city":"BOLOGNA","district":"Savena","region":"","postcode":"40139"},
{"lon":"11.3619858","lat":"44.4779857","number":"2","street":"VIA ALESSANDRO BONCI","unit":"","city":"BOLOGNA","district":"Santo Stefano","region":"","postcode":"40137"},
{"lon":"11.3702454","lat":"44.4768213","number":"39","street":"VIA AUGUSTO ROMAGNOLI","unit":"","city":"BOLOGNA","district":"Santo Stefano","region":"","postcode":"40137"},
{"lon":"11.3353464","lat":"44.4784849","number":"117","street":"VIA S.MAMOLO","unit":"","city":"BOLOGNA","district":"Santo Stefano","region":"","postcode":"40136"},
{"lon":"11.3723029","lat":"44.4783749","number":"6","street":"VIA FRANCESCO CAVAZZA","unit":"","city":"BOLOGNA","district":"Santo Stefano","region":"","postcode":"40137"},
{"lon":"11.3660693","lat":"44.4758798","number":"10","street":"VIA PIANORO","unit":"","city":"BOLOGNA","district":"Santo Stefano","region":"","postcode":"40137"},
{"lon":"11.3371776","lat":"44.4791331","number":"18","street":"VIA RIVABELLA","unit":"","city":"BOLOGNA","district":"Santo Stefano","region":"","postcode":"40136"},
{"lon":"11.3559698","lat":"44.4769462","number":"11","street":"VIA S. BARBARA","unit":"","city":"BOLOGNA","district":"Santo Stefano","region":"","postcode":"40137"},
{"lon":"11.371553","lat":"44.4774417","number":"2","street":"VIA DEI MIRTILLI","unit":"","city":"BOLOGNA","district":"Santo Stefano","region":"","postcode":"40137"},
{"lon":"11.33659","lat":"44.4763615","number":"150/8","street":"VIA S.MAMOLO","unit":"","city":"BOLOGNA","district":"Santo Stefano","region":"","postcode":"40136"},
{"lon":"11.3853807","lat":"44.4779663","number":"20","street":"VIA BELLARIA","unit":"","city":"BOLOGNA","district":"Savena","region":"","postcode":"40139"},
{"lon":"11.3678991","lat":"44.4756173","number":"144","street":"VIA AUGUSTO MURRI","unit":"","city":"BOLOGNA","district":"Santo Stefano","region":"","postcode":"40137"},
{"lon":"11.3937266","lat":"44.4776764","number":"16/3","street":"VIA CADUTI E DISP. IN GUERRA","unit":"","city":"BOLOGNA","district":"Savena","region":"","postcode":"40139"},
{"lon":"11.3703223","lat":"44.4754477","number":"22","street":"VIA DEI LAMPONI","unit":"","city":"BOLOGNA","district":"Santo Stefano","region":"","postcode":"40137"},
{"lon":"11.3861531","lat":"44.4769495","number":"28","street":"VIA BELLARIA","unit":"","city":"BOLOGNA","district":"Savena","region":"","postcode":"40139"},
{"lon":"11.3663057","lat":"44.4764609","number":"145","street":"VIA AUGUSTO MURRI","unit":"","city":"BOLOGNA","district":"Santo Stefano","region":"","postcode":"40137"},
{"lon":"11.3461932","lat":"44.4778153","number":"1/3","street":"VIA DI BARBIANO","unit":"","city":"BOLOGNA","district":"Santo Stefano","region":"","postcode":"40136"},
{"lon":"11.3834843","lat":"44.4760569","number":"5","street":"VIA SARDEGNA","unit":"","city":"BOLOGNA","district":"Savena","region":"","postcode":"40139"},
{"lon":"11.345585","lat":"44.4778422","number":"162","street":"VIA CASTIGLIONE","unit":"","city":"BOLOGNA","district":"Santo Stefano","region":"","postcode":"40136"},
{"lon":"11.370046","lat":"44.4762357","number":"33","street":"VIA AUGUSTO ROMAGNOLI","unit":"","city":"BOLOGNA","district":"Santo Stefano","region":"","postcode":"40137"},
{"lon":"11.3126411","lat":"44.4733761","number":"21/7","street":"VIA DI RAVONE","unit":"","city":"CASE SPARSE","district":"Saragozza","region":"","postcode":"40135"},
{"lon":"11.3724213","lat":"44.4699971","number":"5","street":"VIA PIETRO MASCAGNI","unit":"","city":"BOLOGNA","district":"Savena","region":"","postcode":"40141"},
{"lon":"11.3767057","lat":"44.467441","number":"3","street":"VIA BENEDETTO MARCELLO","unit":"","city":"BOLOGNA","district":"Savena","region":"","postcode":"40141"},
{"lon":"11.3795776","lat":"44.473832","number":"19","street":"VIA DEGLI ORTOLANI","unit":"","city":"BOLOGNA","district":"Savena","region":"","postcode":"40139"},
{"lon":"11.3708787","lat":"44.4751754","number":"12","street":"VIA DELLE MORE","unit":"","city":"BOLOGNA","district":"Santo Stefano","region":"","postcode":"40137"},
{"lon":"11.3718966","lat":"44.469669","number":"1","street":"VIA FRANCESCO CILEA","unit":"","city":"BOLOGNA","district":"Savena","region":"","postcode":"40141"},
{"lon":"11.3519776","lat":"44.4754746","number":"10","street":"VIA S. MARGHERITA AL COLLE","unit":"","city":"BOLOGNA","district":"Santo Stefano","region":"","postcode":"40136"},
{"lon":"11.3721663","lat":"44.4694168","number":"8","street":"VIA FRANCESCO CILEA","unit":"","city":"BOLOGNA","district":"Savena","region":"","postcode":"40141"},
{"lon":"11.3848156","lat":"44.4734367","number":"6","street":"VIA TEVERE","unit":"","city":"BOLOGNA","district":"Savena","region":"","postcode":"40139"},
{"lon":"11.3906753","lat":"44.4711551","number":"12","street":"VIALE ROMA","unit":"","city":"BOLOGNA","district":"Savena","region":"","postcode":"40139"},
{"lon":"11.383117","lat":"44.4746144","number":"40","street":"VIA CALABRIA","unit":"","city":"BOLOGNA","district":"Savena","region":"","postcode":"40139"},
{"lon":"11.368022","lat":"44.4716042","number":"20","street":"VIA GASPARE TAGLIACOZZI","unit":"","city":"BOLOGNA","district":"Savena","region":"","postcode":"40141"},
{"lon":"11.3675382","lat":"44.4735263","number":"3","street":"VIA BERENGARIO DA CARPI","unit":"","city":"BOLOGNA","district":"Santo Stefano","region":"","postcode":"40141"},
{"lon":"11.364778","lat":"44.4714599","number":"6","street":"VIA PAOLO BARONI","unit":"","city":"BOLOGNA","district":"Savena","region":"","postcode":"40141"},
{"lon":"11.3928073","lat":"44.4684899","number":"5","street":"ROTONDA VERENIN GRAZIA","unit":"","city":"BOLOGNA","district":"Savena","region":"","postcode":"40139"},
{"lon":"11.3865172","lat":"44.4742665","number":"6","street":"VIA BOVES","unit":"","city":"BOLOGNA","district":"Savena","region":"","postcode":"40139"},
{"lon":"11.3686584","lat":"44.4687548","number":"23","street":"VIA TOSCANA","unit":"","city":"BOLOGNA","district":"Savena","region":"","postcode":"40141"},
{"lon":"11.3934852","lat":"44.4735144","number":"104","street":"VIA FERRARA","unit":"","city":"BOLOGNA","district":"Savena","region":"","postcode":"40139"},
{"lon":"11.3788461","lat":"44.4682432","number":"2","street":"VIA TITTA RUFFO","unit":"","city":"BOLOGNA","district":"Savena","region":"","postcode":"40141"},
{"lon":"11.3705523","lat":"44.474494","number":"24","street":"VIA DELLE FRAGOLE","unit":"","city":"BOLOGNA","district":"Santo Stefano","region":"","postcode":"40137"},
{"lon":"11.3762707","lat":"44.4679222","number":"10","street":"VIA BENEDETTO MARCELLO","unit":"","city":"BOLOGNA","district":"Savena","region":"","postcode":"40141"},
{"lon":"11.3931116","lat":"44.4723117","number":"12","street":"VIA ISTRIA","unit":"","city":"BOLOGNA","district":"Savena","region":"","postcode":"40139"},
{"lon":"11.3158332","lat":"44.4718317","number":"6/3","street":"VIA DI JANO","unit":"","city":"CASE SPARSE","district":"Santo Stefano","region":"","postcode":"40136"},
{"lon":"11.38441","lat":"44.4722065","number":"15","street":"VIA CORRADO MAZZONI","unit":"","city":"BOLOGNA","district":"Savena","region":"","postcode":"40139"},
{"lon":"11.3693571","lat":"44.4743951","number":"9","street":"VIA MALVOLTA","unit":"","city":"BOLOGNA","district":"Santo Stefano","region":"","postcode":"40137"},
{"lon":"11.3531548","lat":"44.4682122","number":"8","street":"VIA DEL PAGNONE","unit":"","city":"CASE SPARSE","district":"Santo Stefano","region":"","postcode":"40136"},
{"lon":"11.3943896","lat":"44.4718309","number":"23","street":"VIA GENOVA","unit":"","city":"BOLOGNA","district":"Savena","region":"","postcode":"40139"},
{"lon":"11.3021634","lat":"44.4715228","number":"30/3","street":"VIA DI MONTE ALBANO","unit":"","city":"CASE SPARSE","district":"Saragozza","region":"","postcode":"40135"},
{"lon":"11.3796335","lat":"44.4670446","number":"17","street":"VIA DELLA BATTAGLIA","unit":"","city":"BOLOGNA","district":"Savena","region":"","postcode":"40141"},
{"lon":"11.3686569","lat":"44.4617861","number":"46","street":"VIA GIACOMO FILIPPO NOVARO","unit":"","city":"BOLOGNA","district":"Savena","region":"","postcode":"40141"},
{"lon":"11.3730694","lat":"44.4641173","number":"2","street":"VIA FRANCESCO S. MERCADANTE","unit":"","city":"BOLOGNA","district":"Savena","region":"","postcode":"40141"},
{"lon":"11.3789363","lat":"44.4667928","number":"13","street":"VIA GIAN GIACOMO CARISSIMI","unit":"","city":"BOLOGNA","district":"Savena","region":"","postcode":"40141"},
{"lon":"11.3673731","lat":"44.4614955","number":"6","street":"VIA DEL PICCHIO","unit":"","city":"BOLOGNA","district":"Savena","region":"","postcode":"40141"},
{"lon":"11.3686324","lat":"44.4641907","number":"1","street":"VIA DELL'UCCELLINO","unit":"","city":"BOLOGNA","district":"Savena","region":"","postcode":"40141"},
{"lon":"11.3550779","lat":"44.4615959","number":"2","street":"VIA DI MONTE DONATO","unit":"","city":"BOLOGNA","district":"Savena","region":"","postcode":"40141"},
{"lon":"11.3592948","lat":"44.4641911","number":"58/9","street":"VIA SIEPELUNGA","unit":"","city":"BOLOGNA","district":"Savena","region":"","postcode":"40141"},
{"lon":"11.3675866","lat":"44.4611153","number":"19","street":"VIA DEL PICCHIO","unit":"","city":"BOLOGNA","district":"Savena","region":"","postcode":"40141"},
{"lon":"11.3701376","lat":"44.4571092","number":"144","street":"VIA TOSCANA","unit":"","city":"BOLOGNA","district":"Savena","region":"","postcode":"40141"},
{"lon":"11.3638336","lat":"44.4663494","number":"25/4","street":"VIA ALESSANDRO FLEMING","unit":"","city":"BOLOGNA","district":"Savena","region":"","postcode":"40141"},
{"lon":"11.3374236","lat":"44.4572846","number":"50","street":"VIA DI RONCRIO","unit":"","city":"CASE SPARSE","district":"Santo Stefano","region":"","postcode":"40136"},
{"lon":"11.3704548","lat":"44.4661004","number":"47","street":"VIA TOSCANA","unit":"","city":"BOLOGNA","district":"Savena","region":"","postcode":"40141"},
{"lon":"11.3585303","lat":"44.4608958","number":"76","street":"VIA DELL'ANGELO CUSTODE","unit":"","city":"BOLOGNA","district":"Savena","region":"","postcode":"40141"},
{"lon":"11.3699522","lat":"44.4632745","number":"20","street":"VIA ANTONIO PACINOTTI","unit":"","city":"BOLOGNA","district":"Savena","region":"","postcode":"40141"},
{"lon":"11.3704509","lat":"44.4658188","number":"49","street":"VIA TOSCANA","unit":"","city":"BOLOGNA","district":"Savena","region":"","postcode":"40141"},
{"lon":"11.3669138","lat":"44.4605028","number":"20","street":"VIA DEL PICCHIO","unit":"","city":"BOLOGNA","district":"Savena","region":"","postcode":"40141"},
{"lon":"11.3701042","lat":"44.4628512","number":"3/2","street":"VIA VINCENZO BELLINI","unit":"","city":"BOLOGNA","district":"Savena","region":"","postcode":"40141"},
{"lon":"11.3804724","lat":"44.4653897","number":"19","street":"VIA PIER LUIGI DA PALESTRINA","unit":"","city":"BOLOGNA","district":"Savena","region":"","postcode":"40141"},
{"lon":"11.2997624","lat":"44.456799","number":"64/2","street":"VIA DI CASAGLIA","unit":"","city":"CASE SPARSE","district":"Saragozza","region":"","postcode":"40135"},
{"lon":"11.3576384","lat":"44.4627935","number":"93","street":"VIA SIEPELUNGA","unit":"","city":"BOLOGNA","district":"Savena","region":"","postcode":"40141"},
{"lon":"11.3651998","lat":"44.4597989","number":"12/4","street":"VIA DELL'ANGELO CUSTODE","unit":"","city":"BOLOGNA","district":"Savena","region":"","postcode":"40141"},
{"lon":"11.3335782","lat":"44.4555198","number":"46","street":"VIA DI RONCRIO","unit":"","city":"CASE SPARSE","district":"Santo Stefano","region":"","postcode":"40136"},
{"lon":"11.369442","lat":"44.4621788","number":"43","street":"VIA ANTONIO PACINOTTI","unit":"","city":"BOLOGNA","district":"Savena","region":"","postcode":"40141"},
{"lon":"11.370397","lat":"44.4590498","number":"122/2","street":"VIA TOSCANA","unit":"","city":"BOLOGNA","district":"Savena","region":"","postcode":"40141"},
{"lon":"11.3193838","lat":"44.4957877","number":"13","street":"VIA PIER ANTONIO RAPPINI","unit":"","city":"BOLOGNA","district":"Saragozza","region":"","postcode":"40134"},
{"lon":"11.3581351","lat":"44.4468597","number":"249","street":"VIA TOSCANA","unit":"","city":"BOLOGNA","district":"Savena","region":"","postcode":"40141"},
{"lon":"11.3207409","lat":"44.4469217","number":"14/2","street":"VIA DI PADERNO","unit":"","city":"CASE SPARSE","district":"Santo Stefano","region":"","postcode":"40136"},
{"lon":"11.3643971","lat":"44.4530869","number":"3","street":"VIA PIETRO DA ANZOLA","unit":"","city":"BOLOGNA","district":"Savena","region":"","postcode":"40141"},
{"lon":"11.2855547","lat":"44.514676","number":"477/35","street":"VIA EMILIA PONENTE","unit":"","city":"BOLOGNA","district":"Borgo Panigale","region":"","postcode":"40132"},
{"lon":"11.3647789","lat":"44.45256","number":"198","street":"VIA TOSCANA","unit":"","city":"BOLOGNA","district":"Savena","region":"","postcode":"40141"},
{"lon":"11.3651868","lat":"44.4523341","number":"3","street":"VIA RAMBERTINO BUVALELLI","unit":"","city":"BOLOGNA","district":"Savena","region":"","postcode":"40141"},
{"lon":"11.2600263","lat":"44.5413854","number":"20","street":"VIA DEL BARGELLINO","unit":"","city":"BARGELLINO","district":"Borgo Panigale","region":"","postcode":"40132"},
{"lon":"11.3734192","lat":"44.4707398","number":"4/3","street":"VIA DELLE ARMI","unit":"","city":"BOLOGNA","district":"Savena","region":"","postcode":"40141"},
{"lon":"11.3595433","lat":"44.50115","number":"50/3","street":"VIA S.DONATO","unit":"","city":"BOLOGNA","district":"San Vitale","region":"","postcode":"40127"},
{"lon":"11.2817902","lat":"44.4937566","number":"13","street":"VIA RAFFAELLO SANZIO","unit":"","city":"BOLOGNA","district":"Reno","region":"","postcode":"40133"},
{"lon":"11.3635253","lat":"44.4509442","number":"5","street":"VIA PIETRO CANONICI","unit":"","city":"BOLOGNA","district":"Savena","region":"","postcode":"40141"},
{"lon":"11.3637328","lat":"44.4508201","number":"7","street":"VIA PIETRO CANONICI","unit":"","city":"BOLOGNA","district":"Savena","region":"","postcode":"40141"},
{"lon":"11.2761505","lat":"44.5321378","number":"15/4","street":"VIA S.AGNESE","unit":"","city":"CASE SPARSE","district":"Borgo Panigale","region":"","postcode":"40132"},
{"lon":"11.3699265","lat":"44.4965721","number":"48","street":"VIA SANTE VINCENZI","unit":"","city":"BOLOGNA","district":"San Vitale","region":"","postcode":"40138"},
{"lon":"11.359675","lat":"44.4498459","number":"14","street":"VIA A. BACCHI DELLA LEGA","unit":"","city":"BOLOGNA","district":"Savena","region":"","postcode":"40141"},
{"lon":"11.271063","lat":"44.517106","number":"12/8","street":"VIA ANTONIO CAVALIERI DUCATI","unit":"","city":"BOLOGNA","district":"Borgo Panigale","region":"","postcode":"40132"},
{"lon":"11.4206673","lat":"44.5135471","number":"14","street":"VIA PIETRO FIORINI","unit":"","city":"BOLOGNA","district":"San Donato","region":"","postcode":"40127"},
{"lon":"11.3372598","lat":"44.5292108","number":"7/7","street":"VIA CRISTOFORO COLOMBO","unit":"","city":"BOLOGNA","district":"Navile","region":"","postcode":"40131"},
{"lon":"11.356184","lat":"44.5115173","number":"27","street":"VIA GIUSEPPE DOSSETTI","unit":"","city":"BOLOGNA","district":"Navile","region":"","postcode":"40128"},
{"lon":"11.305955","lat":"44.4931502","number":"202/9","street":"VIA ANDREA COSTA","unit":"","city":"BOLOGNA","district":"Saragozza","region":"","postcode":"40134"},
{"lon":"11.3130522","lat":"44.5100167","number":"11","street":"VIA PRATI DI CAPRARA","unit":"","city":"BOLOGNA","district":"Porto","region":"","postcode":"40133"},
{"lon":"11.3773143","lat":"44.5066286","number":"7","street":"VIA KHARKOV","unit":"","city":"BOLOGNA","district":"San Donato","region":"","postcode":"40127"},
{"lon":"11.3575089","lat":"44.4618399","number":"74","street":"VIA SIEPELUNGA","unit":"","city":"BOLOGNA","district":"Savena","region":"","postcode":"40141"},
{"lon":"11.3154315","lat":"44.4473068","number":"1/2","street":"VIA DI PADERNO","unit":"","city":"PADERNO","district":"Santo Stefano","region":"","postcode":"40136"},
{"lon":"11.3310014","lat":"44.5046374","number":"18/2","street":"VIA LODOVICO BERTI","unit":"","city":"BOLOGNA","district":"Porto","region":"","postcode":"40131"},
{"lon":"11.2776067","lat":"44.4993099","number":"5","street":"VIA GHIARE","unit":"","city":"BOLOGNA","district":"Borgo Panigale","region":"","postcode":"40132"},
{"lon":"11.3719454","lat":"44.5406436","number":"225/2","street":"VIA FERRARESE","unit":"","city":"SANT'ANNA","district":"Navile","region":"","postcode":"40128"},
{"lon":"11.4016872","lat":"44.5180614","number":"28","street":"VIA DEL COMMERCIO ASSOCIATO","unit":"","city":"BOLOGNA","district":"San Donato","region":"","postcode":"40127"},
{"lon":"11.3510825","lat":"44.4956187","number":"25","street":"VIA GIUSEPPE PETRONI","unit":"","city":"BOLOGNA","district":"San Vitale","region":"","postcode":"40126"},
{"lon":"11.3432642","lat":"44.4948938","number":"6","street":"VIA RIZZOLI","unit":"","city":"BOLOGNA","district":"San Vitale","region":"","postcode":"40125"},
{"lon":"11.3850789","lat":"44.472669","number":"77","street":"VIA DEGLI ORTOLANI","unit":"","city":"BOLOGNA","district":"Savena","region":"","postcode":"40139"},
{"lon":"11.3592692","lat":"44.4963092","number":"32","street":"VIA ANTONIO ZANOLINI","unit":"","city":"BOLOGNA","district":"San Vitale","region":"","postcode":"40126"},
{"lon":"11.3686999","lat":"44.4652805","number":"1","street":"VIA M. E L. MANCINELLI","unit":"","city":"BOLOGNA","district":"Savena","region":"","postcode":"40141"},
{"lon":"11.400883","lat":"44.4913575","number":"18/6","street":"VIA MARTIRI CROCE DEL BIACCO","unit":"","city":"BOLOGNA","district":"San Vitale","region":"","postcode":"40138"},
{"lon":"11.3545263","lat":"44.5120863","number":"7","street":"VIA GIUSEPPE DOSSETTI","unit":"","city":"BOLOGNA","district":"Navile","region":"","postcode":"40128"},
{"lon":"11.2857891","lat":"44.5143026","number":"477/13","street":"VIA EMILIA PONENTE","unit":"","city":"BOLOGNA","district":"Borgo Panigale","region":"","postcode":"40132"},
{"lon":"11.3611474","lat":"44.535745","number":"45","street":"VIA GIUSEPPE BRINI","unit":"","city":"BOLOGNA","district":"Navile","region":"","postcode":"40128"},
{"lon":"11.3046468","lat":"44.5046151","number":"17","street":"VIA GINO CERVI","unit":"","city":"BOLOGNA","district":"Reno","region":"","postcode":"40133"},
{"lon":"11.280192","lat":"44.5054508","number":"13","street":"VIA UGO LA MALFA","unit":"","city":"BOLOGNA","district":"Borgo Panigale","region":"","postcode":"40132"},
{"lon":"11.3964351","lat":"44.487916","number":"99","street":"VIA GIUSEPPE RIVANI","unit":"","city":"BOLOGNA","district":"San Vitale","region":"","postcode":"40138"},
{"lon":"11.3552827","lat":"44.5123408","number":"16","street":"VIA GIUSEPPE DOSSETTI","unit":"","city":"BOLOGNA","district":"Navile","region":"","postcode":"40128"},
{"lon":"11.3596607","lat":"44.5086105","number":"4/2","street":"VIA SERENA","unit":"","city":"BOLOGNA","district":"San Donato","region":"","postcode":"40127"},
{"lon":"11.2974226","lat":"44.4515592","number":"68/5","street":"VIA DI CASAGLIA","unit":"","city":"CASE SPARSE","district":"Saragozza","region":"","postcode":"40135"},
{"lon":"11.3531881","lat":"44.514937","number":"155/2","street":"VIA FERRARESE","unit":"","city":"BOLOGNA","district":"Navile","region":"","postcode":"40128"},
{"lon":"11.4168368","lat":"44.4882097","number":"49","street":"VIA GALEAZZO MARESCOTTI","unit":"","city":"CASE SPARSE","district":"San Vitale","region":"","postcode":"40138"},
{"lon":"11.3951414","lat":"44.5136505","number":"65","street":"VIA EMILIO SALGARI","unit":"","city":"BOLOGNA","district":"San Donato","region":"","postcode":"40127"},
{"lon":"11.3225221","lat":"44.4988437","number":"8","street":"VIA MONTENERO","unit":"","city":"BOLOGNA","district":"Porto","region":"","postcode":"40131"},
{"lon":"11.3671545","lat":"44.4833583","number":"19","street":"VIA LAURA BASSI VERATTI","unit":"","city":"BOLOGNA","district":"Santo Stefano","region":"","postcode":"40137"},
{"lon":"11.3600886","lat":"44.495883","number":"13","street":"PIAZZA LA VENETA","unit":"","city":"BOLOGNA","district":"San Vitale","region":"","postcode":"40138"},
{"lon":"11.4021992","lat":"44.5034359","number":"16","street":"VIA DELL'ELETTRICISTA","unit":"","city":"BOLOGNA","district":"San Vitale","region":"","postcode":"40138"},
{"lon":"11.3889407","lat":"44.5080752","number":"10","street":"VIA DEL PILASTRO","unit":"","city":"BOLOGNA","district":"San Donato","region":"","postcode":"40127"},
{"lon":"11.3401191","lat":"44.5100559","number":"16","street":"PIAZZA LIBER PARADISUS","unit":"","city":"BOLOGNA","district":"Navile","region":"","postcode":"40129"},
{"lon":"11.3603797","lat":"44.4949301","number":"9/2","street":"VIA GIOVANNA ZACCHERINI ALVISI","unit":"","city":"BOLOGNA","district":"San Vitale","region":"","postcode":"40138"},
{"lon":"11.2783988","lat":"44.5117809","number":"31","street":"VIA CADUTI DI AMOLA","unit":"","city":"BOLOGNA","district":"Borgo Panigale","region":"","postcode":"40132"},
{"lon":"11.3595877","lat":"44.4971178","number":"39/6","street":"VIA ANTONIO ZANOLINI","unit":"","city":"BOLOGNA","district":"San Vitale","region":"","postcode":"40126"},
{"lon":"11.3790948","lat":"44.4977345","number":"42/9","street":"VIA SCANDELLARA","unit":"","city":"BOLOGNA","district":"San Vitale","region":"","postcode":"40138"},
{"lon":"11.2450208","lat":"44.5298386","number":"12","street":"VIA DELLE SERRE","unit":"","city":"CASE SPARSE","district":"Borgo Panigale","region":"","postcode":"40132"},
{"lon":"11.2776168","lat":"44.5159916","number":"8","street":"VIA LORENZO DA BAGNOMARINO","unit":"","city":"BOLOGNA","district":"Borgo Panigale","region":"","postcode":"40132"},
{"lon":"11.3776079","lat":"44.5019127","number":"16/6","street":"VIA DEL TERRAPIENO","unit":"","city":"BOLOGNA","district":"San Vitale","region":"","postcode":"40127"},
{"lon":"11.357659","lat":"44.5114756","number":"3/2","street":"PIAZZA SERGIO VIEIRA DE MELLO","unit":"","city":"BOLOGNA","district":"San Donato","region":"","postcode":"40127"},
{"lon":"11.3840194","lat":"44.4817728","number":"5/2","street":"VIALE ILIC ULJANOV LENIN","unit":"","city":"BOLOGNA","district":"Savena","region":"","postcode":"40139"},
{"lon":"11.2319152","lat":"44.5328162","number":"311","street":"VIA MARCO EMILIO LEPIDO","unit":"","city":"LAVINO DI MEZZO","district":"Borgo Panigale","region":"","postcode":"40132"},
{"lon":"11.3759411","lat":"44.497246","number":"5","street":"VIA DEL TERRAPIENO","unit":"","city":"BOLOGNA","district":"San Vitale","region":"","postcode":"40127"},
