[
	{
		"lon": "12.0620466",
		"lat": "47.5168053",
		"number": "25",
		"street": "Kreuzweg",
		"city": "Angath",
		"district": "",
		"postcode": "6321"
	},
	{
		"lon": "12.0657437",
		"lat": "47.5080014",
		"number": "2",
		"street": "Untere Dorfstraße",
		"city": "Angath",
		"district": "",
		"postcode": "6321"
	},
	{
		"lon": "12.0658145",
		"lat": "47.5074263",
		"number": "1",
		"street": "Angerberger Straße",
		"city": "Angath",
		"district": "",
		"postcode": "6321"
	},
	{
		"lon": "12.067163",
		"lat": "47.5100092",
		"number": "31",
		"street": "Winklweg",
		"city": "Angath",
		"district": "",
		"postcode": "6321"
	},
	{
		"lon": "12.0631275",
		"lat": "47.5160671",
		"number": "22",
		"street": "Am Rain",
		"city": "Angath",
		"district": "",
		"postcode": "6321"
	},
	{
		"lon": "12.0622188",
		"lat": "47.515631",
		"number": "15",
		"street": "Kreuzweg",
		"city": "Angath",
		"district": "",
		"postcode": "6321"
	},
	{
		"lon": "12.0626272",
		"lat": "47.5151622",
		"number": "24",
		"street": "Fürthstraße",
		"city": "Angath",
		"district": "",
		"postcode": "6321"
	},
	{
		"lon": "12.0676159",
		"lat": "47.5112255",
		"number": "3",
		"street": "Schopperweg",
		"city": "Angath",
		"district": "",
		"postcode": "6321"
	},
	{
		"lon": "12.0672722",
		"lat": "47.5091215",
		"number": "18",
		"street": "Untere Dorfstraße",
		"city": "Angath",
		"district": "",
		"postcode": "6321"
	},
	{
		"lon": "12.0660994",
		"lat": "47.5075579",
		"number": "4",
		"street": "Dorfplatz",
		"city": "Angath",
		"district": "",
		"postcode": "6321"
	},
	{
		"lon": "12.0638671",
		"lat": "47.5074643",
		"number": "10",
		"street": "Obere Dorfstraße",
		"city": "Angath",
		"district": "",
		"postcode": "6321"
	},
	{
		"lon": "12.0674719",
		"lat": "47.5109822",
		"number": "30",
		"street": "Untere Dorfstraße",
		"city": "Angath",
		"district": "",
		"postcode": "6321"
	},
	{
		"lon": "12.06938",
		"lat": "47.5096913",
		"number": "12",
		"street": "Schopperweg",
		"city": "Angath",
		"district": "",
		"postcode": "6321"
	},
	{
		"lon": "12.0559545",
		"lat": "47.5204507",
		"number": "3",
		"street": "Haslach",
		"city": "Angath",
		"district": "",
		"postcode": "6321"
	},
	{
		"lon": "12.0607001",
		"lat": "47.5013708",
		"number": "12",
		"street": "Aichat",
		"city": "Angath",
		"district": "",
		"postcode": "6321"
	},
	{
		"lon": "12.0700017",
		"lat": "47.5061039",
		"number": "7",
		"street": "Giglmair",
		"city": "Angath",
		"district": "",
		"postcode": "6321"
	},
	{
		"lon": "12.0697597",
		"lat": "47.5058067",
		"number": "5",
		"street": "Giglmair",
		"city": "Angath",
		"district": "",
		"postcode": "6321"
	},
	{
		"lon": "12.0632108",
		"lat": "47.5013029",
		"number": "8",
		"street": "Aichat",
		"city": "Angath",
		"district": "",
		"postcode": "6321"
	},
	{
		"lon": "12.0685727",
		"lat": "47.5100316",
		"number": "23",
		"street": "Mitterweg",
		"city": "Angath",
		"district": "",
		"postcode": "6321"
	},
	{
		"lon": "12.0683057",
		"lat": "47.509813",
		"number": "21",
		"street": "Mitterweg",
		"city": "Angath",
		"district": "",
		"postcode": "6321"
	},
	{
		"lon": "12.0687333",
		"lat": "47.5108234",
		"number": "16",
		"street": "Wiesenweg",
		"city": "Angath",
		"district": "",
		"postcode": "6321"
	},
	{
		"lon": "12.0513976",
		"lat": "47.4957255",
		"number": "9",
		"street": "Kreith",
		"city": "Angath",
		"district": "",
		"postcode": "6321"
	},
	{
		"lon": "12.0604705",
		"lat": "47.5080522",
		"number": "19",
		"street": "Angerberger Straße",
		"city": "Angath",
		"district": "",
		"postcode": "6321"
	},
	{
		"lon": "12.0621986",
		"lat": "47.5161657",
		"number": "21",
		"street": "Kreuzweg",
		"city": "Angath",
		"district": "",
		"postcode": "6321"
	},
	{
		"lon": "12.0632194",
		"lat": "47.5159844",
		"number": "18",
		"street": "Am Rain",
		"city": "Angath",
		"district": "",
		"postcode": "6321"
	},
	{
		"lon": "12.0702313",
		"lat": "47.5099955",
		"number": "30",
		"street": "Wiesenweg",
		"city": "Angath",
		"district": "",
		"postcode": "6321"
	},
	{
		"lon": "11.4519892",
		"lat": "47.1666365",
		"number": "215",
		"street": "Innerellbögen",
		"city": "Ellbögen",
		"district": "",
		"postcode": "6083"
	},
	{
		"lon": "11.4518255",
		"lat": "47.2035481",
		"number": "145",
		"street": "Hohe-Mahd-Alm",
		"city": "Ellbögen",
		"district": "",
		"postcode": "6083"
	},
	{
		"lon": "11.43104",
		"lat": "47.1898334",
		"number": "177a",
		"street": "Tarzens",
		"city": "Ellbögen",
		"district": "",
		"postcode": "6083"
	},
	{
		"lon": "11.4312116",
		"lat": "47.1895808",
		"number": "177c",
		"street": "Tarzens",
		"city": "Ellbögen",
		"district": "",
		"postcode": "6083"
	},
	{
		"lon": "11.431134",
		"lat": "47.1896353",
		"number": "177b",
		"street": "Tarzens",
		"city": "Ellbögen",
		"district": "",
		"postcode": "6083"
	},
	{
		"lon": "12.0624928",
		"lat": "47.5158025",
		"number": "17",
		"street": "Kreuzweg",
		"city": "Angath",
		"district": "",
		"postcode": "6321"
	},
	{
		"lon": "12.0673329",
		"lat": "47.5074224",
		"number": "2",
		"street": "Dorfplatz",
		"city": "Angath",
		"district": "",
		"postcode": "6321"
	},
	{
		"lon": "12.9115096",
		"lat": "46.7961361",
		"number": "3",
		"street": "Michelsberg",
		"city": "Nikolsdorf",
		"district": "",
		"postcode": "9782"
	},
	{
		"lon": "12.9017983",
		"lat": "46.785549",
		"number": "8",
		"street": "Nikolsdorf",
		"city": "Nikolsdorf",
		"district": "",
		"postcode": "9782"
	},
	{
		"lon": "12.92312",
		"lat": "46.7758066",
		"number": "14",
		"street": "Nörsach",
		"city": "Nikolsdorf",
		"district": "",
		"postcode": "9782"
	},
	{
		"lon": "12.9217353",
		"lat": "46.7733938",
		"number": "5",
		"street": "Nörsach",
		"city": "Nikolsdorf",
		"district": "",
		"postcode": "9782"
	},
	{
		"lon": "12.9224344",
		"lat": "46.7736002",
		"number": "7",
		"street": "Nörsach",
		"city": "Nikolsdorf",
		"district": "",
		"postcode": "9782"
	},
	{
		"lon": "12.9154158",
		"lat": "46.7821468",
		"number": "107",
		"street": "Nikolsdorf",
		"city": "Nikolsdorf",
		"district": "",
		"postcode": "9782"
	},
	{
		"lon": "10.473006",
		"lat": "47.5083139",
		"number": "34a",
		"street": "Zöblen",
		"city": "Zöblen",
		"district": "",
		"postcode": "6677"
	},
	{
		"lon": "10.4773404",
		"lat": "47.5084952",
		"number": "27",
		"street": "Zöblen",
		"city": "Zöblen",
		"district": "",
		"postcode": "6677"
	},
	{
		"lon": "10.4779526",
		"lat": "47.5089371",
		"number": "1",
		"street": "Zöblen",
		"city": "Zöblen",
		"district": "",
		"postcode": "6677"
	},
	{
		"lon": "12.9017236",
		"lat": "46.8019136",
		"number": "3",
		"street": "Lindsberg",
		"city": "Nikolsdorf",
		"district": "",
		"postcode": "9782"
	},
	{
		"lon": "12.9215707",
		"lat": "46.7730504",
		"number": "4",
		"street": "Nörsach",
		"city": "Nikolsdorf",
		"district": "",
		"postcode": "9782"
	},
	{
		"lon": "12.8898089",
		"lat": "46.7954075",
		"number": "5",
		"street": "Lengberg",
		"city": "Nikolsdorf",
		"district": "",
		"postcode": "9782"
	},
	{
		"lon": "12.0666753",
		"lat": "47.5069016",
		"number": "3",
		"street": "Dorfplatz",
		"city": "Angath",
		"district": "",
		"postcode": "6321"
	},
	{
		"lon": "12.0682733",
		"lat": "47.5105282",
		"number": "6",
		"street": "Schopperweg",
		"city": "Angath",
		"district": "",
		"postcode": "6321"
	},
	{
		"lon": "12.0686786",
		"lat": "47.5105741",
		"number": "19",
		"street": "Schopperweg",
		"city": "Angath",
		"district": "",
		"postcode": "6321"
	},
	{
		"lon": "12.0649863",
		"lat": "47.5110347",
		"number": "17",
		"street": "Winklweg",
		"city": "Angath",
		"district": "",
		"postcode": "6321"
	},
	{
		"lon": "12.0660767",
		"lat": "47.50778",
		"number": "5",
		"street": "Dorfplatz",
		"city": "Angath",
		"district": "",
		"postcode": "6321"
	},
	{
		"lon": "12.064465",
		"lat": "47.5074475",
		"number": "8",
		"street": "Obere Dorfstraße",
		"city": "Angath",
		"district": "",
		"postcode": "6321"
	},
	{
		"lon": "12.0688534",
		"lat": "47.5104775",
		"number": "21",
		"street": "Schopperweg",
		"city": "Angath",
		"district": "",
		"postcode": "6321"
	},
	{
		"lon": "10.4798297",
		"lat": "47.5088333",
		"number": "20",
		"street": "Zöblen",
		"city": "Zöblen",
		"district": "",
		"postcode": "6677"
	},
	{
		"lon": "11.3366512",
		"lat": "47.2323167",
		"number": "11a",
		"street": "Loufensweg",
		"city": "Götzens",
		"district": "",
		"postcode": "6091"
	},
	{
		"lon": "11.3146427",
		"lat": "47.2397915",
		"number": "27b",
		"street": "Unterer Feldweg",
		"city": "Götzens",
		"district": "",
		"postcode": "6091"
	},
	{
		"lon": "10.4796544",
		"lat": "47.5093105",
		"number": "8",
		"street": "Zöblen",
		"city": "Zöblen",
		"district": "",
		"postcode": "6677"
	},
	{
		"lon": "10.4784959",
		"lat": "47.5139754",
		"number": "42a",
		"street": "Zöblen",
		"city": "Zöblen",
		"district": "",
		"postcode": "6677"
	},
	{
		"lon": "10.4735507",
		"lat": "47.5088945",
		"number": "37",
		"street": "Zöblen",
		"city": "Zöblen",
		"district": "",
		"postcode": "6677"
	},
	{
		"lon": "10.4721613",
		"lat": "47.5077838",
		"number": "81",
		"street": "Zöblen",
		"city": "Zöblen",
		"district": "",
		"postcode": "6677"
	},
	{
		"lon": "10.4793162",
		"lat": "47.5087938",
		"number": "21",
		"street": "Zöblen",
		"city": "Zöblen",
		"district": "",
		"postcode": "6677"
	},
	{
		"lon": "10.4805695",
		"lat": "47.5096918",
		"number": "57",
		"street": "Zöblen",
		"city": "Zöblen",
		"district": "",
		"postcode": "6677"
	},
	{
		"lon": "10.4818684",
		"lat": "47.5095115",
		"number": "68",
		"street": "Zöblen",
		"city": "Zöblen",
		"district": "",
		"postcode": "6677"
	},
	{
		"lon": "12.0650644",
		"lat": "47.5075021",
		"number": "1",
		"street": "Obere Dorfstraße",
		"city": "Angath",
		"district": "",
		"postcode": "6321"
	},
	{
		"lon": "10.48011",
		"lat": "47.5092871",
		"number": "12",
		"street": "Zöblen",
		"city": "Zöblen",
		"district": "",
		"postcode": "6677"
	},
	{
		"lon": "11.3918932",
		"lat": "47.2662047",
		"number": "12",
		"street": "Adolf-Pichler-Platz",
		"city": "Innsbruck",
		"district": "",
		"postcode": "6020"
	},
	{
		"lon": "11.3946141",
		"lat": "47.2844238",
		"number": "123h",
		"street": "Höhenstraße",
		"city": "Innsbruck",
		"district": "",
		"postcode": "6020"
	},
	{
		"lon": "11.3906926",
		"lat": "47.2659025",
		"number": "12",
		"street": "Colingasse",
		"city": "Innsbruck",
		"district": "",
		"postcode": "6020"
	},
	{
		"lon": "11.3884958",
		"lat": "47.2747834",
		"number": "23",
		"street": "Höhenstraße",
		"city": "Innsbruck",
		"district": "",
		"postcode": "6020"
	},
	{
		"lon": "11.40901",
		"lat": "47.2274295",
		"number": "30",
		"street": "Patscher Straße",
		"city": "Innsbruck",
		"district": "",
		"postcode": "6080"
	},
	{
		"lon": "11.3748975",
		"lat": "47.2689161",
		"number": "61c",
		"street": "Schneeburggasse",
		"city": "Innsbruck",
		"district": "",
		"postcode": "6020"
	},
	{
		"lon": "11.394128",
		"lat": "47.2666312",
		"number": "10",
		"street": "Maria-Theresien-Straße",
		"city": "Innsbruck",
		"district": "",
		"postcode": "6020"
	},
	{
		"lon": "11.6809526",
		"lat": "47.2889631",
		"number": "99",
		"street": "Zallerstraße",
		"city": "Weerberg",
		"district": "",
		"postcode": "6133"
	},
	{
		"lon": "11.6780459",
		"lat": "47.2752599",
		"number": "62",
		"street": "Innerberg",
		"city": "Weerberg",
		"district": "",
		"postcode": "6133"
	},
	{
		"lon": "11.3945984",
		"lat": "47.2522307",
		"number": "27",
		"street": "Duilestraße",
		"city": "Innsbruck",
		"district": "",
		"postcode": "6020"
	},
	{
		"lon": "11.4087986",
		"lat": "47.2321207",
		"number": "6",
		"street": "Serlesweg",
		"city": "Innsbruck",
		"district": "",
		"postcode": "6080"
	},
	{
		"lon": "11.4198098",
		"lat": "47.2698902",
		"number": "36",
		"street": "Andechsstraße",
		"city": "Innsbruck",
		"district": "",
		"postcode": "6020"
	},
	{
		"lon": "11.403065",
		"lat": "47.2694197",
		"number": "28",
		"street": "Viaduktbogen",
		"city": "Innsbruck",
		"district": "",
		"postcode": "6020"
	},
	{
		"lon": "11.421823",
		"lat": "47.2621636",
		"number": "19",
		"street": "Amraser-See-Straße",
		"city": "Innsbruck",
		"district": "",
		"postcode": "6020"
	},
	{
		"lon": "11.4145959",
		"lat": "47.2848698",
		"number": "6",
		"street": "Kirchgasse",
		"city": "Innsbruck",
		"district": "",
		"postcode": "6020"
	},
	{
		"lon": "11.6861198",
		"lat": "47.3113102",
		"number": "8",
		"street": "Tranweg",
		"city": "Weerberg",
		"district": "",
		"postcode": "6133"
	},
	{
		"lon": "11.6853762",
		"lat": "47.3100244",
		"number": "1",
		"street": "Mitterberg",
		"city": "Weerberg",
		"district": "",
		"postcode": "6133"
	},
	{
		"lon": "11.666031",
		"lat": "47.2984078",
		"number": "31",
		"street": "Wiesenhofweg",
		"city": "Weerberg",
		"district": "",
		"postcode": "6133"
	},
	{
		"lon": "11.7100644",
		"lat": "47.3006003",
		"number": "28",
		"street": "Kreith",
		"city": "Weerberg",
		"district": "",
		"postcode": "6133"
	},
	{
		"lon": "11.710412",
		"lat": "47.3019214",
		"number": "18",
		"street": "Kreith",
		"city": "Weerberg",
		"district": "",
		"postcode": "6133"
	},
	{
		"lon": "11.6813639",
		"lat": "47.3066044",
		"number": "6",
		"street": "Leimbach",
		"city": "Weerberg",
		"district": "",
		"postcode": "6133"
	},
	{
		"lon": "11.3704245",
		"lat": "47.2611401",
		"number": "13",
		"street": "Perthalergasse",
		"city": "Innsbruck",
		"district": "",
		"postcode": "6020"
	},
	{
		"lon": "11.4220538",
		"lat": "47.275427",
		"number": "94b",
		"street": "Reichenauer Straße",
		"city": "Innsbruck",
		"district": "",
		"postcode": "6020"
	},
	{
		"lon": "11.4058837",
		"lat": "47.2721884",
		"number": "65",
		"street": "Viaduktbogen",
		"city": "Innsbruck",
		"district": "",
		"postcode": "6020"
	},
	{
		"lon": "11.4264543",
		"lat": "47.2602443",
		"number": "36",
		"street": "Gerhart-Hauptmann-Straße",
		"city": "Innsbruck",
		"district": "",
		"postcode": "6020"
	},
	{
		"lon": "11.373821",
		"lat": "47.255676",
		"number": "20",
		"street": "Uferstraße",
		"city": "Innsbruck",
		"district": "",
		"postcode": "6020"
	},
	{
		"lon": "11.4333122",
		"lat": "47.284898",
		"number": "7",
		"street": "Weinberggasse",
		"city": "Innsbruck",
		"district": "",
		"postcode": "6020"
	},
	{
		"lon": "11.3769801",
		"lat": "47.2657495",
		"number": "66a",
		"street": "Höttinger Au",
		"city": "Innsbruck",
		"district": "",
		"postcode": "6020"
	},
	{
		"lon": "11.4244376",
		"lat": "47.2817791",
		"number": "8",
		"street": "Kreuzgasse",
		"city": "Innsbruck",
		"district": "",
		"postcode": "6020"
	},
	{
		"lon": "11.4045983",
		"lat": "47.26971",
		"number": "10",
		"street": "Jahnstraße",
		"city": "Innsbruck",
		"district": "",
		"postcode": "6020"
	},
	{
		"lon": "11.4445683",
		"lat": "47.2750069",
		"number": "29",
		"street": "Col-di-Lana-Straße",
		"city": "Innsbruck",
		"district": "",
		"postcode": "6020"
	},
	{
		"lon": "11.4170713",
		"lat": "47.2309657",
		"number": "24a",
		"street": "Badhausstraße",
		"city": "Innsbruck",
		"district": "",
		"postcode": "6080"
	},
	{
		"lon": "11.3159596",
		"lat": "47.2374531",
		"number": "6",
		"street": "Überbergweg",
		"city": "Götzens",
		"district": "",
		"postcode": "6091"
	},
	{
		"lon": "11.3071861",
		"lat": "47.2345749",
		"number": "33c",
		"street": "Josef-Abentung-Weg",
		"city": "Götzens",
		"district": "",
		"postcode": "6091"
	},
	{
		"lon": "11.3110719",
		"lat": "47.2338682",
		"number": "7",
		"street": "Götzner Bergweg",
		"city": "Götzens",
		"district": "",
		"postcode": "6091"
	},
	{
		"lon": "11.3073035",
		"lat": "47.2380464",
		"number": "22",
		"street": "Kirchstraße",
		"city": "Götzens",
		"district": "",
		"postcode": "6091"
	},
	{
		"lon": "11.347816",
		"lat": "47.2658965",
		"number": "34",
		"street": "Technikerstraße",
		"city": "Innsbruck",
		"district": "",
		"postcode": "6020"
	},
	{
		"lon": "11.3940416",
		"lat": "47.2694044",
		"number": "4",
		"street": "Pfarrgasse",
		"city": "Innsbruck",
		"district": "",
		"postcode": "6020"
	},
	{
		"lon": "11.3929008",
		"lat": "47.2668303",
		"number": "1",
		"street": "Adolf-Pichler-Platz",
		"city": "Innsbruck",
		"district": "",
		"postcode": "6020"
	},
	{
		"lon": "11.3496836",
		"lat": "47.2662366",
		"number": "6",
		"street": "Josef-Stapf-Straße",
		"city": "Innsbruck",
		"district": "",
		"postcode": "6020"
	},
	{
		"lon": "11.3325653",
		"lat": "47.2666815",
		"number": "17",
		"street": "Hans-Untermüller-Straße",
		"city": "Innsbruck",
		"district": "",
		"postcode": "6020"
	},
	{
		"lon": "11.3903823",
		"lat": "47.2646338",
		"number": "29",
		"street": "Anichstraße",
		"city": "Innsbruck",
		"district": "",
		"postcode": "6020"
	},
	{
		"lon": "11.403396",
		"lat": "47.2357437",
		"number": "4",
		"street": "Lilly-von-Sauter-Weg",
		"city": "Innsbruck",
		"district": "",
		"postcode": "6080"
	},
	{
		"lon": "11.3697547",
		"lat": "47.2616708",
		"number": "115",
		"street": "Fürstenweg",
		"city": "Innsbruck",
		"district": "",
		"postcode": "6020"
	},
	{
		"lon": "11.4097059",
		"lat": "47.283429",
		"number": "8a",
		"street": "Anton-Rauch-Straße",
		"city": "Innsbruck",
		"district": "",
		"postcode": "6020"
	},
	{
		"lon": "11.3921894",
		"lat": "47.2756513",
		"number": "71",
		"street": "Riedgasse",
		"city": "Innsbruck",
		"district": "",
		"postcode": "6020"
	},
	{
		"lon": "11.3684004",
		"lat": "47.2645386",
		"number": "27",
		"street": "Ing.-Sigl-Straße",
		"city": "Innsbruck",
		"district": "",
		"postcode": "6020"
	},
	{
		"lon": "11.4360653",
		"lat": "47.259444",
		"number": "21",
		"street": "Luigenstraße",
		"city": "Innsbruck",
		"district": "",
		"postcode": "6020"
	},
	{
		"lon": "11.4068514",
		"lat": "47.2624186",
		"number": "14",
		"street": "Knollerstraße",
		"city": "Innsbruck",
		"district": "",
		"postcode": "6020"
	},
	{
		"lon": "11.3385033",
		"lat": "47.234018",
		"number": "66c",
		"street": "Seestraße",
		"city": "Götzens",
		"district": "",
		"postcode": "6091"
	},
	{
		"lon": "11.3145903",
		"lat": "47.2400303",
		"number": "27d",
		"street": "Unterer Feldweg",
		"city": "Götzens",
		"district": "",
		"postcode": "6091"
	},
	{
		"lon": "11.3142431",
		"lat": "47.2400435",
		"number": "21c",
		"street": "Unterer Feldweg",
		"city": "Götzens",
		"district": "",
		"postcode": "6091"
	},
	{
		"lon": "11.6635004",
		"lat": "47.2833938",
		"number": "18",
		"street": "Högweg",
		"city": "Weerberg",
		"district": "",
		"postcode": "6133"
	},
	{
		"lon": "11.6782656",
		"lat": "47.2886254",
		"number": "113",
		"street": "Zallerstraße",
		"city": "Weerberg",
		"district": "",
		"postcode": "6133"
	},
	{
		"lon": "11.6778338",
		"lat": "47.3024459",
		"number": "16",
		"street": "Tratenweg",
		"city": "Weerberg",
		"district": "",
		"postcode": "6133"
	},
	{
		"lon": "11.6788385",
		"lat": "47.3046561",
		"number": "40",
		"street": "Mitterberg",
		"city": "Weerberg",
		"district": "",
		"postcode": "6133"
	},
	{
		"lon": "11.3895929",
		"lat": "47.2750914",
		"number": "1a",
		"street": "Schlerngasse",
		"city": "Innsbruck",
		"district": "",
		"postcode": "6020"
	},
	{
		"lon": "11.3997935",
		"lat": "47.2858411",
		"number": "124",
		"street": "Höhenstraße",
		"city": "Innsbruck",
		"district": "",
		"postcode": "6020"
	},
	{
		"lon": "11.3556325",
		"lat": "47.2533387",
		"number": "72",
		"street": "Josef-Franz-Huter-Straße",
		"city": "Innsbruck",
		"district": "",
		"postcode": "6020"
	},
	{
		"lon": "11.4430094",
		"lat": "47.2691829",
		"number": "50a",
		"street": "Archenweg",
		"city": "Innsbruck",
		"district": "",
		"postcode": "6020"
	},
	{
		"lon": "11.3962686",
		"lat": "47.2498169",
		"number": "20a",
		"street": "Bergiselweg",
		"city": "Innsbruck",
		"district": "",
		"postcode": "6020"
	},
	{
		"lon": "11.6759583",
		"lat": "47.2758871",
		"number": "50",
		"street": "Innerberg",
		"city": "Weerberg",
		"district": "",
		"postcode": "6133"
	},
	{
		"lon": "11.6905746",
		"lat": "47.26653",
		"number": "115",
		"street": "Innerberg",
		"city": "Weerberg",
		"district": "",
		"postcode": "6133"
	},
	{
		"lon": "11.4418069",
		"lat": "47.2689791",
		"number": "3",
		"street": "Josef-Mayr-Nusser-Weg",
		"city": "Innsbruck",
		"district": "",
		"postcode": "6020"
	},
	{
		"lon": "11.3900656",
		"lat": "47.2749782",
		"number": "12",
		"street": "Höhenstraße",
		"city": "Innsbruck",
		"district": "",
		"postcode": "6020"
	},
	{
		"lon": "11.3888755",
		"lat": "47.268581",
		"number": "40",
		"street": "Mariahilfstraße",
		"city": "Innsbruck",
		"district": "",
		"postcode": "6020"
	},
	{
		"lon": "12.9070517",
		"lat": "46.7876082",
		"number": "10",
		"street": "Hochstatt",
		"city": "Nikolsdorf",
		"district": "",
		"postcode": "9782"
	},
	{
		"lon": "12.9067989",
		"lat": "46.7875109",
		"number": "68",
		"street": "Nikolsdorf",
		"city": "Nikolsdorf",
		"district": "",
		"postcode": "9782"
	},
	{
		"lon": "11.7061257",
		"lat": "47.5351576",
		"number": "444",
		"street": "Achenkirch",
		"city": "Achenkirch",
		"district": "",
		"postcode": "6215"
	},
	{
		"lon": "11.7056573",
		"lat": "47.5353982",
		"number": "447",
		"street": "Achenkirch",
		"city": "Achenkirch",
		"district": "",
		"postcode": "6215"
	},
	{
		"lon": "11.7059084",
		"lat": "47.5375503",
		"number": "457b",
		"street": "Achenkirch",
		"city": "Achenkirch",
		"district": "",
		"postcode": "6215"
	},
	{
		"lon": "11.646003",
		"lat": "47.5768448",
		"number": "657",
		"street": "Achenkirch",
		"city": "Achenkirch",
		"district": "",
		"postcode": "6215"
	},
	{
		"lon": "11.7098756",
		"lat": "47.507707",
		"number": "146",
		"street": "Achenkirch",
		"city": "Achenkirch",
		"district": "",
		"postcode": "6215"
	},
	{
		"lon": "11.7097127",
		"lat": "47.5116948",
		"number": "178",
		"street": "Achenkirch",
		"city": "Achenkirch",
		"district": "",
		"postcode": "6215"
	},
	{
		"lon": "11.7055806",
		"lat": "47.5238516",
		"number": "348",
		"street": "Achenkirch",
		"city": "Achenkirch",
		"district": "",
		"postcode": "6215"
	},
	{
		"lon": "11.7087867",
		"lat": "47.5088815",
		"number": "163",
		"street": "Achenkirch",
		"city": "Achenkirch",
		"district": "",
		"postcode": "6215"
	},
	{
		"lon": "11.7080922",
		"lat": "47.52384",
		"number": "358",
		"street": "Achenkirch",
		"city": "Achenkirch",
		"district": "",
		"postcode": "6215"
	},
	{
		"lon": "11.7044315",
		"lat": "47.5047812",
		"number": "43a",
		"street": "Achenkirch",
		"city": "Achenkirch",
		"district": "",
		"postcode": "6215"
	},
	{
		"lon": "11.704775",
		"lat": "47.5087971",
		"number": "129a",
		"street": "Achenkirch",
		"city": "Achenkirch",
		"district": "",
		"postcode": "6215"
	},
	{
		"lon": "11.7136196",
		"lat": "47.5471835",
		"number": "510",
		"street": "Achenkirch",
		"city": "Achenkirch",
		"district": "",
		"postcode": "6215"
	},
	{
		"lon": "12.9067547",
		"lat": "46.7862273",
		"number": "106",
		"street": "Nikolsdorf",
		"city": "Nikolsdorf",
		"district": "",
		"postcode": "9782"
	},
	{
		"lon": "10.403722",
		"lat": "47.1504503",
		"number": "180",
		"street": "Flirsch",
		"city": "Flirsch",
		"district": "",
		"postcode": "6572"
	},
	{
		"lon": "10.4057661",
		"lat": "47.1509113",
		"number": "170",
		"street": "Flirsch",
		"city": "Flirsch",
		"district": "",
		"postcode": "6572"
	},
	{
		"lon": "10.4244821",
		"lat": "47.1416203",
		"number": "65",
		"street": "Flirschberg",
		"city": "Flirsch",
		"district": "",
		"postcode": "6572"
	},
	{
		"lon": "12.9033674",
		"lat": "46.8020954",
		"number": "4",
		"street": "Lindsberg",
		"city": "Nikolsdorf",
		"district": "",
		"postcode": "9782"
	},
	{
		"lon": "10.4251776",
		"lat": "47.1405909",
		"number": "55",
		"street": "Flirschberg",
		"city": "Flirsch",
		"district": "",
		"postcode": "6572"
	},
	{
		"lon": "10.4062387",
		"lat": "47.1500804",
		"number": "173",
		"street": "Flirsch",
		"city": "Flirsch",
		"district": "",
		"postcode": "6572"
	},
	{
		"lon": "10.4095064",
		"lat": "47.1503886",
		"number": "217",
		"street": "Flirsch",
		"city": "Flirsch",
		"district": "",
		"postcode": "6572"
	},
	{
		"lon": "10.4139859",
		"lat": "47.144038",
		"number": "264",
		"street": "Flirsch",
		"city": "Flirsch",
		"district": "",
		"postcode": "6572"
	},
	{
		"lon": "10.4221723",
		"lat": "47.1364626",
		"number": "9",
		"street": "Flirsch",
		"city": "Flirsch",
		"district": "",
		"postcode": "6572"
	},
	{
		"lon": "10.4234301",
		"lat": "47.1391286",
		"number": "44c",
		"street": "Flirschberg",
		"city": "Flirsch",
		"district": "",
		"postcode": "6572"
	},
	{
		"lon": "10.4158482",
		"lat": "47.1433212",
		"number": "15",
		"street": "Flirsch",
		"city": "Flirsch",
		"district": "",
		"postcode": "6572"
	},
	{
		"lon": "10.4208691",
		"lat": "47.1414107",
		"number": "39b",
		"street": "Flirschberg",
		"city": "Flirsch",
		"district": "",
		"postcode": "6572"
	},
	{
		"lon": "10.4076566",
		"lat": "47.149756",
		"number": "162",
		"street": "Flirsch",
		"city": "Flirsch",
		"district": "",
		"postcode": "6572"
	},
	{
		"lon": "11.6970063",
		"lat": "47.5054982",
		"number": "53",
		"street": "Achenkirch",
		"city": "Achenkirch",
		"district": "",
		"postcode": "6215"
	},
	{
		"lon": "11.7020732",
		"lat": "47.5423657",
		"number": "495b",
		"street": "Achenkirch",
		"city": "Achenkirch",
		"district": "",
		"postcode": "6215"
	},
	{
		"lon": "11.8763646",
		"lat": "47.291167",
		"number": "36",
		"street": "Kaltenbacher Landstraße",
		"city": "Kaltenbach",
		"district": "",
		"postcode": "6272"
	},
	{
		"lon": "11.8473527",
		"lat": "47.2705312",
		"number": "71",
		"street": "Neuhütten",
		"city": "Kaltenbach",
		"district": "",
		"postcode": "6272"
	},
	{
		"lon": "11.8418732",
		"lat": "47.2731326",
		"number": "12",
		"street": "Neuhütten",
		"city": "Kaltenbach",
		"district": "",
		"postcode": "6272"
	},
	{
		"lon": "12.8913409",
		"lat": "46.7971707",
		"number": "3",
		"street": "Lengberg",
		"city": "Nikolsdorf",
		"district": "",
		"postcode": "9782"
	},
	{
		"lon": "12.8916295",
		"lat": "46.7965602",
		"number": "38",
		"street": "Lengberg",
		"city": "Nikolsdorf",
		"district": "",
		"postcode": "9782"
	},
	{
		"lon": "12.9116443",
		"lat": "46.7965135",
		"number": "4",
		"street": "Michelsberg",
		"city": "Nikolsdorf",
		"district": "",
		"postcode": "9782"
	},
	{
		"lon": "12.9132889",
		"lat": "46.7822381",
		"number": "117",
		"street": "Nikolsdorf",
		"city": "Nikolsdorf",
		"district": "",
		"postcode": "9782"
	},
	{
		"lon": "11.7019802",
		"lat": "47.5182238",
		"number": "219b",
		"street": "Achenkirch",
		"city": "Achenkirch",
		"district": "",
		"postcode": "6215"
	},
	{
		"lon": "11.7096441",
		"lat": "47.5395434",
		"number": "475",
		"street": "Achenkirch",
		"city": "Achenkirch",
		"district": "",
		"postcode": "6215"
	},
	{
		"lon": "12.9028041",
		"lat": "46.7860734",
		"number": "140",
		"street": "Nikolsdorf",
		"city": "Nikolsdorf",
		"district": "",
		"postcode": "9782"
	},
	{
		"lon": "11.7064351",
		"lat": "47.5225693",
		"number": "330",
		"street": "Achenkirch",
		"city": "Achenkirch",
		"district": "",
		"postcode": "6215"
	},
	{
		"lon": "11.873698",
		"lat": "47.2981517",
		"number": "3",
		"street": "Oberanger",
		"city": "Kaltenbach",
		"district": "",
		"postcode": "6272"
	},
	{
		"lon": "11.8678286",
		"lat": "47.2976785",
		"number": "4",
		"street": "Wöscherweg",
		"city": "Kaltenbach",
		"district": "",
		"postcode": "6272"
	},
	{
		"lon": "11.8650293",
		"lat": "47.2876825",
		"number": "55",
		"street": "Emberg",
		"city": "Kaltenbach",
		"district": "",
		"postcode": "6272"
	},
	{
		"lon": "11.8652702",
		"lat": "47.2868452",
		"number": "60",
		"street": "Äußere Embergstraße",
		"city": "Kaltenbach",
		"district": "",
		"postcode": "6272"
	},
	{
		"lon": "11.8637395",
		"lat": "47.2921261",
		"number": "16",
		"street": "Äußere Embergstraße",
		"city": "Kaltenbach",
		"district": "",
		"postcode": "6272"
	},
	{
		"lon": "11.7016993",
		"lat": "47.5441677",
		"number": "540",
		"street": "Achenkirch",
		"city": "Achenkirch",
		"district": "",
		"postcode": "6215"
	},
	{
		"lon": "11.7013245",
		"lat": "47.5443628",
		"number": "540a",
		"street": "Achenkirch",
		"city": "Achenkirch",
		"district": "",
		"postcode": "6215"
	},
	{
		"lon": "12.9146774",
		"lat": "46.7829241",
		"number": "186",
		"street": "Nikolsdorf",
		"city": "Nikolsdorf",
		"district": "",
		"postcode": "9782"
	},
	{
		"lon": "12.9094763",
		"lat": "46.7880524",
		"number": "177a",
		"street": "Nikolsdorf",
		"city": "Nikolsdorf",
		"district": "",
		"postcode": "9782"
	},
	{
		"lon": "12.9204003",
		"lat": "46.7733631",
		"number": "17",
		"street": "Nörsach",
		"city": "Nikolsdorf",
		"district": "",
		"postcode": "9782"
	},
	{
		"lon": "11.7056485",
		"lat": "47.5418645",
		"number": "500",
		"street": "Achenkirch",
		"city": "Achenkirch",
		"district": "",
		"postcode": "6215"
	},
	{
		"lon": "11.6742071",
		"lat": "47.5630567",
		"number": "602",
		"street": "Achenkirch",
		"city": "Achenkirch",
		"district": "",
		"postcode": "6215"
	},
	{
		"lon": "11.7036559",
		"lat": "47.5292993",
		"number": "399",
		"street": "Achenkirch",
		"city": "Achenkirch",
		"district": "",
		"postcode": "6215"
	},
	{
		"lon": "11.7061739",
		"lat": "47.5222112",
		"number": "333",
		"street": "Achenkirch",
		"city": "Achenkirch",
		"district": "",
		"postcode": "6215"
	},
	{
		"lon": "11.7027332",
		"lat": "47.5223158",
		"number": "288",
		"street": "Achenkirch",
		"city": "Achenkirch",
		"district": "",
		"postcode": "6215"
	},
	{
		"lon": "10.4124091",
		"lat": "47.1499635",
		"number": "238",
		"street": "Flirsch",
		"city": "Flirsch",
		"district": "",
		"postcode": "6572"
	},
	{
		"lon": "10.4264181",
		"lat": "47.1418586",
		"number": "59",
		"street": "Flirschberg",
		"city": "Flirsch",
		"district": "",
		"postcode": "6572"
	},
	{
		"lon": "10.4251047",
		"lat": "47.1413589",
		"number": "57",
		"street": "Flirschberg",
		"city": "Flirsch",
		"district": "",
		"postcode": "6572"
	},
	{
		"lon": "10.4112396",
		"lat": "47.1480282",
		"number": "120",
		"street": "Flirsch",
		"city": "Flirsch",
		"district": "",
		"postcode": "6572"
	},
	{
		"lon": "12.9245647",
		"lat": "46.7763663",
		"number": "20",
		"street": "Nörsach",
		"city": "Nikolsdorf",
		"district": "",
		"postcode": "9782"
	},
	{
		"lon": "12.9336458",
		"lat": "46.7834452",
		"number": "8",
		"street": "Damer",
		"city": "Nikolsdorf",
		"district": "",
		"postcode": "9782"
	},
	{
		"lon": "12.89069",
		"lat": "46.794982",
		"number": "11",
		"street": "Lengberg",
		"city": "Nikolsdorf",
		"district": "",
		"postcode": "9782"
	},
	{
		"lon": "12.8923701",
		"lat": "46.7973978",
		"number": "1",
		"street": "Lengberg",
		"city": "Nikolsdorf",
		"district": "",
		"postcode": "9782"
	},
	{
		"lon": "11.6943621",
		"lat": "47.5503271",
		"number": "574",
		"street": "Achenkirch",
		"city": "Achenkirch",
		"district": "",
		"postcode": "6215"
	},
	{
		"lon": "11.7022533",
		"lat": "47.4773531",
		"number": "3",
		"street": "Achenkirch",
		"city": "Achenkirch",
		"district": "",
		"postcode": "6215"
	},
	{
		"lon": "11.7067181",
		"lat": "47.546318",
		"number": "527",
		"street": "Achenkirch",
		"city": "Achenkirch",
		"district": "",
		"postcode": "6215"
	},
	{
		"lon": "11.7052708",
		"lat": "47.550203",
		"number": "529",
		"street": "Achenkirch",
		"city": "Achenkirch",
		"district": "",
		"postcode": "6215"
	},
	{
		"lon": "12.9237445",
		"lat": "46.7755405",
		"number": "16",
		"street": "Nörsach",
		"city": "Nikolsdorf",
		"district": "",
		"postcode": "9782"
	},
	{
		"lon": "10.5605109",
		"lat": "47.1453117",
		"number": "40",
		"street": "Lochbödele",
		"city": "Landeck",
		"district": "",
		"postcode": "6500"
	},
	{
		"lon": "10.4220948",
		"lat": "47.1364963",
		"number": "9",
		"street": "Pardöll",
		"city": "Flirsch",
		"district": "",
		"postcode": "6572"
	},
	{
		"lon": "10.4242468",
		"lat": "47.1388604",
		"number": "44g",
		"street": "Flirschberg",
		"city": "Flirsch",
		"district": "",
		"postcode": "6572"
	},
	{
		"lon": "10.5690665",
		"lat": "47.1356596",
		"number": "4",
		"street": "Schloßweg",
		"city": "Landeck",
		"district": "",
		"postcode": "6500"
	},
	{
		"lon": "10.411913",
		"lat": "47.1510658",
		"number": "244",
		"street": "Flirsch",
		"city": "Flirsch",
		"district": "",
		"postcode": "6572"
	},
	{
		"lon": "12.2545861",
		"lat": "47.5211772",
		"number": "14",
		"street": "Schwarzach",
		"city": "Scheffau am Wilden Kaiser",
		"district": "",
		"postcode": "6351"
	},
	{
		"lon": "12.2490944",
		"lat": "47.5326185",
		"number": "30",
		"street": "Leiten",
		"city": "Scheffau am Wilden Kaiser",
		"district": "",
		"postcode": "6351"
	},
	{
		"lon": "10.4116843",
		"lat": "47.1502727",
		"number": "233",
		"street": "Flirsch",
		"city": "Flirsch",
		"district": "",
		"postcode": "6572"
	},
	{
		"lon": "10.4138095",
		"lat": "47.1441993",
		"number": "265",
		"street": "Flirsch",
		"city": "Flirsch",
		"district": "",
		"postcode": "6572"
	},
	{
		"lon": "10.5700847",
		"lat": "47.151167",
		"number": "17a",
		"street": "Lötzweg",
		"city": "Landeck",
		"district": "",
		"postcode": "6500"
	},
	{
		"lon": "10.5667694",
		"lat": "47.140589",
		"number": "56",
		"street": "Malserstraße",
		"city": "Landeck",
		"district": "",
		"postcode": "6500"
	},
	{
		"lon": "11.2676117",
		"lat": "47.3945211",
		"number": "245",
		"street": "Innsbruckerstraße",
		"city": "Scharnitz",
		"district": "",
		"postcode": "6108"
	},
	{
		"lon": "11.2663298",
		"lat": "47.38637",
		"number": "222",
		"street": "Hinterautalstraße",
		"city": "Scharnitz",
		"district": "",
		"postcode": "6108"
	},
	{
		"lon": "11.2659615",
		"lat": "47.3858254",
		"number": "488",
		"street": "Feldweg",
		"city": "Scharnitz",
		"district": "",
		"postcode": "6108"
	},
	{
		"lon": "12.2519433",
		"lat": "47.5221081",
		"number": "70",
		"street": "Blaiken",
		"city": "Scheffau am Wilden Kaiser",
		"district": "",
		"postcode": "6351"
	},
	{
		"lon": "10.5714378",
		"lat": "47.148435",
		"number": "2",
		"street": "Adamhofgasse",
		"city": "Landeck",
		"district": "",
		"postcode": "6500"
	},
	{
		"lon": "10.5704043",
		"lat": "47.1494052",
		"number": "15",
		"street": "Schrofensteinstraße",
		"city": "Landeck",
		"district": "",
		"postcode": "6500"
	},
	{
		"lon": "10.5723787",
		"lat": "47.1502576",
		"number": "3a",
		"street": "Josef-Stapf-Straße",
		"city": "Landeck",
		"district": "",
		"postcode": "6500"
	},
	{
		"lon": "10.5656197",
		"lat": "47.1369281",
		"number": "6a",
		"street": "Herzog-Friedrich-Straße",
		"city": "Landeck",
		"district": "",
		"postcode": "6500"
	},
	{
		"lon": "10.5716149",
		"lat": "47.1430147",
		"number": "12",
		"street": "Ödweg",
		"city": "Landeck",
		"district": "",
		"postcode": "6500"
	},
	{
		"lon": "11.2680567",
		"lat": "47.3874632",
		"number": "261",
		"street": "Inrain",
		"city": "Scharnitz",
		"district": "",
		"postcode": "6108"
	},
	{
		"lon": "11.2595172",
		"lat": "47.3864174",
		"number": "498",
		"street": "Oberdorf",
		"city": "Scharnitz",
		"district": "",
		"postcode": "6108"
	},
	{
		"lon": "10.5704281",
		"lat": "47.1414673",
		"number": "4",
		"street": "Kreuzbühelgasse",
		"city": "Landeck",
		"district": "",
		"postcode": "6500"
	},
	{
		"lon": "10.5716067",
		"lat": "47.1457132",
		"number": "16",
		"street": "Brixnerstraße",
		"city": "Landeck",
		"district": "",
		"postcode": "6500"
	},
	{
		"lon": "10.5688018",
		"lat": "47.1504289",
		"number": "24c",
		"street": "Riefengasse",
		"city": "Landeck",
		"district": "",
		"postcode": "6500"
	},
	{
		"lon": "10.5665346",
		"lat": "47.1417149",
		"number": "61",
		"street": "Malserstraße",
		"city": "Landeck",
		"district": "",
		"postcode": "6500"
	},
	{
		"lon": "10.546044",
		"lat": "47.141582",
		"number": "38",
		"street": "Flirstraße",
		"city": "Landeck",
		"district": "",
		"postcode": "6500"
	},
	{
		"lon": "10.4147303",
		"lat": "47.1460153",
		"number": "84",
		"street": "Flirsch",
		"city": "Flirsch",
		"district": "",
		"postcode": "6572"
	},
	{
		"lon": "10.4153616",
		"lat": "47.1499451",
		"number": "241",
		"street": "Flirsch",
		"city": "Flirsch",
		"district": "",
		"postcode": "6572"
	},
	{
		"lon": "11.2589435",
		"lat": "47.3861003",
		"number": "500",
		"street": "Oberdorf",
		"city": "Scharnitz",
		"district": "",
		"postcode": "6108"
	},
	{
		"lon": "12.2249576",
		"lat": "47.544268",
		"number": "29",
		"street": "Hinterstein",
		"city": "Scheffau am Wilden Kaiser",
		"district": "",
		"postcode": "6351"
	},
	{
		"lon": "12.2453632",
		"lat": "47.5223562",
		"number": "41",
		"street": "Blaiken",
		"city": "Scheffau am Wilden Kaiser",
		"district": "",
		"postcode": "6351"
	},
	{
		"lon": "11.2605986",
		"lat": "47.389566",
		"number": "182",
		"street": "Hirlanda-Ellmann-Weg",
		"city": "Scharnitz",
		"district": "",
		"postcode": "6108"
	},
	{
		"lon": "11.2675738",
		"lat": "47.3843984",
		"number": "392",
		"street": "Eisack",
		"city": "Scharnitz",
		"district": "",
		"postcode": "6108"
	},
	{
		"lon": "11.2561909",
		"lat": "47.3861847",
		"number": "284",
		"street": "Innsbruckerstraße",
		"city": "Scharnitz",
		"district": "",
		"postcode": "6108"
	},
	{
		"lon": "12.2424276",
		"lat": "47.525666",
		"number": "2",
		"street": "Sonnwies",
		"city": "Scheffau am Wilden Kaiser",
		"district": "",
		"postcode": "6351"
	},
	{
		"lon": "12.2515339",
		"lat": "47.5298063",
		"number": "10",
		"street": "Oberfeld",
		"city": "Scheffau am Wilden Kaiser",
		"district": "",
		"postcode": "6351"
	},
	{
		"lon": "12.2510167",
		"lat": "47.5269832",
		"number": "11",
		"street": "Dorf",
		"city": "Scheffau am Wilden Kaiser",
		"district": "",
		"postcode": "6351"
	},
	{
		"lon": "12.223239",
		"lat": "47.5437056",
		"number": "53",
		"street": "Hinterstein",
		"city": "Scheffau am Wilden Kaiser",
		"district": "",
		"postcode": "6351"
	},
	{
		"lon": "12.2312278",
		"lat": "47.5657847",
		"number": "12",
		"street": "Steinberg",
		"city": "Scheffau am Wilden Kaiser",
		"district": "",
		"postcode": "6351"
	},
	{
		"lon": "10.5592556",
		"lat": "47.1435604",
		"number": "10",
		"street": "Prandtauerweg",
		"city": "Landeck",
		"district": "",
		"postcode": "6500"
	},
	{
		"lon": "11.2659679",
		"lat": "47.3940998",
		"number": "257",
		"street": "Innsbruckerstraße",
		"city": "Scharnitz",
		"district": "",
		"postcode": "6108"
	},
	{
		"lon": "11.2657313",
		"lat": "47.3876495",
		"number": "159",
		"street": "Hinterautalstraße",
		"city": "Scharnitz",
		"district": "",
		"postcode": "6108"
	},
	{
		"lon": "11.2684595",
		"lat": "47.3874161",
		"number": "93",
		"street": "Inrain",
		"city": "Scharnitz",
		"district": "",
		"postcode": "6108"
	},
	{
		"lon": "11.2661429",
		"lat": "47.3931409",
		"number": "37",
		"street": "Innsbruckerstraße",
		"city": "Scharnitz",
		"district": "",
		"postcode": "6108"
	},
	{
		"lon": "11.2680435",
		"lat": "47.3876835",
		"number": "92",
		"street": "Inrain",
		"city": "Scharnitz",
		"district": "",
		"postcode": "6108"
	},
	{
		"lon": "11.2354646",
		"lat": "47.3754655",
		"number": "436",
		"street": "Gießenbach",
		"city": "Scharnitz",
		"district": "",
		"postcode": "6108"
	},
	{
		"lon": "11.2351987",
		"lat": "47.3746328",
		"number": "481",
		"street": "Gießenbach",
		"city": "Scharnitz",
		"district": "",
		"postcode": "6108"
	},
	{
		"lon": "11.2373989",
		"lat": "47.3778944",
		"number": "248",
		"street": "Gießenbach",
		"city": "Scharnitz",
		"district": "",
		"postcode": "6108"
	},
	{
		"lon": "10.5727291",
		"lat": "47.1508743",
		"number": "5",
		"street": "Josef-Stapf-Straße",
		"city": "Landeck",
		"district": "",
		"postcode": "6500"
	},
	{
		"lon": "11.2664706",
		"lat": "47.3890125",
		"number": "88",
		"street": "Inrain",
		"city": "Scharnitz",
		"district": "",
		"postcode": "6108"
	},
	{
		"lon": "11.2660559",
		"lat": "47.3889701",
		"number": "86",
		"street": "Inrain",
		"city": "Scharnitz",
		"district": "",
		"postcode": "6108"
	},
	{
		"lon": "11.2632289",
		"lat": "47.3900705",
		"number": "8",
		"street": "Porta-Claudia-Straße",
		"city": "Scharnitz",
		"district": "",
		"postcode": "6108"
	},
	{
		"lon": "11.2640708",
		"lat": "47.3901581",
		"number": "472",
		"street": "Waidach",
		"city": "Scharnitz",
		"district": "",
		"postcode": "6108"
	},
	{
		"lon": "11.2621103",
		"lat": "47.3903523",
		"number": "266",
		"street": "Hirlanda-Ellmann-Weg",
		"city": "Scharnitz",
		"district": "",
		"postcode": "6108"
	},
	{
		"lon": "10.5778718",
		"lat": "47.1486623",
		"number": "16",
		"street": "Bahnhofstraße",
		"city": "Landeck",
		"district": "",
		"postcode": "6500"
	},
	{
		"lon": "10.58071",
		"lat": "47.1483367",
		"number": "88",
		"street": "Urichstraße",
		"city": "Landeck",
		"district": "",
		"postcode": "6500"
	},
	{
		"lon": "10.5717807",
		"lat": "47.1498091",
		"number": "6",
		"street": "Obere Feldgasse",
		"city": "Landeck",
		"district": "",
		"postcode": "6500"
	},
	{
		"lon": "10.5585025",
		"lat": "47.1438304",
		"number": "11",
		"street": "Prandtauerweg",
		"city": "Landeck",
		"district": "",
		"postcode": "6500"
	},
	{
		"lon": "10.5579852",
		"lat": "47.1420341",
		"number": "46",
		"street": "Bruggfeldstraße",
		"city": "Landeck",
		"district": "",
		"postcode": "6500"
	},
	{
		"lon": "10.5693786",
		"lat": "47.143192",
		"number": "34",
		"street": "Fischerstraße",
		"city": "Landeck",
		"district": "",
		"postcode": "6500"
	},
	{
		"lon": "10.5716606",
		"lat": "47.1445143",
		"number": "12",
		"street": "Salurnerstraße",
		"city": "Landeck",
		"district": "",
		"postcode": "6500"
	},
	{
		"lon": "10.5485829",
		"lat": "47.1380563",
		"number": "28",
		"street": "Perfuchsberg",
		"city": "Landeck",
		"district": "",
		"postcode": "6500"
	},
	{
		"lon": "10.5647901",
		"lat": "47.1406505",
		"number": "26",
		"street": "Innstraße",
		"city": "Landeck",
		"district": "",
		"postcode": "6500"
	},
	{
		"lon": "10.5789096",
		"lat": "47.1474481",
		"number": "76",
		"street": "Urichstraße",
		"city": "Landeck",
		"district": "",
		"postcode": "6500"
	},
	{
		"lon": "10.565602",
		"lat": "47.1469541",
		"number": "41",
		"street": "Römerstraße",
		"city": "Landeck",
		"district": "",
		"postcode": "6500"
	},
	{
		"lon": "10.5669762",
		"lat": "47.1383277",
		"number": "21",
		"street": "Malserstraße",
		"city": "Landeck",
		"district": "",
		"postcode": "6500"
	},
	{
		"lon": "10.5722106",
		"lat": "47.1517075",
		"number": "26",
		"street": "Josef-Stapf-Straße",
		"city": "Landeck",
		"district": "",
		"postcode": "6500"
	},
	{
		"lon": "10.5385947",
		"lat": "47.136542",
		"number": "8",
		"street": "Perfuchsberg",
		"city": "Landeck",
		"district": "",
		"postcode": "6500"
	},
	{
		"lon": "10.5596152",
		"lat": "47.1399047",
		"number": "25",
		"street": "Kreuzgasse",
		"city": "Landeck",
		"district": "",
		"postcode": "6500"
	},
	{
		"lon": "10.5501397",
		"lat": "47.1422479",
		"number": "10",
		"street": "Leitenweg",
		"city": "Landeck",
		"district": "",
		"postcode": "6500"
	},
	{
		"lon": "10.5554617",
		"lat": "47.1437205",
		"number": "37",
		"street": "Prandtauerweg",
		"city": "Landeck",
		"district": "",
		"postcode": "6500"
	},
	{
		"lon": "10.5573785",
		"lat": "47.1443519",
		"number": "36",
		"street": "Prandtauerweg",
		"city": "Landeck",
		"district": "",
		"postcode": "6500"
	},
	{
		"lon": "10.5592087",
		"lat": "47.1441025",
		"number": "17",
		"street": "Prandtauerweg",
		"city": "Landeck",
		"district": "",
		"postcode": "6500"
	},
	{
		"lon": "10.5729345",
		"lat": "47.150445",
		"number": "6",
		"street": "Josef-Stapf-Straße",
		"city": "Landeck",
		"district": "",
		"postcode": "6500"
	},
	{
		"lon": "10.5673143",
		"lat": "47.1351271",
		"number": "18",
		"street": "Knappenbühelgasse",
		"city": "Landeck",
		"district": "",
		"postcode": "6500"
	},
	{
		"lon": "10.5734739",
		"lat": "47.1496015",
		"number": "5",
		"street": "Siedlergasse",
		"city": "Landeck",
		"district": "",
		"postcode": "6500"
	},
	{
		"lon": "10.5600268",
		"lat": "47.1455089",
		"number": "31",
		"street": "Lochbödele",
		"city": "Landeck",
		"district": "",
		"postcode": "6500"
	},
	{
		"lon": "12.6901698",
		"lat": "46.8662757",
		"number": "69",
		"street": "Ainet",
		"city": "Ainet",
		"district": "",
		"postcode": "9951"
	},
	{
		"lon": "12.6896288",
		"lat": "46.866716",
		"number": "67",
		"street": "Ainet",
		"city": "Ainet",
		"district": "",
		"postcode": "9951"
	},
	{
		"lon": "12.6894024",
		"lat": "46.8675956",
		"number": "59",
		"street": "Ainet",
		"city": "Ainet",
		"district": "",
		"postcode": "9951"
	},
	{
		"lon": "12.6968853",
		"lat": "46.8666415",
		"number": "31",
		"street": "Ainet",
		"city": "Ainet",
		"district": "",
		"postcode": "9951"
	},
	{
		"lon": "12.6890098",
		"lat": "46.8683519",
		"number": "55a",
		"street": "Ainet",
		"city": "Ainet",
		"district": "",
		"postcode": "9951"
	},
	{
		"lon": "12.6781918",
		"lat": "46.8759256",
		"number": "139",
		"street": "Ainet",
		"city": "Ainet",
		"district": "",
		"postcode": "9951"
	},
	{
		"lon": "11.700857",
		"lat": "47.3595919",
		"number": "90",
		"street": "Pax",
		"city": "Vomp",
		"district": "",
		"postcode": "6134"
	},
	{
		"lon": "11.6978807",
		"lat": "47.3597333",
		"number": "18",
		"street": "Fiecht",
		"city": "Vomp",
		"district": "",
		"postcode": "6134"
	},
	{
		"lon": "11.6803123",
		"lat": "47.3268151",
		"number": "21a",
		"street": "Altmahd",
		"city": "Vomp",
		"district": "",
		"postcode": "6134"
	},
	{
		"lon": "11.6805566",
		"lat": "47.3434178",
		"number": "12",
		"street": "Gröben",
		"city": "Vomp",
		"district": "",
		"postcode": "6134"
	},
	{
		"lon": "11.2660275",
		"lat": "47.3900498",
		"number": "78",
		"street": "Innsbruckerstraße",
		"city": "Scharnitz",
		"district": "",
		"postcode": "6108"
	},
	{
		"lon": "11.2607403",
		"lat": "47.3873439",
		"number": "430",
		"street": "Oberdorf",
		"city": "Scharnitz",
		"district": "",
		"postcode": "6108"
	},
	{
		"lon": "11.2646722",
		"lat": "47.3872523",
		"number": "218",
		"street": "Feldweg",
		"city": "Scharnitz",
		"district": "",
		"postcode": "6108"
	},
	{
		"lon": "11.2692669",
		"lat": "47.3855209",
		"number": "111",
		"street": "Hinterautalstraße",
		"city": "Scharnitz",
		"district": "",
		"postcode": "6108"
	},
	{
		"lon": "11.2697753",
		"lat": "47.3852451",
		"number": "207",
		"street": "Hinterautalstraße",
		"city": "Scharnitz",
		"district": "",
		"postcode": "6108"
	},
	{
		"lon": "11.273673",
		"lat": "47.3845889",
		"number": "106",
		"street": "Hinterautalstraße",
		"city": "Scharnitz",
		"district": "",
		"postcode": "6108"
	},
	{
		"lon": "11.2357866",
		"lat": "47.3780439",
		"number": "303",
		"street": "Gießenbach",
		"city": "Scharnitz",
		"district": "",
		"postcode": "6108"
	},
	{
		"lon": "11.2579075",
		"lat": "47.2326466",
		"number": "28",
		"street": "Kirchgasse",
		"city": "Grinzens",
		"district": "",
		"postcode": "6095"
	},
	{
		"lon": "12.6944301",
		"lat": "46.8661166",
		"number": "37",
		"street": "Ainet",
		"city": "Ainet",
		"district": "",
		"postcode": "9951"
	},
	{
		"lon": "11.257493",
		"lat": "47.2327492",
		"number": "21",
		"street": "Kirchgasse",
		"city": "Grinzens",
		"district": "",
		"postcode": "6095"
	},
	{
		"lon": "11.2586113",
		"lat": "47.2337621",
		"number": "33a",
		"street": "Kirchgasse",
		"city": "Grinzens",
		"district": "",
		"postcode": "6095"
	},
	{
		"lon": "11.2585967",
		"lat": "47.2337016",
		"number": "33b",
		"street": "Kirchgasse",
		"city": "Grinzens",
		"district": "",
		"postcode": "6095"
	},
	{
		"lon": "11.2506386",
		"lat": "47.2269912",
		"number": "2",
		"street": "Loarental",
		"city": "Grinzens",
		"district": "",
		"postcode": "6095"
	},
	{
		"lon": "11.2503575",
		"lat": "47.2297537",
		"number": "20",
		"street": "Seite",
		"city": "Grinzens",
		"district": "",
		"postcode": "6095"
	},
	{
		"lon": "11.258392",
		"lat": "47.385888",
		"number": "475",
		"street": "Oberdorf",
		"city": "Scharnitz",
		"district": "",
		"postcode": "6108"
	},
	{
		"lon": "11.2614467",
		"lat": "47.2339942",
		"number": "12",
		"street": "Bichl",
		"city": "Grinzens",
		"district": "",
		"postcode": "6095"
	},
	{
		"lon": "11.2517985",
		"lat": "47.2270159",
		"number": "7",
		"street": "Loarental",
		"city": "Grinzens",
		"district": "",
		"postcode": "6095"
	},
	{
		"lon": "11.2530414",
		"lat": "47.2262087",
		"number": "5",
		"street": "Waldweg",
		"city": "Grinzens",
		"district": "",
		"postcode": "6095"
	},
	{
		"lon": "11.1370569",
		"lat": "47.2762457",
		"number": "54",
		"street": "Pollingberg",
		"city": "Polling in Tirol",
		"district": "",
		"postcode": "6404"
	},
	{
		"lon": "11.147093",
		"lat": "47.2833797",
		"number": "185",
		"street": "Polling in Tirol",
		"city": "Polling in Tirol",
		"district": "",
		"postcode": "6404"
	},
	{
		"lon": "11.1379784",
		"lat": "47.2777335",
		"number": "41",
		"street": "Pollingberg",
		"city": "Polling in Tirol",
		"district": "",
		"postcode": "6404"
	},
	{
		"lon": "11.1466973",
		"lat": "47.2808301",
		"number": "135",
		"street": "Angersiedlung",
		"city": "Polling in Tirol",
		"district": "",
		"postcode": "6404"
	},
	{
		"lon": "11.1473161",
		"lat": "47.2812041",
		"number": "129",
		"street": "Angersiedlung",
		"city": "Polling in Tirol",
		"district": "",
		"postcode": "6404"
	},
	{
		"lon": "11.2663244",
		"lat": "47.3940789",
		"number": "288",
		"street": "Schanzweg",
		"city": "Scharnitz",
		"district": "",
		"postcode": "6108"
	},
	{
		"lon": "10.4126173",
		"lat": "47.1458072",
		"number": "90",
		"street": "Flirsch",
		"city": "Flirsch",
		"district": "",
		"postcode": "6572"
	},
	{
		"lon": "10.4211532",
		"lat": "47.1425278",
		"number": "71b",
		"street": "Flirschberg",
		"city": "Flirsch",
		"district": "",
		"postcode": "6572"
	},
	{
		"lon": "11.1494914",
		"lat": "47.282846",
		"number": "4b",
		"street": "Polling in Tirol",
		"city": "Polling in Tirol",
		"district": "",
		"postcode": "6404"
	},
	{
		"lon": "11.1516664",
		"lat": "47.2822881",
		"number": "12",
		"street": "Polling in Tirol",
		"city": "Polling in Tirol",
		"district": "",
		"postcode": "6404"
	},
	{
		"lon": "11.1524232",
		"lat": "47.2816485",
		"number": "34",
		"street": "Polling in Tirol",
		"city": "Polling in Tirol",
		"district": "",
		"postcode": "6404"
	},
	{
		"lon": "11.153742",
		"lat": "47.2820137",
		"number": "24",
		"street": "Polling in Tirol",
		"city": "Polling in Tirol",
		"district": "",
		"postcode": "6404"
	},
	{
		"lon": "10.9407917",
		"lat": "47.2678949",
		"number": "12",
		"street": "Stamser Weg",
		"city": "Silz",
		"district": "",
		"postcode": "6424"
	},
	{
		"lon": "10.9254443",
		"lat": "47.2655101",
		"number": "100",
		"street": "Tiroler Straße",
		"city": "Silz",
		"district": "",
		"postcode": "6424"
	},
	{
		"lon": "10.9368296",
		"lat": "47.2681106",
		"number": "3",
		"street": "Dr. Saxer-Weg",
		"city": "Silz",
		"district": "",
		"postcode": "6424"
	},
	{
		"lon": "11.7478757",
		"lat": "47.1652717",
		"number": "121",
		"street": "Vorderlanersbach",
		"city": "Tux",
		"district": "",
		"postcode": "6293"
	},
	{
		"lon": "11.6815225",
		"lat": "47.113112",
		"number": "764",
		"street": "Hintertux",
		"city": "Tux",
		"district": "",
		"postcode": "6294"
	},
	{
		"lon": "11.6890994",
		"lat": "47.351804",
		"number": "34",
		"street": "Bachtalweg",
		"city": "Vomp",
		"district": "",
		"postcode": "6134"
	},
	{
		"lon": "11.7011255",
		"lat": "47.3532088",
		"number": "12",
		"street": "Industriestraße",
		"city": "Vomp",
		"district": "",
		"postcode": "6134"
	},
	{
		"lon": "11.6970211",
		"lat": "47.349079",
		"number": "26",
		"street": "Schützenweg",
		"city": "Vomp",
		"district": "",
		"postcode": "6134"
	},
	{
		"lon": "11.683152",
		"lat": "47.3444957",
		"number": "7",
		"street": "Gaisberg",
		"city": "Vomp",
		"district": "",
		"postcode": "6134"
	},
	{
		"lon": "11.6853344",
		"lat": "47.3464249",
		"number": "17",
		"street": "Gaisberg",
		"city": "Vomp",
		"district": "",
		"postcode": "6134"
	},
	{
		"lon": "11.6908141",
		"lat": "47.3457661",
		"number": "42",
		"street": "Josef-Heiß-Straße",
		"city": "Vomp",
		"district": "",
		"postcode": "6134"
	},
	{
		"lon": "11.6912492",
		"lat": "47.3432967",
		"number": "27",
		"street": "Mooswinkl",
		"city": "Vomp",
		"district": "",
		"postcode": "6134"
	},
	{
		"lon": "10.5554316",
		"lat": "47.5013927",
		"number": "13",
		"street": "Angerweg",
		"city": "Grän",
		"district": "",
		"postcode": "6673"
	},
	{
		"lon": "10.5564274",
		"lat": "47.5057107",
		"number": "13",
		"street": "Neu-Grän",
		"city": "Grän",
		"district": "",
		"postcode": "6673"
	},
	{
		"lon": "10.5643086",
		"lat": "47.5058343",
		"number": "9",
		"street": "Füssner-Jöchle-Straße",
		"city": "Grän",
		"district": "",
		"postcode": "6673"
	},
	{
		"lon": "11.6894916",
		"lat": "47.3459704",
		"number": "53",
		"street": "Josef-Heiß-Straße",
		"city": "Vomp",
		"district": "",
		"postcode": "6134"
	},
	{
		"lon": "11.6888555",
		"lat": "47.3510049",
		"number": "16",
		"street": "Bachtalweg",
		"city": "Vomp",
		"district": "",
		"postcode": "6134"
	},
	{
		"lon": "11.1454721",
		"lat": "47.2830705",
		"number": "188",
		"street": "Polling in Tirol",
		"city": "Polling in Tirol",
		"district": "",
		"postcode": "6404"
	},
	{
		"lon": "11.1566308",
		"lat": "47.2792625",
		"number": "161",
		"street": "Polling in Tirol",
		"city": "Polling in Tirol",
		"district": "",
		"postcode": "6404"
	},
	{
		"lon": "11.1455225",
		"lat": "47.2828163",
		"number": "196",
		"street": "Polling in Tirol",
		"city": "Polling in Tirol",
		"district": "",
		"postcode": "6404"
	},
	{
		"lon": "11.1472952",
		"lat": "47.2851696",
		"number": "12",
		"street": "Gewerbezone",
		"city": "Polling in Tirol",
		"district": "",
		"postcode": "6404"
	},
	{
		"lon": "11.6901771",
		"lat": "47.3529056",
		"number": "24a",
		"street": "Dornach",
		"city": "Vomp",
		"district": "",
		"postcode": "6134"
	},
	{
		"lon": "11.1393573",
		"lat": "47.2761701",
		"number": "4",
		"street": "Pollingberg",
		"city": "Polling in Tirol",
		"district": "",
		"postcode": "6404"
	},
	{
		"lon": "11.138674",
		"lat": "47.2762733",
		"number": "14",
		"street": "Pollingberg",
		"city": "Polling in Tirol",
		"district": "",
		"postcode": "6404"
	},
	{
		"lon": "11.1385361",
		"lat": "47.2765579",
		"number": "64",
		"street": "Pollingberg",
		"city": "Polling in Tirol",
		"district": "",
		"postcode": "6404"
	},
	{
		"lon": "11.743354",
		"lat": "47.1631405",
		"number": "295",
		"street": "Vorderlanersbach",
		"city": "Tux",
		"district": "",
		"postcode": "6293"
	},
	{
		"lon": "11.6663381",
		"lat": "47.0982751",
		"number": "20001",
		"street": "Sommerbergalm",
		"city": "Tux",
		"district": "",
		"postcode": "6294"
	},
	{
		"lon": "10.5575492",
		"lat": "47.5120631",
		"number": "5",
		"street": "Am Lehna",
		"city": "Grän",
		"district": "",
		"postcode": "6673"
	},
	{
		"lon": "11.6960873",
		"lat": "47.3587794",
		"number": "4",
		"street": "Zöhrerweg",
		"city": "Vomp",
		"district": "",
		"postcode": "6134"
	},
	{
		"lon": "11.6958462",
		"lat": "47.3466598",
		"number": "13",
		"street": "Hans-Schrott-Fiechtl-Straße",
		"city": "Vomp",
		"district": "",
		"postcode": "6134"
	},
	{
		"lon": "11.684046",
		"lat": "47.3279502",
		"number": "78",
		"street": "Altmahd",
		"city": "Vomp",
		"district": "",
		"postcode": "6134"
	},
	{
		"lon": "11.6861639",
		"lat": "47.347674",
		"number": "35",
		"street": "Gaisberg",
		"city": "Vomp",
		"district": "",
		"postcode": "6134"
	},
	{
		"lon": "11.6880599",
		"lat": "47.3497679",
		"number": "3",
		"street": "Bachtalweg",
		"city": "Vomp",
		"district": "",
		"postcode": "6134"
	},
	{
		"lon": "11.6868322",
		"lat": "47.3481361",
		"number": "21",
		"street": "Gaisberg",
		"city": "Vomp",
		"district": "",
		"postcode": "6134"
	},
	{
		"lon": "11.2654107",
		"lat": "47.3910717",
		"number": "71",
		"street": "Innsbruckerstraße",
		"city": "Scharnitz",
		"district": "",
		"postcode": "6108"
	},
	{
		"lon": "11.262654",
		"lat": "47.3906233",
		"number": "16",
		"street": "Porta-Claudia-Straße",
		"city": "Scharnitz",
		"district": "",
		"postcode": "6108"
	},
	{
		"lon": "11.2640342",
		"lat": "47.3912442",
		"number": "387",
		"street": "Isarweg",
		"city": "Scharnitz",
		"district": "",
		"postcode": "6108"
	},
	{
		"lon": "11.2640258",
		"lat": "47.3876646",
		"number": "252a",
		"street": "Feldweg",
		"city": "Scharnitz",
		"district": "",
		"postcode": "6108"
	},
	{
		"lon": "11.2628331",
		"lat": "47.3887472",
		"number": "131",
		"street": "Innsbruckerstraße",
		"city": "Scharnitz",
		"district": "",
		"postcode": "6108"
	},
	{
		"lon": "11.14373",
		"lat": "47.2728026",
		"number": "44",
		"street": "Pollingberg",
		"city": "Polling in Tirol",
		"district": "",
		"postcode": "6404"
	},
	{
		"lon": "11.1458386",
		"lat": "47.2821335",
		"number": "147",
		"street": "Angersiedlung",
		"city": "Polling in Tirol",
		"district": "",
		"postcode": "6404"
	},
	{
		"lon": "11.6969913",
		"lat": "47.1210722",
		"number": "1102",
		"street": "Grieralm",
		"city": "Tux",
		"district": "",
		"postcode": "6293"
	},
	{
		"lon": "11.6980817",
		"lat": "47.3474506",
		"number": "28",
		"street": "Hans-Schrott-Fiechtl-Straße",
		"city": "Vomp",
		"district": "",
		"postcode": "6134"
	},
	{
		"lon": "11.6813456",
		"lat": "47.341294",
		"number": "38",
		"street": "Dorf",
		"city": "Vomp",
		"district": "",
		"postcode": "6134"
	},
	{
		"lon": "11.6846421",
		"lat": "47.3421933",
		"number": "14",
		"street": "Dorf",
		"city": "Vomp",
		"district": "",
		"postcode": "6134"
	},
	{
		"lon": "11.7025253",
		"lat": "47.5100451",
		"number": "74a",
		"street": "Achenkirch",
		"city": "Achenkirch",
		"district": "",
		"postcode": "6215"
	},
	{
		"lon": "11.2479088",
		"lat": "47.2281206",
		"number": "3",
		"street": "Englsgasse",
		"city": "Grinzens",
		"district": "",
		"postcode": "6095"
	},
	{
		"lon": "11.2502146",
		"lat": "47.2269438",
		"number": "6",
		"street": "Loarental",
		"city": "Grinzens",
		"district": "",
		"postcode": "6095"
	},
	{
		"lon": "11.2429185",
		"lat": "47.2252836",
		"number": "45a",
		"street": "Neder",
		"city": "Grinzens",
		"district": "",
		"postcode": "6095"
	},
	{
		"lon": "11.2702632",
		"lat": "47.3856353",
		"number": "205",
		"street": "Hinterautalstraße",
		"city": "Scharnitz",
		"district": "",
		"postcode": "6108"
	},
	{
		"lon": "11.2612841",
		"lat": "47.3880136",
		"number": "413",
		"street": "Innsbruckerstraße",
		"city": "Scharnitz",
		"district": "",
		"postcode": "6108"
	},
	{
		"lon": "10.4082684",
		"lat": "47.1494132",
		"number": "155",
		"street": "Flirsch",
		"city": "Flirsch",
		"district": "",
		"postcode": "6572"
	},
	{
		"lon": "10.4074702",
		"lat": "47.1498606",
		"number": "162a",
		"street": "Flirsch",
		"city": "Flirsch",
		"district": "",
		"postcode": "6572"
	},
	{
		"lon": "11.2366296",
		"lat": "47.3792007",
		"number": "340",
		"street": "Gießenbach",
		"city": "Scharnitz",
		"district": "",
		"postcode": "6108"
	},
	{
		"lon": "11.2528616",
		"lat": "47.2296271",
		"number": "7",
		"street": "Seite",
		"city": "Grinzens",
		"district": "",
		"postcode": "6095"
	},
	{
		"lon": "11.2606865",
		"lat": "47.2355175",
		"number": "10",
		"street": "Buiten",
		"city": "Grinzens",
		"district": "",
		"postcode": "6095"
	},
	{
		"lon": "11.2485522",
		"lat": "47.2280221",
		"number": "9",
		"street": "Englsgasse",
		"city": "Grinzens",
		"district": "",
		"postcode": "6095"
	},
	{
		"lon": "10.7807685",
		"lat": "47.2176895",
		"number": "70",
		"street": "Karres",
		"city": "Karres",
		"district": "",
		"postcode": "6462"
	},
	{
		"lon": "10.7772812",
		"lat": "47.2192648",
		"number": "61",
		"street": "Karres",
		"city": "Karres",
		"district": "",
		"postcode": "6462"
	},
	{
		"lon": "10.7773005",
		"lat": "47.221529",
		"number": "55a",
		"street": "Karres",
		"city": "Karres",
		"district": "",
		"postcode": "6462"
	},
	{
		"lon": "11.7110353",
		"lat": "47.4988648",
		"number": "11",
		"street": "Achenkirch",
		"city": "Achenkirch",
		"district": "",
		"postcode": "6215"
	},
	{
		"lon": "11.7430403",
		"lat": "47.1634154",
		"number": "279",
		"street": "Vorderlanersbach",
		"city": "Tux",
		"district": "",
		"postcode": "6293"
	},
	{
		"lon": "11.6971282",
		"lat": "47.1284854",
		"number": "694",
		"street": "Madseit",
		"city": "Tux",
		"district": "",
		"postcode": "6294"
	},
	{
		"lon": "11.6984493",
		"lat": "47.1297405",
		"number": "674",
		"street": "Madseit",
		"city": "Tux",
		"district": "",
		"postcode": "6294"
	},
	{
		"lon": "11.7483928",
		"lat": "47.1651734",
		"number": "127",
		"street": "Vorderlanersbach",
		"city": "Tux",
		"district": "",
		"postcode": "6293"
	},
	{
		"lon": "10.9368845",
		"lat": "47.2717124",
		"number": "6",
		"street": "Egerbachsiedlung",
		"city": "Silz",
		"district": "",
		"postcode": "6424"
	},
	{
		"lon": "10.9233015",
		"lat": "47.2664722",
		"number": "7",
		"street": "Franz-Jais-Weg",
		"city": "Silz",
		"district": "",
		"postcode": "6424"
	},
	{
		"lon": "10.924975",
		"lat": "47.2669",
		"number": "81",
		"street": "Josef-Marberger-Straße",
		"city": "Silz",
		"district": "",
		"postcode": "6424"
	},
	{
		"lon": "11.2438666",
		"lat": "47.2256949",
		"number": "39",
		"street": "Neder",
		"city": "Grinzens",
		"district": "",
		"postcode": "6095"
	},
	{
		"lon": "11.2568237",
		"lat": "47.2320948",
		"number": "13",
		"street": "Kirchgasse",
		"city": "Grinzens",
		"district": "",
		"postcode": "6095"
	},
	{
		"lon": "11.2506471",
		"lat": "47.2265875",
		"number": "13",
		"street": "Loarental",
		"city": "Grinzens",
		"district": "",
		"postcode": "6095"
	},
	{
		"lon": "11.6820914",
		"lat": "47.3272222",
		"number": "113",
		"street": "Altmahd",
		"city": "Vomp",
		"district": "",
		"postcode": "6134"
	},
	{
		"lon": "11.6971525",
		"lat": "47.3590608",
		"number": "7",
		"street": "Zöhrerweg",
		"city": "Vomp",
		"district": "",
		"postcode": "6134"
	},
	{
		"lon": "11.5591254",
		"lat": "47.3993912",
		"number": "10",
		"street": "Hinterriß-Eng",
		"city": "Vomp",
		"district": "",
		"postcode": "6215"
	},
	{
		"lon": "11.6954813",
		"lat": "47.3508079",
		"number": "6",
		"street": "An der Leiten",
		"city": "Vomp",
		"district": "",
		"postcode": "6134"
	},
	{
		"lon": "11.695156",
		"lat": "47.3503865",
		"number": "2",
		"street": "An der Leiten",
		"city": "Vomp",
		"district": "",
		"postcode": "6134"
	},
	{
		"lon": "10.5524464",
		"lat": "47.5001608",
		"number": "10a",
		"street": "St. Wendelin-Weg",
		"city": "Grän",
		"district": "",
		"postcode": "6673"
	},
	{
		"lon": "10.5541469",
		"lat": "47.4998887",
		"number": "7",
		"street": "Dorfstraße",
		"city": "Grän",
		"district": "",
		"postcode": "6673"
	},
	{
		"lon": "10.5548418",
		"lat": "47.5062749",
		"number": "59",
		"street": "Dorfstraße",
		"city": "Grän",
		"district": "",
		"postcode": "6673"
	},
	{
		"lon": "10.5539818",
		"lat": "47.5051147",
		"number": "49",
		"street": "Dorfstraße",
		"city": "Grän",
		"district": "",
		"postcode": "6673"
	},
	{
		"lon": "10.558902",
		"lat": "47.511821",
		"number": "9",
		"street": "Am Lumberg",
		"city": "Grän",
		"district": "",
		"postcode": "6673"
	},
	{
		"lon": "10.553305",
		"lat": "47.5009795",
		"number": "6",
		"street": "St. Wendelin-Weg",
		"city": "Grän",
		"district": "",
		"postcode": "6673"
	},
	{
		"lon": "10.5506459",
		"lat": "47.5014547",
		"number": "10",
		"street": "Hubertusweg",
		"city": "Grän",
		"district": "",
		"postcode": "6673"
	},
	{
		"lon": "12.3358085",
		"lat": "47.5214296",
		"number": "104c",
		"street": "Pramaweg",
		"city": "Going am Wilden Kaiser",
		"district": "",
		"postcode": "6353"
	},
	{
		"lon": "12.3547158",
		"lat": "47.5232919",
		"number": "19",
		"street": "Reischweg",
		"city": "Going am Wilden Kaiser",
		"district": "",
		"postcode": "6353"
	},
	{
		"lon": "12.3548239",
		"lat": "47.5209198",
		"number": "11",
		"street": "Reischweg",
		"city": "Going am Wilden Kaiser",
		"district": "",
		"postcode": "6353"
	},
	{
		"lon": "12.3165187",
		"lat": "47.5134465",
		"number": "85",
		"street": "Marchstraße",
		"city": "Going am Wilden Kaiser",
		"district": "",
		"postcode": "6353"
	},
	{
		"lon": "12.3215424",
		"lat": "47.5141914",
		"number": "27",
		"street": "Marchstraße",
		"city": "Going am Wilden Kaiser",
		"district": "",
		"postcode": "6353"
	},
	{
		"lon": "12.3503255",
		"lat": "47.51707",
		"number": "1",
		"street": "Wiesenweg",
		"city": "Going am Wilden Kaiser",
		"district": "",
		"postcode": "6353"
	},
	{
		"lon": "12.3665627",
		"lat": "47.52058",
		"number": "109",
		"street": "Innsbruckerstraße",
		"city": "Going am Wilden Kaiser",
		"district": "",
		"postcode": "6353"
	},
	{
		"lon": "12.3419532",
		"lat": "47.5189137",
		"number": "15b",
		"street": "Kaiserweg",
		"city": "Going am Wilden Kaiser",
		"district": "",
		"postcode": "6353"
	},
	{
		"lon": "12.3659251",
		"lat": "47.5211823",
		"number": "41",
		"street": "Blaikenweg",
		"city": "Going am Wilden Kaiser",
		"district": "",
		"postcode": "6353"
	},
	{
		"lon": "11.2743052",
		"lat": "47.3848718",
		"number": "532",
		"street": "Karwendeltalweg",
		"city": "Scharnitz",
		"district": "",
		"postcode": "6108"
	},
	{
		"lon": "11.2457376",
		"lat": "47.2260894",
		"number": "27c",
		"street": "Neder",
		"city": "Grinzens",
		"district": "",
		"postcode": "6095"
	},
	{
		"lon": "11.2640317",
		"lat": "47.3888498",
		"number": "126",
		"street": "Innsbruckerstraße",
		"city": "Scharnitz",
		"district": "",
		"postcode": "6108"
	},
	{
		"lon": "11.2738307",
		"lat": "47.3850277",
		"number": "531",
		"street": "Karwendeltalweg",
		"city": "Scharnitz",
		"district": "",
		"postcode": "6108"
	},
	{
		"lon": "11.281239",
		"lat": "47.3824059",
		"number": "530b",
		"street": "Hinterautalstraße",
		"city": "Scharnitz",
		"district": "",
		"postcode": "6108"
	},
	{
		"lon": "11.2811011",
		"lat": "47.3823122",
		"number": "530a",
		"street": "Hinterautalstraße",
		"city": "Scharnitz",
		"district": "",
		"postcode": "6108"
	},
	{
		"lon": "11.26874",
		"lat": "47.3871019",
		"number": "217",
		"street": "Inrain",
		"city": "Scharnitz",
		"district": "",
		"postcode": "6108"
	},
	{
		"lon": "11.2635295",
		"lat": "47.387223",
		"number": "301",
		"street": "Feldweg",
		"city": "Scharnitz",
		"district": "",
		"postcode": "6108"
	},
	{
		"lon": "12.68245",
		"lat": "46.8725315",
		"number": "122",
		"street": "Ainet",
		"city": "Ainet",
		"district": "",
		"postcode": "9951"
	},
	{
		"lon": "12.6861999",
		"lat": "46.8701132",
		"number": "104",
		"street": "Ainet",
		"city": "Ainet",
		"district": "",
		"postcode": "9951"
	},
	{
		"lon": "11.2382399",
		"lat": "47.3800382",
		"number": "393",
		"street": "Gießenbach",
		"city": "Scharnitz",
		"district": "",
		"postcode": "6108"
	},
	{
		"lon": "11.2372885",
		"lat": "47.3791717",
		"number": "369",
		"street": "Gießenbach",
		"city": "Scharnitz",
		"district": "",
		"postcode": "6108"
	},
	{
		"lon": "11.2673606",
		"lat": "47.3852639",
		"number": "536",
		"street": "Feldweg",
		"city": "Scharnitz",
		"district": "",
		"postcode": "6108"
	},
	{
		"lon": "10.7784639",
		"lat": "47.216738",
		"number": "134",
		"street": "Karres",
		"city": "Karres",
		"district": "",
		"postcode": "6462"
	},
	{
		"lon": "10.7794721",
		"lat": "47.2175403",
		"number": "30",
		"street": "Karres",
		"city": "Karres",
		"district": "",
		"postcode": "6462"
	},
	{
		"lon": "10.7752755",
		"lat": "47.2212079",
		"number": "49",
		"street": "Karres",
		"city": "Karres",
		"district": "",
		"postcode": "6462"
	},
	{
		"lon": "11.2480116",
		"lat": "47.2264717",
		"number": "21",
		"street": "Neder",
		"city": "Grinzens",
		"district": "",
		"postcode": "6095"
	},
	{
		"lon": "11.6981922",
		"lat": "47.3510589",
		"number": "13",
		"street": "An der Leiten",
		"city": "Vomp",
		"district": "",
		"postcode": "6134"
	},
	{
		"lon": "11.6719851",
		"lat": "47.3353001",
		"number": "78",
		"street": "Dorf",
		"city": "Vomp",
		"district": "",
		"postcode": "6134"
	},
	{
		"lon": "11.6740548",
		"lat": "47.3283103",
		"number": "15",
		"street": "Pirchat",
		"city": "Vomp",
		"district": "",
		"postcode": "6134"
	},
	{
		"lon": "10.4116036",
		"lat": "47.1485909",
		"number": "119",
		"street": "Flirsch",
		"city": "Flirsch",
		"district": "",
		"postcode": "6572"
	},
	{
		"lon": "10.4111788",
		"lat": "47.1475333",
		"number": "112",
		"street": "Flirsch",
		"city": "Flirsch",
		"district": "",
		"postcode": "6572"
	},
	{
		"lon": "11.731658",
		"lat": "47.1341723",
		"number": "1602",
		"street": "Loschbodenalm",
		"city": "Tux",
		"district": "",
		"postcode": "6293"
	},
	{
		"lon": "11.7258298",
		"lat": "47.1835123",
		"number": "1003",
		"street": "Geislalm",
		"city": "Tux",
		"district": "",
		"postcode": "6293"
	},
	{
		"lon": "10.4259071",
		"lat": "47.1422191",
		"number": "64a",
		"street": "Flirschberg",
		"city": "Flirsch",
		"district": "",
		"postcode": "6572"
	},
	{
		"lon": "10.4097253",
		"lat": "47.1476441",
		"number": "132a",
		"street": "Flirsch",
		"city": "Flirsch",
		"district": "",
		"postcode": "6572"
	},
	{
		"lon": "10.4070806",
		"lat": "47.1500452",
		"number": "167",
		"street": "Flirsch",
		"city": "Flirsch",
		"district": "",
		"postcode": "6572"
	},
	{
		"lon": "10.4117869",
		"lat": "47.1472326",
		"number": "107",
		"street": "Flirsch",
		"city": "Flirsch",
		"district": "",
		"postcode": "6572"
	},
	{
		"lon": "11.728044",
		"lat": "47.1571745",
		"number": "409",
		"street": "Lanersbach",
		"city": "Tux",
		"district": "",
		"postcode": "6293"
	},
	{
		"lon": "12.6903045",
		"lat": "46.8630762",
		"number": "2",
		"street": "Ainet",
		"city": "Ainet",
		"district": "",
		"postcode": "9951"
	},
	{
		"lon": "12.6889537",
		"lat": "46.87534",
		"number": "2",
		"street": "Alkus",
		"city": "Ainet",
		"district": "",
		"postcode": "9951"
	},
	{
		"lon": "11.2519919",
		"lat": "47.2268206",
		"number": "14",
		"street": "Fernereben",
		"city": "Grinzens",
		"district": "",
		"postcode": "6095"
	},
	{
		"lon": "11.2506457",
		"lat": "47.2261368",
		"number": "20",
		"street": "Fernereben",
		"city": "Grinzens",
		"district": "",
		"postcode": "6095"
	},
	{
		"lon": "11.2548654",
		"lat": "47.2300388",
		"number": "1",
		"street": "Anger",
		"city": "Grinzens",
		"district": "",
		"postcode": "6095"
	},
	{
		"lon": "12.6789208",
		"lat": "46.8713023",
		"number": "108b",
		"street": "Ainet",
		"city": "Ainet",
		"district": "",
		"postcode": "9951"
	},
	{
		"lon": "12.6769626",
		"lat": "46.8703404",
		"number": "145a",
		"street": "Ainet",
		"city": "Ainet",
		"district": "",
		"postcode": "9951"
	},
	{
		"lon": "12.6935801",
		"lat": "46.8645655",
		"number": "22",
		"street": "Ainet",
		"city": "Ainet",
		"district": "",
		"postcode": "9951"
	},
	{
		"lon": "11.2487659",
		"lat": "47.2285076",
		"number": "29a",
		"street": "Seite",
		"city": "Grinzens",
		"district": "",
		"postcode": "6095"
	},
	{
		"lon": "11.2413401",
		"lat": "47.2245341",
		"number": "53",
		"street": "Neder",
		"city": "Grinzens",
		"district": "",
		"postcode": "6095"
	},
	{
		"lon": "11.6948477",
		"lat": "47.3453132",
		"number": "5b",
		"street": "Feldweg",
		"city": "Vomp",
		"district": "",
		"postcode": "6134"
	},
	{
		"lon": "11.6961621",
		"lat": "47.3480175",
		"number": "41",
		"street": "Schützenweg",
		"city": "Vomp",
		"district": "",
		"postcode": "6134"
	},
	{
		"lon": "11.6810399",
		"lat": "47.341132",
		"number": "38a",
		"street": "Dorf",
		"city": "Vomp",
		"district": "",
		"postcode": "6134"
	},
	{
		"lon": "11.7001366",
		"lat": "47.3586181",
		"number": "72",
		"street": "Pax",
		"city": "Vomp",
		"district": "",
		"postcode": "6134"
	},
	{
		"lon": "11.7003266",
		"lat": "47.3367984",
		"number": "17",
		"street": "Innhöfe",
		"city": "Vomp",
		"district": "",
		"postcode": "6134"
	},
	{
		"lon": "11.6930208",
		"lat": "47.3438841",
		"number": "16",
		"street": "Feldweg",
		"city": "Vomp",
		"district": "",
		"postcode": "6134"
	},
	{
		"lon": "11.690261",
		"lat": "47.346635",
		"number": "47",
		"street": "Josef-Heiß-Straße",
		"city": "Vomp",
		"district": "",
		"postcode": "6134"
	},
	{
		"lon": "11.6927021",
		"lat": "47.3434076",
		"number": "16f",
		"street": "Feldweg",
		"city": "Vomp",
		"district": "",
		"postcode": "6134"
	},
	{
		"lon": "12.4244723",
		"lat": "47.5589233",
		"number": "1",
		"street": "Mitterer Weg",
		"city": "Kirchdorf in Tirol",
		"district": "",
		"postcode": "6382"
	},
	{
		"lon": "11.2454682",
		"lat": "47.2288546",
		"number": "5",
		"street": "Minigsgasse",
		"city": "Grinzens",
		"district": "",
		"postcode": "6095"
	},
	{
		"lon": "11.2362004",
		"lat": "47.2225229",
		"number": "63",
		"street": "Neder",
		"city": "Grinzens",
		"district": "",
		"postcode": "6095"
	},
	{
		"lon": "11.6952303",
		"lat": "47.3466312",
		"number": "9a",
		"street": "Josef-Heiß-Straße",
		"city": "Vomp",
		"district": "",
		"postcode": "6134"
	},
	{
		"lon": "11.1522711",
		"lat": "47.2800706",
		"number": "174",
		"street": "Polling in Tirol",
		"city": "Polling in Tirol",
		"district": "",
		"postcode": "6404"
	},
	{
		"lon": "11.1501392",
		"lat": "47.2804541",
		"number": "168",
		"street": "Polling in Tirol",
		"city": "Polling in Tirol",
		"district": "",
		"postcode": "6404"
	},
	{
		"lon": "11.1503242",
		"lat": "47.2807196",
		"number": "65",
		"street": "Polling in Tirol",
		"city": "Polling in Tirol",
		"district": "",
		"postcode": "6404"
	},
	{
		"lon": "11.2524242",
		"lat": "47.2263333",
		"number": "1",
		"street": "Waldweg",
		"city": "Grinzens",
		"district": "",
		"postcode": "6095"
	},
	{
		"lon": "12.6798443",
		"lat": "46.871445",
		"number": "108c",
		"street": "Ainet",
		"city": "Ainet",
		"district": "",
		"postcode": "9951"
	},
	{
		"lon": "11.2582098",
		"lat": "47.2298508",
		"number": "12",
		"street": "Bachl",
		"city": "Grinzens",
		"district": "",
		"postcode": "6095"
	},
	{
		"lon": "11.7037248",
		"lat": "47.5239666",
		"number": "262",
		"street": "Achenkirch",
		"city": "Achenkirch",
		"district": "",
		"postcode": "6215"
	},
	{
		"lon": "11.1554907",
		"lat": "47.2820165",
		"number": "157",
		"street": "Polling in Tirol",
		"city": "Polling in Tirol",
		"district": "",
		"postcode": "6404"
	},
	{
		"lon": "11.1549824",
		"lat": "47.2805146",
		"number": "55",
		"street": "Polling in Tirol",
		"city": "Polling in Tirol",
		"district": "",
		"postcode": "6404"
	},
	{
		"lon": "11.1547333",
		"lat": "47.2794006",
		"number": "152",
		"street": "Polling in Tirol",
		"city": "Polling in Tirol",
		"district": "",
		"postcode": "6404"
	},
	{
		"lon": "11.6855988",
		"lat": "47.3459901",
		"number": "18a",
		"street": "Schnittlauchgasse",
		"city": "Vomp",
		"district": "",
		"postcode": "6134"
	},
	{
		"lon": "11.7217111",
		"lat": "47.1480384",
		"number": "520",
		"street": "Juns",
		"city": "Tux",
		"district": "",
		"postcode": "6293"
	},
	{
		"lon": "11.2424002",
		"lat": "47.2250448",
		"number": "49",
		"street": "Neder",
		"city": "Grinzens",
		"district": "",
		"postcode": "6095"
	},
	{
		"lon": "11.6816086",
		"lat": "47.3430188",
		"number": "6",
		"street": "Gröben",
		"city": "Vomp",
		"district": "",
		"postcode": "6134"
	},
	{
		"lon": "11.6880474",
		"lat": "47.3513864",
		"number": "47",
		"street": "Bachtalweg",
		"city": "Vomp",
		"district": "",
		"postcode": "6134"
	},
	{
		"lon": "11.7482286",
		"lat": "47.1619671",
		"number": "63",
		"street": "Vorderlanersbach",
		"city": "Tux",
		"district": "",
		"postcode": "6293"
	},
	{
		"lon": "11.1472445",
		"lat": "47.2808323",
		"number": "131",
		"street": "Polling in Tirol",
		"city": "Polling in Tirol",
		"district": "",
		"postcode": "6404"
	},
	{
		"lon": "11.1493965",
		"lat": "47.2813227",
		"number": "116",
		"street": "Polling in Tirol",
		"city": "Polling in Tirol",
		"district": "",
		"postcode": "6404"
	},
	{
		"lon": "11.2498074",
		"lat": "47.2268982",
		"number": "5",
		"street": "Moos",
		"city": "Grinzens",
		"district": "",
		"postcode": "6095"
	},
	{
		"lon": "11.2585084",
		"lat": "47.2304233",
		"number": "31",
		"street": "Bachl",
		"city": "Grinzens",
		"district": "",
		"postcode": "6095"
	},
	{
		"lon": "11.2627185",
		"lat": "47.2348272",
		"number": "2",
		"street": "Moarhof",
		"city": "Grinzens",
		"district": "",
		"postcode": "6095"
	},
	{
		"lon": "11.1512297",
		"lat": "47.2807807",
		"number": "135",
		"street": "Polling in Tirol",
		"city": "Polling in Tirol",
		"district": "",
		"postcode": "6404"
	},
	{
		"lon": "11.1535612",
		"lat": "47.2810734",
		"number": "94",
		"street": "Polling in Tirol",
		"city": "Polling in Tirol",
		"district": "",
		"postcode": "6404"
	},
	{
		"lon": "11.6838417",
		"lat": "47.3448815",
		"number": "10",
		"street": "Gaisberg",
		"city": "Vomp",
		"district": "",
		"postcode": "6134"
	},
	{
		"lon": "10.553862",
		"lat": "47.5037228",
		"number": "36",
		"street": "Dorfstraße",
		"city": "Grän",
		"district": "",
		"postcode": "6673"
	},
	{
		"lon": "11.6976226",
		"lat": "47.3589684",
		"number": "23",
		"street": "Zöhrerweg",
		"city": "Vomp",
		"district": "",
		"postcode": "6134"
	},
	{
		"lon": "11.7003332",
		"lat": "47.3591139",
		"number": "96",
		"street": "Pax",
		"city": "Vomp",
		"district": "",
		"postcode": "6134"
	},
	{
		"lon": "11.6832153",
		"lat": "47.344183",
		"number": "5",
		"street": "Gaisberg",
		"city": "Vomp",
		"district": "",
		"postcode": "6134"
	},
	{
		"lon": "10.5383781",
		"lat": "47.3721736",
		"number": "4",
		"street": "Vorderhornbach",
		"city": "Vorderhornbach",
		"district": "",
		"postcode": "6645"
	},
	{
		"lon": "10.5386355",
		"lat": "47.3723625",
		"number": "5",
		"street": "Vorderhornbach",
		"city": "Vorderhornbach",
		"district": "",
		"postcode": "6645"
	},
	{
		"lon": "10.5397801",
		"lat": "47.3712274",
		"number": "19",
		"street": "Vorderhornbach",
		"city": "Vorderhornbach",
		"district": "",
		"postcode": "6645"
	},
	{
		"lon": "10.5403575",
		"lat": "47.3710198",
		"number": "48",
		"street": "Vorderhornbach",
		"city": "Vorderhornbach",
		"district": "",
		"postcode": "6645"
	},
	{
		"lon": "11.696871",
		"lat": "47.3571689",
		"number": "6",
		"street": "Fiecht",
		"city": "Vomp",
		"district": "",
		"postcode": "6134"
	},
	{
		"lon": "11.2360847",
		"lat": "47.3782414",
		"number": "365",
		"street": "Gießenbach",
		"city": "Scharnitz",
		"district": "",
		"postcode": "6108"
	},
	{
		"lon": "11.2738038",
		"lat": "47.3863837",
		"number": "250",
		"street": "Inrain",
		"city": "Scharnitz",
		"district": "",
		"postcode": "6108"
	},
	{
		"lon": "11.2703389",
		"lat": "47.3857383",
		"number": "374",
		"street": "Hinterautalstraße",
		"city": "Scharnitz",
		"district": "",
		"postcode": "6108"
	},
	{
		"lon": "11.2696417",
		"lat": "47.3850598",
		"number": "173",
		"street": "Hinterautalstraße",
		"city": "Scharnitz",
		"district": "",
		"postcode": "6108"
	},
	{
		"lon": "11.3197045",
		"lat": "47.387469",
		"number": "142",
		"street": "Scharnitz",
		"city": "Scharnitz",
		"district": "",
		"postcode": "6108"
	},
	{
		"lon": "11.2686255",
		"lat": "47.3953436",
		"number": "54",
		"street": "Unterdorf",
		"city": "Scharnitz",
		"district": "",
		"postcode": "6108"
	},
	{
		"lon": "11.1452817",
		"lat": "47.2857945",
		"number": "7",
		"street": "Gewerbezone",
		"city": "Polling in Tirol",
		"district": "",
		"postcode": "6404"
	},
	{
		"lon": "11.1545812",
		"lat": "47.2819604",
		"number": "156",
		"street": "Polling in Tirol",
		"city": "Polling in Tirol",
		"district": "",
		"postcode": "6404"
	},
	{
		"lon": "11.1567649",
		"lat": "47.2790361",
		"number": "70",
		"street": "Polling in Tirol",
		"city": "Polling in Tirol",
		"district": "",
		"postcode": "6404"
	},
	{
		"lon": "11.1558041",
		"lat": "47.2801897",
		"number": "96",
		"street": "Polling in Tirol",
		"city": "Polling in Tirol",
		"district": "",
		"postcode": "6404"
	},
	{
		"lon": "12.6851694",
		"lat": "46.8707857",
		"number": "105",
		"street": "Ainet",
		"city": "Ainet",
		"district": "",
		"postcode": "9951"
	},
	{
		"lon": "10.5575266",
		"lat": "47.5070763",
		"number": "38",
		"street": "Neu-Grän",
		"city": "Grän",
		"district": "",
		"postcode": "6673"
	},
	{
		"lon": "12.6914562",
		"lat": "46.8675147",
		"number": "3",
		"street": "Dornach",
		"city": "Ainet",
		"district": "",
		"postcode": "9951"
	},
	{
		"lon": "11.6787699",
		"lat": "47.3433984",
		"number": "29",
		"street": "Gröben",
		"city": "Vomp",
		"district": "",
		"postcode": "6134"
	},
	{
		"lon": "11.6836165",
		"lat": "47.3284258",
		"number": "66",
		"street": "Altmahd",
		"city": "Vomp",
		"district": "",
		"postcode": "6134"
	},
	{
		"lon": "11.6953493",
		"lat": "47.3495947",
		"number": "11",
		"street": "Schützenweg",
		"city": "Vomp",
		"district": "",
		"postcode": "6134"
	},
	{
		"lon": "11.6941963",
		"lat": "47.3465803",
		"number": "10b",
		"street": "Josef-Heiß-Straße",
		"city": "Vomp",
		"district": "",
		"postcode": "6134"
	},
	{
		"lon": "11.682466",
		"lat": "47.3413095",
		"number": "29",
		"street": "Dorf",
		"city": "Vomp",
		"district": "",
		"postcode": "6134"
	},
	{
		"lon": "11.6937226",
		"lat": "47.3428962",
		"number": "54",
		"street": "Feldweg",
		"city": "Vomp",
		"district": "",
		"postcode": "6134"
	},
	{
		"lon": "11.7241752",
		"lat": "47.1544811",
		"number": "484",
		"street": "Lanersbach",
		"city": "Tux",
		"district": "",
		"postcode": "6293"
	},
	{
		"lon": "11.7101287",
		"lat": "47.1883847",
		"number": "1203",
		"street": "Habalm",
		"city": "Tux",
		"district": "",
		"postcode": "6293"
	},
	{
		"lon": "11.7283259",
		"lat": "47.1563817",
		"number": "416",
		"street": "Lanersbach",
		"city": "Tux",
		"district": "",
		"postcode": "6293"
	},
	{
		"lon": "11.6754702",
		"lat": "47.1459604",
		"number": "1305",
		"street": "Junsalm",
		"city": "Tux",
		"district": "",
		"postcode": "6293"
	},
	{
		"lon": "12.6927397",
		"lat": "46.8782994",
		"number": "14",
		"street": "Alkus",
		"city": "Ainet",
		"district": "",
		"postcode": "9951"
	},
	{
		"lon": "12.6950911",
		"lat": "46.8758067",
		"number": "7",
		"street": "Alkus",
		"city": "Ainet",
		"district": "",
		"postcode": "9951"
	},
	{
		"lon": "12.6889903",
		"lat": "46.8663522",
		"number": "85",
		"street": "Ainet",
		"city": "Ainet",
		"district": "",
		"postcode": "9951"
	},
	{
		"lon": "11.2487168",
		"lat": "47.228723",
		"number": "29",
		"street": "Seite",
		"city": "Grinzens",
		"district": "",
		"postcode": "6095"
	},
	{
		"lon": "11.250879",
		"lat": "47.2263446",
		"number": "18",
		"street": "Fernereben",
		"city": "Grinzens",
		"district": "",
		"postcode": "6095"
	},
	{
		"lon": "11.259965",
		"lat": "47.233564",
		"number": "6",
		"street": "Birkenweg",
		"city": "Grinzens",
		"district": "",
		"postcode": "6095"
	},
	{
		"lon": "11.1359221",
		"lat": "47.2759611",
		"number": "34",
		"street": "Pollingberg",
		"city": "Polling in Tirol",
		"district": "",
		"postcode": "6404"
	},
	{
		"lon": "11.1468014",
		"lat": "47.2837884",
		"number": "195",
		"street": "Polling in Tirol",
		"city": "Polling in Tirol",
		"district": "",
		"postcode": "6404"
	},
	{
		"lon": "11.146185",
		"lat": "47.2825213",
		"number": "145",
		"street": "Angersiedlung",
		"city": "Polling in Tirol",
		"district": "",
		"postcode": "6404"
	},
	{
		"lon": "11.6886772",
		"lat": "47.3486721",
		"number": "35",
		"street": "Schnittlauchgasse",
		"city": "Vomp",
		"district": "",
		"postcode": "6134"
	},
	{
		"lon": "11.6936038",
		"lat": "47.3434751",
		"number": "46",
		"street": "Feldweg",
		"city": "Vomp",
		"district": "",
		"postcode": "6134"
	},
	{
		"lon": "11.2612641",
		"lat": "47.3877102",
		"number": "527",
		"street": "Oberdorf",
		"city": "Scharnitz",
		"district": "",
		"postcode": "6108"
	},
	{
		"lon": "11.2719295",
		"lat": "47.3851304",
		"number": "524",
		"street": "Auweg",
		"city": "Scharnitz",
		"district": "",
		"postcode": "6108"
	},
	{
		"lon": "11.2557821",
		"lat": "47.3891523",
		"number": "520",
		"street": "Sportplatzweg",
		"city": "Scharnitz",
		"district": "",
		"postcode": "6108"
	},
	{
		"lon": "11.2596022",
		"lat": "47.3861541",
		"number": "504",
		"street": "Oberdorf",
		"city": "Scharnitz",
		"district": "",
		"postcode": "6108"
	},
	{
		"lon": "10.5529954",
		"lat": "47.5024189",
		"number": "31",
		"street": "Dorfstraße",
		"city": "Grän",
		"district": "",
		"postcode": "6673"
	},
	{
		"lon": "10.5592602",
		"lat": "47.5120834",
		"number": "11",
		"street": "Am Lumberg",
		"city": "Grän",
		"district": "",
		"postcode": "6673"
	},
	{
		"lon": "10.554881",
		"lat": "47.5059534",
		"number": "57",
		"street": "Dorfstraße",
		"city": "Grän",
		"district": "",
		"postcode": "6673"
	},
	{
		"lon": "11.255106",
		"lat": "47.2285426",
		"number": "4",
		"street": "Kohlstatt",
		"city": "Grinzens",
		"district": "",
		"postcode": "6095"
	},
	{
		"lon": "11.2604617",
		"lat": "47.2345092",
		"number": "3",
		"street": "Bichl",
		"city": "Grinzens",
		"district": "",
		"postcode": "6095"
	},
	{
		"lon": "11.1479441",
		"lat": "47.2829788",
		"number": "121",
		"street": "Polling in Tirol",
		"city": "Polling in Tirol",
		"district": "",
		"postcode": "6404"
	},
	{
		"lon": "11.1409243",
		"lat": "47.2758435",
		"number": "40",
		"street": "Pollingberg",
		"city": "Polling in Tirol",
		"district": "",
		"postcode": "6404"
	},
	{
		"lon": "11.1478056",
		"lat": "47.281151",
		"number": "49a",
		"street": "Polling in Tirol",
		"city": "Polling in Tirol",
		"district": "",
		"postcode": "6404"
	},
	{
		"lon": "11.152677",
		"lat": "47.2819489",
		"number": "23",
		"street": "Polling in Tirol",
		"city": "Polling in Tirol",
		"district": "",
		"postcode": "6404"
	},
	{
		"lon": "10.9306023",
		"lat": "47.2668135",
		"number": "63",
		"street": "Tiroler Straße",
		"city": "Silz",
		"district": "",
		"postcode": "6424"
	},
	{
		"lon": "10.9417031",
		"lat": "47.2724585",
		"number": "2",
		"street": "Plonerweg",
		"city": "Silz",
		"district": "",
		"postcode": "6424"
	},
	{
		"lon": "10.9878169",
		"lat": "47.2146463",
		"number": "77",
		"street": "Kühtai",
		"city": "Silz",
		"district": "",
		"postcode": "6183"
	},
	{
		"lon": "10.9388418",
		"lat": "47.2668371",
		"number": "4",
		"street": "Dornachweg",
		"city": "Silz",
		"district": "",
		"postcode": "6424"
	},
	{
		"lon": "10.9346234",
		"lat": "47.2680557",
		"number": "37a",
		"street": "Tiroler Straße",
		"city": "Silz",
		"district": "",
		"postcode": "6424"
	},
	{
		"lon": "12.6904613",
		"lat": "46.8658106",
		"number": "70",
		"street": "Ainet",
		"city": "Ainet",
		"district": "",
		"postcode": "9951"
	},
	{
		"lon": "11.26024",
		"lat": "47.387474",
		"number": "397",
		"street": "Oberdorf",
		"city": "Scharnitz",
		"district": "",
		"postcode": "6108"
	},
	{
		"lon": "11.2590239",
		"lat": "47.3891407",
		"number": "242",
		"street": "Hirlanda-Ellmann-Weg",
		"city": "Scharnitz",
		"district": "",
		"postcode": "6108"
	},
	{
		"lon": "11.2581762",
		"lat": "47.3894365",
		"number": "289",
		"street": "Schießstand",
		"city": "Scharnitz",
		"district": "",
		"postcode": "6108"
	},
	{
		"lon": "11.2452343",
		"lat": "47.2282479",
		"number": "1",
		"street": "Wiesenweg",
		"city": "Grinzens",
		"district": "",
		"postcode": "6095"
	},
	{
		"lon": "11.2465169",
		"lat": "47.2290995",
		"number": "6",
		"street": "Minigsgasse",
		"city": "Grinzens",
		"district": "",
		"postcode": "6095"
	},
	{
		"lon": "11.2555889",
		"lat": "47.228515",
		"number": "5",
		"street": "Kohlstatt",
		"city": "Grinzens",
		"district": "",
		"postcode": "6095"
	},
	{
		"lon": "11.2287588",
		"lat": "47.2205799",
		"number": "1",
		"street": "Brandögg",
		"city": "Grinzens",
		"district": "",
		"postcode": "6095"
	},
	{
		"lon": "11.6561951",
		"lat": "47.3461929",
		"number": "55",
		"street": "Vomperberg",
		"city": "Vomp",
		"district": "",
		"postcode": "6134"
	},
	{
		"lon": "11.6946192",
		"lat": "47.3454101",
		"number": "5",
		"street": "Feldweg",
		"city": "Vomp",
		"district": "",
		"postcode": "6134"
	},
	{
		"lon": "11.6951613",
		"lat": "47.3447934",
		"number": "26",
		"street": "Feldweg",
		"city": "Vomp",
		"district": "",
		"postcode": "6134"
	},
	{
		"lon": "11.6954903",
		"lat": "47.3493492",
		"number": "21",
		"street": "Schützenweg",
		"city": "Vomp",
		"district": "",
		"postcode": "6134"
	},
	{
		"lon": "11.6993024",
		"lat": "47.3596528",
		"number": "16",
		"street": "Zöhrerweg",
		"city": "Vomp",
		"district": "",
		"postcode": "6134"
	},
	{
		"lon": "11.6950862",
		"lat": "47.3585644",
		"number": "12",
		"street": "Fiecht",
		"city": "Vomp",
		"district": "",
		"postcode": "6134"
	},
	{
		"lon": "11.6956755",
		"lat": "47.3573062",
		"number": "27",
		"street": "Fiecht",
		"city": "Vomp",
		"district": "",
		"postcode": "6134"
	},
	{
		"lon": "11.2526745",
		"lat": "47.226473",
		"number": "9",
		"street": "Fernereben",
		"city": "Grinzens",
		"district": "",
		"postcode": "6095"
	},
	{
		"lon": "11.2485866",
		"lat": "47.2271967",
		"number": "61",
		"street": "Seite",
		"city": "Grinzens",
		"district": "",
		"postcode": "6095"
	},
	{
		"lon": "11.2616055",
		"lat": "47.233082",
		"number": "55",
		"street": "Bachl",
		"city": "Grinzens",
		"district": "",
		"postcode": "6095"
	},
	{
		"lon": "11.258436",
		"lat": "47.2329786",
		"number": "32",
		"street": "Kirchgasse",
		"city": "Grinzens",
		"district": "",
		"postcode": "6095"
	},
	{
		"lon": "11.2369537",
		"lat": "47.2226888",
		"number": "59",
		"street": "Neder",
		"city": "Grinzens",
		"district": "",
		"postcode": "6095"
	},
	{
		"lon": "11.2568871",
		"lat": "47.2284106",
		"number": "11",
		"street": "Bachl",
		"city": "Grinzens",
		"district": "",
		"postcode": "6095"
	},
	{
		"lon": "11.2606997",
		"lat": "47.2343627",
		"number": "5",
		"street": "Bichl",
		"city": "Grinzens",
		"district": "",
		"postcode": "6095"
	},
	{
		"lon": "11.2598544",
		"lat": "47.2336735",
		"number": "44a",
		"street": "Kirchgasse",
		"city": "Grinzens",
		"district": "",
		"postcode": "6095"
	},
	{
		"lon": "11.2700066",
		"lat": "47.3851911",
		"number": "206",
		"street": "Hinterautalstraße",
		"city": "Scharnitz",
		"district": "",
		"postcode": "6108"
	},
	{
		"lon": "11.2713683",
		"lat": "47.384974",
		"number": "107",
		"street": "Hinterautalstraße",
		"city": "Scharnitz",
		"district": "",
		"postcode": "6108"
	},
	{
		"lon": "11.2722194",
		"lat": "47.3864975",
		"number": "103",
		"street": "Inrain",
		"city": "Scharnitz",
		"district": "",
		"postcode": "6108"
	},
	{
		"lon": "11.236182",
		"lat": "47.3772078",
		"number": "367",
		"street": "Gießenbach",
		"city": "Scharnitz",
		"district": "",
		"postcode": "6108"
	},
	{
		"lon": "12.6891486",
		"lat": "46.8671706",
		"number": "90",
		"street": "Ainet",
		"city": "Ainet",
		"district": "",
		"postcode": "9951"
	},
	{
		"lon": "12.6880775",
		"lat": "46.8667078",
		"number": "87a",
		"street": "Ainet",
		"city": "Ainet",
		"district": "",
		"postcode": "9951"
	},
	{
		"lon": "12.6797897",
		"lat": "46.8748711",
		"number": "183",
		"street": "Ainet",
		"city": "Ainet",
		"district": "",
		"postcode": "9951"
	},
	{
		"lon": "12.6814932",
		"lat": "46.8826253",
		"number": "13a",
		"street": "Gwabl",
		"city": "Ainet",
		"district": "",
		"postcode": "9951"
	},
	{
		"lon": "12.6965583",
		"lat": "46.8642764",
		"number": "29",
		"street": "Ainet",
		"city": "Ainet",
		"district": "",
		"postcode": "9951"
	},
	{
		"lon": "11.2634505",
		"lat": "47.3879342",
		"number": "440",
		"street": "Feldweg",
		"city": "Scharnitz",
		"district": "",
		"postcode": "6108"
	},
	{
		"lon": "11.2599238",
		"lat": "47.3894368",
		"number": "178",
		"street": "Hirlanda-Ellmann-Weg",
		"city": "Scharnitz",
		"district": "",
		"postcode": "6108"
	},
	{
		"lon": "11.2671897",
		"lat": "47.3859023",
		"number": "116",
		"street": "Hinterautalstraße",
		"city": "Scharnitz",
		"district": "",
		"postcode": "6108"
	},
	{
		"lon": "11.2611419",
		"lat": "47.3898394",
		"number": "192",
		"street": "Hirlanda-Ellmann-Weg",
		"city": "Scharnitz",
		"district": "",
		"postcode": "6108"
	},
	{
		"lon": "11.2636992",
		"lat": "47.3899849",
		"number": "18",
		"street": "Porta-Claudia-Straße",
		"city": "Scharnitz",
		"district": "",
		"postcode": "6108"
	},
	{
		"lon": "11.2664712",
		"lat": "47.3978056",
		"number": "45",
		"street": "Innsbruckerstraße",
		"city": "Scharnitz",
		"district": "",
		"postcode": "6108"
	},
	{
		"lon": "11.2642308",
		"lat": "47.3937379",
		"number": "272",
		"street": "Porta-Claudia-Straße",
		"city": "Scharnitz",
		"district": "",
		"postcode": "6108"
	},
	{
		"lon": "11.2917491",
		"lat": "47.3818381",
		"number": "427",
		"street": "Hinterautalstraße",
		"city": "Scharnitz",
		"district": "",
		"postcode": "6108"
	},
	{
		"lon": "11.2839478",
		"lat": "47.381492",
		"number": "279",
		"street": "Hinterautalstraße",
		"city": "Scharnitz",
		"district": "",
		"postcode": "6108"
	},
	{
		"lon": "11.2829708",
		"lat": "47.3817133",
		"number": "341",
		"street": "Hinterautalstraße",
		"city": "Scharnitz",
		"district": "",
		"postcode": "6108"
	},
	{
		"lon": "11.2661109",
		"lat": "47.3940987",
		"number": "258",
		"street": "Innsbruckerstraße",
		"city": "Scharnitz",
		"district": "",
		"postcode": "6108"
	},
	{
		"lon": "11.1514516",
		"lat": "47.2819674",
		"number": "10",
		"street": "Polling in Tirol",
		"city": "Polling in Tirol",
		"district": "",
		"postcode": "6404"
	},
	{
		"lon": "11.1490931",
		"lat": "47.2805227",
		"number": "87",
		"street": "Polling in Tirol",
		"city": "Polling in Tirol",
		"district": "",
		"postcode": "6404"
	},
	{
		"lon": "11.1490961",
		"lat": "47.2814129",
		"number": "86",
		"street": "Polling in Tirol",
		"city": "Polling in Tirol",
		"district": "",
		"postcode": "6404"
	},
	{
		"lon": "11.1512693",
		"lat": "47.2820298",
		"number": "8",
		"street": "Polling in Tirol",
		"city": "Polling in Tirol",
		"district": "",
		"postcode": "6404"
	},
	{
		"lon": "11.1505842",
		"lat": "47.2805642",
		"number": "88",
		"street": "Polling in Tirol",
		"city": "Polling in Tirol",
		"district": "",
		"postcode": "6404"
	},
	{
		"lon": "11.6830581",
		"lat": "47.1147088",
		"number": "762",
		"street": "Hintertux",
		"city": "Tux",
		"district": "",
		"postcode": "6294"
	},
	{
		"lon": "11.5168059",
		"lat": "47.27778",
		"number": "24",
		"street": "Untere Lend",
		"city": "Hall in Tirol",
		"district": "",
		"postcode": "6060"
	},
	{
		"lon": "11.5075227",
		"lat": "47.2864452",
		"number": "9",
		"street": "Magdalenastraße",
		"city": "Hall in Tirol",
		"district": "",
		"postcode": "6060"
	},
	{
		"lon": "11.2479972",
		"lat": "47.2458782",
		"number": "3",
		"street": "Riedl",
		"city": "Oberperfuss",
		"district": "",
		"postcode": "6173"
	},
	{
		"lon": "12.0951073",
		"lat": "47.5182823",
		"number": "1",
		"street": "Bahnhofstraße",
		"city": "Kirchbichl",
		"district": "",
		"postcode": "6322"
	},
	{
		"lon": "12.0891972",
		"lat": "47.5142798",
		"number": "8",
		"street": "Pfarrgasse",
		"city": "Kirchbichl",
		"district": "",
		"postcode": "6322"
	},
	{
		"lon": "12.074873",
		"lat": "47.5067055",
		"number": "9",
		"street": "Müllnerweg",
		"city": "Kirchbichl",
		"district": "",
		"postcode": "6322"
	},
	{
		"lon": "12.0991032",
		"lat": "47.5254531",
		"number": "21",
		"street": "Bichlwangerstraße",
		"city": "Kirchbichl",
		"district": "",
		"postcode": "6322"
	},
	{
		"lon": "11.5568764",
		"lat": "47.2749162",
		"number": "20a",
		"street": "Kleinvolderbergstraße",
		"city": "Volders",
		"district": "",
		"postcode": "6111"
	},
	{
		"lon": "11.5493628",
		"lat": "47.2742815",
		"number": "10c",
		"street": "Lachhofweg",
		"city": "Volders",
		"district": "",
		"postcode": "6111"
	},
	{
		"lon": "11.5675742",
		"lat": "47.2798436",
		"number": "25a",
		"street": "Unterberg",
		"city": "Volders",
		"district": "",
		"postcode": "6111"
	},
	{
		"lon": "11.3994635",
		"lat": "47.2621803",
		"number": "16",
		"street": "Heiliggeiststraße",
		"city": "Innsbruck",
		"district": "",
		"postcode": "6020"
	},
	{
		"lon": "11.5734262",
		"lat": "47.2897561",
		"number": "7",
		"street": "Wattener Weg",
		"city": "Volders",
		"district": "",
		"postcode": "6111"
	},
	{
		"lon": "11.5619247",
		"lat": "47.2866903",
		"number": "44",
		"street": "Bundesstraße",
		"city": "Volders",
		"district": "",
		"postcode": "6111"
	},
	{
		"lon": "11.5761624",
		"lat": "47.2880865",
		"number": "5c",
		"street": "Jagerbichl",
		"city": "Volders",
		"district": "",
		"postcode": "6111"
	},
	{
		"lon": "11.4510676",
		"lat": "47.2882998",
		"number": "3",
		"street": "Weidenweg",
		"city": "Rum",
		"district": "",
		"postcode": "6063"
	},
	{
		"lon": "11.2334379",
		"lat": "47.2344465",
		"number": "17a",
		"street": "Aigling",
		"city": "Oberperfuss",
		"district": "",
		"postcode": "6173"
	},
	{
		"lon": "11.2400662",
		"lat": "47.2456115",
		"number": "9",
		"street": "Peter-Anich-Weg",
		"city": "Oberperfuss",
		"district": "",
		"postcode": "6173"
	},
	{
		"lon": "10.9721399",
		"lat": "47.3037511",
		"number": "314",
		"street": "Barwies",
		"city": "Mieming",
		"district": "",
		"postcode": "6414"
	},
	{
		"lon": "10.9682666",
		"lat": "47.3113324",
		"number": "20",
		"street": "Ursprungweg",
		"city": "Mieming",
		"district": "",
		"postcode": "6414"
	},
	{
		"lon": "10.952423",
		"lat": "47.3036591",
		"number": "13",
		"street": "Larchetweg",
		"city": "Mieming",
		"district": "",
		"postcode": "6414"
	},
	{
		"lon": "11.2456986",
		"lat": "47.2380831",
		"number": "22",
		"street": "Kammerland",
		"city": "Oberperfuss",
		"district": "",
		"postcode": "6173"
	},
	{
		"lon": "11.244675",
		"lat": "47.2482198",
		"number": "19a",
		"street": "Huebe",
		"city": "Oberperfuss",
		"district": "",
		"postcode": "6173"
	},
	{
		"lon": "11.2288614",
		"lat": "47.2500836",
		"number": "55a",
		"street": "Völsesgasse",
		"city": "Oberperfuss",
		"district": "",
		"postcode": "6173"
	},
	{
		"lon": "11.3755346",
		"lat": "47.2598789",
		"number": "18",
		"street": "Mitterweg",
		"city": "Innsbruck",
		"district": "",
		"postcode": "6020"
	},
	{
		"lon": "11.4149419",
		"lat": "47.2657497",
		"number": "40",
		"street": "Gumppstraße",
		"city": "Innsbruck",
		"district": "",
		"postcode": "6020"
	},
	{
		"lon": "11.4153886",
		"lat": "47.2788055",
		"number": "172",
		"street": "Viaduktbogen",
		"city": "Innsbruck",
		"district": "",
		"postcode": "6020"
	},
	{
		"lon": "11.3309257",
		"lat": "47.2670616",
		"number": "40",
		"street": "Klammstraße",
		"city": "Innsbruck",
		"district": "",
		"postcode": "6020"
	},
	{
		"lon": "11.3983387",
		"lat": "47.2650091",
		"number": "2a",
		"street": "Adamgasse",
		"city": "Innsbruck",
		"district": "",
		"postcode": "6020"
	},
	{
		"lon": "11.4037834",
		"lat": "47.2705974",
		"number": "42",
		"street": "Viaduktbogen",
		"city": "Innsbruck",
		"district": "",
		"postcode": "6020"
	},
	{
		"lon": "11.3805588",
		"lat": "47.2708886",
		"number": "13b",
		"street": "Hinterwaldnerstraße",
		"city": "Innsbruck",
		"district": "",
		"postcode": "6020"
	},
	{
		"lon": "11.3779865",
		"lat": "47.2320265",
		"number": "31",
		"street": "Hinteranger",
		"city": "Natters",
		"district": "",
		"postcode": "6161"
	},
	{
		"lon": "10.5117299",
		"lat": "47.1358444",
		"number": "25",
		"street": "Pians",
		"city": "Pians",
		"district": "",
		"postcode": "6551"
	},
	{
		"lon": "10.5115562",
		"lat": "47.1330845",
		"number": "87",
		"street": "Pians",
		"city": "Pians",
		"district": "",
		"postcode": "6551"
	},
	{
		"lon": "11.3724479",
		"lat": "47.2360486",
		"number": "16a",
		"street": "Magdalenenweg",
		"city": "Natters",
		"district": "",
		"postcode": "6161"
	},
	{
		"lon": "10.5172481",
		"lat": "47.1345817",
		"number": "35a",
		"street": "Pians",
		"city": "Pians",
		"district": "",
		"postcode": "6551"
	},
	{
		"lon": "11.3804897",
		"lat": "47.2451998",
		"number": "12",
		"street": "Natterer Boden",
		"city": "Natters",
		"district": "",
		"postcode": "6161"
	},
	{
		"lon": "10.9725717",
		"lat": "47.3095192",
		"number": "40",
		"street": "Sonnenweg",
		"city": "Mieming",
		"district": "",
		"postcode": "6414"
	},
	{
		"lon": "10.9787702",
		"lat": "47.2962427",
		"number": "53",
		"street": "Weidach",
		"city": "Mieming",
		"district": "",
		"postcode": "6414"
	},
	{
		"lon": "11.5616618",
		"lat": "47.2850442",
		"number": "15b",
		"street": "Guarinonistraße",
		"city": "Volders",
		"district": "",
		"postcode": "6111"
	},
	{
		"lon": "11.5630407",
		"lat": "47.2850321",
		"number": "3",
		"street": "Schönweerstraße",
		"city": "Volders",
		"district": "",
		"postcode": "6111"
	},
	{
		"lon": "11.5631251",
		"lat": "47.2861842",
		"number": "1",
		"street": "Urnenfeldstraße",
		"city": "Volders",
		"district": "",
		"postcode": "6111"
	},
	{
		"lon": "10.9530902",
		"lat": "47.3042859",
		"number": "28",
		"street": "Larchetweg",
		"city": "Mieming",
		"district": "",
		"postcode": "6414"
	},
	{
		"lon": "10.9816311",
		"lat": "47.2968363",
		"number": "49",
		"street": "Untermieming",
		"city": "Mieming",
		"district": "",
		"postcode": "6414"
	},
	{
		"lon": "10.9734454",
		"lat": "47.3069348",
		"number": "27",
		"street": "Oberlandweg",
		"city": "Mieming",
		"district": "",
		"postcode": "6414"
	},
	{
		"lon": "10.9686762",
		"lat": "47.3084165",
		"number": "65",
		"street": "Sonnenweg",
		"city": "Mieming",
		"district": "",
		"postcode": "6414"
	},
	{
		"lon": "11.3772923",
		"lat": "47.2623219",
		"number": "14",
		"street": "Bachlechnerstraße",
		"city": "Innsbruck",
		"district": "",
		"postcode": "6020"
	},
	{
		"lon": "11.3757529",
		"lat": "47.2672729",
		"number": "28d",
		"street": "Sonnenstraße",
		"city": "Innsbruck",
		"district": "",
		"postcode": "6020"
	},
	{
		"lon": "11.4051288",
		"lat": "47.271721",
		"number": "57",
		"street": "Viaduktbogen",
		"city": "Innsbruck",
		"district": "",
		"postcode": "6020"
	},
	{
		"lon": "11.4205562",
		"lat": "47.2628758",
		"number": "10b",
		"street": "Lönsstraße",
		"city": "Innsbruck",
		"district": "",
		"postcode": "6020"
	},
	{
		"lon": "11.6910862",
		"lat": "47.3228251",
		"number": "5",
		"street": "Pillbergstraße",
		"city": "Pill",
		"district": "",
		"postcode": "6136"
	},
	{
		"lon": "11.3719819",
		"lat": "47.2350488",
		"number": "9",
		"street": "Seifensweg",
		"city": "Natters",
		"district": "",
		"postcode": "6161"
	},
	{
		"lon": "11.3717775",
		"lat": "47.2355876",
		"number": "12",
		"street": "Seifensweg",
		"city": "Natters",
		"district": "",
		"postcode": "6161"
	},
	{
		"lon": "11.3715949",
		"lat": "47.2355289",
		"number": "12a",
		"street": "Seifensweg",
		"city": "Natters",
		"district": "",
		"postcode": "6161"
	},
	{
		"lon": "11.3786165",
		"lat": "47.2334205",
		"number": "24",
		"street": "Bahnhofstraße",
		"city": "Natters",
		"district": "",
		"postcode": "6161"
	},
	{
		"lon": "11.3732085",
		"lat": "47.2333986",
		"number": "6",
		"street": "Mittergasse",
		"city": "Natters",
		"district": "",
		"postcode": "6161"
	},
	{
		"lon": "11.3731831",
		"lat": "47.2323812",
		"number": "21",
		"street": "Schulstraße",
		"city": "Natters",
		"district": "",
		"postcode": "6161"
	},
	{
		"lon": "11.2441834",
		"lat": "47.245824",
		"number": "6d",
		"street": "Peter-Anich-Weg",
		"city": "Oberperfuss",
		"district": "",
		"postcode": "6173"
	},
	{
		"lon": "11.4575825",
		"lat": "47.2794524",
		"number": "6g",
		"street": "Anton-Falch-Straße",
		"city": "Rum",
		"district": "",
		"postcode": "6063"
	},
	{
		"lon": "11.4558588",
		"lat": "47.2911408",
		"number": "16",
		"street": "Finkenberg",
		"city": "Rum",
		"district": "",
		"postcode": "6063"
	},
	{
		"lon": "11.4591269",
		"lat": "47.2824931",
		"number": "15",
		"street": "Korngasse",
		"city": "Rum",
		"district": "",
		"postcode": "6063"
	},
	{
		"lon": "11.2425536",
		"lat": "47.2355848",
		"number": "42",
		"street": "Kammerland",
		"city": "Oberperfuss",
		"district": "",
		"postcode": "6173"
	},
	{
		"lon": "11.2449766",
		"lat": "47.2381635",
		"number": "11",
		"street": "Kammerland",
		"city": "Oberperfuss",
		"district": "",
		"postcode": "6173"
	},
	{
		"lon": "11.2476282",
		"lat": "47.2407262",
		"number": "12",
		"street": "Brandstatt",
		"city": "Oberperfuss",
		"district": "",
		"postcode": "6173"
	},
	{
		"lon": "12.422872",
		"lat": "46.7927671",
		"number": "38a",
		"street": "Außervillgraten",
		"city": "Außervillgraten",
		"district": "",
		"postcode": "9931"
	},
	{
		"lon": "11.7174591",
		"lat": "47.3115886",
		"number": "123",
		"street": "Pillbergstraße",
		"city": "Pill",
		"district": "",
		"postcode": "6136"
	},
	{
		"lon": "11.4512423",
		"lat": "47.2905398",
		"number": "38",
		"street": "Schnatzenbichl",
		"city": "Rum",
		"district": "",
		"postcode": "6063"
	},
	{
		"lon": "11.7220577",
		"lat": "47.3188949",
		"number": "192",
		"street": "Pillbergstraße",
		"city": "Pill",
		"district": "",
		"postcode": "6136"
	},
	{
		"lon": "11.4621226",
		"lat": "47.2881305",
		"number": "7",
		"street": "Fliederweg",
		"city": "Rum",
		"district": "",
		"postcode": "6063"
	},
	{
		"lon": "11.4566372",
		"lat": "47.2879588",
		"number": "3 - 3a",
		"street": "Dörferstraße",
		"city": "Rum",
		"district": "",
		"postcode": "6063"
	},
	{
		"lon": "11.525455",
		"lat": "47.2838806",
		"number": "1b",
		"street": "Gilmstraße",
		"city": "Hall in Tirol",
		"district": "",
		"postcode": "6060"
	},
	{
		"lon": "11.454069",
		"lat": "47.1298099",
		"number": "45a",
		"street": "Matrei am Brenner",
		"city": "Matrei am Brenner",
		"district": "",
		"postcode": "6143"
	},
	{
		"lon": "11.4533825",
		"lat": "47.1319126",
		"number": "58",
		"street": "Matrei am Brenner",
		"city": "Matrei am Brenner",
		"district": "",
		"postcode": "6143"
	},
	{
		"lon": "11.4524344",
		"lat": "47.1335267",
		"number": "12",
		"street": "Matrei am Brenner",
		"city": "Matrei am Brenner",
		"district": "",
		"postcode": "6143"
	},
	{
		"lon": "12.4289749",
		"lat": "46.7866561",
		"number": "32",
		"street": "Außervillgraten",
		"city": "Außervillgraten",
		"district": "",
		"postcode": "9931"
	},
	{
		"lon": "12.4233101",
		"lat": "46.7705878",
		"number": "6a",
		"street": "Außervillgraten",
		"city": "Außervillgraten",
		"district": "",
		"postcode": "9931"
	},
	{
		"lon": "11.5691026",
		"lat": "47.2906102",
		"number": "11",
		"street": "Karwendelstraße",
		"city": "Volders",
		"district": "",
		"postcode": "6111"
	},
	{
		"lon": "11.696786",
		"lat": "47.3182531",
		"number": "56",
		"street": "Pillbergstraße",
		"city": "Pill",
		"district": "",
		"postcode": "6136"
	},
	{
		"lon": "11.4327267",
		"lat": "47.2871958",
		"number": "21",
		"street": "General-Feurstein-Straße",
		"city": "Innsbruck",
		"district": "",
		"postcode": "6020"
	},
	{
		"lon": "11.6871942",
		"lat": "47.3227963",
		"number": "11",
		"street": "Oberes Plankfeld",
		"city": "Pill",
		"district": "",
		"postcode": "6136"
	},
	{
		"lon": "11.6848588",
		"lat": "47.3210545",
		"number": "6",
		"street": "Schloßbichl",
		"city": "Pill",
		"district": "",
		"postcode": "6136"
	},
	{
		"lon": "11.3693594",
		"lat": "47.2588787",
		"number": "35c",
		"street": "Tiergartenstraße",
		"city": "Innsbruck",
		"district": "",
		"postcode": "6020"
	},
	{
		"lon": "11.7031891",
		"lat": "47.3210087",
		"number": "9a",
		"street": "Farmeben",
		"city": "Pill",
		"district": "",
		"postcode": "6136"
	},
	{
		"lon": "11.4518386",
		"lat": "47.2888898",
		"number": "11",
		"street": "Erlenweg",
		"city": "Rum",
		"district": "",
		"postcode": "6063"
	},
	{
		"lon": "11.4520134",
		"lat": "47.2722833",
		"number": "20",
		"street": "Steinbockallee",
		"city": "Rum",
		"district": "",
		"postcode": "6063"
	},
	{
		"lon": "11.4469271",
		"lat": "47.2736783",
		"number": "7b",
		"street": "Kugelfangweg",
		"city": "Rum",
		"district": "",
		"postcode": "6063"
	},
	{
		"lon": "11.4580809",
		"lat": "47.2855181",
		"number": "10",
		"street": "Langer Graben",
		"city": "Rum",
		"district": "",
		"postcode": "6063"
	},
	{
		"lon": "11.4500736",
		"lat": "47.2861256",
		"number": "13",
		"street": "Buchenstraße",
		"city": "Rum",
		"district": "",
		"postcode": "6063"
	},
	{
		"lon": "12.4294052",
		"lat": "46.7865058",
		"number": "151",
		"street": "Außervillgraten",
		"city": "Außervillgraten",
		"district": "",
		"postcode": "9931"
	},
	{
		"lon": "12.4208503",
		"lat": "46.7979975",
		"number": "66a",
		"street": "Außervillgraten",
		"city": "Außervillgraten",
		"district": "",
		"postcode": "9931"
	},
	{
		"lon": "12.4281543",
		"lat": "46.7842529",
		"number": "260",
		"street": "Außervillgraten",
		"city": "Außervillgraten",
		"district": "",
		"postcode": "9931"
	},
	{
		"lon": "11.4550911",
		"lat": "47.2853915",
		"number": "21a",
		"street": "Murstraße",
		"city": "Rum",
		"district": "",
		"postcode": "6063"
	},
	{
		"lon": "11.4564562",
		"lat": "47.2864077",
		"number": "4a",
		"street": "Krautfeldweg",
		"city": "Rum",
		"district": "",
		"postcode": "6063"
	},
	{
		"lon": "11.4530647",
		"lat": "47.131844",
		"number": "31",
		"street": "Matrei am Brenner",
		"city": "Matrei am Brenner",
		"district": "",
		"postcode": "6143"
	},
	{
		"lon": "11.4533072",
		"lat": "47.1305716",
		"number": "41",
		"street": "Matrei am Brenner",
		"city": "Matrei am Brenner",
		"district": "",
		"postcode": "6143"
	},
	{
		"lon": "11.7216084",
		"lat": "47.3145335",
		"number": "17",
		"street": "Ögglweg",
		"city": "Pill",
		"district": "",
		"postcode": "6136"
	},
	{
		"lon": "11.721811",
		"lat": "47.3190693",
		"number": "194",
		"street": "Pillbergstraße",
		"city": "Pill",
		"district": "",
		"postcode": "6136"
	},
	{
		"lon": "11.5761024",
		"lat": "47.2894898",
		"number": "16",
		"street": "Dr.-Franz-Laimer-Straße",
		"city": "Volders",
		"district": "",
		"postcode": "6111"
	},
	{
		"lon": "11.5749295",
		"lat": "47.2897264",
		"number": "18",
		"street": "Wattener Weg",
		"city": "Volders",
		"district": "",
		"postcode": "6111"
	},
	{
		"lon": "11.7358049",
		"lat": "47.3156019",
		"number": "31",
		"street": "Hoferweg",
		"city": "Pill",
		"district": "",
		"postcode": "6136"
	},
	{
		"lon": "11.7491584",
		"lat": "47.293944",
		"number": "7",
		"street": "Loasweg",
		"city": "Pill",
		"district": "",
		"postcode": "6136"
	},
	{
		"lon": "11.7001163",
		"lat": "47.3210143",
		"number": "13",
		"street": "Kirchmairwies",
		"city": "Pill",
		"district": "",
		"postcode": "6136"
	},
	{
		"lon": "11.6910001",
		"lat": "47.3259305",
		"number": "13",
		"street": "Heiligkreuz",
		"city": "Pill",
		"district": "",
		"postcode": "6136"
	},
	{
		"lon": "12.4474667",
		"lat": "46.7977693",
		"number": "120",
		"street": "Außervillgraten",
		"city": "Außervillgraten",
		"district": "",
		"postcode": "9931"
	},
	{
		"lon": "10.9764225",
		"lat": "47.2957098",
		"number": "28",
		"street": "Weidach",
		"city": "Mieming",
		"district": "",
		"postcode": "6414"
	},
	{
		"lon": "10.9645487",
		"lat": "47.3080384",
		"number": "114a",
		"street": "Föhrenweg",
		"city": "Mieming",
		"district": "",
		"postcode": "6414"
	},
	{
		"lon": "11.384538",
		"lat": "47.2383129",
		"number": "16",
		"street": "Weinweg",
		"city": "Natters",
		"district": "",
		"postcode": "6161"
	},
	{
		"lon": "10.9763489",
		"lat": "47.3098912",
		"number": "21",
		"street": "Höhenweg",
		"city": "Mieming",
		"district": "",
		"postcode": "6414"
	},
	{
		"lon": "11.4535955",
		"lat": "47.1301906",
		"number": "107",
		"street": "Matrei am Brenner",
		"city": "Matrei am Brenner",
		"district": "",
		"postcode": "6143"
	},
	{
		"lon": "11.4528207",
		"lat": "47.1294845",
		"number": "102",
		"street": "Matrei am Brenner",
		"city": "Matrei am Brenner",
		"district": "",
		"postcode": "6143"
	},
	{
		"lon": "11.4537493",
		"lat": "47.1310847",
		"number": "52",
		"street": "Matrei am Brenner",
		"city": "Matrei am Brenner",
		"district": "",
		"postcode": "6143"
	},
	{
		"lon": "11.4530269",
		"lat": "47.1324759",
		"number": "61",
		"street": "Matrei am Brenner",
		"city": "Matrei am Brenner",
		"district": "",
		"postcode": "6143"
	},
	{
		"lon": "11.6928028",
		"lat": "47.3165539",
		"number": "44",
		"street": "Pillbergstraße",
		"city": "Pill",
		"district": "",
		"postcode": "6136"
	},
	{
		"lon": "11.7219189",
		"lat": "47.3129042",
		"number": "7",
		"street": "Ögglweg",
		"city": "Pill",
		"district": "",
		"postcode": "6136"
	},
	{
		"lon": "11.5714013",
		"lat": "47.2872326",
		"number": "6",
		"street": "Schlosssiedlung",
		"city": "Volders",
		"district": "",
		"postcode": "6111"
	},
	{
		"lon": "11.578041",
		"lat": "47.2894762",
		"number": "27",
		"street": "Jagerbichl",
		"city": "Volders",
		"district": "",
		"postcode": "6111"
	},
	{
		"lon": "11.5790668",
		"lat": "47.2896144",
		"number": "30",
		"street": "Jagerbichl",
		"city": "Volders",
		"district": "",
		"postcode": "6111"
	},
	{
		"lon": "11.5762618",
		"lat": "47.2907603",
		"number": "8a",
		"street": "Johannesfeldstraße",
		"city": "Volders",
		"district": "",
		"postcode": "6111"
	},
	{
		"lon": "11.5744373",
		"lat": "47.2881649",
		"number": "7",
		"street": "Hochschwarzweg",
		"city": "Volders",
		"district": "",
		"postcode": "6111"
	},
	{
		"lon": "11.7252823",
		"lat": "47.3090369",
		"number": "3",
		"street": "Trattererweg",
		"city": "Pill",
		"district": "",
		"postcode": "6136"
	},
	{
		"lon": "11.6993973",
		"lat": "47.3266046",
		"number": "18",
		"street": "Gruberweg",
		"city": "Pill",
		"district": "",
		"postcode": "6136"
	},
	{
		"lon": "12.4306277",
		"lat": "46.7877887",
		"number": "178a",
		"street": "Außervillgraten",
		"city": "Außervillgraten",
		"district": "",
		"postcode": "9931"
	},
	{
		"lon": "12.4273387",
		"lat": "46.7881678",
		"number": "142a",
		"street": "Außervillgraten",
		"city": "Außervillgraten",
		"district": "",
		"postcode": "9931"
	},
	{
		"lon": "12.4315327",
		"lat": "46.7886209",
		"number": "167",
		"street": "Außervillgraten",
		"city": "Außervillgraten",
		"district": "",
		"postcode": "9931"
	},
	{
		"lon": "11.8307618",
		"lat": "47.4806721",
		"number": "8",
		"street": "Almen",
		"city": "Kramsach",
		"district": "",
		"postcode": "6233"
	},
	{
		"lon": "11.9081765",
		"lat": "47.4672501",
		"number": "16",
		"street": "Moosen",
		"city": "Kramsach",
		"district": "",
		"postcode": "6233"
	},
	{
		"lon": "11.3743278",
		"lat": "47.2347254",
		"number": "7",
		"street": "Dorfplatz",
		"city": "Natters",
		"district": "",
		"postcode": "6161"
	},
	{
		"lon": "11.3732725",
		"lat": "47.2354162",
		"number": "8",
		"street": "Magdalenenweg",
		"city": "Natters",
		"district": "",
		"postcode": "6161"
	},
	{
		"lon": "11.3704988",
		"lat": "47.2357336",
		"number": "24",
		"street": "Seestraße",
		"city": "Natters",
		"district": "",
		"postcode": "6161"
	},
	{
		"lon": "11.5043551",
		"lat": "47.2808644",
		"number": "22",
		"street": "Unterer Stadtplatz",
		"city": "Hall in Tirol",
		"district": "",
		"postcode": "6060"
	},
	{
		"lon": "11.5024837",
		"lat": "47.2790813",
		"number": "4a",
		"street": "Augasse",
		"city": "Hall in Tirol",
		"district": "",
		"postcode": "6060"
	},
	{
		"lon": "11.3779959",
		"lat": "47.2393499",
		"number": "32",
		"street": "Gartenweg",
		"city": "Natters",
		"district": "",
		"postcode": "6161"
	},
	{
		"lon": "11.4530072",
		"lat": "47.1277181",
		"number": "81",
		"street": "Matrei am Brenner",
		"city": "Matrei am Brenner",
		"district": "",
		"postcode": "6143"
	},
	{
		"lon": "11.4524445",
		"lat": "47.133667",
		"number": "10",
		"street": "Matrei am Brenner",
		"city": "Matrei am Brenner",
		"district": "",
		"postcode": "6143"
	},
	{
		"lon": "11.4536051",
		"lat": "47.1304465",
		"number": "48",
		"street": "Matrei am Brenner",
		"city": "Matrei am Brenner",
		"district": "",
		"postcode": "6143"
	},
	{
		"lon": "11.4535435",
		"lat": "47.1292585",
		"number": "123",
		"street": "Matrei am Brenner",
		"city": "Matrei am Brenner",
		"district": "",
		"postcode": "6143"
	},
	{
		"lon": "11.4533331",
		"lat": "47.1308626",
		"number": "38",
		"street": "Matrei am Brenner",
		"city": "Matrei am Brenner",
		"district": "",
		"postcode": "6143"
	},
	{
		"lon": "11.4531617",
		"lat": "47.1316737",
		"number": "33",
		"street": "Matrei am Brenner",
		"city": "Matrei am Brenner",
		"district": "",
		"postcode": "6143"
	},
	{
		"lon": "11.7128101",
		"lat": "47.3126054",
		"number": "111",
		"street": "Pillbergstraße",
		"city": "Pill",
		"district": "",
		"postcode": "6136"
	},
	{
		"lon": "11.7644848",
		"lat": "47.2870913",
		"number": "13",
		"street": "Loasweg",
		"city": "Pill",
		"district": "",
		"postcode": "6136"
	},
	{
		"lon": "11.7449029",
		"lat": "47.3154832",
		"number": "3",
		"street": "Loasweg",
		"city": "Pill",
		"district": "",
		"postcode": "6136"
	},
	{
		"lon": "11.7420584",
		"lat": "47.3127358",
		"number": "1",
		"street": "Loasweg",
		"city": "Pill",
		"district": "",
		"postcode": "6136"
	},
	{
		"lon": "11.7457803",
		"lat": "47.3160371",
		"number": "4a",
		"street": "Loasweg",
		"city": "Pill",
		"district": "",
		"postcode": "6136"
	},
	{
		"lon": "11.7215343",
		"lat": "47.3142962",
		"number": "16",
		"street": "Ögglweg",
		"city": "Pill",
		"district": "",
		"postcode": "6136"
	},
	{
		"lon": "11.7228376",
		"lat": "47.3135746",
		"number": "9",
		"street": "Ögglweg",
		"city": "Pill",
		"district": "",
		"postcode": "6136"
	},
	{
		"lon": "11.437815",
		"lat": "47.2784169",
		"number": "33",
		"street": "Josef-Wilberger-Straße",
		"city": "Innsbruck",
		"district": "",
		"postcode": "6020"
	},
	{
		"lon": "12.4295243",
		"lat": "46.7864575",
		"number": "151a",
		"street": "Außervillgraten",
		"city": "Außervillgraten",
		"district": "",
		"postcode": "9931"
	},
	{
		"lon": "11.3805906",
		"lat": "47.2446638",
		"number": "16",
		"street": "Natterer Boden",
		"city": "Natters",
		"district": "",
		"postcode": "6161"
	},
	{
		"lon": "11.4017356",
		"lat": "47.2604758",
		"number": "4b",
		"street": "Hauptfrachtenbahnhof",
		"city": "Innsbruck",
		"district": "",
		"postcode": "6020"
	},
	{
		"lon": "11.3821049",
		"lat": "47.2589198",
		"number": "2",
		"street": "Hormayrstraße",
		"city": "Innsbruck",
		"district": "",
		"postcode": "6020"
	},
	{
		"lon": "11.5071282",
		"lat": "47.2843451",
		"number": "8",
		"street": "Schumacherweg",
		"city": "Hall in Tirol",
		"district": "",
		"postcode": "6060"
	},
	{
		"lon": "11.4910978",
		"lat": "47.2878873",
		"number": "13",
		"street": "Rumer Steig",
		"city": "Hall in Tirol",
		"district": "",
		"postcode": "6060"
	},
	{
		"lon": "11.4953401",
		"lat": "47.281712",
		"number": "4c",
		"street": "Alte Landstraße",
		"city": "Hall in Tirol",
		"district": "",
		"postcode": "6060"
	},
	{
		"lon": "11.5206791",
		"lat": "47.2875704",
		"number": "3",
		"street": "Rudolf-Reinhart-Straße",
		"city": "Hall in Tirol",
		"district": "",
		"postcode": "6060"
	},
	{
		"lon": "11.5203324",
		"lat": "47.287634",
		"number": "3",
		"street": "Helmut-Rehm-Straße",
		"city": "Hall in Tirol",
		"district": "",
		"postcode": "6060"
	},
	{
		"lon": "11.5197526",
		"lat": "47.2794056",
		"number": "20b",
		"street": "Anna-Dengel-Straße",
		"city": "Hall in Tirol",
		"district": "",
		"postcode": "6060"
	},
	{
		"lon": "11.5191483",
		"lat": "47.2789421",
		"number": "18c",
		"street": "Anna-Dengel-Straße",
		"city": "Hall in Tirol",
		"district": "",
		"postcode": "6060"
	},
	{
		"lon": "11.4537646",
		"lat": "47.1312509",
		"number": "53",
		"street": "Matrei am Brenner",
		"city": "Matrei am Brenner",
		"district": "",
		"postcode": "6143"
	},
	{
		"lon": "11.2466136",
		"lat": "47.2458944",
		"number": "5",
		"street": "Anton-Kirchebner-Weg",
		"city": "Oberperfuss",
		"district": "",
		"postcode": "6173"
	},
	{
		"lon": "11.5651444",
		"lat": "47.2843577",
		"number": "3",
		"street": "Klosterstraße",
		"city": "Volders",
		"district": "",
		"postcode": "6111"
	},
	{
		"lon": "11.5658679",
		"lat": "47.2851889",
		"number": "13a",
		"street": "Senselerstraße",
		"city": "Volders",
		"district": "",
		"postcode": "6111"
	},
	{
		"lon": "11.5743055",
		"lat": "47.2883649",
		"number": "3",
		"street": "Weindlerfeld",
		"city": "Volders",
		"district": "",
		"postcode": "6111"
	},
	{
		"lon": "11.5758589",
		"lat": "47.2879828",
		"number": "4c",
		"street": "Jagerbichl",
		"city": "Volders",
		"district": "",
		"postcode": "6111"
	},
	{
		"lon": "11.5644942",
		"lat": "47.2881182",
		"number": "1d - 1e",
		"street": "Bahnhofstraße",
		"city": "Volders",
		"district": "",
		"postcode": "6111"
	},
	{
		"lon": "11.5670861",
		"lat": "47.2876743",
		"number": "4",
		"street": "Kirchgasse",
		"city": "Volders",
		"district": "",
		"postcode": "6111"
	},
	{
		"lon": "11.9600531",
		"lat": "47.400127",
		"number": "508",
		"street": "Alpbach",
		"city": "Alpbach",
		"district": "",
		"postcode": "6236"
	},
	{
		"lon": "11.232454",
		"lat": "47.2468787",
		"number": "16",
		"street": "Dickicht",
		"city": "Oberperfuss",
		"district": "",
		"postcode": "6173"
	},
	{
		"lon": "11.2472613",
		"lat": "47.247137",
		"number": "16a",
		"street": "Hinterhof",
		"city": "Oberperfuss",
		"district": "",
		"postcode": "6173"
	},
	{
		"lon": "11.521112",
		"lat": "47.281664",
		"number": "2c",
		"street": "Galgenfeldstraße",
		"city": "Hall in Tirol",
		"district": "",
		"postcode": "6060"
	},
	{
		"lon": "11.520321",
		"lat": "47.2862677",
		"number": "34",
		"street": "Schranne",
		"city": "Hall in Tirol",
		"district": "",
		"postcode": "6060"
	},
	{
		"lon": "11.248358",
		"lat": "47.2412321",
		"number": "4",
		"street": "Brandstatt",
		"city": "Oberperfuss",
		"district": "",
		"postcode": "6173"
	},
	{
		"lon": "11.1478513",
		"lat": "47.2827742",
		"number": "124",
		"street": "Polling in Tirol",
		"city": "Polling in Tirol",
		"district": "",
		"postcode": "6404"
	},
	{
		"lon": "11.1492771",
		"lat": "47.2830704",
		"number": "2",
		"street": "Polling in Tirol",
		"city": "Polling in Tirol",
		"district": "",
		"postcode": "6404"
	},
	{
		"lon": "11.1355139",
		"lat": "47.2757644",
		"number": "35",
		"street": "Pollingberg",
		"city": "Polling in Tirol",
		"district": "",
		"postcode": "6404"
	},
	{
		"lon": "11.1561204",
		"lat": "47.2817353",
		"number": "167",
		"street": "Polling in Tirol",
		"city": "Polling in Tirol",
		"district": "",
		"postcode": "6404"
	},
	{
		"lon": "11.5767313",
		"lat": "47.2753071",
		"number": "7",
		"street": "Großvolderbergstraße",
		"city": "Volders",
		"district": "",
		"postcode": "6111"
	},
	{
		"lon": "11.5685845",
		"lat": "47.2834285",
		"number": "2",
		"street": "Großvolderbergstraße",
		"city": "Volders",
		"district": "",
		"postcode": "6111"
	},
	{
		"lon": "11.5696429",
		"lat": "47.2840281",
		"number": "5a",
		"street": "Kirchnerstraße",
		"city": "Volders",
		"district": "",
		"postcode": "6111"
	},
	{
		"lon": "11.5693064",
		"lat": "47.2851741",
		"number": "10b",
		"street": "Rauchenbergstraße",
		"city": "Volders",
		"district": "",
		"postcode": "6111"
	},
	{
		"lon": "11.5701713",
		"lat": "47.2859141",
		"number": "28",
		"street": "Schlosssiedlung",
		"city": "Volders",
		"district": "",
		"postcode": "6111"
	},
	{
		"lon": "10.9723736",
		"lat": "47.3063447",
		"number": "193f",
		"street": "Obermieming",
		"city": "Mieming",
		"district": "",
		"postcode": "6414"
	},
	{
		"lon": "10.9779384",
		"lat": "47.2964415",
		"number": "31",
		"street": "Weidach",
		"city": "Mieming",
		"district": "",
		"postcode": "6414"
	},
	{
		"lon": "11.4576015",
		"lat": "47.2796738",
		"number": "6i",
		"street": "Anton-Falch-Straße",
		"city": "Rum",
		"district": "",
		"postcode": "6063"
	},
	{
		"lon": "11.4601546",
		"lat": "47.2860978",
		"number": "5",
		"street": "Kirchgasse",
		"city": "Rum",
		"district": "",
		"postcode": "6063"
	},
	{
		"lon": "11.462142",
		"lat": "47.287374",
		"number": "33",
		"street": "Dörferstraße",
		"city": "Rum",
		"district": "",
		"postcode": "6063"
	},
	{
		"lon": "11.457329",
		"lat": "47.2812927",
		"number": "7",
		"street": "Römerstraße",
		"city": "Rum",
		"district": "",
		"postcode": "6063"
	},
	{
		"lon": "11.4546801",
		"lat": "47.273781",
		"number": "17",
		"street": "Siemensstraße",
		"city": "Rum",
		"district": "",
		"postcode": "6063"
	},
	{
		"lon": "11.4580963",
		"lat": "47.283397",
		"number": "1a",
		"street": "Langer Graben",
		"city": "Rum",
		"district": "",
		"postcode": "6063"
	},
	{
		"lon": "11.4617607",
		"lat": "47.2859201",
		"number": "1",
		"street": "Bauerngasse",
		"city": "Rum",
		"district": "",
		"postcode": "6063"
	},
	{
		"lon": "11.4548957",
		"lat": "47.2876419",
		"number": "2c",
		"street": "Dörferstraße",
		"city": "Rum",
		"district": "",
		"postcode": "6063"
	},
	{
		"lon": "11.4055863",
		"lat": "47.2767784",
		"number": "2",
		"street": "Conradstraße",
		"city": "Innsbruck",
		"district": "",
		"postcode": "6020"
	},
	{
		"lon": "11.3716182",
		"lat": "47.2571609",
		"number": "42a",
		"street": "Dr.-Stumpf-Straße",
		"city": "Innsbruck",
		"district": "",
		"postcode": "6020"
	},
	{
		"lon": "11.3781087",
		"lat": "47.2440681",
		"number": "17",
		"street": "Natterer Boden",
		"city": "Natters",
		"district": "",
		"postcode": "6161"
	},
	{
		"lon": "11.6449061",
		"lat": "47.3048377",
		"number": "4",
		"street": "Moarhofweg",
		"city": "Weer",
		"district": "",
		"postcode": "6116"
	},
	{
		"lon": "11.3740076",
		"lat": "47.2351574",
		"number": "15",
		"street": "Nockweg",
		"city": "Natters",
		"district": "",
		"postcode": "6161"
	},
	{
		"lon": "11.3814241",
		"lat": "47.2385571",
		"number": "15",
		"street": "Serlesweg",
		"city": "Natters",
		"district": "",
		"postcode": "6161"
	},
	{
		"lon": "11.5642257",
		"lat": "47.2899942",
		"number": "54",
		"street": "Johannesfeldstraße",
		"city": "Volders",
		"district": "",
		"postcode": "6111"
	},
	{
		"lon": "11.2498399",
		"lat": "47.2444487",
		"number": "27",
		"street": "Riedl",
		"city": "Oberperfuss",
		"district": "",
		"postcode": "6173"
	},
	{
		"lon": "12.4605315",
		"lat": "46.8235288",
		"number": "103",
		"street": "Außervillgraten",
		"city": "Außervillgraten",
		"district": "",
		"postcode": "9931"
	},
	{
		"lon": "12.4610145",
		"lat": "46.8239875",
		"number": "102",
		"street": "Außervillgraten",
		"city": "Außervillgraten",
		"district": "",
		"postcode": "9931"
	},
	{
		"lon": "11.4539843",
		"lat": "47.2881019",
		"number": "3",
		"street": "Holzgasse",
		"city": "Rum",
		"district": "",
		"postcode": "6063"
	},
	{
		"lon": "11.4482613",
		"lat": "47.2770337",
		"number": "28",
		"street": "Austraße",
		"city": "Rum",
		"district": "",
		"postcode": "6063"
	},
	{
		"lon": "11.4485689",
		"lat": "47.2731262",
		"number": "43a",
		"street": "Siemensstraße",
		"city": "Rum",
		"district": "",
		"postcode": "6063"
	},
	{
		"lon": "11.4552016",
		"lat": "47.2883363",
		"number": "1",
		"street": "Finkenberg",
		"city": "Rum",
		"district": "",
		"postcode": "6063"
	},
	{
		"lon": "11.44822",
		"lat": "47.2772329",
		"number": "1",
		"street": "Innstraße",
		"city": "Rum",
		"district": "",
		"postcode": "6063"
	},
	{
		"lon": "11.447117",
		"lat": "47.278498",
		"number": "18",
		"street": "Bundesstraße",
		"city": "Rum",
		"district": "",
		"postcode": "6063"
	},
	{
		"lon": "11.4638067",
		"lat": "47.2884719",
		"number": "37c",
		"street": "Dörferstraße",
		"city": "Rum",
		"district": "",
		"postcode": "6063"
	},
	{
		"lon": "11.3392075",
		"lat": "47.2325716",
		"number": "28",
		"street": "Heuweg",
		"city": "Natters",
		"district": "",
		"postcode": "6091"
	},
	{
		"lon": "11.3401447",
		"lat": "47.2334686",
		"number": "10",
		"street": "Heuweg",
		"city": "Natters",
		"district": "",
		"postcode": "6091"
	},
	{
		"lon": "11.3793193",
		"lat": "47.2385723",
		"number": "16",
		"street": "Gartenweg",
		"city": "Natters",
		"district": "",
		"postcode": "6161"
	},
	{
		"lon": "11.4481793",
		"lat": "47.2739687",
		"number": "11a",
		"street": "Kugelfangweg",
		"city": "Rum",
		"district": "",
		"postcode": "6063"
	},
	{
		"lon": "11.9629154",
		"lat": "47.3789458",
		"number": "503a",
		"street": "Alpbach",
		"city": "Alpbach",
		"district": "",
		"postcode": "6236"
	},
	{
		"lon": "11.9628706",
		"lat": "47.3794319",
		"number": "618",
		"street": "Alpbach",
		"city": "Alpbach",
		"district": "",
		"postcode": "6236"
	},
	{
		"lon": "11.9286396",
		"lat": "47.4037551",
		"number": "712e",
		"street": "Alpbach",
		"city": "Alpbach",
		"district": "",
		"postcode": "6236"
	},
	{
		"lon": "11.9637479",
		"lat": "47.4019066",
		"number": "608",
		"street": "Alpbach",
		"city": "Alpbach",
		"district": "",
		"postcode": "6236"
	},
	{
		"lon": "11.7211641",
		"lat": "47.3140796",
		"number": "14",
		"street": "Ögglweg",
		"city": "Pill",
		"district": "",
		"postcode": "6136"
	},
	{
		"lon": "11.7319638",
		"lat": "47.3083978",
		"number": "151",
		"street": "Pillbergstraße",
		"city": "Pill",
		"district": "",
		"postcode": "6136"
	},
	{
		"lon": "11.6818213",
		"lat": "47.3221016",
		"number": "7",
		"street": "Innstraße",
		"city": "Pill",
		"district": "",
		"postcode": "6136"
	},
	{
		"lon": "11.7212685",
		"lat": "47.3084675",
		"number": "1",
		"street": "Hoflachweg",
		"city": "Pill",
		"district": "",
		"postcode": "6136"
	},
	{
		"lon": "10.561232",
		"lat": "47.5101781",
		"number": "1",
		"street": "Weiher",
		"city": "Grän",
		"district": "",
		"postcode": "6673"
	},
	{
		"lon": "10.5579489",
		"lat": "47.506851",
		"number": "39",
		"street": "Neu-Grän",
		"city": "Grän",
		"district": "",
		"postcode": "6673"
	},
	{
		"lon": "10.5565759",
		"lat": "47.5123023",
		"number": "11",
		"street": "Ahornweg",
		"city": "Grän",
		"district": "",
		"postcode": "6673"
	},
	{
		"lon": "10.5574192",
		"lat": "47.5115634",
		"number": "4",
		"street": "Ahornweg",
		"city": "Grän",
		"district": "",
		"postcode": "6673"
	},
	{
		"lon": "11.4877281",
		"lat": "47.27616",
		"number": "7",
		"street": "Riedau",
		"city": "Hall in Tirol",
		"district": "",
		"postcode": "6060"
	},
	{
		"lon": "11.4891807",
		"lat": "47.2791274",
		"number": "5",
		"street": "Trientlstraße",
		"city": "Hall in Tirol",
		"district": "",
		"postcode": "6060"
	},
	{
		"lon": "11.5085395",
		"lat": "47.2873597",
		"number": "22",
		"street": "Rudolfstraße",
		"city": "Hall in Tirol",
		"district": "",
		"postcode": "6060"
	},
	{
		"lon": "11.5035976",
		"lat": "47.2820649",
		"number": "2",
		"street": "Fassergasse",
		"city": "Hall in Tirol",
		"district": "",
		"postcode": "6060"
	},
	{
		"lon": "11.4807583",
		"lat": "47.2766862",
		"number": "77",
		"street": "Innsbrucker Straße",
		"city": "Hall in Tirol",
		"district": "",
		"postcode": "6060"
	},
	{
		"lon": "11.4814966",
		"lat": "47.2786497",
		"number": "2",
		"street": "Loretto Umgebung",
		"city": "Hall in Tirol",
		"district": "",
		"postcode": "6060"
	},
	{
		"lon": "11.4913767",
		"lat": "47.2782871",
		"number": "46",
		"street": "Innsbrucker Straße",
		"city": "Hall in Tirol",
		"district": "",
		"postcode": "6060"
	},
	{
		"lon": "11.4899029",
		"lat": "47.2780934",
		"number": "54",
		"street": "Innsbrucker Straße",
		"city": "Hall in Tirol",
		"district": "",
		"postcode": "6060"
	},
	{
		"lon": "11.4048295",
		"lat": "47.2691733",
		"number": "19",
		"street": "Dreiheiligenstraße",
		"city": "Innsbruck",
		"district": "",
		"postcode": "6020"
	},
	{
		"lon": "11.9294367",
		"lat": "47.3899183",
		"number": "5",
		"street": "Alpbach",
		"city": "Alpbach",
		"district": "",
		"postcode": "6236"
	},
	{
		"lon": "11.9417488",
		"lat": "47.3960461",
		"number": "357",
		"street": "Alpbach",
		"city": "Alpbach",
		"district": "",
		"postcode": "6236"
	},
	{
		"lon": "11.4471662",
		"lat": "47.2750701",
		"number": "36",
		"street": "Serlesstraße",
		"city": "Rum",
		"district": "",
		"postcode": "6063"
	},
	{
		"lon": "11.4466446",
		"lat": "47.2755673",
		"number": "13",
		"street": "Mittergasse",
		"city": "Rum",
		"district": "",
		"postcode": "6063"
	},
	{
		"lon": "11.5693427",
		"lat": "47.2600976",
		"number": "10",
		"street": "Kalkofenweg",
		"city": "Volders",
		"district": "",
		"postcode": "6111"
	},
	{
		"lon": "11.4506079",
		"lat": "47.2767831",
		"number": "8",
		"street": "Roßschwemme",
		"city": "Rum",
		"district": "",
		"postcode": "6063"
	},
	{
		"lon": "11.5701179",
		"lat": "47.2720886",
		"number": "24",
		"street": "Grubertalstraße",
		"city": "Volders",
		"district": "",
		"postcode": "6111"
	},
	{
		"lon": "11.4568283",
		"lat": "47.290512",
		"number": "12",
		"street": "Finkenberg",
		"city": "Rum",
		"district": "",
		"postcode": "6063"
	},
	{
		"lon": "11.455905",
		"lat": "47.2861287",
		"number": "10",
		"street": "Krautfeldweg",
		"city": "Rum",
		"district": "",
		"postcode": "6063"
	},
	{
		"lon": "11.4558298",
		"lat": "47.2846106",
		"number": "9",
		"street": "Murstraße",
		"city": "Rum",
		"district": "",
		"postcode": "6063"
	},
	{
		"lon": "12.4283172",
		"lat": "46.7673119",
		"number": "204a",
		"street": "Außervillgraten",
		"city": "Außervillgraten",
		"district": "",
		"postcode": "9931"
	},
	{
		"lon": "12.4035605",
		"lat": "46.7988171",
		"number": "53",
		"street": "Außervillgraten",
		"city": "Außervillgraten",
		"district": "",
		"postcode": "9931"
	},
	{
		"lon": "12.4444487",
		"lat": "46.8053124",
		"number": "93",
		"street": "Außervillgraten",
		"city": "Außervillgraten",
		"district": "",
		"postcode": "9931"
	},
	{
		"lon": "12.422594",
		"lat": "46.7714154",
		"number": "8",
		"street": "Außervillgraten",
		"city": "Außervillgraten",
		"district": "",
		"postcode": "9931"
	},
	{
		"lon": "11.4508293",
		"lat": "47.2884008",
		"number": "6a",
		"street": "Erlenweg",
		"city": "Rum",
		"district": "",
		"postcode": "6063"
	},
	{
		"lon": "11.5087892",
		"lat": "47.2843179",
		"number": "2",
		"street": "Bruckergasse",
		"city": "Hall in Tirol",
		"district": "",
		"postcode": "6060"
	},
	{
		"lon": "11.4890782",
		"lat": "47.275624",
		"number": "10",
		"street": "Essacherstraße",
		"city": "Hall in Tirol",
		"district": "",
		"postcode": "6060"
	},
	{
		"lon": "10.9777521",
		"lat": "47.2954749",
		"number": "76",
		"street": "Weidach",
		"city": "Mieming",
		"district": "",
		"postcode": "6414"
	},
	{
		"lon": "10.9666932",
		"lat": "47.3058201",
		"number": "266",
		"street": "Barwies",
		"city": "Mieming",
		"district": "",
		"postcode": "6414"
	},
	{
		"lon": "10.9851633",
		"lat": "47.297794",
		"number": "3",
		"street": "Hoher Weg",
		"city": "Mieming",
		"district": "",
		"postcode": "6414"
	},
	{
		"lon": "10.9651903",
		"lat": "47.3063222",
		"number": "272",
		"street": "Barwies",
		"city": "Mieming",
		"district": "",
		"postcode": "6414"
	},
	{
		"lon": "11.9565127",
		"lat": "47.3968413",
		"number": "438",
		"street": "Alpbach",
		"city": "Alpbach",
		"district": "",
		"postcode": "6236"
	},
	{
		"lon": "11.9487603",
		"lat": "47.3866595",
		"number": "511",
		"street": "Alpbach",
		"city": "Alpbach",
		"district": "",
		"postcode": "6236"
	},
	{
		"lon": "11.9345714",
		"lat": "47.4000247",
		"number": "615",
		"street": "Alpbach",
		"city": "Alpbach",
		"district": "",
		"postcode": "6236"
	},
	{
		"lon": "11.9340378",
		"lat": "47.3990612",
		"number": "689",
		"street": "Alpbach",
		"city": "Alpbach",
		"district": "",
		"postcode": "6236"
	},
	{
		"lon": "11.9670807",
		"lat": "47.3783749",
		"number": "531",
		"street": "Alpbach",
		"city": "Alpbach",
		"district": "",
		"postcode": "6236"
	},
	{
		"lon": "11.9630904",
		"lat": "47.3747973",
		"number": "655a",
		"street": "Alpbach",
		"city": "Alpbach",
		"district": "",
		"postcode": "6236"
	},
	{
		"lon": "11.4633422",
		"lat": "47.2862635",
		"number": "40",
		"street": "Schulstraße",
		"city": "Rum",
		"district": "",
		"postcode": "6063"
	},
	{
		"lon": "11.4557464",
		"lat": "47.2853461",
		"number": "24",
		"street": "Murstraße",
		"city": "Rum",
		"district": "",
		"postcode": "6063"
	},
	{
		"lon": "11.4491392",
		"lat": "47.2879978",
		"number": "3",
		"street": "Föhrenweg",
		"city": "Rum",
		"district": "",
		"postcode": "6063"
	},
	{
		"lon": "11.2368871",
		"lat": "47.2511468",
		"number": "28a",
		"street": "Völsesgasse",
		"city": "Oberperfuss",
		"district": "",
		"postcode": "6173"
	},
	{
		"lon": "11.4509985",
		"lat": "47.2903468",
		"number": "34",
		"street": "Schnatzenbichl",
		"city": "Rum",
		"district": "",
		"postcode": "6063"
	},
	{
		"lon": "11.4555149",
		"lat": "47.2878688",
		"number": "4a",
		"street": "Dörferstraße",
		"city": "Rum",
		"district": "",
		"postcode": "6063"
	},
	{
		"lon": "11.4499816",
		"lat": "47.2896719",
		"number": "18",
		"street": "Schnatzenbichl",
		"city": "Rum",
		"district": "",
		"postcode": "6063"
	},
	{
		"lon": "11.4503082",
		"lat": "47.290103",
		"number": "9",
		"street": "Schnatzenbichl",
		"city": "Rum",
		"district": "",
		"postcode": "6063"
	},
	{
		"lon": "11.4511605",
		"lat": "47.2896501",
		"number": "74a",
		"street": "Murstraße",
		"city": "Rum",
		"district": "",
		"postcode": "6063"
	},
	{
		"lon": "11.4574671",
		"lat": "47.286149",
		"number": "27",
		"street": "Langer Graben",
		"city": "Rum",
		"district": "",
		"postcode": "6063"
	},
	{
		"lon": "11.4471732",
		"lat": "47.2753672",
		"number": "11",
		"street": "Siedlerweg",
		"city": "Rum",
		"district": "",
		"postcode": "6063"
	},
	{
		"lon": "11.4620023",
		"lat": "47.2893511",
		"number": "10",
		"street": "Thaurer Weg",
		"city": "Rum",
		"district": "",
		"postcode": "6063"
	},
	{
		"lon": "11.4535988",
		"lat": "47.2773106",
		"number": "8",
		"street": "Serlesstraße",
		"city": "Rum",
		"district": "",
		"postcode": "6063"
	},
	{
		"lon": "11.5213901",
		"lat": "47.2877425",
		"number": "2",
		"street": "Peter-Willburger-Straße",
		"city": "Hall in Tirol",
		"district": "",
		"postcode": "6060"
	},
	{
		"lon": "11.5208259",
		"lat": "47.2829372",
		"number": "25",
		"street": "Galgenfeldstraße",
		"city": "Hall in Tirol",
		"district": "",
		"postcode": "6060"
	},
	{
		"lon": "11.5206488",
		"lat": "47.2817777",
		"number": "5",
		"street": "Galgenfeldstraße",
		"city": "Hall in Tirol",
		"district": "",
		"postcode": "6060"
	},
	{
		"lon": "11.5213075",
		"lat": "47.2874872",
		"number": "8",
		"street": "Peter-Willburger-Straße",
		"city": "Hall in Tirol",
		"district": "",
		"postcode": "6060"
	},
	{
		"lon": "11.5214222",
		"lat": "47.2875833",
		"number": "6",
		"street": "Peter-Willburger-Straße",
		"city": "Hall in Tirol",
		"district": "",
		"postcode": "6060"
	},
	{
		"lon": "11.9625788",
		"lat": "47.3750464",
		"number": "37",
		"street": "Alpbach",
		"city": "Alpbach",
		"district": "",
		"postcode": "6236"
	},
	{
		"lon": "11.9630266",
		"lat": "47.3750533",
		"number": "485",
		"street": "Alpbach",
		"city": "Alpbach",
		"district": "",
		"postcode": "6236"
	},
	{
		"lon": "11.9251713",
		"lat": "47.4025896",
		"number": "283",
		"street": "Alpbach",
		"city": "Alpbach",
		"district": "",
		"postcode": "6236"
	},
	{
		"lon": "11.9568187",
		"lat": "47.3952694",
		"number": "427",
		"street": "Alpbach",
		"city": "Alpbach",
		"district": "",
		"postcode": "6236"
	},
	{
		"lon": "11.9592911",
		"lat": "47.3714092",
		"number": "32",
		"street": "Alpbach",
		"city": "Alpbach",
		"district": "",
		"postcode": "6236"
	},
	{
		"lon": "11.9574165",
		"lat": "47.3755223",
		"number": "329",
		"street": "Alpbach",
		"city": "Alpbach",
		"district": "",
		"postcode": "6236"
	},
	{
		"lon": "11.958363",
		"lat": "47.3759108",
		"number": "339",
		"street": "Alpbach",
		"city": "Alpbach",
		"district": "",
		"postcode": "6236"
	},
	{
		"lon": "11.9412595",
		"lat": "47.3958392",
		"number": "506",
		"street": "Alpbach",
		"city": "Alpbach",
		"district": "",
		"postcode": "6236"
	},
	{
		"lon": "11.9432949",
		"lat": "47.3987367",
		"number": "641",
		"street": "Alpbach",
		"city": "Alpbach",
		"district": "",
		"postcode": "6236"
	},
	{
		"lon": "11.5638472",
		"lat": "47.2851931",
		"number": "10b",
		"street": "Fiegerstraße",
		"city": "Volders",
		"district": "",
		"postcode": "6111"
	},
	{
		"lon": "11.5692015",
		"lat": "47.2880642",
		"number": "3a",
		"street": "Andechsweg",
		"city": "Volders",
		"district": "",
		"postcode": "6111"
	},
	{
		"lon": "11.5809326",
		"lat": "47.2752325",
		"number": "1a",
		"street": "Oberbergstraße",
		"city": "Volders",
		"district": "",
		"postcode": "6111"
	},
	{
		"lon": "11.5709697",
		"lat": "47.2742876",
		"number": "11",
		"street": "Grubertalstraße",
		"city": "Volders",
		"district": "",
		"postcode": "6111"
	},
	{
		"lon": "11.5646308",
		"lat": "47.2899537",
		"number": "3",
		"street": "Feldweg",
		"city": "Volders",
		"district": "",
		"postcode": "6111"
	},
	{
		"lon": "11.3836801",
		"lat": "47.2381388",
		"number": "26",
		"street": "Weinweg",
		"city": "Natters",
		"district": "",
		"postcode": "6161"
	},
	{
		"lon": "11.3713601",
		"lat": "47.2341429",
		"number": "9",
		"street": "Heinrich von Schullernweg",
		"city": "Natters",
		"district": "",
		"postcode": "6161"
	},
	{
		"lon": "10.5120923",
		"lat": "47.134582",
		"number": "77",
		"street": "Pians",
		"city": "Pians",
		"district": "",
		"postcode": "6551"
	},
	{
		"lon": "11.384144",
		"lat": "47.2387866",
		"number": "5c",
		"street": "Weinweg",
		"city": "Natters",
		"district": "",
		"postcode": "6161"
	},
	{
		"lon": "11.3396494",
		"lat": "47.2332654",
		"number": "5",
		"street": "Poschau",
		"city": "Natters",
		"district": "",
		"postcode": "6091"
	},
	{
		"lon": "11.5068226",
		"lat": "47.2877832",
		"number": "12a",
		"street": "Rudolfstraße",
		"city": "Hall in Tirol",
		"district": "",
		"postcode": "6060"
	},
	{
		"lon": "11.3402682",
		"lat": "47.2331405",
		"number": "12",
		"street": "Heuweg",
		"city": "Natters",
		"district": "",
		"postcode": "6091"
	},
	{
		"lon": "11.5215827",
		"lat": "47.2860808",
		"number": "5",
		"street": "Schlangglfeld",
		"city": "Hall in Tirol",
		"district": "",
		"postcode": "6060"
	},
	{
		"lon": "11.5054834",
		"lat": "47.2815263",
		"number": "26",
		"street": "Schmiedgasse",
		"city": "Hall in Tirol",
		"district": "",
		"postcode": "6060"
	},
	{
		"lon": "11.5225989",
		"lat": "47.2858938",
		"number": "43",
		"street": "Kaiser-Max-Straße",
		"city": "Hall in Tirol",
		"district": "",
		"postcode": "6060"
	},
	{
		"lon": "11.505761",
		"lat": "47.2774933",
		"number": "7a",
		"street": "Obere Lend",
		"city": "Hall in Tirol",
		"district": "",
		"postcode": "6060"
	},
	{
		"lon": "11.5022442",
		"lat": "47.280625",
		"number": "2",
		"street": "Amtsbachgasse",
		"city": "Hall in Tirol",
		"district": "",
		"postcode": "6060"
	},
	{
		"lon": "11.4853348",
		"lat": "47.275701",
		"number": "20",
		"street": "Schlöglstraße",
		"city": "Hall in Tirol",
		"district": "",
		"postcode": "6060"
	},
	{
		"lon": "11.5592767",
		"lat": "47.2866336",
		"number": "18",
		"street": "Innstraße",
		"city": "Volders",
		"district": "",
		"postcode": "6111"
	},
	{
		"lon": "11.5638631",
		"lat": "47.2851421",
		"number": "10c",
		"street": "Fiegerstraße",
		"city": "Volders",
		"district": "",
		"postcode": "6111"
	},
	{
		"lon": "11.3688444",
		"lat": "47.226929",
		"number": "21",
		"street": "Birchfeld",
		"city": "Mutters",
		"district": "",
		"postcode": "6162"
	},
	{
		"lon": "11.3720593",
		"lat": "47.2279327",
		"number": "23a",
		"street": "Dorfstraße",
		"city": "Mutters",
		"district": "",
		"postcode": "6162"
	},
	{
		"lon": "11.3753305",
		"lat": "47.2272488",
		"number": "5",
		"street": "Nockhofweg",
		"city": "Mutters",
		"district": "",
		"postcode": "6162"
	},
	{
		"lon": "11.5707445",
		"lat": "47.2846503",
		"number": "13",
		"street": "Kirchnerstraße",
		"city": "Volders",
		"district": "",
		"postcode": "6111"
	},
	{
		"lon": "11.4538688",
		"lat": "47.2872999",
		"number": "2",
		"street": "Dörferstraße",
		"city": "Rum",
		"district": "",
		"postcode": "6063"
	},
	{
		"lon": "11.4472108",
		"lat": "47.2765039",
		"number": "57",
		"street": "Austraße",
		"city": "Rum",
		"district": "",
		"postcode": "6063"
	},
	{
		"lon": "11.2499538",
		"lat": "47.2459307",
		"number": "45",
		"street": "Riedl",
		"city": "Oberperfuss",
		"district": "",
		"postcode": "6173"
	},
	{
		"lon": "11.2472826",
		"lat": "47.2429687",
		"number": "21",
		"street": "Kengelscheiben",
		"city": "Oberperfuss",
		"district": "",
		"postcode": "6173"
	},
	{
		"lon": "11.4465072",
		"lat": "47.2758857",
		"number": "24",
		"street": "Mittergasse",
		"city": "Rum",
		"district": "",
		"postcode": "6063"
	},
	{
		"lon": "11.4526824",
		"lat": "47.2904034",
		"number": "4",
		"street": "Oberer Moosweg",
		"city": "Rum",
		"district": "",
		"postcode": "6063"
	},
	{
		"lon": "11.4495827",
		"lat": "47.2881391",
		"number": "29",
		"street": "Lärchenstraße",
		"city": "Rum",
		"district": "",
		"postcode": "6063"
	},
	{
		"lon": "12.4281547",
		"lat": "46.7831972",
		"number": "24",
		"street": "Außervillgraten",
		"city": "Außervillgraten",
		"district": "",
		"postcode": "9931"
	},
	{
		"lon": "12.464213",
		"lat": "46.8279273",
		"number": "105",
		"street": "Außervillgraten",
		"city": "Außervillgraten",
		"district": "",
		"postcode": "9931"
	},
	{
		"lon": "12.4241756",
		"lat": "46.7732469",
		"number": "11",
		"street": "Außervillgraten",
		"city": "Außervillgraten",
		"district": "",
		"postcode": "9931"
	},
	{
		"lon": "12.4215549",
		"lat": "46.7728716",
		"number": "12",
		"street": "Außervillgraten",
		"city": "Außervillgraten",
		"district": "",
		"postcode": "9931"
	},
	{
		"lon": "12.4502888",
		"lat": "46.8011662",
		"number": "116",
		"street": "Außervillgraten",
		"city": "Außervillgraten",
		"district": "",
		"postcode": "9931"
	},
	{
		"lon": "12.4432251",
		"lat": "46.7996243",
		"number": "88",
		"street": "Außervillgraten",
		"city": "Außervillgraten",
		"district": "",
		"postcode": "9931"
	},
	{
		"lon": "10.5564452",
		"lat": "47.5066388",
		"number": "5",
		"street": "Neu-Grän",
		"city": "Grän",
		"district": "",
		"postcode": "6673"
	},
	{
		"lon": "12.6253811",
		"lat": "47.4687929",
		"number": "11",
		"street": "Am Reisch",
		"city": "Hochfilzen",
		"district": "",
		"postcode": "6395"
	},
	{
		"lon": "11.700368",
		"lat": "47.3212905",
		"number": "19",
		"street": "Kirchmairwies",
		"city": "Pill",
		"district": "",
		"postcode": "6136"
	},
	{
		"lon": "11.703499",
		"lat": "47.3213528",
		"number": "7",
		"street": "Farmeben",
		"city": "Pill",
		"district": "",
		"postcode": "6136"
	},
	{
		"lon": "11.7029645",
		"lat": "47.3214545",
		"number": "3",
		"street": "Farmeben",
		"city": "Pill",
		"district": "",
		"postcode": "6136"
	},
	{
		"lon": "10.5526694",
		"lat": "47.5021707",
		"number": "3",
		"street": "Obweg",
		"city": "Grän",
		"district": "",
		"postcode": "6673"
	},
	{
		"lon": "10.5567893",
		"lat": "47.5054631",
		"number": "21",
		"street": "Neu-Grän",
		"city": "Grän",
		"district": "",
		"postcode": "6673"
	},
	{
		"lon": "11.9594114",
		"lat": "47.378457",
		"number": "496",
		"street": "Alpbach",
		"city": "Alpbach",
		"district": "",
		"postcode": "6236"
	},
	{
		"lon": "11.349925",
		"lat": "47.150968",
		"number": "10a",
		"street": "Waldrasterstraße",
		"city": "Fulpmes",
		"district": "",
		"postcode": "6166"
	},
	{
		"lon": "11.3553137",
		"lat": "47.1537763",
		"number": "17",
		"street": "Serlesstraße",
		"city": "Fulpmes",
		"district": "",
		"postcode": "6166"
	},
	{
		"lon": "11.8832596",
		"lat": "47.4445684",
		"number": "21",
		"street": "Amerling",
		"city": "Kramsach",
		"district": "",
		"postcode": "6233"
	},
	{
		"lon": "11.8930498",
		"lat": "47.4477945",
		"number": "80",
		"street": "Fachental",
		"city": "Kramsach",
		"district": "",
		"postcode": "6233"
	},
	{
		"lon": "11.8832142",
		"lat": "47.448636",
		"number": "13",
		"street": "Zentrum",
		"city": "Kramsach",
		"district": "",
		"postcode": "6233"
	},
	{
		"lon": "11.8664562",
		"lat": "47.4495649",
		"number": "89",
		"street": "Wittberg",
		"city": "Kramsach",
		"district": "",
		"postcode": "6233"
	},
	{
		"lon": "11.8745924",
		"lat": "47.4475232",
		"number": "6",
		"street": "Wittberg",
		"city": "Kramsach",
		"district": "",
		"postcode": "6233"
	},
	{
		"lon": "11.8819726",
		"lat": "47.4522277",
		"number": "41",
		"street": "Seebühel",
		"city": "Kramsach",
		"district": "",
		"postcode": "6233"
	},
	{
		"lon": "11.8814972",
		"lat": "47.4429242",
		"number": "40",
		"street": "Amerling",
		"city": "Kramsach",
		"district": "",
		"postcode": "6233"
	},
	{
		"lon": "11.8786007",
		"lat": "47.4475918",
		"number": "88",
		"street": "Länd",
		"city": "Kramsach",
		"district": "",
		"postcode": "6233"
	},
	{
		"lon": "11.8880216",
		"lat": "47.4408206",
		"number": "44",
		"street": "Badl",
		"city": "Kramsach",
		"district": "",
		"postcode": "6233"
	},
	{
		"lon": "11.8795844",
		"lat": "47.4468515",
		"number": "95",
		"street": "Länd",
		"city": "Kramsach",
		"district": "",
		"postcode": "6233"
	},
	{
		"lon": "11.8802445",
		"lat": "47.4449412",
		"number": "9",
		"street": "Länd",
		"city": "Kramsach",
		"district": "",
		"postcode": "6233"
	},
	{
		"lon": "12.613989",
		"lat": "47.4688417",
		"number": "12",
		"street": "Am Rossberg",
		"city": "Hochfilzen",
		"district": "",
		"postcode": "6395"
	},
	{
		"lon": "11.8701508",
		"lat": "47.4504737",
		"number": "77",
		"street": "Wittberg",
		"city": "Kramsach",
		"district": "",
		"postcode": "6233"
	},
	{
		"lon": "11.8647547",
		"lat": "47.431946",
		"number": "67",
		"street": "Hagau",
		"city": "Kramsach",
		"district": "",
		"postcode": "6233"
	},
	{
		"lon": "12.6193188",
		"lat": "47.4744228",
		"number": "38",
		"street": "Warminger Straße",
		"city": "Hochfilzen",
		"district": "",
		"postcode": "6395"
	},
	{
		"lon": "12.6028286",
		"lat": "47.4648464",
		"number": "3",
		"street": "Feistenau",
		"city": "Hochfilzen",
		"district": "",
		"postcode": "6395"
	},
	{
		"lon": "12.6070506",
		"lat": "47.4660754",
		"number": "5",
		"street": "Bindermoos",
		"city": "Hochfilzen",
		"district": "",
		"postcode": "6395"
	},
	{
		"lon": "11.9340521",
		"lat": "47.4009208",
		"number": "290",
		"street": "Alpbach",
		"city": "Alpbach",
		"district": "",
		"postcode": "6236"
	},
	{
		"lon": "11.3520347",
		"lat": "47.1545423",
		"number": "32",
		"street": "Riehlstraße",
		"city": "Fulpmes",
		"district": "",
		"postcode": "6166"
	},
	{
		"lon": "11.3534085",
		"lat": "47.1541312",
		"number": "1",
		"street": "Serlesstraße",
		"city": "Fulpmes",
		"district": "",
		"postcode": "6166"
	},
	{
		"lon": "11.744735",
		"lat": "47.1629012",
		"number": "263",
		"street": "Vorderlanersbach",
		"city": "Tux",
		"district": "",
		"postcode": "6293"
	},
	{
		"lon": "11.740058",
		"lat": "47.1630855",
		"number": "209",
		"street": "Vorderlanersbach",
		"city": "Tux",
		"district": "",
		"postcode": "6293"
	},
	{
		"lon": "11.6980038",
		"lat": "47.1286335",
		"number": "686",
		"street": "Madseit",
		"city": "Tux",
		"district": "",
		"postcode": "6294"
	},
	{
		"lon": "11.7075702",
		"lat": "47.1373324",
		"number": "653",
		"street": "Juns",
		"city": "Tux",
		"district": "",
		"postcode": "6293"
	},
	{
		"lon": "11.7466206",
		"lat": "47.1642017",
		"number": "101",
		"street": "Vorderlanersbach",
		"city": "Tux",
		"district": "",
		"postcode": "6293"
	},
	{
		"lon": "11.3471087",
		"lat": "47.1572266",
		"number": "11b",
		"street": "Fachschulstraße",
		"city": "Fulpmes",
		"district": "",
		"postcode": "6166"
	},
	{
		"lon": "11.3448721",
		"lat": "47.1428335",
		"number": "5",
		"street": "Garbergasse",
		"city": "Fulpmes",
		"district": "",
		"postcode": "6166"
	},
	{
		"lon": "11.7264991",
		"lat": "47.1547091",
		"number": "447",
		"street": "Lanersbach",
		"city": "Tux",
		"district": "",
		"postcode": "6293"
	},
	{
		"lon": "11.7093095",
		"lat": "47.138401",
		"number": "616",
		"street": "Juns",
		"city": "Tux",
		"district": "",
		"postcode": "6293"
	},
	{
		"lon": "11.7617114",
		"lat": "47.1594719",
		"number": "5",
		"street": "Vorderlanersbach",
		"city": "Tux",
		"district": "",
		"postcode": "6293"
	},
	{
		"lon": "11.7306285",
		"lat": "47.1623052",
		"number": "253",
		"street": "Vorderlanersbach",
		"city": "Tux",
		"district": "",
		"postcode": "6293"
	},
	{
		"lon": "11.7429005",
		"lat": "47.1614316",
		"number": "309",
		"street": "Vorderlanersbach",
		"city": "Tux",
		"district": "",
		"postcode": "6293"
	},
	{
		"lon": "11.8991272",
		"lat": "47.2863732",
		"number": "63",
		"street": "Stummerberg",
		"city": "Stummerberg",
		"district": "",
		"postcode": "6276"
	},
	{
		"lon": "11.928993",
		"lat": "47.4829695",
		"number": "69",
		"street": "Oberberg",
		"city": "Breitenbach am Inn",
		"district": "",
		"postcode": "6252"
	},
	{
		"lon": "11.9788937",
		"lat": "47.484695",
		"number": "141",
		"street": "Moos",
		"city": "Breitenbach am Inn",
		"district": "",
		"postcode": "6252"
	},
	{
		"lon": "11.347328",
		"lat": "47.1569838",
		"number": "11a",
		"street": "Fachschulstraße",
		"city": "Fulpmes",
		"district": "",
		"postcode": "6166"
	},
	{
		"lon": "11.3528916",
		"lat": "47.1547988",
		"number": "9",
		"street": "Brunnachstraße",
		"city": "Fulpmes",
		"district": "",
		"postcode": "6166"
	},
	{
		"lon": "11.3498479",
		"lat": "47.1495688",
		"number": "11",
		"street": "Clemens-Holzmeister-Straße",
		"city": "Fulpmes",
		"district": "",
		"postcode": "6166"
	},
	{
		"lon": "11.7218041",
		"lat": "47.1470668",
		"number": "518",
		"street": "Juns",
		"city": "Tux",
		"district": "",
		"postcode": "6293"
	},
	{
		"lon": "11.7461413",
		"lat": "47.1835296",
		"number": "203",
		"street": "Lämmerbichlalm",
		"city": "Tux",
		"district": "",
		"postcode": "6293"
	},
	{
		"lon": "11.7445911",
		"lat": "47.1623138",
		"number": "290",
		"street": "Vorderlanersbach",
		"city": "Tux",
		"district": "",
		"postcode": "6293"
	},
	{
		"lon": "11.7253445",
		"lat": "47.1531783",
		"number": "498",
		"street": "Lanersbach",
		"city": "Tux",
		"district": "",
		"postcode": "6293"
	},
	{
		"lon": "11.726417",
		"lat": "47.1561214",
		"number": "456",
		"street": "Lanersbach",
		"city": "Tux",
		"district": "",
		"postcode": "6293"
	},
	{
		"lon": "11.9269446",
		"lat": "47.4021978",
		"number": "132",
		"street": "Alpbach",
		"city": "Alpbach",
		"district": "",
		"postcode": "6236"
	},
	{
		"lon": "11.9733944",
		"lat": "47.4813286",
		"number": "140",
		"street": "Dorf",
		"city": "Breitenbach am Inn",
		"district": "",
		"postcode": "6252"
	},
	{
		"lon": "11.9932698",
		"lat": "47.4859718",
		"number": "122",
		"street": "Kleinsöll",
		"city": "Breitenbach am Inn",
		"district": "",
		"postcode": "6252"
	},
	{
		"lon": "11.9503485",
		"lat": "47.3986117",
		"number": "389",
		"street": "Alpbach",
		"city": "Alpbach",
		"district": "",
		"postcode": "6236"
	},
	{
		"lon": "11.9493275",
		"lat": "47.3988691",
		"number": "258",
		"street": "Alpbach",
		"city": "Alpbach",
		"district": "",
		"postcode": "6236"
	},
	{
		"lon": "11.9522654",
		"lat": "47.3995516",
		"number": "562",
		"street": "Alpbach",
		"city": "Alpbach",
		"district": "",
		"postcode": "6236"
	},
	{
		"lon": "11.9427024",
		"lat": "47.4031404",
		"number": "729",
		"street": "Alpbach",
		"city": "Alpbach",
		"district": "",
		"postcode": "6236"
	},
	{
		"lon": "11.9096693",
		"lat": "47.4674757",
		"number": "19",
		"street": "Moosen",
		"city": "Kramsach",
		"district": "",
		"postcode": "6233"
	},
	{
		"lon": "11.8708933",
		"lat": "47.4364637",
		"number": "110",
		"street": "Hagau",
		"city": "Kramsach",
		"district": "",
		"postcode": "6233"
	},
	{
		"lon": "11.8724203",
		"lat": "47.4493608",
		"number": "59",
		"street": "Wittberg",
		"city": "Kramsach",
		"district": "",
		"postcode": "6233"
	},
	{
		"lon": "11.895097",
		"lat": "47.4479413",
		"number": "17",
		"street": "Voldöpp",
		"city": "Kramsach",
		"district": "",
		"postcode": "6233"
	},
	{
		"lon": "11.8696108",
		"lat": "47.4420681",
		"number": "47",
		"street": "Winkl",
		"city": "Kramsach",
		"district": "",
		"postcode": "6233"
	},
	{
		"lon": "11.8858198",
		"lat": "47.4494665",
		"number": "3",
		"street": "Fachental",
		"city": "Kramsach",
		"district": "",
		"postcode": "6233"
	},
	{
		"lon": "11.8656131",
		"lat": "47.4557844",
		"number": "13",
		"street": "Mariatal",
		"city": "Kramsach",
		"district": "",
		"postcode": "6233"
	},
	{
		"lon": "11.8905744",
		"lat": "47.4474703",
		"number": "59",
		"street": "Fachental",
		"city": "Kramsach",
		"district": "",
		"postcode": "6233"
	},
	{
		"lon": "11.8662383",
		"lat": "47.4535251",
		"number": "9",
		"street": "Mariatal",
		"city": "Kramsach",
		"district": "",
		"postcode": "6233"
	},
	{
		"lon": "11.8813101",
		"lat": "47.4442353",
		"number": "6",
		"street": "Amerling",
		"city": "Kramsach",
		"district": "",
		"postcode": "6233"
	},
	{
		"lon": "11.8922753",
		"lat": "47.4492029",
		"number": "5",
		"street": "Kirchfeld",
		"city": "Kramsach",
		"district": "",
		"postcode": "6233"
	},
	{
		"lon": "11.8832493",
		"lat": "47.447973",
		"number": "59",
		"street": "Zentrum",
		"city": "Kramsach",
		"district": "",
		"postcode": "6233"
	},
	{
		"lon": "11.7257494",
		"lat": "47.1550889",
		"number": "470",
		"street": "Lanersbach",
		"city": "Tux",
		"district": "",
		"postcode": "6293"
	},
	{
		"lon": "11.7078035",
		"lat": "47.1374005",
		"number": "652",
		"street": "Juns",
		"city": "Tux",
		"district": "",
		"postcode": "6293"
	},
	{
		"lon": "11.7479306",
		"lat": "47.1628226",
		"number": "46",
		"street": "Vorderlanersbach",
		"city": "Tux",
		"district": "",
		"postcode": "6293"
	},
	{
		"lon": "11.8786039",
		"lat": "47.4409212",
		"number": "140",
		"street": "Amerling",
		"city": "Kramsach",
		"district": "",
		"postcode": "6233"
	},
	{
		"lon": "11.9424473",
		"lat": "47.4029458",
		"number": "710",
		"street": "Alpbach",
		"city": "Alpbach",
		"district": "",
		"postcode": "6236"
	},
	{
		"lon": "11.942611",
		"lat": "47.4017317",
		"number": "289",
		"street": "Alpbach",
		"city": "Alpbach",
		"district": "",
		"postcode": "6236"
	},
	{
		"lon": "11.9506813",
		"lat": "47.3943535",
		"number": "735",
		"street": "Alpbach",
		"city": "Alpbach",
		"district": "",
		"postcode": "6236"
	},
	{
		"lon": "11.9263084",
		"lat": "47.3837724",
		"number": "309",
		"street": "Alpbach",
		"city": "Alpbach",
		"district": "",
		"postcode": "6236"
	},
	{
		"lon": "11.9486654",
		"lat": "47.388609",
		"number": "14",
		"street": "Alpbach",
		"city": "Alpbach",
		"district": "",
		"postcode": "6236"
	},
	{
		"lon": "11.8926023",
		"lat": "47.4480386",
		"number": "35",
		"street": "Kirchfeld",
		"city": "Kramsach",
		"district": "",
		"postcode": "6233"
	},
	{
		"lon": "11.8744159",
		"lat": "47.4531434",
		"number": "10",
		"street": "Seebühel",
		"city": "Kramsach",
		"district": "",
		"postcode": "6233"
	},
	{
		"lon": "11.8748171",
		"lat": "47.4501664",
		"number": "1",
		"street": "Ebnat",
		"city": "Kramsach",
		"district": "",
		"postcode": "6233"
	}
]