[
	{
		"lon": "8.640952",
		"lat": "46.948429",
		"number": "",
		"street": "Riedberg",
		"city": "Sisikon",
		"district": "",
		"postcode": "6452"
	},
	{
		"lon": "8.641387",
		"lat": "46.9490812",
		"number": "",
		"street": "Riedberg",
		"city": "Sisikon",
		"district": "",
		"postcode": "6452"
	},
	{
		"lon": "8.6222569",
		"lat": "46.9495772",
		"number": "1",
		"street": "Axenstrasse",
		"city": "Sisikon",
		"district": "",
		"postcode": "6452"
	},
	{
		"lon": "8.6223537",
		"lat": "46.9491983",
		"number": "3",
		"street": "Axenstrasse",
		"city": "Sisikon",
		"district": "",
		"postcode": "6452"
	},
	{
		"lon": "8.6216903",
		"lat": "46.9500958",
		"number": "4",
		"street": "Axenstrasse",
		"city": "Sisikon",
		"district": "",
		"postcode": "6452"
	},
	{
		"lon": "8.6223998",
		"lat": "46.94891",
		"number": "5",
		"street": "Axenstrasse",
		"city": "Sisikon",
		"district": "",
		"postcode": "6452"
	},
	{
		"lon": "8.6218316",
		"lat": "46.9499504",
		"number": "6",
		"street": "Axenstrasse",
		"city": "Sisikon",
		"district": "",
		"postcode": "6452"
	},
	{
		"lon": "8.6219497",
		"lat": "46.9487527",
		"number": "12",
		"street": "Axenstrasse",
		"city": "Sisikon",
		"district": "",
		"postcode": "6452"
	},
	{
		"lon": "8.6217144",
		"lat": "46.9499966",
		"number": "8",
		"street": "Axenstrasse",
		"city": "Sisikon",
		"district": "",
		"postcode": "6452"
	},
	{
		"lon": "8.6218897",
		"lat": "46.9484114",
		"number": "14",
		"street": "Axenstrasse",
		"city": "Sisikon",
		"district": "",
		"postcode": "6452"
	},
	{
		"lon": "8.6226321",
		"lat": "46.9493124",
		"number": "1",
		"street": "Baumgärtli",
		"city": "Sisikon",
		"district": "",
		"postcode": "6452"
	},
	{
		"lon": "8.6219354",
		"lat": "46.9492926",
		"number": "1",
		"street": "Bahnhofstrasse",
		"city": "Sisikon",
		"district": "",
		"postcode": "6452"
	},
	{
		"lon": "8.6214225",
		"lat": "46.9490371",
		"number": "3",
		"street": "Untere Dorfstrasse",
		"city": "Sisikon",
		"district": "",
		"postcode": "6452"
	},
	{
		"lon": "8.6225751",
		"lat": "46.9497088",
		"number": "10",
		"street": "Obere Dorfstrasse",
		"city": "Sisikon",
		"district": "",
		"postcode": "6452"
	},
	{
		"lon": "8.6225206",
		"lat": "46.9496194",
		"number": "8",
		"street": "Obere Dorfstrasse",
		"city": "Sisikon",
		"district": "",
		"postcode": "6452"
	},
	{
		"lon": "8.6212124",
		"lat": "46.9492731",
		"number": "6",
		"street": "Bahnhofstrasse",
		"city": "Sisikon",
		"district": "",
		"postcode": "6452"
	},
	{
		"lon": "8.6216625",
		"lat": "46.9494304",
		"number": "4",
		"street": "Bahnhofstrasse",
		"city": "Sisikon",
		"district": "",
		"postcode": "6452"
	},
	{
		"lon": "8.6215787",
		"lat": "46.9492063",
		"number": "3",
		"street": "Bahnhofstrasse",
		"city": "Sisikon",
		"district": "",
		"postcode": "6452"
	},
	{
		"lon": "8.6229182",
		"lat": "46.9497772",
		"number": "12",
		"street": "Obere Dorfstrasse",
		"city": "Sisikon",
		"district": "",
		"postcode": "6452"
	},
	{
		"lon": "8.6218468",
		"lat": "46.9494465",
		"number": "2",
		"street": "Bahnhofstrasse",
		"city": "Sisikon",
		"district": "",
		"postcode": "6452"
	},
	{
		"lon": "8.622149",
		"lat": "46.9500461",
		"number": "1",
		"street": "Sagenweg",
		"city": "Sisikon",
		"district": "",
		"postcode": "6452"
	},
	{
		"lon": "8.6228379",
		"lat": "46.9502238",
		"number": "6",
		"street": "Riemenstaldenstrasse",
		"city": "Sisikon",
		"district": "",
		"postcode": "6452"
	},
	{
		"lon": "8.6242942",
		"lat": "46.9491354",
		"number": "",
		"street": "Wyler",
		"city": "Sisikon",
		"district": "",
		"postcode": "6452"
	},
	{
		"lon": "8.6200618",
		"lat": "46.9477286",
		"number": "3",
		"street": "Bachmattstrasse",
		"city": "Sisikon",
		"district": "",
		"postcode": "6452"
	},
	{
		"lon": "8.6201658",
		"lat": "46.9476825",
		"number": "3",
		"street": "Bachmattstrasse",
		"city": "Sisikon",
		"district": "",
		"postcode": "6452"
	},
	{
		"lon": "8.6202463",
		"lat": "46.9483564",
		"number": "2",
		"street": "Bachmattstrasse",
		"city": "Sisikon",
		"district": "",
		"postcode": "6452"
	},
	{
		"lon": "8.6202498",
		"lat": "46.9479156",
		"number": "1",
		"street": "Bachmattstrasse",
		"city": "Sisikon",
		"district": "",
		"postcode": "6452"
	},
	{
		"lon": "8.6190743",
		"lat": "46.9482246",
		"number": "2",
		"street": "Am See",
		"city": "Sisikon",
		"district": "",
		"postcode": "6452"
	},
	{
		"lon": "8.6194142",
		"lat": "46.9481491",
		"number": "3",
		"street": "Am See",
		"city": "Sisikon",
		"district": "",
		"postcode": "6452"
	},
	{
		"lon": "8.6201993",
		"lat": "46.9504557",
		"number": "9",
		"street": "Dammstrasse",
		"city": "Sisikon",
		"district": "",
		"postcode": "6452"
	},
	{
		"lon": "8.6201706",
		"lat": "46.9503195",
		"number": "7",
		"street": "Dammstrasse",
		"city": "Sisikon",
		"district": "",
		"postcode": "6452"
	},
	{
		"lon": "8.6201834",
		"lat": "46.9488996",
		"number": "2",
		"street": "Gartenweg",
		"city": "Sisikon",
		"district": "",
		"postcode": "6452"
	},
	{
		"lon": "8.6210715",
		"lat": "46.9496858",
		"number": "1",
		"street": "Kirchenweg",
		"city": "Sisikon",
		"district": "",
		"postcode": "6452"
	},
	{
		"lon": "8.6201617",
		"lat": "46.9501799",
		"number": "5C",
		"street": "Dammstrasse",
		"city": "Sisikon",
		"district": "",
		"postcode": "6452"
	},
	{
		"lon": "8.6201112",
		"lat": "46.9481869",
		"number": "4",
		"street": "Bachmattstrasse",
		"city": "Sisikon",
		"district": "",
		"postcode": "6452"
	},
	{
		"lon": "8.6198172",
		"lat": "46.947956",
		"number": "6",
		"street": "Bachmattstrasse",
		"city": "Sisikon",
		"district": "",
		"postcode": "6452"
	},
	{
		"lon": "8.619813",
		"lat": "46.9477671",
		"number": "8",
		"street": "Bachmattstrasse",
		"city": "Sisikon",
		"district": "",
		"postcode": "6452"
	},
	{
		"lon": "8.6208865",
		"lat": "46.9487906",
		"number": "12",
		"street": "Bahnhofstrasse",
		"city": "Sisikon",
		"district": "",
		"postcode": "6452"
	},
	{
		"lon": "8.6208228",
		"lat": "46.9488813",
		"number": "10",
		"street": "Bahnhofstrasse",
		"city": "Sisikon",
		"district": "",
		"postcode": "6452"
	},
	{
		"lon": "8.619654",
		"lat": "46.9483322",
		"number": "4",
		"street": "Seestrasse",
		"city": "Sisikon",
		"district": "",
		"postcode": "6452"
	},
	{
		"lon": "8.6205154",
		"lat": "46.9480478",
		"number": "6",
		"street": "Untere Bachmatt",
		"city": "Sisikon",
		"district": "",
		"postcode": "6452"
	},
	{
		"lon": "8.6205522",
		"lat": "46.9479304",
		"number": "10",
		"street": "Untere Bachmatt",
		"city": "Sisikon",
		"district": "",
		"postcode": "6452"
	},
	{
		"lon": "8.6194307",
		"lat": "46.948042",
		"number": "5",
		"street": "Am See",
		"city": "Sisikon",
		"district": "",
		"postcode": "6452"
	},
	{
		"lon": "8.6197161",
		"lat": "46.9481978",
		"number": "3",
		"street": "Seestrasse",
		"city": "Sisikon",
		"district": "",
		"postcode": "6452"
	},
	{
		"lon": "8.6204909",
		"lat": "46.948129",
		"number": "4",
		"street": "Untere Bachmatt",
		"city": "Sisikon",
		"district": "",
		"postcode": "6452"
	},
	{
		"lon": "8.6204527",
		"lat": "46.9481834",
		"number": "2",
		"street": "Untere Bachmatt",
		"city": "Sisikon",
		"district": "",
		"postcode": "6452"
	},
	{
		"lon": "8.6753699",
		"lat": "46.9426651",
		"number": "",
		"street": "Schübli",
		"city": "Riemenstalden",
		"district": "",
		"postcode": "6452"
	},
	{
		"lon": "8.6613213",
		"lat": "46.9446871",
		"number": "",
		"street": "Stalden",
		"city": "Riemenstalden",
		"district": "",
		"postcode": "6452"
	},
	{
		"lon": "8.6236081",
		"lat": "46.9506788",
		"number": "6",
		"street": "Untere Bitzimatt",
		"city": "Sisikon",
		"district": "",
		"postcode": "6452"
	},
	{
		"lon": "8.6223225",
		"lat": "46.9525826",
		"number": "3",
		"street": "Riemenstaldenstrasse",
		"city": "Sisikon",
		"district": "",
		"postcode": "6452"
	},
	{
		"lon": "8.6202562",
		"lat": "46.9505964",
		"number": "13",
		"street": "Dammstrasse",
		"city": "Sisikon",
		"district": "",
		"postcode": "6452"
	},
	{
		"lon": "8.6202843",
		"lat": "46.9506771",
		"number": "15",
		"street": "Dammstrasse",
		"city": "Sisikon",
		"district": "",
		"postcode": "6452"
	},
	{
		"lon": "8.6208216",
		"lat": "46.9518141",
		"number": "2",
		"street": "Dammstrasse",
		"city": "Sisikon",
		"district": "",
		"postcode": "6452"
	},
	{
		"lon": "8.620573",
		"lat": "46.9520517",
		"number": "",
		"street": "Dammstrasse",
		"city": "Sisikon",
		"district": "",
		"postcode": "6452"
	},
	{
		"lon": "8.6814407",
		"lat": "46.9449534",
		"number": "",
		"street": "Cher",
		"city": "Riemenstalden",
		"district": "",
		"postcode": "6452"
	},
	{
		"lon": "8.6815668",
		"lat": "46.9449522",
		"number": "",
		"street": "Cher",
		"city": "Riemenstalden",
		"district": "",
		"postcode": "6452"
	},
	{
		"lon": "8.6649409",
		"lat": "46.9449992",
		"number": "",
		"street": "Urmis",
		"city": "Riemenstalden",
		"district": "",
		"postcode": "6452"
	},
	{
		"lon": "8.6498656",
		"lat": "46.9469768",
		"number": "",
		"street": "Schwandli",
		"city": "Sisikon",
		"district": "",
		"postcode": "6452"
	},
	{
		"lon": "8.6391074",
		"lat": "46.9481875",
		"number": "",
		"street": "Riedberg",
		"city": "Sisikon",
		"district": "",
		"postcode": "6452"
	},
	{
		"lon": "8.6221528",
		"lat": "46.950217",
		"number": "3",
		"street": "Sagenweg",
		"city": "Sisikon",
		"district": "",
		"postcode": "6452"
	},
	{
		"lon": "8.6224523",
		"lat": "46.9500969",
		"number": "5",
		"street": "Sagenweg",
		"city": "Sisikon",
		"district": "",
		"postcode": "6452"
	},
	{
		"lon": "8.6238088",
		"lat": "46.9490574",
		"number": "",
		"street": "Wyler",
		"city": "Sisikon",
		"district": "",
		"postcode": "6452"
	},
	{
		"lon": "8.6216428",
		"lat": "46.9491337",
		"number": "5",
		"street": "Untere Dorfstrasse",
		"city": "Sisikon",
		"district": "",
		"postcode": "6452"
	},
	{
		"lon": "8.6215181",
		"lat": "46.9488381",
		"number": "4",
		"street": "Untere Dorfstrasse",
		"city": "Sisikon",
		"district": "",
		"postcode": "6452"
	},
	{
		"lon": "8.6237176",
		"lat": "46.9502818",
		"number": "1",
		"street": "Untere Bitzimatt",
		"city": "Sisikon",
		"district": "",
		"postcode": "6452"
	},
	{
		"lon": "8.6223273",
		"lat": "46.9503861",
		"number": "4",
		"street": "Riemenstaldenstrasse",
		"city": "Sisikon",
		"district": "",
		"postcode": "6452"
	},
	{
		"lon": "8.6334496",
		"lat": "46.947203",
		"number": "",
		"street": "Zingel",
		"city": "Sisikon",
		"district": "",
		"postcode": "6452"
	},
	{
		"lon": "8.6212049",
		"lat": "46.9489313",
		"number": "1",
		"street": "Untere Dorfstrasse",
		"city": "Sisikon",
		"district": "",
		"postcode": "6452"
	},
	{
		"lon": "8.6220768",
		"lat": "46.9491562",
		"number": "6",
		"street": "Untere Dorfstrasse",
		"city": "Sisikon",
		"district": "",
		"postcode": "6452"
	},
	{
		"lon": "8.6231569",
		"lat": "46.9502307",
		"number": "8",
		"street": "Riemenstaldenstrasse",
		"city": "Sisikon",
		"district": "",
		"postcode": "6452"
	},
	{
		"lon": "8.6211774",
		"lat": "46.9491089",
		"number": "5",
		"street": "Bahnhofstrasse",
		"city": "Sisikon",
		"district": "",
		"postcode": "6452"
	},
	{
		"lon": "8.6199871",
		"lat": "46.9497085",
		"number": "2",
		"street": "Campingstrasse",
		"city": "Sisikon",
		"district": "",
		"postcode": "6452"
	},
	{
		"lon": "8.6203651",
		"lat": "46.9489759",
		"number": "3",
		"street": "Dammstrasse",
		"city": "Sisikon",
		"district": "",
		"postcode": "6452"
	},
	{
		"lon": "8.6202634",
		"lat": "46.9491299",
		"number": "5",
		"street": "Dammstrasse",
		"city": "Sisikon",
		"district": "",
		"postcode": "6452"
	},
	{
		"lon": "8.6205945",
		"lat": "46.950449",
		"number": "11",
		"street": "Dammstrasse",
		"city": "Sisikon",
		"district": "",
		"postcode": "6452"
	},
	{
		"lon": "8.6199357",
		"lat": "46.9485665",
		"number": "1",
		"street": "Gartenweg",
		"city": "Sisikon",
		"district": "",
		"postcode": "6452"
	},
	{
		"lon": "8.6189508",
		"lat": "46.9497822",
		"number": "",
		"street": "Dammstrasse",
		"city": "Sisikon",
		"district": "",
		"postcode": "6452"
	},
	{
		"lon": "8.6196503",
		"lat": "46.9487314",
		"number": "3",
		"street": "Gartenweg",
		"city": "Sisikon",
		"district": "",
		"postcode": "6452"
	},
	{
		"lon": "8.6195896",
		"lat": "46.9489569",
		"number": "5",
		"street": "Gartenweg",
		"city": "Sisikon",
		"district": "",
		"postcode": "6452"
	},
	{
		"lon": "8.6192145",
		"lat": "46.9486472",
		"number": "5",
		"street": "Seeblick",
		"city": "Sisikon",
		"district": "",
		"postcode": "6452"
	},
	{
		"lon": "8.6192873",
		"lat": "46.9485007",
		"number": "3",
		"street": "Seeblick",
		"city": "Sisikon",
		"district": "",
		"postcode": "6452"
	},
	{
		"lon": "8.6193763",
		"lat": "46.9483586",
		"number": "1",
		"street": "Seeblick",
		"city": "Sisikon",
		"district": "",
		"postcode": "6452"
	},
	{
		"lon": "8.6327478",
		"lat": "46.8700978",
		"number": "9",
		"street": "Eyschachen",
		"city": "Altdorf",
		"district": "",
		"postcode": "6460"
	},
	{
		"lon": "8.6335373",
		"lat": "46.8704168",
		"number": "24c",
		"street": "Steinmattstrasse",
		"city": "Altdorf",
		"district": "",
		"postcode": "6460"
	},
	{
		"lon": "8.6327423",
		"lat": "46.8697691",
		"number": "11",
		"street": "Eyschachen",
		"city": "Altdorf",
		"district": "",
		"postcode": "6460"
	},
	{
		"lon": "8.6327976",
		"lat": "46.8694589",
		"number": "12",
		"street": "Eyschachen",
		"city": "Altdorf",
		"district": "",
		"postcode": "6460"
	},
	{
		"lon": "8.6327731",
		"lat": "46.8690968",
		"number": "14",
		"street": "Eyschachen",
		"city": "Altdorf",
		"district": "",
		"postcode": "6460"
	},
	{
		"lon": "8.6147908",
		"lat": "46.8823411",
		"number": "7",
		"street": "Wyden",
		"city": "Seedorf",
		"district": "",
		"postcode": "6462"
	},
	{
		"lon": "8.6149408",
		"lat": "46.8824673",
		"number": "6",
		"street": "Wyden",
		"city": "Seedorf",
		"district": "",
		"postcode": "6462"
	},
	{
		"lon": "8.6161872",
		"lat": "46.8823872",
		"number": "1a",
		"street": "Wydenmatt",
		"city": "Seedorf",
		"district": "",
		"postcode": "6462"
	},
	{
		"lon": "8.6154816",
		"lat": "46.8825301",
		"number": "7",
		"street": "Wydenmatt",
		"city": "Seedorf",
		"district": "",
		"postcode": "6462"
	},
	{
		"lon": "8.6131901",
		"lat": "46.882527",
		"number": "4",
		"street": "Klosterweg",
		"city": "Seedorf",
		"district": "",
		"postcode": "6462"
	},
	{
		"lon": "8.6156646",
		"lat": "46.8832579",
		"number": "47b",
		"street": "Wydenmatt",
		"city": "Seedorf",
		"district": "",
		"postcode": "6462"
	},
	{
		"lon": "8.6644098",
		"lat": "46.8756786",
		"number": "1",
		"street": "Schulweg",
		"city": "Bürglen",
		"district": "",
		"postcode": "6463"
	},
	{
		"lon": "8.6617105",
		"lat": "46.8758244",
		"number": "1",
		"street": "Säge",
		"city": "Bürglen",
		"district": "",
		"postcode": "6463"
	},
	{
		"lon": "8.661658",
		"lat": "46.8764008",
		"number": "9",
		"street": "Kohlplatz",
		"city": "Bürglen",
		"district": "",
		"postcode": "6463"
	},
	{
		"lon": "8.6611492",
		"lat": "46.8759474",
		"number": "3",
		"street": "Kohlplatz",
		"city": "Bürglen",
		"district": "",
		"postcode": "6463"
	},
	{
		"lon": "8.6610293",
		"lat": "46.8758677",
		"number": "1",
		"street": "Kohlplatz",
		"city": "Bürglen",
		"district": "",
		"postcode": "6463"
	},
	{
		"lon": "8.6635355",
		"lat": "46.8724312",
		"number": "19",
		"street": "Feldgasse",
		"city": "Bürglen",
		"district": "",
		"postcode": "6463"
	},
	{
		"lon": "8.666188",
		"lat": "46.8731136",
		"number": "",
		"street": "Untere Strassermatte",
		"city": "Bürglen",
		"district": "",
		"postcode": "6463"
	},
	{
		"lon": "8.662255",
		"lat": "46.8709245",
		"number": "21",
		"street": "Wyergasse",
		"city": "Bürglen",
		"district": "",
		"postcode": "6463"
	},
	{
		"lon": "8.6591161",
		"lat": "46.8713449",
		"number": "2a",
		"street": "Baumannfeld",
		"city": "Bürglen",
		"district": "",
		"postcode": "6463"
	},
	{
		"lon": "8.6619925",
		"lat": "46.8709183",
		"number": "20",
		"street": "Wyergasse",
		"city": "Bürglen",
		"district": "",
		"postcode": "6463"
	},
	{
		"lon": "8.6624751",
		"lat": "46.8719478",
		"number": "6",
		"street": "Wyergasse",
		"city": "Bürglen",
		"district": "",
		"postcode": "6463"
	},
	{
		"lon": "8.6627779",
		"lat": "46.8719985",
		"number": "4",
		"street": "Wyergasse",
		"city": "Bürglen",
		"district": "",
		"postcode": "6463"
	},
	{
		"lon": "8.6626426",
		"lat": "46.8733138",
		"number": "8",
		"street": "Hofstatt",
		"city": "Bürglen",
		"district": "",
		"postcode": "6463"
	},
	{
		"lon": "8.6627714",
		"lat": "46.8722865",
		"number": "19",
		"street": "Hofstatt",
		"city": "Bürglen",
		"district": "",
		"postcode": "6463"
	},
	{
		"lon": "8.6624556",
		"lat": "46.8722449",
		"number": "16",
		"street": "Hofstatt",
		"city": "Bürglen",
		"district": "",
		"postcode": "6463"
	},
	{
		"lon": "8.6624867",
		"lat": "46.8724605",
		"number": "14",
		"street": "Hofstatt",
		"city": "Bürglen",
		"district": "",
		"postcode": "6463"
	},
	{
		"lon": "8.660132",
		"lat": "46.8727555",
		"number": "",
		"street": "Lauenerfeld",
		"city": "Bürglen",
		"district": "",
		"postcode": "6463"
	},
	{
		"lon": "8.6610024",
		"lat": "46.8729531",
		"number": "2",
		"street": "Feldli",
		"city": "Bürglen",
		"district": "",
		"postcode": "6463"
	},
	{
		"lon": "8.6625922",
		"lat": "46.8730621",
		"number": "10",
		"street": "Hofstatt",
		"city": "Bürglen",
		"district": "",
		"postcode": "6463"
	},
	{
		"lon": "8.6628757",
		"lat": "46.8728342",
		"number": "15",
		"street": "Hofstatt",
		"city": "Bürglen",
		"district": "",
		"postcode": "6463"
	},
	{
		"lon": "8.6654271",
		"lat": "46.8713854",
		"number": "2",
		"street": "Riedisfeld",
		"city": "Bürglen",
		"district": "",
		"postcode": "6463"
	},
	{
		"lon": "8.6630786",
		"lat": "46.8725261",
		"number": "18",
		"street": "Feldgasse",
		"city": "Bürglen",
		"district": "",
		"postcode": "6463"
	},
	{
		"lon": "8.6631238",
		"lat": "46.8727865",
		"number": "16",
		"street": "Feldgasse",
		"city": "Bürglen",
		"district": "",
		"postcode": "6463"
	},
	{
		"lon": "8.6631958",
		"lat": "46.8730646",
		"number": "14",
		"street": "Feldgasse",
		"city": "Bürglen",
		"district": "",
		"postcode": "6463"
	},
	{
		"lon": "8.6632441",
		"lat": "46.87346",
		"number": "12",
		"street": "Feldgasse",
		"city": "Bürglen",
		"district": "",
		"postcode": "6463"
	},
	{
		"lon": "8.6629027",
		"lat": "46.8734456",
		"number": "9",
		"street": "Hofstatt",
		"city": "Bürglen",
		"district": "",
		"postcode": "6463"
	},
	{
		"lon": "8.6625172",
		"lat": "46.8726491",
		"number": "12",
		"street": "Hofstatt",
		"city": "Bürglen",
		"district": "",
		"postcode": "6463"
	},
	{
		"lon": "8.6648547",
		"lat": "46.8721742",
		"number": "12",
		"street": "Obere Feldgasse",
		"city": "Bürglen",
		"district": "",
		"postcode": "6463"
	},
	{
		"lon": "8.6630339",
		"lat": "46.8722927",
		"number": "20",
		"street": "Feldgasse",
		"city": "Bürglen",
		"district": "",
		"postcode": "6463"
	},
	{
		"lon": "8.6646094",
		"lat": "46.8706205",
		"number": "2",
		"street": "Buchen",
		"city": "Bürglen",
		"district": "",
		"postcode": "6463"
	},
	{
		"lon": "8.6523782",
		"lat": "46.8719292",
		"number": "10",
		"street": "Bürglergrund",
		"city": "Altdorf",
		"district": "",
		"postcode": "6460"
	},
	{
		"lon": "8.6541557",
		"lat": "46.8733193",
		"number": "4",
		"street": "Grossgrund",
		"city": "Bürglen",
		"district": "",
		"postcode": "6463"
	},
	{
		"lon": "8.6547117",
		"lat": "46.8731877",
		"number": "7",
		"street": "Grossgrund",
		"city": "Bürglen",
		"district": "",
		"postcode": "6463"
	},
	{
		"lon": "8.6545795",
		"lat": "46.8731373",
		"number": "9",
		"street": "Grossgrund",
		"city": "Bürglen",
		"district": "",
		"postcode": "6463"
	},
	{
		"lon": "8.6528092",
		"lat": "46.8714839",
		"number": "77a",
		"street": "Gotthardstrasse",
		"city": "Altdorf",
		"district": "",
		"postcode": "6460"
	},
	{
		"lon": "8.6528953",
		"lat": "46.8723916",
		"number": "14",
		"street": "Bürglergrund",
		"city": "Altdorf",
		"district": "",
		"postcode": "6460"
	},
	{
		"lon": "8.6526645",
		"lat": "46.8720432",
		"number": "12",
		"street": "Bürglergrund",
		"city": "Altdorf",
		"district": "",
		"postcode": "6460"
	},
	{
		"lon": "8.624614",
		"lat": "46.9105719",
		"number": "22",
		"street": "Höhenstrasse",
		"city": "Flüelen",
		"district": "",
		"postcode": "6454"
	},
	{
		"lon": "8.6273907",
		"lat": "46.9085009",
		"number": "6",
		"street": "Obermattli",
		"city": "Flüelen",
		"district": "",
		"postcode": "6454"
	},
	{
		"lon": "8.6274348",
		"lat": "46.9087164",
		"number": "8",
		"street": "Obermattli",
		"city": "Flüelen",
		"district": "",
		"postcode": "6454"
	},
	{
		"lon": "8.6231949",
		"lat": "46.9106665",
		"number": "4b",
		"street": "Gruonmatt",
		"city": "Flüelen",
		"district": "",
		"postcode": "6454"
	},
	{
		"lon": "8.6258943",
		"lat": "46.9085074",
		"number": "1",
		"street": "Höhenstrasse",
		"city": "Flüelen",
		"district": "",
		"postcode": "6454"
	},
	{
		"lon": "8.6252727",
		"lat": "46.9088917",
		"number": "86",
		"street": "Kirchstrasse",
		"city": "Flüelen",
		"district": "",
		"postcode": "6454"
	},
	{
		"lon": "8.622596",
		"lat": "46.9107367",
		"number": "63",
		"street": "Axenstrasse",
		"city": "Flüelen",
		"district": "",
		"postcode": "6454"
	},
	{
		"lon": "8.6258112",
		"lat": "46.9090022",
		"number": "6",
		"street": "Höhenstrasse",
		"city": "Flüelen",
		"district": "",
		"postcode": "6454"
	},
	{
		"lon": "8.6240433",
		"lat": "46.9084147",
		"number": "11",
		"street": "Seestrasse",
		"city": "Flüelen",
		"district": "",
		"postcode": "6454"
	},
	{
		"lon": "8.6251287",
		"lat": "46.9100987",
		"number": "16",
		"street": "Höhenstrasse",
		"city": "Flüelen",
		"district": "",
		"postcode": "6454"
	},
	{
		"lon": "8.625845",
		"lat": "46.9098394",
		"number": "2",
		"street": "Gehren",
		"city": "Flüelen",
		"district": "",
		"postcode": "6454"
	},
	{
		"lon": "8.6247213",
		"lat": "46.9082947",
		"number": "50",
		"street": "Axenstrasse",
		"city": "Flüelen",
		"district": "",
		"postcode": "6454"
	},
	{
		"lon": "8.6238304",
		"lat": "46.9101571",
		"number": "3",
		"street": "Gruonmätteli",
		"city": "Flüelen",
		"district": "",
		"postcode": "6454"
	},
	{
		"lon": "8.6219619",
		"lat": "46.9099605",
		"number": "21b",
		"street": "Seestrasse",
		"city": "Flüelen",
		"district": "",
		"postcode": "6454"
	},
	{
		"lon": "8.6245123",
		"lat": "46.9095293",
		"number": "106",
		"street": "Kirchstrasse",
		"city": "Flüelen",
		"district": "",
		"postcode": "6454"
	},
	{
		"lon": "8.6249402",
		"lat": "46.9098848",
		"number": "14",
		"street": "Höhenstrasse",
		"city": "Flüelen",
		"district": "",
		"postcode": "6454"
	},
	{
		"lon": "8.6214361",
		"lat": "46.9106482",
		"number": "27",
		"street": "Seestrasse",
		"city": "Flüelen",
		"district": "",
		"postcode": "6454"
	},
	{
		"lon": "8.6228222",
		"lat": "46.9102755",
		"number": "61",
		"street": "Axenstrasse",
		"city": "Flüelen",
		"district": "",
		"postcode": "6454"
	},
	{
		"lon": "8.6247131",
		"lat": "46.910301",
		"number": "20",
		"street": "Höhenstrasse",
		"city": "Flüelen",
		"district": "",
		"postcode": "6454"
	},
	{
		"lon": "8.624274",
		"lat": "46.9094418",
		"number": "104",
		"street": "Kirchstrasse",
		"city": "Flüelen",
		"district": "",
		"postcode": "6454"
	},
	{
		"lon": "8.625713",
		"lat": "46.9086173",
		"number": "82",
		"street": "Kirchstrasse",
		"city": "Flüelen",
		"district": "",
		"postcode": "6454"
	},
	{
		"lon": "8.6245414",
		"lat": "46.9108515",
		"number": "26",
		"street": "Höhenstrasse",
		"city": "Flüelen",
		"district": "",
		"postcode": "6454"
	},
	{
		"lon": "8.6231112",
		"lat": "46.909094",
		"number": "17",
		"street": "Seestrasse",
		"city": "Flüelen",
		"district": "",
		"postcode": "6454"
	},
	{
		"lon": "8.6222736",
		"lat": "46.9098044",
		"number": "21d",
		"street": "Seestrasse",
		"city": "Flüelen",
		"district": "",
		"postcode": "6454"
	},
	{
		"lon": "8.6251864",
		"lat": "46.9097383",
		"number": "12",
		"street": "Höhenstrasse",
		"city": "Flüelen",
		"district": "",
		"postcode": "6454"
	},
	{
		"lon": "8.6238211",
		"lat": "46.9091406",
		"number": "58",
		"street": "Axenstrasse",
		"city": "Flüelen",
		"district": "",
		"postcode": "6454"
	},
	{
		"lon": "8.6244063",
		"lat": "46.9100792",
		"number": "17",
		"street": "Höhenstrasse",
		"city": "Flüelen",
		"district": "",
		"postcode": "6454"
	},
	{
		"lon": "8.6244645",
		"lat": "46.9097457",
		"number": "8",
		"street": "Gruonmätteli",
		"city": "Flüelen",
		"district": "",
		"postcode": "6454"
	},
	{
		"lon": "8.6231854",
		"lat": "46.9106919",
		"number": "4a",
		"street": "Gruonmatt",
		"city": "Flüelen",
		"district": "",
		"postcode": "6454"
	},
	{
		"lon": "8.6265054",
		"lat": "46.9093614",
		"number": "",
		"street": "Langmatt",
		"city": "Flüelen",
		"district": "",
		"postcode": "6454"
	},
	{
		"lon": "8.6216522",
		"lat": "46.9113942",
		"number": "35a",
		"street": "Seestrasse",
		"city": "Flüelen",
		"district": "",
		"postcode": "6454"
	},
	{
		"lon": "8.6255638",
		"lat": "46.9079141",
		"number": "42",
		"street": "Axenstrasse",
		"city": "Flüelen",
		"district": "",
		"postcode": "6454"
	},
	{
		"lon": "8.6268142",
		"lat": "46.9085519",
		"number": "4",
		"street": "Obermattli",
		"city": "Flüelen",
		"district": "",
		"postcode": "6454"
	},
	{
		"lon": "8.6239639",
		"lat": "46.9090672",
		"number": "56",
		"street": "Axenstrasse",
		"city": "Flüelen",
		"district": "",
		"postcode": "6454"
	},
	{
		"lon": "8.6234224",
		"lat": "46.9089199",
		"number": "15",
		"street": "Seestrasse",
		"city": "Flüelen",
		"district": "",
		"postcode": "6454"
	},
	{
		"lon": "8.6252391",
		"lat": "46.909153",
		"number": "5",
		"street": "Höhenstrasse",
		"city": "Flüelen",
		"district": "",
		"postcode": "6454"
	},
	{
		"lon": "8.6631239",
		"lat": "46.907173",
		"number": "",
		"street": "Unteres Rütteli",
		"city": "Flüelen",
		"district": "",
		"postcode": "6454"
	},
	{
		"lon": "8.6285445",
		"lat": "46.9072565",
		"number": "",
		"street": "Sädel",
		"city": "Flüelen",
		"district": "",
		"postcode": "6454"
	},
	{
		"lon": "8.628827",
		"lat": "46.9057871",
		"number": "",
		"street": "Butzigried",
		"city": "Flüelen",
		"district": "",
		"postcode": "6454"
	},
	{
		"lon": "8.6287255",
		"lat": "46.9065349",
		"number": "",
		"street": "Sädel",
		"city": "Flüelen",
		"district": "",
		"postcode": "6454"
	},
	{
		"lon": "8.6267056",
		"lat": "46.9077973",
		"number": "62",
		"street": "Kirchstrasse",
		"city": "Flüelen",
		"district": "",
		"postcode": "6454"
	},
	{
		"lon": "8.6262501",
		"lat": "46.9044104",
		"number": "1",
		"street": "Grundbüelstrasse",
		"city": "Flüelen",
		"district": "",
		"postcode": "6454"
	},
	{
		"lon": "8.626634",
		"lat": "46.9075282",
		"number": "58",
		"street": "Kirchstrasse",
		"city": "Flüelen",
		"district": "",
		"postcode": "6454"
	},
	{
		"lon": "8.6253929",
		"lat": "46.9066054",
		"number": "36",
		"street": "Axenstrasse",
		"city": "Flüelen",
		"district": "",
		"postcode": "6454"
	},
	{
		"lon": "8.6259015",
		"lat": "46.9046749",
		"number": "28",
		"street": "Axenstrasse",
		"city": "Flüelen",
		"district": "",
		"postcode": "6454"
	},
	{
		"lon": "8.6246347",
		"lat": "46.9055607",
		"number": "3",
		"street": "Seestrasse",
		"city": "Flüelen",
		"district": "",
		"postcode": "6454"
	},
	{
		"lon": "8.6250133",
		"lat": "46.9054668",
		"number": "1",
		"street": "Seestrasse",
		"city": "Flüelen",
		"district": "",
		"postcode": "6454"
	},
	{
		"lon": "8.6267062",
		"lat": "46.9072306",
		"number": "54",
		"street": "Kirchstrasse",
		"city": "Flüelen",
		"district": "",
		"postcode": "6454"
	},
	{
		"lon": "8.6264863",
		"lat": "46.906783",
		"number": "46",
		"street": "Kirchstrasse",
		"city": "Flüelen",
		"district": "",
		"postcode": "6454"
	},
	{
		"lon": "8.6269415",
		"lat": "46.9071831",
		"number": "52",
		"street": "Kirchstrasse",
		"city": "Flüelen",
		"district": "",
		"postcode": "6454"
	},
	{
		"lon": "8.626167",
		"lat": "46.9024321",
		"number": "15",
		"street": "Kirchstrasse",
		"city": "Flüelen",
		"district": "",
		"postcode": "6454"
	},
	{
		"lon": "8.6256734",
		"lat": "46.9022345",
		"number": "12",
		"street": "Dorfstrasse",
		"city": "Flüelen",
		"district": "",
		"postcode": "6454"
	},
	{
		"lon": "8.6239178",
		"lat": "46.9028152",
		"number": "2",
		"street": "Bahnhofstrasse",
		"city": "Flüelen",
		"district": "",
		"postcode": "6454"
	},
	{
		"lon": "8.6251828",
		"lat": "46.9031732",
		"number": "2",
		"street": "Axenstrasse",
		"city": "Flüelen",
		"district": "",
		"postcode": "6454"
	},
	{
		"lon": "8.6258223",
		"lat": "46.90168",
		"number": "27",
		"street": "Dorfstrasse",
		"city": "Flüelen",
		"district": "",
		"postcode": "6454"
	},
	{
		"lon": "8.6264396",
		"lat": "46.9022943",
		"number": "12",
		"street": "Kirchstrasse",
		"city": "Flüelen",
		"district": "",
		"postcode": "6454"
	},
	{
		"lon": "8.6261907",
		"lat": "46.9023149",
		"number": "11",
		"street": "Kirchstrasse",
		"city": "Flüelen",
		"district": "",
		"postcode": "6454"
	},
	{
		"lon": "8.6260454",
		"lat": "46.9028652",
		"number": "19",
		"street": "Kirchstrasse",
		"city": "Flüelen",
		"district": "",
		"postcode": "6454"
	},
	{
		"lon": "8.6255644",
		"lat": "46.9012958",
		"number": "34",
		"street": "Dorfstrasse",
		"city": "Flüelen",
		"district": "",
		"postcode": "6454"
	},
	{
		"lon": "8.6259146",
		"lat": "46.9011032",
		"number": "2",
		"street": "Kirchstrasse",
		"city": "Flüelen",
		"district": "",
		"postcode": "6454"
	},
	{
		"lon": "8.6239942",
		"lat": "46.9140149",
		"number": "51",
		"street": "Höhenstrasse",
		"city": "Flüelen",
		"district": "",
		"postcode": "6454"
	},
	{
		"lon": "8.6251927",
		"lat": "46.9131331",
		"number": "7",
		"street": "Ober Winkel",
		"city": "Flüelen",
		"district": "",
		"postcode": "6454"
	},
	{
		"lon": "8.6250745",
		"lat": "46.9129961",
		"number": "9",
		"street": "Ober Winkel",
		"city": "Flüelen",
		"district": "",
		"postcode": "6454"
	},
	{
		"lon": "8.6226186",
		"lat": "46.9129617",
		"number": "85",
		"street": "Axenstrasse",
		"city": "Flüelen",
		"district": "",
		"postcode": "6454"
	},
	{
		"lon": "8.6247611",
		"lat": "46.9136651",
		"number": "3",
		"street": "Ober Winkel",
		"city": "Flüelen",
		"district": "",
		"postcode": "6454"
	},
	{
		"lon": "8.5594348",
		"lat": "46.9638285",
		"number": "",
		"street": "Oberschwand",
		"city": "Seelisberg",
		"district": "",
		"postcode": "6377"
	},
	{
		"lon": "8.5833352",
		"lat": "46.9592481",
		"number": "7",
		"street": "Wissigstrasse",
		"city": "Seelisberg",
		"district": "",
		"postcode": "6377"
	},
	{
		"lon": "8.5839741",
		"lat": "46.9593249",
		"number": "5",
		"street": "Wissigstrasse",
		"city": "Seelisberg",
		"district": "",
		"postcode": "6377"
	},
	{
		"lon": "8.5842244",
		"lat": "46.9596626",
		"number": "3",
		"street": "Wissigstrasse",
		"city": "Seelisberg",
		"district": "",
		"postcode": "6377"
	},
	{
		"lon": "8.5732046",
		"lat": "46.9630527",
		"number": "2",
		"street": "Dorfstrasse",
		"city": "Seelisberg",
		"district": "",
		"postcode": "6377"
	},
	{
		"lon": "8.5726093",
		"lat": "46.9626896",
		"number": "3b",
		"street": "Seelistrasse",
		"city": "Seelisberg",
		"district": "",
		"postcode": "6377"
	},
	{
		"lon": "8.5755083",
		"lat": "46.9630978",
		"number": "4",
		"street": "Seeliweg",
		"city": "Seelisberg",
		"district": "",
		"postcode": "6377"
	},
	{
		"lon": "8.5732816",
		"lat": "46.960573",
		"number": "4",
		"street": "Seelistrasse",
		"city": "Seelisberg",
		"district": "",
		"postcode": "6377"
	},
	{
		"lon": "8.5729994",
		"lat": "46.9626828",
		"number": "1",
		"street": "Seelistrasse",
		"city": "Seelisberg",
		"district": "",
		"postcode": "6377"
	},
	{
		"lon": "8.6220836",
		"lat": "46.9119866",
		"number": "71",
		"street": "Axenstrasse",
		"city": "Flüelen",
		"district": "",
		"postcode": "6454"
	},
	{
		"lon": "8.6245054",
		"lat": "46.9115986",
		"number": "1",
		"street": "Weingärtli",
		"city": "Flüelen",
		"district": "",
		"postcode": "6454"
	},
	{
		"lon": "8.6216347",
		"lat": "46.9135804",
		"number": "49b",
		"street": "Seestrasse",
		"city": "Flüelen",
		"district": "",
		"postcode": "6454"
	},
	{
		"lon": "8.621926",
		"lat": "46.9136944",
		"number": "51b",
		"street": "Seestrasse",
		"city": "Flüelen",
		"district": "",
		"postcode": "6454"
	},
	{
		"lon": "8.6240509",
		"lat": "46.9136722",
		"number": "47b",
		"street": "Höhenstrasse",
		"city": "Flüelen",
		"district": "",
		"postcode": "6454"
	},
	{
		"lon": "8.6216785",
		"lat": "46.9143807",
		"number": "7",
		"street": "Unter Winkel",
		"city": "Flüelen",
		"district": "",
		"postcode": "6454"
	},
	{
		"lon": "8.6241548",
		"lat": "46.9123669",
		"number": "34",
		"street": "Höhenstrasse",
		"city": "Flüelen",
		"district": "",
		"postcode": "6454"
	},
	{
		"lon": "8.622462",
		"lat": "46.9131316",
		"number": "83c",
		"street": "Axenstrasse",
		"city": "Flüelen",
		"district": "",
		"postcode": "6454"
	},
	{
		"lon": "8.6243419",
		"lat": "46.9121336",
		"number": "5",
		"street": "Weingärtli",
		"city": "Flüelen",
		"district": "",
		"postcode": "6454"
	},
	{
		"lon": "8.6227677",
		"lat": "46.9125701",
		"number": "76",
		"street": "Axenstrasse",
		"city": "Flüelen",
		"district": "",
		"postcode": "6454"
	},
	{
		"lon": "8.6241871",
		"lat": "46.9136391",
		"number": "47a",
		"street": "Höhenstrasse",
		"city": "Flüelen",
		"district": "",
		"postcode": "6454"
	},
	{
		"lon": "8.6253321",
		"lat": "46.9127685",
		"number": "18",
		"street": "Ober Winkel",
		"city": "Flüelen",
		"district": "",
		"postcode": "6454"
	},
	{
		"lon": "8.624855",
		"lat": "46.9125666",
		"number": "15",
		"street": "Ober Winkel",
		"city": "Flüelen",
		"district": "",
		"postcode": "6454"
	},
	{
		"lon": "8.6223914",
		"lat": "46.9129755",
		"number": "83a",
		"street": "Axenstrasse",
		"city": "Flüelen",
		"district": "",
		"postcode": "6454"
	},
	{
		"lon": "8.6215177",
		"lat": "46.9142294",
		"number": "55",
		"street": "Seestrasse",
		"city": "Flüelen",
		"district": "",
		"postcode": "6454"
	},
	{
		"lon": "8.6248213",
		"lat": "46.9134216",
		"number": "6",
		"street": "Ober Winkel",
		"city": "Flüelen",
		"district": "",
		"postcode": "6454"
	},
	{
		"lon": "8.6230997",
		"lat": "46.9139341",
		"number": "89",
		"street": "Axenstrasse",
		"city": "Flüelen",
		"district": "",
		"postcode": "6454"
	},
	{
		"lon": "8.6250288",
		"lat": "46.9008155",
		"number": "40a",
		"street": "Dorfstrasse",
		"city": "Flüelen",
		"district": "",
		"postcode": "6454"
	},
	{
		"lon": "8.6262936",
		"lat": "46.9040051",
		"number": "29",
		"street": "Kirchstrasse",
		"city": "Flüelen",
		"district": "",
		"postcode": "6454"
	},
	{
		"lon": "8.6258019",
		"lat": "46.9037313",
		"number": "8",
		"street": "Axenstrasse",
		"city": "Flüelen",
		"district": "",
		"postcode": "6454"
	},
	{
		"lon": "8.6261808",
		"lat": "46.9012714",
		"number": "4",
		"street": "Kirchstrasse",
		"city": "Flüelen",
		"district": "",
		"postcode": "6454"
	},
	{
		"lon": "8.625774",
		"lat": "46.9018694",
		"number": "23",
		"street": "Dorfstrasse",
		"city": "Flüelen",
		"district": "",
		"postcode": "6454"
	},
	{
		"lon": "8.6252749",
		"lat": "46.9014694",
		"number": "5",
		"street": "Gotthardstrasse",
		"city": "Flüelen",
		"district": "",
		"postcode": "6454"
	},
	{
		"lon": "8.6258563",
		"lat": "46.9020305",
		"number": "17",
		"street": "Dorfstrasse",
		"city": "Flüelen",
		"district": "",
		"postcode": "6454"
	},
	{
		"lon": "8.6259354",
		"lat": "46.9032352",
		"number": "6",
		"street": "Ochsengasse",
		"city": "Flüelen",
		"district": "",
		"postcode": "6454"
	},
	{
		"lon": "8.6257668",
		"lat": "46.9027331",
		"number": "5",
		"street": "Dorfstrasse",
		"city": "Flüelen",
		"district": "",
		"postcode": "6454"
	},
	{
		"lon": "8.6249204",
		"lat": "46.9018512",
		"number": "18",
		"street": "Dorfstrasse",
		"city": "Flüelen",
		"district": "",
		"postcode": "6454"
	},
	{
		"lon": "8.6252923",
		"lat": "46.901448",
		"number": "7",
		"street": "Gotthardstrasse",
		"city": "Flüelen",
		"district": "",
		"postcode": "6454"
	},
	{
		"lon": "8.6256014",
		"lat": "46.9042787",
		"number": "22",
		"street": "Axenstrasse",
		"city": "Flüelen",
		"district": "",
		"postcode": "6454"
	},
	{
		"lon": "8.625879",
		"lat": "46.9018683",
		"number": "21",
		"street": "Dorfstrasse",
		"city": "Flüelen",
		"district": "",
		"postcode": "6454"
	},
	{
		"lon": "8.6257131",
		"lat": "46.9008984",
		"number": "39",
		"street": "Dorfstrasse",
		"city": "Flüelen",
		"district": "",
		"postcode": "6454"
	},
	{
		"lon": "8.6259603",
		"lat": "46.9007969",
		"number": "43",
		"street": "Dorfstrasse",
		"city": "Flüelen",
		"district": "",
		"postcode": "6454"
	},
	{
		"lon": "8.6257895",
		"lat": "46.9019772",
		"number": "19",
		"street": "Dorfstrasse",
		"city": "Flüelen",
		"district": "",
		"postcode": "6454"
	},
	{
		"lon": "8.6253325",
		"lat": "46.9024325",
		"number": "10",
		"street": "Dorfstrasse",
		"city": "Flüelen",
		"district": "",
		"postcode": "6454"
	},
	{
		"lon": "8.6257871",
		"lat": "46.902463",
		"number": "9",
		"street": "Dorfstrasse",
		"city": "Flüelen",
		"district": "",
		"postcode": "6454"
	},
	{
		"lon": "8.6257284",
		"lat": "46.9009972",
		"number": "37",
		"street": "Dorfstrasse",
		"city": "Flüelen",
		"district": "",
		"postcode": "6454"
	},
	{
		"lon": "8.6255012",
		"lat": "46.9025919",
		"number": "6",
		"street": "Dorfstrasse",
		"city": "Flüelen",
		"district": "",
		"postcode": "6454"
	},
	{
		"lon": "8.6263155",
		"lat": "46.903807",
		"number": "23",
		"street": "Kirchstrasse",
		"city": "Flüelen",
		"district": "",
		"postcode": "6454"
	},
	{
		"lon": "8.6250367",
		"lat": "46.9011753",
		"number": "9",
		"street": "Gotthardstrasse",
		"city": "Flüelen",
		"district": "",
		"postcode": "6454"
	},
	{
		"lon": "8.6268301",
		"lat": "46.9039276",
		"number": "26",
		"street": "Kirchstrasse",
		"city": "Flüelen",
		"district": "",
		"postcode": "6454"
	},
	{
		"lon": "8.6264335",
		"lat": "46.9020155",
		"number": "10",
		"street": "Kirchstrasse",
		"city": "Flüelen",
		"district": "",
		"postcode": "6454"
	},
	{
		"lon": "8.625937",
		"lat": "46.9026654",
		"number": "",
		"street": "Kirchstrasse",
		"city": "Flüelen",
		"district": "",
		"postcode": "6454"
	},
	{
		"lon": "8.6257849",
		"lat": "46.9017703",
		"number": "25",
		"street": "Dorfstrasse",
		"city": "Flüelen",
		"district": "",
		"postcode": "6454"
	},
	{
		"lon": "8.624951",
		"lat": "46.9026426",
		"number": "2",
		"street": "Dorfstrasse",
		"city": "Flüelen",
		"district": "",
		"postcode": "6454"
	},
	{
		"lon": "8.6287434",
		"lat": "46.8661001",
		"number": "4",
		"street": "Kornmattweg",
		"city": "Attinghausen",
		"district": "",
		"postcode": "6468"
	},
	{
		"lon": "8.6302071",
		"lat": "46.8659114",
		"number": "3",
		"street": "Reussmatt",
		"city": "Attinghausen",
		"district": "",
		"postcode": "6468"
	},
	{
		"lon": "8.6250668",
		"lat": "46.8676078",
		"number": "12",
		"street": "Feldstrasse",
		"city": "Attinghausen",
		"district": "",
		"postcode": "6468"
	},
	{
		"lon": "8.6286003",
		"lat": "46.866258",
		"number": "2",
		"street": "Kornmattweg",
		"city": "Attinghausen",
		"district": "",
		"postcode": "6468"
	},
	{
		"lon": "8.6297949",
		"lat": "46.8659502",
		"number": "5",
		"street": "Reussmatt",
		"city": "Attinghausen",
		"district": "",
		"postcode": "6468"
	},
	{
		"lon": "8.6293732",
		"lat": "46.8659704",
		"number": "11",
		"street": "Reussmatt",
		"city": "Attinghausen",
		"district": "",
		"postcode": "6468"
	},
	{
		"lon": "8.6295229",
		"lat": "46.8657924",
		"number": "9",
		"street": "Reussmatt",
		"city": "Attinghausen",
		"district": "",
		"postcode": "6468"
	},
	{
		"lon": "8.6271064",
		"lat": "46.8675219",
		"number": "4",
		"street": "Mühlestatt",
		"city": "Attinghausen",
		"district": "",
		"postcode": "6468"
	},
	{
		"lon": "8.6271936",
		"lat": "46.867476",
		"number": "4a",
		"street": "Mühlestatt",
		"city": "Attinghausen",
		"district": "",
		"postcode": "6468"
	},
	{
		"lon": "8.6294461",
		"lat": "46.8662372",
		"number": "12",
		"street": "Reussmatt",
		"city": "Attinghausen",
		"district": "",
		"postcode": "6468"
	},
	{
		"lon": "8.6290145",
		"lat": "46.8662704",
		"number": "15",
		"street": "Reussmatt",
		"city": "Attinghausen",
		"district": "",
		"postcode": "6468"
	},
	{
		"lon": "8.6297796",
		"lat": "46.865765",
		"number": "7",
		"street": "Reussmatt",
		"city": "Attinghausen",
		"district": "",
		"postcode": "6468"
	},
	{
		"lon": "8.6263758",
		"lat": "46.8693751",
		"number": "29a",
		"street": "Allmendstrasse",
		"city": "Attinghausen",
		"district": "",
		"postcode": "6468"
	},
	{
		"lon": "8.6262313",
		"lat": "46.8697357",
		"number": "39",
		"street": "Allmendstrasse",
		"city": "Attinghausen",
		"district": "",
		"postcode": "6468"
	},
	{
		"lon": "8.6309016",
		"lat": "46.8645877",
		"number": "19",
		"street": "Reussstrasse",
		"city": "Attinghausen",
		"district": "",
		"postcode": "6468"
	},
	{
		"lon": "8.6260498",
		"lat": "46.8694807",
		"number": "33",
		"street": "Allmendstrasse",
		"city": "Attinghausen",
		"district": "",
		"postcode": "6468"
	},
	{
		"lon": "8.630145",
		"lat": "46.8652657",
		"number": "31",
		"street": "Reussstrasse",
		"city": "Attinghausen",
		"district": "",
		"postcode": "6468"
	},
	{
		"lon": "8.6305441",
		"lat": "46.8652174",
		"number": "29",
		"street": "Reussstrasse",
		"city": "Attinghausen",
		"district": "",
		"postcode": "6468"
	},
	{
		"lon": "8.6301767",
		"lat": "46.8650082",
		"number": "15",
		"street": "Rüti",
		"city": "Attinghausen",
		"district": "",
		"postcode": "6468"
	},
	{
		"lon": "8.6299515",
		"lat": "46.8651435",
		"number": "17",
		"street": "Rüti",
		"city": "Attinghausen",
		"district": "",
		"postcode": "6468"
	},
	{
		"lon": "8.6263311",
		"lat": "46.8639147",
		"number": "8",
		"street": "Schweinsberggasse",
		"city": "Attinghausen",
		"district": "",
		"postcode": "6468"
	},
	{
		"lon": "8.6273635",
		"lat": "46.8640312",
		"number": "1",
		"street": "Schweinsberggasse",
		"city": "Attinghausen",
		"district": "",
		"postcode": "6468"
	},
	{
		"lon": "8.6291633",
		"lat": "46.8653274",
		"number": "9b",
		"street": "Obere Postmatte",
		"city": "Attinghausen",
		"district": "",
		"postcode": "6468"
	},
	{
		"lon": "8.6290588",
		"lat": "46.8652851",
		"number": "9a",
		"street": "Obere Postmatte",
		"city": "Attinghausen",
		"district": "",
		"postcode": "6468"
	},
	{
		"lon": "8.6267408",
		"lat": "46.8670023",
		"number": "6",
		"street": "Feldstrasse",
		"city": "Attinghausen",
		"district": "",
		"postcode": "6468"
	},
	{
		"lon": "8.6275465",
		"lat": "46.8643014",
		"number": "2",
		"street": "Schweinsberggasse",
		"city": "Attinghausen",
		"district": "",
		"postcode": "6468"
	},
	{
		"lon": "8.6307168",
		"lat": "46.863515",
		"number": "16",
		"street": "Burgstrasse",
		"city": "Attinghausen",
		"district": "",
		"postcode": "6468"
	},
	{
		"lon": "8.6264319",
		"lat": "46.8625963",
		"number": "17",
		"street": "Klosterweg",
		"city": "Attinghausen",
		"district": "",
		"postcode": "6468"
	},
	{
		"lon": "8.6292359",
		"lat": "46.8655672",
		"number": "10",
		"street": "Kornmattweg",
		"city": "Attinghausen",
		"district": "",
		"postcode": "6468"
	},
	{
		"lon": "8.6266898",
		"lat": "46.8627475",
		"number": "11",
		"street": "Klosterweg",
		"city": "Attinghausen",
		"district": "",
		"postcode": "6468"
	},
	{
		"lon": "8.6305275",
		"lat": "46.8646605",
		"number": "11",
		"street": "Rüti",
		"city": "Attinghausen",
		"district": "",
		"postcode": "6468"
	},
	{
		"lon": "8.6272907",
		"lat": "46.8627393",
		"number": "18",
		"street": "Walter-Fürststrasse",
		"city": "Attinghausen",
		"district": "",
		"postcode": "6468"
	},
	{
		"lon": "8.6288954",
		"lat": "46.8654851",
		"number": "7",
		"street": "Obere Postmatte",
		"city": "Attinghausen",
		"district": "",
		"postcode": "6468"
	},
	{
		"lon": "8.6257493",
		"lat": "46.8634406",
		"number": "24",
		"street": "Klosterweg",
		"city": "Attinghausen",
		"district": "",
		"postcode": "6468"
	},
	{
		"lon": "8.6257193",
		"lat": "46.8632118",
		"number": "28",
		"street": "Klosterweg",
		"city": "Attinghausen",
		"district": "",
		"postcode": "6468"
	},
	{
		"lon": "8.6256902",
		"lat": "46.8631957",
		"number": "30",
		"street": "Klosterweg",
		"city": "Attinghausen",
		"district": "",
		"postcode": "6468"
	},
	{
		"lon": "8.6316924",
		"lat": "46.8621575",
		"number": "4",
		"street": "Jägerweg",
		"city": "Attinghausen",
		"district": "",
		"postcode": "6468"
	},
	{
		"lon": "8.6313598",
		"lat": "46.8615373",
		"number": "1",
		"street": "Freiherrenstrasse",
		"city": "Attinghausen",
		"district": "",
		"postcode": "6468"
	},
	{
		"lon": "8.6314125",
		"lat": "46.8612776",
		"number": "5",
		"street": "Freiherrenstrasse",
		"city": "Attinghausen",
		"district": "",
		"postcode": "6468"
	},
	{
		"lon": "8.6312896",
		"lat": "46.8611631",
		"number": "6",
		"street": "Freiherrenstrasse",
		"city": "Attinghausen",
		"district": "",
		"postcode": "6468"
	},
	{
		"lon": "8.6327001",
		"lat": "46.8601874",
		"number": "7",
		"street": "Hochweg",
		"city": "Attinghausen",
		"district": "",
		"postcode": "6468"
	},
	{
		"lon": "8.6320731",
		"lat": "46.8604019",
		"number": "3",
		"street": "Hochweg",
		"city": "Attinghausen",
		"district": "",
		"postcode": "6468"
	},
	{
		"lon": "8.6315192",
		"lat": "46.8601804",
		"number": "2",
		"street": "Hochweg",
		"city": "Attinghausen",
		"district": "",
		"postcode": "6468"
	},
	{
		"lon": "8.6321501",
		"lat": "46.8612823",
		"number": "5",
		"street": "Albenschitt",
		"city": "Attinghausen",
		"district": "",
		"postcode": "6468"
	},
	{
		"lon": "8.6320026",
		"lat": "46.8609007",
		"number": "6",
		"street": "Albenschitt",
		"city": "Attinghausen",
		"district": "",
		"postcode": "6468"
	},
	{
		"lon": "8.6325227",
		"lat": "46.8605956",
		"number": "",
		"street": "Hochweg",
		"city": "Attinghausen",
		"district": "",
		"postcode": "6468"
	},
	{
		"lon": "8.6318803",
		"lat": "46.8613192",
		"number": "3",
		"street": "Albenschitt",
		"city": "Attinghausen",
		"district": "",
		"postcode": "6468"
	},
	{
		"lon": "8.6322713",
		"lat": "46.8609745",
		"number": "10",
		"street": "Albenschitt",
		"city": "Attinghausen",
		"district": "",
		"postcode": "6468"
	},
	{
		"lon": "8.6326051",
		"lat": "46.862313",
		"number": "14",
		"street": "Wehrheim",
		"city": "Attinghausen",
		"district": "",
		"postcode": "6468"
	},
	{
		"lon": "8.631845",
		"lat": "46.8599827",
		"number": "4",
		"street": "Hochweg",
		"city": "Attinghausen",
		"district": "",
		"postcode": "6468"
	},
	{
		"lon": "8.6319606",
		"lat": "46.8598497",
		"number": "6",
		"street": "Hochweg",
		"city": "Attinghausen",
		"district": "",
		"postcode": "6468"
	},
	{
		"lon": "8.6312224",
		"lat": "46.8598883",
		"number": "29",
		"street": "Freiherrenstrasse",
		"city": "Attinghausen",
		"district": "",
		"postcode": "6468"
	},
	{
		"lon": "8.631097",
		"lat": "46.8598325",
		"number": "31",
		"street": "Freiherrenstrasse",
		"city": "Attinghausen",
		"district": "",
		"postcode": "6468"
	},
	{
		"lon": "8.6313505",
		"lat": "46.8596737",
		"number": "37",
		"street": "Freiherrenstrasse",
		"city": "Attinghausen",
		"district": "",
		"postcode": "6468"
	},
	{
		"lon": "8.6323159",
		"lat": "46.8623305",
		"number": "6",
		"street": "Lindenweg",
		"city": "Attinghausen",
		"district": "",
		"postcode": "6468"
	},
	{
		"lon": "8.6326097",
		"lat": "46.8597732",
		"number": "5",
		"street": "Hochweg",
		"city": "Attinghausen",
		"district": "",
		"postcode": "6468"
	},
	{
		"lon": "8.6327827",
		"lat": "46.8588878",
		"number": "11",
		"street": "Hochweg",
		"city": "Attinghausen",
		"district": "",
		"postcode": "6468"
	},
	{
		"lon": "8.6310087",
		"lat": "46.8611815",
		"number": "8",
		"street": "Freiherrenstrasse",
		"city": "Attinghausen",
		"district": "",
		"postcode": "6468"
	},
	{
		"lon": "8.6315934",
		"lat": "46.8609246",
		"number": "9",
		"street": "Freiherrenstrasse",
		"city": "Attinghausen",
		"district": "",
		"postcode": "6468"
	},
	{
		"lon": "8.6313549",
		"lat": "46.8609162",
		"number": "12",
		"street": "Freiherrenstrasse",
		"city": "Attinghausen",
		"district": "",
		"postcode": "6468"
	},
	{
		"lon": "8.6318378",
		"lat": "46.8604711",
		"number": "13",
		"street": "Freiherrenstrasse",
		"city": "Attinghausen",
		"district": "",
		"postcode": "6468"
	},
	{
		"lon": "8.6315244",
		"lat": "46.8604239",
		"number": "15",
		"street": "Freiherrenstrasse",
		"city": "Attinghausen",
		"district": "",
		"postcode": "6468"
	},
	{
		"lon": "8.6291235",
		"lat": "46.8620401",
		"number": "5",
		"street": "Schulhausweg",
		"city": "Attinghausen",
		"district": "",
		"postcode": "6468"
	},
	{
		"lon": "8.6266078",
		"lat": "46.8622399",
		"number": "29",
		"street": "Stämpfig",
		"city": "Attinghausen",
		"district": "",
		"postcode": "6468"
	},
	{
		"lon": "8.6276187",
		"lat": "46.8623588",
		"number": "24",
		"street": "Walter-Fürststrasse",
		"city": "Attinghausen",
		"district": "",
		"postcode": "6468"
	},
	{
		"lon": "8.6261772",
		"lat": "46.8625008",
		"number": "27",
		"street": "Klosterweg",
		"city": "Attinghausen",
		"district": "",
		"postcode": "6468"
	},
	{
		"lon": "8.6308222",
		"lat": "46.8619639",
		"number": "1",
		"street": "Kirchweg",
		"city": "Attinghausen",
		"district": "",
		"postcode": "6468"
	},
	{
		"lon": "8.6305257",
		"lat": "46.8623587",
		"number": "6",
		"street": "Kirchweg",
		"city": "Attinghausen",
		"district": "",
		"postcode": "6468"
	},
	{
		"lon": "8.6230792",
		"lat": "46.8570054",
		"number": "",
		"street": "Ring",
		"city": "Attinghausen",
		"district": "",
		"postcode": "6468"
	},
	{
		"lon": "8.6238778",
		"lat": "46.8569431",
		"number": "",
		"street": "Ringweg",
		"city": "Attinghausen",
		"district": "",
		"postcode": "6468"
	},
	{
		"lon": "8.624616",
		"lat": "46.8565217",
		"number": "",
		"street": "Hofstättli",
		"city": "Attinghausen",
		"district": "",
		"postcode": "6468"
	},
	{
		"lon": "8.627118",
		"lat": "46.8583331",
		"number": "5",
		"street": "Stachelmätteli",
		"city": "Attinghausen",
		"district": "",
		"postcode": "6468"
	},
	{
		"lon": "8.6273751",
		"lat": "46.8586549",
		"number": "4",
		"street": "Stachelmätteli",
		"city": "Attinghausen",
		"district": "",
		"postcode": "6468"
	},
	{
		"lon": "8.6271081",
		"lat": "46.85858",
		"number": "6",
		"street": "Stachelmätteli",
		"city": "Attinghausen",
		"district": "",
		"postcode": "6468"
	},
	{
		"lon": "8.6270011",
		"lat": "46.8585447",
		"number": "8",
		"street": "Stachelmätteli",
		"city": "Attinghausen",
		"district": "",
		"postcode": "6468"
	},
	{
		"lon": "8.6302391",
		"lat": "46.8551947",
		"number": "",
		"street": "Talacker",
		"city": "Attinghausen",
		"district": "",
		"postcode": "6468"
	},
	{
		"lon": "8.6303013",
		"lat": "46.8568224",
		"number": "",
		"street": "Zibeggi",
		"city": "Attinghausen",
		"district": "",
		"postcode": "6468"
	},
	{
		"lon": "8.6286185",
		"lat": "46.8615844",
		"number": "18",
		"street": "Kummetstrasse",
		"city": "Attinghausen",
		"district": "",
		"postcode": "6468"
	},
	{
		"lon": "8.6268558",
		"lat": "46.8625183",
		"number": "36",
		"street": "Walter-Fürststrasse",
		"city": "Attinghausen",
		"district": "",
		"postcode": "6468"
	},
	{
		"lon": "8.6290734",
		"lat": "46.8618785",
		"number": "3",
		"street": "Schulhausweg",
		"city": "Attinghausen",
		"district": "",
		"postcode": "6468"
	},
	{
		"lon": "8.6269599",
		"lat": "46.8602487",
		"number": "26",
		"street": "Gändli",
		"city": "Attinghausen",
		"district": "",
		"postcode": "6468"
	},
	{
		"lon": "8.6272885",
		"lat": "46.8602999",
		"number": "24",
		"street": "Gändli",
		"city": "Attinghausen",
		"district": "",
		"postcode": "6468"
	},
	{
		"lon": "8.6275588",
		"lat": "46.8605509",
		"number": "18",
		"street": "Gändli",
		"city": "Attinghausen",
		"district": "",
		"postcode": "6468"
	},
	{
		"lon": "8.6278609",
		"lat": "46.8599712",
		"number": "33",
		"street": "Gändli",
		"city": "Attinghausen",
		"district": "",
		"postcode": "6468"
	},
	{
		"lon": "8.6276137",
		"lat": "46.8601799",
		"number": "31",
		"street": "Gändli",
		"city": "Attinghausen",
		"district": "",
		"postcode": "6468"
	},
	{
		"lon": "8.6279976",
		"lat": "46.8604915",
		"number": "10",
		"street": "Gändli",
		"city": "Attinghausen",
		"district": "",
		"postcode": "6468"
	},
	{
		"lon": "8.628059",
		"lat": "46.8601611",
		"number": "9",
		"street": "Gändli",
		"city": "Attinghausen",
		"district": "",
		"postcode": "6468"
	},
	{
		"lon": "8.6283754",
		"lat": "46.860116",
		"number": "6",
		"street": "Gändli",
		"city": "Attinghausen",
		"district": "",
		"postcode": "6468"
	},
	{
		"lon": "8.628411",
		"lat": "46.8598614",
		"number": "5",
		"street": "Gändli",
		"city": "Attinghausen",
		"district": "",
		"postcode": "6468"
	},
	{
		"lon": "8.6259791",
		"lat": "46.8614388",
		"number": "12",
		"street": "Stämpfig",
		"city": "Attinghausen",
		"district": "",
		"postcode": "6468"
	},
	{
		"lon": "8.6260001",
		"lat": "46.8612272",
		"number": "10",
		"street": "Stämpfig",
		"city": "Attinghausen",
		"district": "",
		"postcode": "6468"
	},
	{
		"lon": "8.6263893",
		"lat": "46.8615459",
		"number": "8",
		"street": "Stämpfig",
		"city": "Attinghausen",
		"district": "",
		"postcode": "6468"
	},
	{
		"lon": "8.6294645",
		"lat": "46.8599769",
		"number": "51",
		"street": "Freiherrenstrasse",
		"city": "Attinghausen",
		"district": "",
		"postcode": "6468"
	},
	{
		"lon": "8.6237935",
		"lat": "46.8596699",
		"number": "",
		"street": "Häldi",
		"city": "Attinghausen",
		"district": "",
		"postcode": "6468"
	},
	{
		"lon": "8.624405",
		"lat": "46.8600414",
		"number": "",
		"street": "Mätteli",
		"city": "Attinghausen",
		"district": "",
		"postcode": "6468"
	},
	{
		"lon": "8.6238477",
		"lat": "46.8603441",
		"number": "",
		"street": "Obermattli",
		"city": "Attinghausen",
		"district": "",
		"postcode": "6468"
	},
	{
		"lon": "8.6305614",
		"lat": "46.860047",
		"number": "23",
		"street": "Freiherrenstrasse",
		"city": "Attinghausen",
		"district": "",
		"postcode": "6468"
	},
	{
		"lon": "8.6298157",
		"lat": "46.8611526",
		"number": "40",
		"street": "Freiherrenstrasse",
		"city": "Attinghausen",
		"district": "",
		"postcode": "6468"
	},
	{
		"lon": "8.6294091",
		"lat": "46.8615341",
		"number": "14",
		"street": "Kummetstrasse",
		"city": "Attinghausen",
		"district": "",
		"postcode": "6468"
	},
	{
		"lon": "8.6301115",
		"lat": "46.8616101",
		"number": "8",
		"street": "Kummetstrasse",
		"city": "Attinghausen",
		"district": "",
		"postcode": "6468"
	},
	{
		"lon": "8.6298443",
		"lat": "46.8616901",
		"number": "10",
		"street": "Kummetstrasse",
		"city": "Attinghausen",
		"district": "",
		"postcode": "6468"
	},
	{
		"lon": "8.6303133",
		"lat": "46.8616746",
		"number": "6",
		"street": "Kummetstrasse",
		"city": "Attinghausen",
		"district": "",
		"postcode": "6468"
	},
	{
		"lon": "8.6301611",
		"lat": "46.8599584",
		"number": "49",
		"street": "Freiherrenstrasse",
		"city": "Attinghausen",
		"district": "",
		"postcode": "6468"
	},
	{
		"lon": "8.6303661",
		"lat": "46.8612896",
		"number": "5",
		"street": "Kummetstrasse",
		"city": "Attinghausen",
		"district": "",
		"postcode": "6468"
	},
	{
		"lon": "8.6296692",
		"lat": "46.8615579",
		"number": "12",
		"street": "Kummetstrasse",
		"city": "Attinghausen",
		"district": "",
		"postcode": "6468"
	},
	{
		"lon": "8.6294334",
		"lat": "46.8617194",
		"number": "2",
		"street": "Schulhausweg",
		"city": "Attinghausen",
		"district": "",
		"postcode": "6468"
	},
	{
		"lon": "8.6264921",
		"lat": "46.8620423",
		"number": "32",
		"street": "Stämpfig",
		"city": "Attinghausen",
		"district": "",
		"postcode": "6468"
	},
	{
		"lon": "8.6281075",
		"lat": "46.8620053",
		"number": "28",
		"street": "Kummetstrasse",
		"city": "Attinghausen",
		"district": "",
		"postcode": "6468"
	},
	{
		"lon": "8.6261115",
		"lat": "46.8620878",
		"number": "38",
		"street": "Stämpfig",
		"city": "Attinghausen",
		"district": "",
		"postcode": "6468"
	},
	{
		"lon": "8.6262239",
		"lat": "46.8621448",
		"number": "36",
		"street": "Stämpfig",
		"city": "Attinghausen",
		"district": "",
		"postcode": "6468"
	},
	{
		"lon": "8.6298423",
		"lat": "46.8601995",
		"number": "46",
		"street": "Freiherrenstrasse",
		"city": "Attinghausen",
		"district": "",
		"postcode": "6468"
	},
	{
		"lon": "8.6267927",
		"lat": "46.8620105",
		"number": "30",
		"street": "Stämpfig",
		"city": "Attinghausen",
		"district": "",
		"postcode": "6468"
	},
	{
		"lon": "8.630233",
		"lat": "46.8602051",
		"number": "43",
		"street": "Freiherrenstrasse",
		"city": "Attinghausen",
		"district": "",
		"postcode": "6468"
	},
	{
		"lon": "8.6302811",
		"lat": "46.860435",
		"number": "42",
		"street": "Freiherrenstrasse",
		"city": "Attinghausen",
		"district": "",
		"postcode": "6468"
	},
	{
		"lon": "8.6305006",
		"lat": "46.8607881",
		"number": "24",
		"street": "Freiherrenstrasse",
		"city": "Attinghausen",
		"district": "",
		"postcode": "6468"
	},
	{
		"lon": "8.6291414",
		"lat": "46.860626",
		"number": "9",
		"street": "Gändlistrasse",
		"city": "Attinghausen",
		"district": "",
		"postcode": "6468"
	},
	{
		"lon": "8.6292973",
		"lat": "46.8608012",
		"number": "2",
		"street": "Ballweg",
		"city": "Attinghausen",
		"district": "",
		"postcode": "6468"
	},
	{
		"lon": "8.6294679",
		"lat": "46.8605826",
		"number": "6",
		"street": "Ballweg",
		"city": "Attinghausen",
		"district": "",
		"postcode": "6468"
	},
	{
		"lon": "8.6295813",
		"lat": "46.8604032",
		"number": "8",
		"street": "Ballweg",
		"city": "Attinghausen",
		"district": "",
		"postcode": "6468"
	},
	{
		"lon": "8.6297615",
		"lat": "46.8596888",
		"number": "",
		"street": "Islerli",
		"city": "Attinghausen",
		"district": "",
		"postcode": "6468"
	},
	{
		"lon": "8.6299105",
		"lat": "46.8603642",
		"number": "11",
		"street": "Ballweg",
		"city": "Attinghausen",
		"district": "",
		"postcode": "6468"
	},
	{
		"lon": "8.6298193",
		"lat": "46.860626",
		"number": "7",
		"street": "Ballweg",
		"city": "Attinghausen",
		"district": "",
		"postcode": "6468"
	},
	{
		"lon": "8.6296531",
		"lat": "46.8608271",
		"number": "5",
		"street": "Ballweg",
		"city": "Attinghausen",
		"district": "",
		"postcode": "6468"
	},
	{
		"lon": "8.6295108",
		"lat": "46.8609803",
		"number": "3",
		"street": "Ballweg",
		"city": "Attinghausen",
		"district": "",
		"postcode": "6468"
	},
	{
		"lon": "8.6299242",
		"lat": "46.8609569",
		"number": "38",
		"street": "Freiherrenstrasse",
		"city": "Attinghausen",
		"district": "",
		"postcode": "6468"
	},
	{
		"lon": "8.6299623",
		"lat": "46.860988",
		"number": "36",
		"street": "Freiherrenstrasse",
		"city": "Attinghausen",
		"district": "",
		"postcode": "6468"
	},
	{
		"lon": "8.6270896",
		"lat": "46.8597014",
		"number": "30",
		"street": "Gändlistrasse",
		"city": "Attinghausen",
		"district": "",
		"postcode": "6468"
	},
	{
		"lon": "8.6286262",
		"lat": "46.8618321",
		"number": "22",
		"street": "Kummetstrasse",
		"city": "Attinghausen",
		"district": "",
		"postcode": "6468"
	},
	{
		"lon": "8.6265804",
		"lat": "46.861752",
		"number": "22",
		"street": "Stämpfig",
		"city": "Attinghausen",
		"district": "",
		"postcode": "6468"
	},
	{
		"lon": "8.6274868",
		"lat": "46.8586934",
		"number": "2",
		"street": "Stachelmätteli",
		"city": "Attinghausen",
		"district": "",
		"postcode": "6468"
	},
	{
		"lon": "8.6277184",
		"lat": "46.8615448",
		"number": "46",
		"street": "Walter-Fürststrasse",
		"city": "Attinghausen",
		"district": "",
		"postcode": "6468"
	},
	{
		"lon": "8.627793",
		"lat": "46.8615709",
		"number": "44",
		"street": "Walter-Fürststrasse",
		"city": "Attinghausen",
		"district": "",
		"postcode": "6468"
	},
	{
		"lon": "8.6122335",
		"lat": "46.857493",
		"number": "",
		"street": "Teppenriedli",
		"city": "Attinghausen",
		"district": "",
		"postcode": "6468"
	},
	{
		"lon": "8.6122476",
		"lat": "46.8608656",
		"number": "",
		"street": "Regliberg",
		"city": "Attinghausen",
		"district": "",
		"postcode": "6468"
	},
	{
		"lon": "8.6115376",
		"lat": "46.8623963",
		"number": "",
		"street": "Regliberg",
		"city": "Attinghausen",
		"district": "",
		"postcode": "6468"
	},
	{
		"lon": "8.622314",
		"lat": "46.8520293",
		"number": "",
		"street": "Obermatt",
		"city": "Attinghausen",
		"district": "",
		"postcode": "6468"
	},
	{
		"lon": "8.6231197",
		"lat": "46.8505006",
		"number": "",
		"street": "Grossacher",
		"city": "Attinghausen",
		"district": "",
		"postcode": "6468"
	},
	{
		"lon": "8.6229476",
		"lat": "46.8486401",
		"number": "",
		"street": "Berg",
		"city": "Attinghausen",
		"district": "",
		"postcode": "6468"
	},
	{
		"lon": "8.6278155",
		"lat": "46.8529348",
		"number": "",
		"street": "Oberer Tschingel",
		"city": "Attinghausen",
		"district": "",
		"postcode": "6468"
	},
	{
		"lon": "8.626265",
		"lat": "46.8533918",
		"number": "",
		"street": "Emmeten",
		"city": "Attinghausen",
		"district": "",
		"postcode": "6468"
	},
	{
		"lon": "8.6237298",
		"lat": "46.8537959",
		"number": "",
		"street": "Bödeli",
		"city": "Attinghausen",
		"district": "",
		"postcode": "6468"
	},
	{
		"lon": "8.6231663",
		"lat": "46.8550073",
		"number": "",
		"street": "Burglihofstatt",
		"city": "Attinghausen",
		"district": "",
		"postcode": "6468"
	},
	{
		"lon": "8.6201149",
		"lat": "46.8549863",
		"number": "",
		"street": "Port",
		"city": "Attinghausen",
		"district": "",
		"postcode": "6468"
	},
	{
		"lon": "8.6219492",
		"lat": "46.8545251",
		"number": "",
		"street": "Mettlen",
		"city": "Attinghausen",
		"district": "",
		"postcode": "6468"
	},
	{
		"lon": "8.6106156",
		"lat": "46.8548739",
		"number": "",
		"street": "Bittmändi",
		"city": "Attinghausen",
		"district": "",
		"postcode": "6468"
	},
	{
		"lon": "8.614499",
		"lat": "46.8520561",
		"number": "",
		"street": "Ruberli",
		"city": "Attinghausen",
		"district": "",
		"postcode": "6468"
	},
	{
		"lon": "8.6114359",
		"lat": "46.8480843",
		"number": "",
		"street": "Schwandenberg",
		"city": "Attinghausen",
		"district": "",
		"postcode": "6468"
	},
	{
		"lon": "8.6117404",
		"lat": "46.8480119",
		"number": "",
		"street": "Schwandenberg",
		"city": "Attinghausen",
		"district": "",
		"postcode": "6468"
	},
	{
		"lon": "8.5994758",
		"lat": "46.8494534",
		"number": "",
		"street": "Weid",
		"city": "Attinghausen",
		"district": "",
		"postcode": "6468"
	},
	{
		"lon": "8.6186307",
		"lat": "46.8449154",
		"number": "",
		"street": "Unteres Stockbergli",
		"city": "Attinghausen",
		"district": "",
		"postcode": "6468"
	},
	{
		"lon": "8.6051657",
		"lat": "46.8443341",
		"number": "",
		"street": "Brüsti",
		"city": "Attinghausen",
		"district": "",
		"postcode": "6468"
	},
	{
		"lon": "8.604188",
		"lat": "46.8439843",
		"number": "",
		"street": "Brüsti",
		"city": "Attinghausen",
		"district": "",
		"postcode": "6468"
	},
	{
		"lon": "8.6045706",
		"lat": "46.8428828",
		"number": "",
		"street": "Brüsti",
		"city": "Attinghausen",
		"district": "",
		"postcode": "6468"
	},
	{
		"lon": "8.6042549",
		"lat": "46.8434438",
		"number": "",
		"street": "Brüsti",
		"city": "Attinghausen",
		"district": "",
		"postcode": "6468"
	},
	{
		"lon": "8.6033594",
		"lat": "46.8438668",
		"number": "",
		"street": "Brüsti",
		"city": "Attinghausen",
		"district": "",
		"postcode": "6468"
	},
	{
		"lon": "8.6053157",
		"lat": "46.843388",
		"number": "",
		"street": "Brüsti",
		"city": "Attinghausen",
		"district": "",
		"postcode": "6468"
	},
	{
		"lon": "8.6036864",
		"lat": "46.8407957",
		"number": "",
		"street": "Waldnacht",
		"city": "Attinghausen",
		"district": "",
		"postcode": "6468"
	},
	{
		"lon": "8.6037306",
		"lat": "46.8434492",
		"number": "",
		"street": "Brüsti",
		"city": "Attinghausen",
		"district": "",
		"postcode": "6468"
	},
	{
		"lon": "8.6046416",
		"lat": "46.8440064",
		"number": "",
		"street": "Brüsti",
		"city": "Attinghausen",
		"district": "",
		"postcode": "6468"
	},
	{
		"lon": "8.6011992",
		"lat": "46.8464437",
		"number": "",
		"street": "Rämseli",
		"city": "Attinghausen",
		"district": "",
		"postcode": "6468"
	},
	{
		"lon": "8.6021394",
		"lat": "46.8438342",
		"number": "",
		"street": "Brüsti",
		"city": "Attinghausen",
		"district": "",
		"postcode": "6468"
	},
	{
		"lon": "8.5957805",
		"lat": "46.8462829",
		"number": "",
		"street": "Kulm",
		"city": "Attinghausen",
		"district": "",
		"postcode": "6468"
	},
	{
		"lon": "8.6021707",
		"lat": "46.8434651",
		"number": "",
		"street": "Brüsti",
		"city": "Attinghausen",
		"district": "",
		"postcode": "6468"
	},
	{
		"lon": "8.6226738",
		"lat": "46.874977",
		"number": "",
		"street": "Allmendstrasse",
		"city": "Attinghausen",
		"district": "",
		"postcode": "6468"
	},
	{
		"lon": "8.6249447",
		"lat": "46.8714342",
		"number": "",
		"street": "Schwändi",
		"city": "Attinghausen",
		"district": "",
		"postcode": "6468"
	},
	{
		"lon": "8.6236221",
		"lat": "46.8703504",
		"number": "",
		"street": "Schwändi",
		"city": "Attinghausen",
		"district": "",
		"postcode": "6468"
	},
	{
		"lon": "8.6236026",
		"lat": "46.8712502",
		"number": "",
		"street": "Schwändi",
		"city": "Attinghausen",
		"district": "",
		"postcode": "6468"
	},
	{
		"lon": "8.4634849",
		"lat": "46.6089389",
		"number": "",
		"street": "Sunnig Berg",
		"city": "Realp",
		"district": "",
		"postcode": "6491"
	},
	{
		"lon": "8.5015111",
		"lat": "46.5983068",
		"number": "",
		"street": "Hausmatt",
		"city": "Realp",
		"district": "",
		"postcode": "6491"
	},
	{
		"lon": "8.5028204",
		"lat": "46.5992409",
		"number": "",
		"street": "Furkastrasse",
		"city": "Realp",
		"district": "",
		"postcode": "6491"
	},
	{
		"lon": "8.50267",
		"lat": "46.5988357",
		"number": "",
		"street": "Unterdorf",
		"city": "Realp",
		"district": "",
		"postcode": "6491"
	},
	{
		"lon": "8.5001614",
		"lat": "46.5986973",
		"number": "",
		"street": "Hegg",
		"city": "Realp",
		"district": "",
		"postcode": "6491"
	},
	{
		"lon": "8.503315",
		"lat": "46.5997744",
		"number": "",
		"street": "Furkastrasse",
		"city": "Realp",
		"district": "",
		"postcode": "6491"
	},
	{
		"lon": "8.5023531",
		"lat": "46.5986498",
		"number": "",
		"street": "Furkastrasse",
		"city": "Realp",
		"district": "",
		"postcode": "6491"
	},
	{
		"lon": "8.5011716",
		"lat": "46.598301",
		"number": "",
		"street": "Hausmatt",
		"city": "Realp",
		"district": "",
		"postcode": "6491"
	},
	{
		"lon": "8.502442",
		"lat": "46.5991675",
		"number": "",
		"street": "Furkastrasse",
		"city": "Realp",
		"district": "",
		"postcode": "6491"
	},
	{
		"lon": "8.4991619",
		"lat": "46.5987033",
		"number": "",
		"street": "Hegg",
		"city": "Realp",
		"district": "",
		"postcode": "6491"
	},
	{
		"lon": "8.5024094",
		"lat": "46.5988562",
		"number": "",
		"street": "Furkastrasse",
		"city": "Realp",
		"district": "",
		"postcode": "6491"
	},
	{
		"lon": "8.5037856",
		"lat": "46.5978266",
		"number": "",
		"street": "Bodenbüel",
		"city": "Realp",
		"district": "",
		"postcode": "6491"
	},
	{
		"lon": "8.5005705",
		"lat": "46.5989274",
		"number": "",
		"street": "Hegg",
		"city": "Realp",
		"district": "",
		"postcode": "6491"
	},
	{
		"lon": "8.5023935",
		"lat": "46.5987124",
		"number": "",
		"street": "Furkastrasse",
		"city": "Realp",
		"district": "",
		"postcode": "6491"
	},
	{
		"lon": "8.5018804",
		"lat": "46.5985013",
		"number": "",
		"street": "Furkastrasse",
		"city": "Realp",
		"district": "",
		"postcode": "6491"
	},
	{
		"lon": "8.502946",
		"lat": "46.5989321",
		"number": "",
		"street": "Bahnhofstrasse",
		"city": "Realp",
		"district": "",
		"postcode": "6491"
	},
	{
		"lon": "8.5985754",
		"lat": "46.706029",
		"number": "7",
		"street": "Sustenstrasse",
		"city": "Wassen",
		"district": "",
		"postcode": "6484"
	},
	{
		"lon": "8.5988402",
		"lat": "46.7064255",
		"number": "8",
		"street": "Sustenstrasse",
		"city": "Wassen",
		"district": "",
		"postcode": "6484"
	},
	{
		"lon": "8.5969978",
		"lat": "46.70619",
		"number": "13",
		"street": "Alter Sustenweg",
		"city": "Wassen",
		"district": "",
		"postcode": "6484"
	},
	{
		"lon": "8.5972398",
		"lat": "46.7075996",
		"number": "12",
		"street": "Alter Sustenweg",
		"city": "Wassen",
		"district": "",
		"postcode": "6484"
	},
	{
		"lon": "8.5987454",
		"lat": "46.7077241",
		"number": "8",
		"street": "Untere Moosmatt",
		"city": "Wassen",
		"district": "",
		"postcode": "6484"
	},
	{
		"lon": "8.5988461",
		"lat": "46.7071876",
		"number": "8",
		"street": "Obere Moosmatt",
		"city": "Wassen",
		"district": "",
		"postcode": "6484"
	},
	{
		"lon": "8.5985409",
		"lat": "46.7073032",
		"number": "10",
		"street": "Obere Moosmatt",
		"city": "Wassen",
		"district": "",
		"postcode": "6484"
	},
	{
		"lon": "8.5959843",
		"lat": "46.7078509",
		"number": "15",
		"street": "Alter Sustenweg",
		"city": "Wassen",
		"district": "",
		"postcode": "6484"
	},
	{
		"lon": "8.5968153",
		"lat": "46.7076452",
		"number": "14",
		"street": "Alter Sustenweg",
		"city": "Wassen",
		"district": "",
		"postcode": "6484"
	},
	{
		"lon": "8.598663",
		"lat": "46.7052068",
		"number": "68",
		"street": "Gotthardstrasse",
		"city": "Wassen",
		"district": "",
		"postcode": "6484"
	},
	{
		"lon": "8.5979601",
		"lat": "46.702216",
		"number": "77",
		"street": "Gotthardstrasse",
		"city": "Wassen",
		"district": "",
		"postcode": "6484"
	},
	{
		"lon": "8.5970353",
		"lat": "46.701653",
		"number": "80",
		"street": "Gotthardstrasse",
		"city": "Wassen",
		"district": "",
		"postcode": "6484"
	},
	{
		"lon": "8.595569",
		"lat": "46.6984545",
		"number": "82",
		"street": "Gotthardstrasse",
		"city": "Wassen",
		"district": "",
		"postcode": "6484"
	},
	{
		"lon": "8.5961652",
		"lat": "46.6979305",
		"number": "84",
		"street": "Gotthardstrasse",
		"city": "Wassen",
		"district": "",
		"postcode": "6484"
	},
	{
		"lon": "8.5951145",
		"lat": "46.6922688",
		"number": "23",
		"street": "Wattingen",
		"city": "Wassen",
		"district": "",
		"postcode": "6484"
	},
	{
		"lon": "8.595415",
		"lat": "46.6932724",
		"number": "15",
		"street": "Wattingen",
		"city": "Wassen",
		"district": "",
		"postcode": "6484"
	},
	{
		"lon": "8.5962693",
		"lat": "46.6945575",
		"number": "5",
		"street": "Wattingen",
		"city": "Wassen",
		"district": "",
		"postcode": "6484"
	},
	{
		"lon": "8.5960584",
		"lat": "46.6941211",
		"number": "9",
		"street": "Wattingen",
		"city": "Wassen",
		"district": "",
		"postcode": "6484"
	},
	{
		"lon": "8.5955751",
		"lat": "46.6934118",
		"number": "13",
		"street": "Wattingen",
		"city": "Wassen",
		"district": "",
		"postcode": "6484"
	},
	{
		"lon": "8.5957454",
		"lat": "46.6942972",
		"number": "2",
		"street": "Wattingen",
		"city": "Wassen",
		"district": "",
		"postcode": "6484"
	},
	{
		"lon": "8.5949153",
		"lat": "46.6953159",
		"number": "4",
		"street": "Vorder Neiselen",
		"city": "Wassen",
		"district": "",
		"postcode": "6484"
	},
	{
		"lon": "8.5937077",
		"lat": "46.6915037",
		"number": "4",
		"street": "Hinter Neiselen",
		"city": "Wassen",
		"district": "",
		"postcode": "6484"
	},
	{
		"lon": "8.594592",
		"lat": "46.6950262",
		"number": "6",
		"street": "Vorder Neiselen",
		"city": "Wassen",
		"district": "",
		"postcode": "6484"
	},
	{
		"lon": "8.5948242",
		"lat": "46.6951316",
		"number": "5",
		"street": "Vorder Neiselen",
		"city": "Wassen",
		"district": "",
		"postcode": "6484"
	},
	{
		"lon": "8.5927897",
		"lat": "46.6830107",
		"number": "104",
		"street": "Gotthardstrasse",
		"city": "Wassen",
		"district": "",
		"postcode": "6484"
	},
	{
		"lon": "8.5944961",
		"lat": "46.684079",
		"number": "101",
		"street": "Gotthardstrasse",
		"city": "Wassen",
		"district": "",
		"postcode": "6484"
	},
	{
		"lon": "8.5954896",
		"lat": "46.6825822",
		"number": "103",
		"street": "Gotthardstrasse",
		"city": "Wassen",
		"district": "",
		"postcode": "6484"
	},
	{
		"lon": "8.542121",
		"lat": "46.7312551",
		"number": "81",
		"street": "Sustenstrasse",
		"city": "Meien",
		"district": "",
		"postcode": "6485"
	},
	{
		"lon": "8.5442162",
		"lat": "46.7296337",
		"number": "6",
		"street": "Feld",
		"city": "Meien",
		"district": "",
		"postcode": "6485"
	},
	{
		"lon": "8.544739",
		"lat": "46.7294307",
		"number": "4",
		"street": "Feld",
		"city": "Meien",
		"district": "",
		"postcode": "6485"
	},
	{
		"lon": "8.5462473",
		"lat": "46.7281196",
		"number": "1",
		"street": "Feld",
		"city": "Meien",
		"district": "",
		"postcode": "6485"
	},
	{
		"lon": "8.528271",
		"lat": "46.7343807",
		"number": "91",
		"street": "Alter Sustenweg",
		"city": "Meien",
		"district": "",
		"postcode": "6485"
	},
	{
		"lon": "8.522263",
		"lat": "46.7361768",
		"number": "100",
		"street": "Sustenstrasse",
		"city": "Meien",
		"district": "",
		"postcode": "6485"
	},
	{
		"lon": "8.5220509",
		"lat": "46.7357135",
		"number": "101",
		"street": "Sustenstrasse",
		"city": "Meien",
		"district": "",
		"postcode": "6485"
	},
	{
		"lon": "8.5230955",
		"lat": "46.7349051",
		"number": "10",
		"street": "Färnigen",
		"city": "Meien",
		"district": "",
		"postcode": "6485"
	},
	{
		"lon": "8.5227272",
		"lat": "46.7345256",
		"number": "4",
		"street": "Färnigen",
		"city": "Meien",
		"district": "",
		"postcode": "6485"
	},
	{
		"lon": "8.5224578",
		"lat": "46.7347458",
		"number": "8",
		"street": "Färnigen",
		"city": "Meien",
		"district": "",
		"postcode": "6485"
	},
	{
		"lon": "8.5222844",
		"lat": "46.7346887",
		"number": "14",
		"street": "Färnigen",
		"city": "Meien",
		"district": "",
		"postcode": "6485"
	},
	{
		"lon": "8.5218537",
		"lat": "46.7347956",
		"number": "20",
		"street": "Färnigen",
		"city": "Meien",
		"district": "",
		"postcode": "6485"
	},
	{
		"lon": "8.5311417",
		"lat": "46.7345364",
		"number": "94",
		"street": "Sustenstrasse",
		"city": "Meien",
		"district": "",
		"postcode": "6485"
	},
	{
		"lon": "8.5317235",
		"lat": "46.734223",
		"number": "90",
		"street": "Sustenstrasse",
		"city": "Meien",
		"district": "",
		"postcode": "6485"
	},
	{
		"lon": "8.5189696",
		"lat": "46.7372555",
		"number": "106",
		"street": "Sustenstrasse",
		"city": "Meien",
		"district": "",
		"postcode": "6485"
	},
	{
		"lon": "8.4923652",
		"lat": "46.7403776",
		"number": "115",
		"street": "Alter Sustenweg",
		"city": "Meien",
		"district": "",
		"postcode": "6485"
	},
	{
		"lon": "8.607765",
		"lat": "46.7136111",
		"number": "26",
		"street": "Pfaffensprung",
		"city": "Wassen",
		"district": "",
		"postcode": "6484"
	},
	{
		"lon": "8.6081322",
		"lat": "46.7134619",
		"number": "33",
		"street": "Pfaffensprung",
		"city": "Wassen",
		"district": "",
		"postcode": "6484"
	},
	{
		"lon": "8.6081406",
		"lat": "46.7135024",
		"number": "31",
		"street": "Pfaffensprung",
		"city": "Wassen",
		"district": "",
		"postcode": "6484"
	},
	{
		"lon": "8.6071621",
		"lat": "46.7131897",
		"number": "32",
		"street": "Pfaffensprung",
		"city": "Wassen",
		"district": "",
		"postcode": "6484"
	},
	{
		"lon": "8.6080145",
		"lat": "46.7139764",
		"number": "18",
		"street": "Pfaffensprung",
		"city": "Wassen",
		"district": "",
		"postcode": "6484"
	},
	{
		"lon": "8.6081696",
		"lat": "46.7141469",
		"number": "16",
		"street": "Pfaffensprung",
		"city": "Wassen",
		"district": "",
		"postcode": "6484"
	},
	{
		"lon": "8.6085711",
		"lat": "46.7137484",
		"number": "29",
		"street": "Pfaffensprung",
		"city": "Wassen",
		"district": "",
		"postcode": "6484"
	},
	{
		"lon": "8.6111743",
		"lat": "46.7153296",
		"number": "1",
		"street": "Pfaffensprung",
		"city": "Wassen",
		"district": "",
		"postcode": "6484"
	},
	{
		"lon": "8.6121831",
		"lat": "46.7129861",
		"number": "8",
		"street": "Steinen",
		"city": "Wassen",
		"district": "",
		"postcode": "6484"
	},
	{
		"lon": "8.6119719",
		"lat": "46.7126988",
		"number": "2",
		"street": "Steinen",
		"city": "Wassen",
		"district": "",
		"postcode": "6484"
	},
	{
		"lon": "8.6124533",
		"lat": "46.714781",
		"number": "1",
		"street": "Steinen",
		"city": "Wassen",
		"district": "",
		"postcode": "6484"
	},
	{
		"lon": "8.6119453",
		"lat": "46.7129792",
		"number": "6",
		"street": "Steinen",
		"city": "Wassen",
		"district": "",
		"postcode": "6484"
	},
	{
		"lon": "8.6119487",
		"lat": "46.7127976",
		"number": "4",
		"street": "Steinen",
		"city": "Wassen",
		"district": "",
		"postcode": "6484"
	},
	{
		"lon": "8.6065157",
		"lat": "46.7125015",
		"number": "1",
		"street": "Leggistein",
		"city": "Wassen",
		"district": "",
		"postcode": "6484"
	},
	{
		"lon": "8.6074363",
		"lat": "46.7138531",
		"number": "24",
		"street": "Pfaffensprung",
		"city": "Wassen",
		"district": "",
		"postcode": "6484"
	},
	{
		"lon": "8.6076626",
		"lat": "46.714186",
		"number": "22",
		"street": "Pfaffensprung",
		"city": "Wassen",
		"district": "",
		"postcode": "6484"
	},
	{
		"lon": "8.6076823",
		"lat": "46.7133916",
		"number": "28",
		"street": "Pfaffensprung",
		"city": "Wassen",
		"district": "",
		"postcode": "6484"
	},
	{
		"lon": "8.5733469",
		"lat": "46.7182685",
		"number": "7",
		"street": "Husen",
		"city": "Meien",
		"district": "",
		"postcode": "6485"
	},
	{
		"lon": "8.5992806",
		"lat": "46.7052013",
		"number": "65",
		"street": "Gotthardstrasse",
		"city": "Wassen",
		"district": "",
		"postcode": "6484"
	},
	{
		"lon": "8.5994589",
		"lat": "46.7069044",
		"number": "28",
		"street": "Gotthardstrasse",
		"city": "Wassen",
		"district": "",
		"postcode": "6484"
	},
	{
		"lon": "8.5991103",
		"lat": "46.706121",
		"number": "52",
		"street": "Gotthardstrasse",
		"city": "Wassen",
		"district": "",
		"postcode": "6484"
	},
	{
		"lon": "8.5999889",
		"lat": "46.7072366",
		"number": "20",
		"street": "Gotthardstrasse",
		"city": "Wassen",
		"district": "",
		"postcode": "6484"
	},
	{
		"lon": "8.6002577",
		"lat": "46.7073975",
		"number": "18",
		"street": "Gotthardstrasse",
		"city": "Wassen",
		"district": "",
		"postcode": "6484"
	},
	{
		"lon": "8.600521",
		"lat": "46.7072764",
		"number": "17",
		"street": "Gotthardstrasse",
		"city": "Wassen",
		"district": "",
		"postcode": "6484"
	},
	{
		"lon": "8.5941836",
		"lat": "46.7093149",
		"number": "20",
		"street": "Alter Sustenweg",
		"city": "Wassen",
		"district": "",
		"postcode": "6484"
	},
	{
		"lon": "8.5982718",
		"lat": "46.7061258",
		"number": "1",
		"street": "Alter Sustenweg",
		"city": "Wassen",
		"district": "",
		"postcode": "6484"
	},
	{
		"lon": "8.5986767",
		"lat": "46.6983743",
		"number": "4",
		"street": "Meiggelen",
		"city": "Wassen",
		"district": "",
		"postcode": "6484"
	},
	{
		"lon": "8.5984327",
		"lat": "46.704708",
		"number": "74",
		"street": "Gotthardstrasse",
		"city": "Wassen",
		"district": "",
		"postcode": "6484"
	},
	{
		"lon": "8.5975137",
		"lat": "46.6988195",
		"number": "3",
		"street": "Meiggelen",
		"city": "Wassen",
		"district": "",
		"postcode": "6484"
	},
	{
		"lon": "8.5988565",
		"lat": "46.7059137",
		"number": "3",
		"street": "Sustenstrasse",
		"city": "Wassen",
		"district": "",
		"postcode": "6484"
	},
	{
		"lon": "8.5987636",
		"lat": "46.705591",
		"number": "62",
		"street": "Gotthardstrasse",
		"city": "Wassen",
		"district": "",
		"postcode": "6484"
	},
	{
		"lon": "8.597648",
		"lat": "46.7068325",
		"number": "15",
		"street": "Sustenstrasse",
		"city": "Wassen",
		"district": "",
		"postcode": "6484"
	},
	{
		"lon": "8.5977633",
		"lat": "46.7070717",
		"number": "17",
		"street": "Sustenstrasse",
		"city": "Wassen",
		"district": "",
		"postcode": "6484"
	},
	{
		"lon": "8.5986918",
		"lat": "46.7070318",
		"number": "7",
		"street": "Obere Moosmatt",
		"city": "Wassen",
		"district": "",
		"postcode": "6484"
	},
	{
		"lon": "8.5981793",
		"lat": "46.7071944",
		"number": "11",
		"street": "Obere Moosmatt",
		"city": "Wassen",
		"district": "",
		"postcode": "6484"
	},
	{
		"lon": "8.5980293",
		"lat": "46.7062295",
		"number": "4",
		"street": "Alter Sustenweg",
		"city": "Wassen",
		"district": "",
		"postcode": "6484"
	},
	{
		"lon": "8.5976814",
		"lat": "46.7062114",
		"number": "7",
		"street": "Alter Sustenweg",
		"city": "Wassen",
		"district": "",
		"postcode": "6484"
	},
	{
		"lon": "8.5987672",
		"lat": "46.7059841",
		"number": "5",
		"street": "Sustenstrasse",
		"city": "Wassen",
		"district": "",
		"postcode": "6484"
	},
	{
		"lon": "8.5982954",
		"lat": "46.7066489",
		"number": "12",
		"street": "Sustenstrasse",
		"city": "Wassen",
		"district": "",
		"postcode": "6484"
	},
	{
		"lon": "8.5979013",
		"lat": "46.7065429",
		"number": "11",
		"street": "Sustenstrasse",
		"city": "Wassen",
		"district": "",
		"postcode": "6484"
	},
	{
		"lon": "8.5694742",
		"lat": "46.6196657",
		"number": "10",
		"street": "Gotthardstrasse",
		"city": "Hospental",
		"district": "",
		"postcode": "6493"
	},
	{
		"lon": "8.5697884",
		"lat": "46.6197076",
		"number": "8",
		"street": "Gotthardstrasse",
		"city": "Hospental",
		"district": "",
		"postcode": "6493"
	},
	{
		"lon": "8.5705234",
		"lat": "46.6198892",
		"number": "5",
		"street": "Gotthardstrasse",
		"city": "Hospental",
		"district": "",
		"postcode": "6493"
	},
	{
		"lon": "8.5707096",
		"lat": "46.6200734",
		"number": "1",
		"street": "Gotthardstrasse",
		"city": "Hospental",
		"district": "",
		"postcode": "6493"
	},
	{
		"lon": "8.565764",
		"lat": "46.6179847",
		"number": "8",
		"street": "Furkastrasse",
		"city": "Hospental",
		"district": "",
		"postcode": "6493"
	},
	{
		"lon": "8.5676101",
		"lat": "46.6191895",
		"number": "3",
		"street": "Kirchplatz",
		"city": "Hospental",
		"district": "",
		"postcode": "6493"
	},
	{
		"lon": "8.5674962",
		"lat": "46.6193615",
		"number": "4",
		"street": "Kirchplatz",
		"city": "Hospental",
		"district": "",
		"postcode": "6493"
	},
	{
		"lon": "8.5674702",
		"lat": "46.618741",
		"number": "34",
		"street": "Gotthardstrasse",
		"city": "Hospental",
		"district": "",
		"postcode": "6493"
	},
	{
		"lon": "8.5675769",
		"lat": "46.6188479",
		"number": "30",
		"street": "Gotthardstrasse",
		"city": "Hospental",
		"district": "",
		"postcode": "6493"
	},
	{
		"lon": "8.5677555",
		"lat": "46.6186482",
		"number": "25",
		"street": "Gotthardstrasse",
		"city": "Hospental",
		"district": "",
		"postcode": "6493"
	},
	{
		"lon": "8.5665798",
		"lat": "46.6179941",
		"number": "8",
		"street": "St. Karl",
		"city": "Hospental",
		"district": "",
		"postcode": "6493"
	},
	{
		"lon": "8.5675103",
		"lat": "46.6187856",
		"number": "32",
		"street": "Gotthardstrasse",
		"city": "Hospental",
		"district": "",
		"postcode": "6493"
	},
	{
		"lon": "8.5669903",
		"lat": "46.6182689",
		"number": "4",
		"street": "St. Karl",
		"city": "Hospental",
		"district": "",
		"postcode": "6493"
	},
	{
		"lon": "8.5694439",
		"lat": "46.6194681",
		"number": "13",
		"street": "Gotthardstrasse",
		"city": "Hospental",
		"district": "",
		"postcode": "6493"
	},
	{
		"lon": "8.5986321",
		"lat": "46.7050051",
		"number": "72",
		"street": "Gotthardstrasse",
		"city": "Wassen",
		"district": "",
		"postcode": "6484"
	},
	{
		"lon": "8.5984886",
		"lat": "46.7050444",
		"number": "70",
		"street": "Gotthardstrasse",
		"city": "Wassen",
		"district": "",
		"postcode": "6484"
	},
	{
		"lon": "8.5975246",
		"lat": "46.7023912",
		"number": "78",
		"street": "Gotthardstrasse",
		"city": "Wassen",
		"district": "",
		"postcode": "6484"
	},
	{
		"lon": "8.5988205",
		"lat": "46.7054961",
		"number": "64",
		"street": "Gotthardstrasse",
		"city": "Wassen",
		"district": "",
		"postcode": "6484"
	},
	{
		"lon": "8.5988598",
		"lat": "46.7057825",
		"number": "60",
		"street": "Gotthardstrasse",
		"city": "Wassen",
		"district": "",
		"postcode": "6484"
	},
	{
		"lon": "8.5985391",
		"lat": "46.7054447",
		"number": "66",
		"street": "Gotthardstrasse",
		"city": "Wassen",
		"district": "",
		"postcode": "6484"
	},
	{
		"lon": "8.5949991",
		"lat": "46.6924287",
		"number": "21",
		"street": "Wattingen",
		"city": "Wassen",
		"district": "",
		"postcode": "6484"
	},
	{
		"lon": "8.5975119",
		"lat": "46.6966353",
		"number": "1",
		"street": "Wattingen",
		"city": "Wassen",
		"district": "",
		"postcode": "6484"
	},
	{
		"lon": "8.5961009",
		"lat": "46.6942884",
		"number": "7",
		"street": "Wattingen",
		"city": "Wassen",
		"district": "",
		"postcode": "6484"
	},
	{
		"lon": "8.594047",
		"lat": "46.6944999",
		"number": "8",
		"street": "Vorder Neiselen",
		"city": "Wassen",
		"district": "",
		"postcode": "6484"
	},
	{
		"lon": "8.5943674",
		"lat": "46.6942877",
		"number": "7",
		"street": "Vorder Neiselen",
		"city": "Wassen",
		"district": "",
		"postcode": "6484"
	},
	{
		"lon": "8.5936533",
		"lat": "46.691841",
		"number": "3",
		"street": "Hinter Neiselen",
		"city": "Wassen",
		"district": "",
		"postcode": "6484"
	},
	{
		"lon": "8.5930033",
		"lat": "46.6911965",
		"number": "5",
		"street": "Hinter Neiselen",
		"city": "Wassen",
		"district": "",
		"postcode": "6484"
	},
	{
		"lon": "8.5970574",
		"lat": "46.6937428",
		"number": "1",
		"street": "Wannisflue",
		"city": "Wassen",
		"district": "",
		"postcode": "6484"
	},
	{
		"lon": "8.5939982",
		"lat": "46.6940582",
		"number": "9",
		"street": "Vorder Neiselen",
		"city": "Wassen",
		"district": "",
		"postcode": "6484"
	},
	{
		"lon": "8.5950952",
		"lat": "46.6954453",
		"number": "3",
		"street": "Vorder Neiselen",
		"city": "Wassen",
		"district": "",
		"postcode": "6484"
	},
	{
		"lon": "8.597123",
		"lat": "46.6926127",
		"number": "4",
		"street": "Wannisflue",
		"city": "Wassen",
		"district": "",
		"postcode": "6484"
	},
	{
		"lon": "8.5758552",
		"lat": "46.9788384",
		"number": "19",
		"street": "Buechistrasse",
		"city": "Seelisberg",
		"district": "",
		"postcode": "6377"
	},
	{
		"lon": "8.5729663",
		"lat": "46.9801161",
		"number": "",
		"street": "Ziegelmätteli",
		"city": "Seelisberg",
		"district": "",
		"postcode": "6377"
	},
	{
		"lon": "8.5762082",
		"lat": "46.9826246",
		"number": "9",
		"street": "Volligen",
		"city": "Seelisberg",
		"district": "",
		"postcode": "6377"
	},
	{
		"lon": "8.5753761",
		"lat": "46.9782698",
		"number": "4",
		"street": "Obere Buechistrasse",
		"city": "Seelisberg",
		"district": "",
		"postcode": "6377"
	},
	{
		"lon": "8.5755383",
		"lat": "46.9786973",
		"number": "21a",
		"street": "Buechistrasse",
		"city": "Seelisberg",
		"district": "",
		"postcode": "6377"
	},
	{
		"lon": "8.5760933",
		"lat": "46.9793616",
		"number": "12",
		"street": "Untere Buechistrasse",
		"city": "Seelisberg",
		"district": "",
		"postcode": "6377"
	},
	{
		"lon": "8.5750365",
		"lat": "46.978789",
		"number": "25",
		"street": "Buechistrasse",
		"city": "Seelisberg",
		"district": "",
		"postcode": "6377"
	},
	{
		"lon": "8.575412",
		"lat": "46.9788716",
		"number": "23",
		"street": "Buechistrasse",
		"city": "Seelisberg",
		"district": "",
		"postcode": "6377"
	},
	{
		"lon": "8.5735961",
		"lat": "46.9784669",
		"number": "18",
		"street": "Buechistrasse",
		"city": "Seelisberg",
		"district": "",
		"postcode": "6377"
	},
	{
		"lon": "8.8999483",
		"lat": "46.8893722",
		"number": "31",
		"street": "Klausenstrasse",
		"city": "Urnerboden",
		"district": "",
		"postcode": "8751"
	},
	{
		"lon": "8.8994988",
		"lat": "46.8888785",
		"number": "35",
		"street": "Klausenstrasse",
		"city": "Urnerboden",
		"district": "",
		"postcode": "8751"
	},
	{
		"lon": "8.8996277",
		"lat": "46.889292",
		"number": "33",
		"street": "Klausenstrasse",
		"city": "Urnerboden",
		"district": "",
		"postcode": "8751"
	},
	{
		"lon": "8.89961",
		"lat": "46.8896621",
		"number": "2",
		"street": "Spitelrütti",
		"city": "Urnerboden",
		"district": "",
		"postcode": "8751"
	},
	{
		"lon": "8.8991613",
		"lat": "46.889418",
		"number": "1",
		"street": "Spitelrütti",
		"city": "Urnerboden",
		"district": "",
		"postcode": "8751"
	},
	{
		"lon": "8.8989066",
		"lat": "46.8893048",
		"number": "5",
		"street": "Spitelrütti",
		"city": "Urnerboden",
		"district": "",
		"postcode": "8751"
	},
	{
		"lon": "8.8997555",
		"lat": "46.886634",
		"number": "7",
		"street": "Hergersboden",
		"city": "Urnerboden",
		"district": "",
		"postcode": "8751"
	},
	{
		"lon": "8.9036047",
		"lat": "46.8884948",
		"number": "5",
		"street": "Unterport",
		"city": "Urnerboden",
		"district": "",
		"postcode": "8751"
	},
	{
		"lon": "8.9038446",
		"lat": "46.8886564",
		"number": "4",
		"street": "Unterport",
		"city": "Urnerboden",
		"district": "",
		"postcode": "8751"
	},
	{
		"lon": "8.9037466",
		"lat": "46.8887234",
		"number": "3",
		"street": "Unterport",
		"city": "Urnerboden",
		"district": "",
		"postcode": "8751"
	},
	{
		"lon": "8.898493",
		"lat": "46.8869905",
		"number": "5a",
		"street": "Hergersboden",
		"city": "Urnerboden",
		"district": "",
		"postcode": "8751"
	},
	{
		"lon": "8.8984355",
		"lat": "46.8869176",
		"number": "5",
		"street": "Hergersboden",
		"city": "Urnerboden",
		"district": "",
		"postcode": "8751"
	},
	{
		"lon": "8.8981861",
		"lat": "46.8868917",
		"number": "4",
		"street": "Hergersboden",
		"city": "Urnerboden",
		"district": "",
		"postcode": "8751"
	},
	{
		"lon": "8.8978288",
		"lat": "46.8872536",
		"number": "1",
		"street": "Hergersboden",
		"city": "Urnerboden",
		"district": "",
		"postcode": "8751"
	},
	{
		"lon": "8.8971506",
		"lat": "46.8890179",
		"number": "3",
		"street": "Rüteliegg",
		"city": "Urnerboden",
		"district": "",
		"postcode": "8751"
	},
	{
		"lon": "8.8971321",
		"lat": "46.8889082",
		"number": "2",
		"street": "Rüteliegg",
		"city": "Urnerboden",
		"district": "",
		"postcode": "8751"
	},
	{
		"lon": "8.8968116",
		"lat": "46.8883844",
		"number": "36",
		"street": "Klausenstrasse",
		"city": "Urnerboden",
		"district": "",
		"postcode": "8751"
	},
	{
		"lon": "8.8954401",
		"lat": "46.8874739",
		"number": "38",
		"street": "Klausenstrasse",
		"city": "Urnerboden",
		"district": "",
		"postcode": "8751"
	},
	{
		"lon": "8.8919471",
		"lat": "46.8851465",
		"number": "37",
		"street": "Klausenstrasse",
		"city": "Urnerboden",
		"district": "",
		"postcode": "8751"
	},
	{
		"lon": "8.8914202",
		"lat": "46.8847613",
		"number": "39",
		"street": "Klausenstrasse",
		"city": "Urnerboden",
		"district": "",
		"postcode": "8751"
	},
	{
		"lon": "8.7407327",
		"lat": "46.8888242",
		"number": "1",
		"street": "Gisleralp",
		"city": "Spiringen",
		"district": "",
		"postcode": "6464"
	},
	{
		"lon": "8.7335415",
		"lat": "46.8855234",
		"number": "37",
		"street": "Ratzistrasse",
		"city": "Spiringen",
		"district": "",
		"postcode": "6464"
	},
	{
		"lon": "8.7344695",
		"lat": "46.8853948",
		"number": "39",
		"street": "Ratzistrasse",
		"city": "Spiringen",
		"district": "",
		"postcode": "6464"
	},
	{
		"lon": "8.7391871",
		"lat": "46.8861719",
		"number": "1",
		"street": "Ratismatt",
		"city": "Spiringen",
		"district": "",
		"postcode": "6464"
	},
	{
		"lon": "8.7330981",
		"lat": "46.887832",
		"number": "1",
		"street": "Bodenbergstrasse",
		"city": "Spiringen",
		"district": "",
		"postcode": "6464"
	},
	{
		"lon": "8.7389648",
		"lat": "46.8862532",
		"number": "2",
		"street": "Ratismatt",
		"city": "Spiringen",
		"district": "",
		"postcode": "6464"
	},
	{
		"lon": "8.7278664",
		"lat": "46.890967",
		"number": "8",
		"street": "Bielstrasse",
		"city": "Spiringen",
		"district": "",
		"postcode": "6464"
	},
	{
		"lon": "8.7293718",
		"lat": "46.8898645",
		"number": "5",
		"street": "Bielstrasse",
		"city": "Spiringen",
		"district": "",
		"postcode": "6464"
	},
	{
		"lon": "8.7320555",
		"lat": "46.8900346",
		"number": "6",
		"street": "Bielstrasse",
		"city": "Spiringen",
		"district": "",
		"postcode": "6464"
	},
	{
		"lon": "8.7295278",
		"lat": "46.8886561",
		"number": "2",
		"street": "Bodenbergstrasse",
		"city": "Spiringen",
		"district": "",
		"postcode": "6464"
	},
	{
		"lon": "8.7322843",
		"lat": "46.88545",
		"number": "33",
		"street": "Ratzistrasse",
		"city": "Spiringen",
		"district": "",
		"postcode": "6464"
	},
	{
		"lon": "8.8853485",
		"lat": "46.8805046",
		"number": "45",
		"street": "Klausenstrasse",
		"city": "Urnerboden",
		"district": "",
		"postcode": "8751"
	},
	{
		"lon": "8.8848146",
		"lat": "46.8789796",
		"number": "49",
		"street": "Klausenstrasse",
		"city": "Urnerboden",
		"district": "",
		"postcode": "8751"
	},
	{
		"lon": "8.8888511",
		"lat": "46.8814607",
		"number": "4",
		"street": "Oberst Wang",
		"city": "Urnerboden",
		"district": "",
		"postcode": "8751"
	},
	{
		"lon": "8.7613514",
		"lat": "46.8817364",
		"number": "1",
		"street": "Riedmatt",
		"city": "Spiringen",
		"district": "",
		"postcode": "6464"
	},
	{
		"lon": "8.7589547",
		"lat": "46.8823296",
		"number": "2",
		"street": "Riedmatt",
		"city": "Spiringen",
		"district": "",
		"postcode": "6464"
	},
	{
		"lon": "8.7610734",
		"lat": "46.8796654",
		"number": "19",
		"street": "Mettenerstrasse",
		"city": "Spiringen",
		"district": "",
		"postcode": "6464"
	},
	{
		"lon": "8.7612497",
		"lat": "46.8790325",
		"number": "18",
		"street": "Mettenerstrasse",
		"city": "Spiringen",
		"district": "",
		"postcode": "6464"
	},
	{
		"lon": "8.7608442",
		"lat": "46.8786785",
		"number": "16",
		"street": "Mettenerstrasse",
		"city": "Spiringen",
		"district": "",
		"postcode": "6464"
	},
	{
		"lon": "8.7575638",
		"lat": "46.8798065",
		"number": "2",
		"street": "Tristelstrasse",
		"city": "Spiringen",
		"district": "",
		"postcode": "6464"
	},
	{
		"lon": "8.7554891",
		"lat": "46.8810224",
		"number": "4",
		"street": "Tristelstrasse",
		"city": "Spiringen",
		"district": "",
		"postcode": "6464"
	},
	{
		"lon": "8.4996601",
		"lat": "46.6489288",
		"number": "",
		"street": "Göscheneralpstrasse",
		"city": "Göschenen",
		"district": "",
		"postcode": "6487"
	},
	{
		"lon": "8.621414",
		"lat": "46.9506744",
		"number": "2",
		"street": "Axenstrasse",
		"city": "Sisikon",
		"district": "",
		"postcode": "6452"
	},
	{
		"lon": "8.625279",
		"lat": "46.9507874",
		"number": "1",
		"street": "Obere Bitzimatt",
		"city": "Sisikon",
		"district": "",
		"postcode": "6452"
	},
	{
		"lon": "8.6214004",
		"lat": "46.9512503",
		"number": "1",
		"street": "Rampe",
		"city": "Sisikon",
		"district": "",
		"postcode": "6452"
	},
	{
		"lon": "8.6214217",
		"lat": "46.9510252",
		"number": "3",
		"street": "Rampe",
		"city": "Sisikon",
		"district": "",
		"postcode": "6452"
	},
	{
		"lon": "8.6219499",
		"lat": "46.9505519",
		"number": "2",
		"street": "Riemenstaldenstrasse",
		"city": "Sisikon",
		"district": "",
		"postcode": "6452"
	},
	{
		"lon": "8.6238298",
		"lat": "46.9506045",
		"number": "4",
		"street": "Untere Bitzimatt",
		"city": "Sisikon",
		"district": "",
		"postcode": "6452"
	},
	{
		"lon": "8.6219396",
		"lat": "46.9508953",
		"number": "1",
		"street": "Riemenstaldenstrasse",
		"city": "Sisikon",
		"district": "",
		"postcode": "6452"
	},
	{
		"lon": "8.7453191",
		"lat": "46.884385",
		"number": "10",
		"street": "Tristelstrasse",
		"city": "Spiringen",
		"district": "",
		"postcode": "6464"
	},
	{
		"lon": "8.7472716",
		"lat": "46.883983",
		"number": "3",
		"street": "Tristel",
		"city": "Spiringen",
		"district": "",
		"postcode": "6464"
	},
	{
		"lon": "8.7455699",
		"lat": "46.8839123",
		"number": "7",
		"street": "Tristelstrasse",
		"city": "Spiringen",
		"district": "",
		"postcode": "6464"
	},
	{
		"lon": "8.745834",
		"lat": "46.8843501",
		"number": "8",
		"street": "Tristelstrasse",
		"city": "Spiringen",
		"district": "",
		"postcode": "6464"
	},
	{
		"lon": "8.7443859",
		"lat": "46.8794206",
		"number": "8",
		"street": "Fadentalstrasse",
		"city": "Spiringen",
		"district": "",
		"postcode": "6464"
	},
	{
		"lon": "8.7436301",
		"lat": "46.8797946",
		"number": "10",
		"street": "Fadentalstrasse",
		"city": "Spiringen",
		"district": "",
		"postcode": "6464"
	},
	{
		"lon": "8.7432119",
		"lat": "46.8796259",
		"number": "11",
		"street": "Fadentalstrasse",
		"city": "Spiringen",
		"district": "",
		"postcode": "6464"
	},
	{
		"lon": "8.7330313",
		"lat": "46.8851237",
		"number": "41",
		"street": "Ratzistrasse",
		"city": "Spiringen",
		"district": "",
		"postcode": "6464"
	},
	{
		"lon": "8.733327",
		"lat": "46.8818291",
		"number": "28",
		"street": "Ratzistrasse",
		"city": "Spiringen",
		"district": "",
		"postcode": "6464"
	},
	{
		"lon": "8.7344975",
		"lat": "46.8791034",
		"number": "19",
		"street": "Ratzistrasse",
		"city": "Spiringen",
		"district": "",
		"postcode": "6464"
	},
	{
		"lon": "8.7377454",
		"lat": "46.8802673",
		"number": "21",
		"street": "Ratzistrasse",
		"city": "Spiringen",
		"district": "",
		"postcode": "6464"
	},
	{
		"lon": "8.6547741",
		"lat": "46.8683187",
		"number": "11",
		"street": "Felderstrasse",
		"city": "Schattdorf",
		"district": "",
		"postcode": "6467"
	},
	{
		"lon": "8.6540408",
		"lat": "46.8680816",
		"number": "32",
		"street": "Dorfstrasse",
		"city": "Schattdorf",
		"district": "",
		"postcode": "6467"
	},
	{
		"lon": "8.6535623",
		"lat": "46.8688129",
		"number": "10",
		"street": "Allmendstrasse",
		"city": "Schattdorf",
		"district": "",
		"postcode": "6467"
	},
	{
		"lon": "8.6548067",
		"lat": "46.8675658",
		"number": "13",
		"street": "Mattenweg",
		"city": "Schattdorf",
		"district": "",
		"postcode": "6467"
	},
	{
		"lon": "8.6544401",
		"lat": "46.8676964",
		"number": "6",
		"street": "Felderstrasse",
		"city": "Schattdorf",
		"district": "",
		"postcode": "6467"
	},
	{
		"lon": "8.65387",
		"lat": "46.8690795",
		"number": "16",
		"street": "Allmendstrasse",
		"city": "Schattdorf",
		"district": "",
		"postcode": "6467"
	},
	{
		"lon": "8.654317",
		"lat": "46.868544",
		"number": "3",
		"street": "Grundmatte",
		"city": "Schattdorf",
		"district": "",
		"postcode": "6467"
	},
	{
		"lon": "8.6537134",
		"lat": "46.8685324",
		"number": "54",
		"street": "Dorfstrasse",
		"city": "Schattdorf",
		"district": "",
		"postcode": "6467"
	},
	{
		"lon": "8.6533042",
		"lat": "46.8684198",
		"number": "52",
		"street": "Dorfstrasse",
		"city": "Schattdorf",
		"district": "",
		"postcode": "6467"
	},
	{
		"lon": "8.6537496",
		"lat": "46.8681969",
		"number": "38",
		"street": "Dorfstrasse",
		"city": "Schattdorf",
		"district": "",
		"postcode": "6467"
	},
	{
		"lon": "8.6488733",
		"lat": "46.8668024",
		"number": "10b",
		"street": "Ringstrasse",
		"city": "Schattdorf",
		"district": "",
		"postcode": "6467"
	},
	{
		"lon": "8.650251",
		"lat": "46.8668148",
		"number": "30",
		"street": "Gotthardstrasse",
		"city": "Schattdorf",
		"district": "",
		"postcode": "6467"
	},
	{
		"lon": "8.6500755",
		"lat": "46.8667183",
		"number": "9",
		"street": "Obere Ringstrasse",
		"city": "Schattdorf",
		"district": "",
		"postcode": "6467"
	},
	{
		"lon": "8.6485937",
		"lat": "46.8672012",
		"number": "24",
		"street": "Ringstrasse",
		"city": "Schattdorf",
		"district": "",
		"postcode": "6467"
	},
	{
		"lon": "8.6501394",
		"lat": "46.8671039",
		"number": "26",
		"street": "Gotthardstrasse",
		"city": "Schattdorf",
		"district": "",
		"postcode": "6467"
	},
	{
		"lon": "8.6484335",
		"lat": "46.8670769",
		"number": "18",
		"street": "Ringstrasse",
		"city": "Schattdorf",
		"district": "",
		"postcode": "6467"
	},
	{
		"lon": "8.6497257",
		"lat": "46.8656238",
		"number": "1",
		"street": "Baumgärtli",
		"city": "Schattdorf",
		"district": "",
		"postcode": "6467"
	},
	{
		"lon": "8.6491312",
		"lat": "46.8666017",
		"number": "6a",
		"street": "Ringstrasse",
		"city": "Schattdorf",
		"district": "",
		"postcode": "6467"
	},
	{
		"lon": "8.6491649",
		"lat": "46.8669342",
		"number": "12a",
		"street": "Ringstrasse",
		"city": "Schattdorf",
		"district": "",
		"postcode": "6467"
	},
	{
		"lon": "8.6261067",
		"lat": "46.9454441",
		"number": "",
		"street": "Mänzigried",
		"city": "Sisikon",
		"district": "",
		"postcode": "6452"
	},
	{
		"lon": "8.6224653",
		"lat": "46.9494941",
		"number": "6",
		"street": "Obere Dorfstrasse",
		"city": "Sisikon",
		"district": "",
		"postcode": "6452"
	},
	{
		"lon": "8.6223841",
		"lat": "46.9493869",
		"number": "4",
		"street": "Obere Dorfstrasse",
		"city": "Sisikon",
		"district": "",
		"postcode": "6452"
	},
	{
		"lon": "8.6223162",
		"lat": "46.9492887",
		"number": "2",
		"street": "Obere Dorfstrasse",
		"city": "Sisikon",
		"district": "",
		"postcode": "6452"
	},
	{
		"lon": "8.6213867",
		"lat": "46.9494332",
		"number": "2",
		"street": "Kirchenweg",
		"city": "Sisikon",
		"district": "",
		"postcode": "6452"
	},
	{
		"lon": "8.6231644",
		"lat": "46.9496218",
		"number": "",
		"street": "Gütsch",
		"city": "Sisikon",
		"district": "",
		"postcode": "6452"
	},
	{
		"lon": "8.6212647",
		"lat": "46.9497441",
		"number": "4",
		"street": "Kirchenweg",
		"city": "Sisikon",
		"district": "",
		"postcode": "6452"
	},
	{
		"lon": "8.621955",
		"lat": "46.9495893",
		"number": "10",
		"street": "Axenstrasse",
		"city": "Sisikon",
		"district": "",
		"postcode": "6452"
	},
	{
		"lon": "8.6213829",
		"lat": "46.9487483",
		"number": "2",
		"street": "Untere Dorfstrasse",
		"city": "Sisikon",
		"district": "",
		"postcode": "6452"
	},
	{
		"lon": "8.6233062",
		"lat": "46.9482892",
		"number": "",
		"street": "Tal",
		"city": "Sisikon",
		"district": "",
		"postcode": "6452"
	},
	{
		"lon": "8.621442",
		"lat": "46.9477683",
		"number": "1",
		"street": "Edenmatte",
		"city": "Sisikon",
		"district": "",
		"postcode": "6452"
	},
	{
		"lon": "8.6204059",
		"lat": "46.9487357",
		"number": "1",
		"street": "Dammstrasse",
		"city": "Sisikon",
		"district": "",
		"postcode": "6452"
	},
	{
		"lon": "8.6207907",
		"lat": "46.9492144",
		"number": "8",
		"street": "Bahnhofstrasse",
		"city": "Sisikon",
		"district": "",
		"postcode": "6452"
	},
	{
		"lon": "8.6194371",
		"lat": "46.948778",
		"number": "4",
		"street": "Seeblick",
		"city": "Sisikon",
		"district": "",
		"postcode": "6452"
	},
	{
		"lon": "8.6194906",
		"lat": "46.9486446",
		"number": "2",
		"street": "Seeblick",
		"city": "Sisikon",
		"district": "",
		"postcode": "6452"
	},
	{
		"lon": "8.6193853",
		"lat": "46.9489116",
		"number": "6",
		"street": "Seeblick",
		"city": "Sisikon",
		"district": "",
		"postcode": "6452"
	},
	{
		"lon": "8.6573736",
		"lat": "46.8714444",
		"number": "14",
		"street": "Steinmattstrasse",
		"city": "Schattdorf",
		"district": "",
		"postcode": "6467"
	},
	{
		"lon": "8.655104",
		"lat": "46.8714415",
		"number": "12",
		"street": "Steinmattstrasse",
		"city": "Schattdorf",
		"district": "",
		"postcode": "6467"
	},
	{
		"lon": "8.6611341",
		"lat": "46.8694641",
		"number": "25",
		"street": "Wyergasse",
		"city": "Schattdorf",
		"district": "",
		"postcode": "6467"
	},
	{
		"lon": "8.6587966",
		"lat": "46.869405",
		"number": "21",
		"street": "Wyergasse",
		"city": "Schattdorf",
		"district": "",
		"postcode": "6467"
	},
	{
		"lon": "8.6534738",
		"lat": "46.8695426",
		"number": "9",
		"street": "Allmendstrasse",
		"city": "Schattdorf",
		"district": "",
		"postcode": "6467"
	},
	{
		"lon": "8.6521484",
		"lat": "46.8695206",
		"number": "2",
		"street": "Steinmattstrasse",
		"city": "Schattdorf",
		"district": "",
		"postcode": "6467"
	},
	{
		"lon": "8.6522483",
		"lat": "46.8692947",
		"number": "64",
		"street": "Dorfstrasse",
		"city": "Schattdorf",
		"district": "",
		"postcode": "6467"
	},
	{
		"lon": "8.6534508",
		"lat": "46.8696868",
		"number": "5",
		"street": "Allmendstrasse",
		"city": "Schattdorf",
		"district": "",
		"postcode": "6467"
	},
	{
		"lon": "8.6539039",
		"lat": "46.8699968",
		"number": "22",
		"street": "Allmendstrasse",
		"city": "Schattdorf",
		"district": "",
		"postcode": "6467"
	},
	{
		"lon": "8.6540331",
		"lat": "46.8693297",
		"number": "18",
		"street": "Allmendstrasse",
		"city": "Schattdorf",
		"district": "",
		"postcode": "6467"
	},
	{
		"lon": "8.6523071",
		"lat": "46.8691621",
		"number": "62",
		"street": "Dorfstrasse",
		"city": "Schattdorf",
		"district": "",
		"postcode": "6467"
	},
	{
		"lon": "8.6532064",
		"lat": "46.8693205",
		"number": "7",
		"street": "Allmendstrasse",
		"city": "Schattdorf",
		"district": "",
		"postcode": "6467"
	},
	{
		"lon": "8.6530937",
		"lat": "46.8695556",
		"number": "3",
		"street": "Allmendstrasse",
		"city": "Schattdorf",
		"district": "",
		"postcode": "6467"
	},
	{
		"lon": "8.6512656",
		"lat": "46.86935",
		"number": "5",
		"street": "Gotthardstrasse",
		"city": "Schattdorf",
		"district": "",
		"postcode": "6467"
	},
	{
		"lon": "8.6590467",
		"lat": "46.867312",
		"number": "18",
		"street": "Wyergasse",
		"city": "Schattdorf",
		"district": "",
		"postcode": "6467"
	},
	{
		"lon": "8.6597588",
		"lat": "46.8679235",
		"number": "20",
		"street": "Wyergasse",
		"city": "Schattdorf",
		"district": "",
		"postcode": "6467"
	},
	{
		"lon": "8.6597302",
		"lat": "46.8682582",
		"number": "23a",
		"street": "Wyergasse",
		"city": "Schattdorf",
		"district": "",
		"postcode": "6467"
	},
	{
		"lon": "8.6602793",
		"lat": "46.8689961",
		"number": "23",
		"street": "Wyergasse",
		"city": "Schattdorf",
		"district": "",
		"postcode": "6467"
	},
	{
		"lon": "8.6588505",
		"lat": "46.867681",
		"number": "19",
		"street": "Wyergasse",
		"city": "Schattdorf",
		"district": "",
		"postcode": "6467"
	},
	{
		"lon": "8.6552905",
		"lat": "46.8680839",
		"number": "",
		"street": "Felderstrasse",
		"city": "Schattdorf",
		"district": "",
		"postcode": "6467"
	},
	{
		"lon": "8.6559289",
		"lat": "46.8680071",
		"number": "19a",
		"street": "Mattenweg",
		"city": "Schattdorf",
		"district": "",
		"postcode": "6467"
	},
	{
		"lon": "8.6558455",
		"lat": "46.8681049",
		"number": "19c",
		"street": "Mattenweg",
		"city": "Schattdorf",
		"district": "",
		"postcode": "6467"
	},
	{
		"lon": "8.6550806",
		"lat": "46.8684379",
		"number": "13",
		"street": "Felderstrasse",
		"city": "Schattdorf",
		"district": "",
		"postcode": "6467"
	},
	{
		"lon": "8.6550777",
		"lat": "46.8680935",
		"number": "12",
		"street": "Felderstrasse",
		"city": "Schattdorf",
		"district": "",
		"postcode": "6467"
	},
	{
		"lon": "8.6552956",
		"lat": "46.8682435",
		"number": "14",
		"street": "Felderstrasse",
		"city": "Schattdorf",
		"district": "",
		"postcode": "6467"
	},
	{
		"lon": "8.6526168",
		"lat": "46.8676605",
		"number": "6",
		"street": "Vordere Hofstatt",
		"city": "Schattdorf",
		"district": "",
		"postcode": "6467"
	},
	{
		"lon": "8.6526499",
		"lat": "46.867459",
		"number": "2",
		"street": "Vordere Hofstatt",
		"city": "Schattdorf",
		"district": "",
		"postcode": "6467"
	},
	{
		"lon": "8.653825",
		"lat": "46.8676374",
		"number": "1",
		"street": "Felderstrasse",
		"city": "Schattdorf",
		"district": "",
		"postcode": "6467"
	},
	{
		"lon": "8.6528728",
		"lat": "46.8684874",
		"number": "58",
		"street": "Dorfstrasse",
		"city": "Schattdorf",
		"district": "",
		"postcode": "6467"
	},
	{
		"lon": "8.6524919",
		"lat": "46.8684644",
		"number": "55",
		"street": "Dorfstrasse",
		"city": "Schattdorf",
		"district": "",
		"postcode": "6467"
	},
	{
		"lon": "8.6516512",
		"lat": "46.8689951",
		"number": "3",
		"street": "Grünenwaldstrasse",
		"city": "Schattdorf",
		"district": "",
		"postcode": "6467"
	},
	{
		"lon": "8.6531127",
		"lat": "46.8686558",
		"number": "2",
		"street": "Allmendstrasse",
		"city": "Schattdorf",
		"district": "",
		"postcode": "6467"
	},
	{
		"lon": "8.653843",
		"lat": "46.8678833",
		"number": "30",
		"street": "Dorfstrasse",
		"city": "Schattdorf",
		"district": "",
		"postcode": "6467"
	},
	{
		"lon": "8.6534465",
		"lat": "46.8689131",
		"number": "6",
		"street": "Allmendstrasse",
		"city": "Schattdorf",
		"district": "",
		"postcode": "6467"
	},
	{
		"lon": "8.6545054",
		"lat": "46.8681736",
		"number": "9",
		"street": "Felderstrasse",
		"city": "Schattdorf",
		"district": "",
		"postcode": "6467"
	},
	{
		"lon": "8.6520977",
		"lat": "46.8690174",
		"number": "63",
		"street": "Dorfstrasse",
		"city": "Schattdorf",
		"district": "",
		"postcode": "6467"
	},
	{
		"lon": "8.6538883",
		"lat": "46.8687285",
		"number": "56",
		"street": "Dorfstrasse",
		"city": "Schattdorf",
		"district": "",
		"postcode": "6467"
	},
	{
		"lon": "8.6548924",
		"lat": "46.8690417",
		"number": "10",
		"street": "Grundmatte",
		"city": "Schattdorf",
		"district": "",
		"postcode": "6467"
	},
	{
		"lon": "8.6547059",
		"lat": "46.8689177",
		"number": "9",
		"street": "Grundmatte",
		"city": "Schattdorf",
		"district": "",
		"postcode": "6467"
	},
	{
		"lon": "8.6520783",
		"lat": "46.8687387",
		"number": "61",
		"street": "Dorfstrasse",
		"city": "Schattdorf",
		"district": "",
		"postcode": "6467"
	},
	{
		"lon": "8.6524028",
		"lat": "46.8679035",
		"number": "10",
		"street": "Vordere Hofstatt",
		"city": "Schattdorf",
		"district": "",
		"postcode": "6467"
	},
	{
		"lon": "8.6518307",
		"lat": "46.8688133",
		"number": "65",
		"street": "Dorfstrasse",
		"city": "Schattdorf",
		"district": "",
		"postcode": "6467"
	},
	{
		"lon": "8.6522775",
		"lat": "46.8688445",
		"number": "59",
		"street": "Dorfstrasse",
		"city": "Schattdorf",
		"district": "",
		"postcode": "6467"
	},
	{
		"lon": "8.6531811",
		"lat": "46.8681962",
		"number": "42",
		"street": "Dorfstrasse",
		"city": "Schattdorf",
		"district": "",
		"postcode": "6467"
	},
	{
		"lon": "8.6537614",
		"lat": "46.8689188",
		"number": "14",
		"street": "Allmendstrasse",
		"city": "Schattdorf",
		"district": "",
		"postcode": "6467"
	},
	{
		"lon": "8.6549065",
		"lat": "46.8674286",
		"number": "12",
		"street": "Mattenweg",
		"city": "Schattdorf",
		"district": "",
		"postcode": "6467"
	},
	{
		"lon": "8.6545538",
		"lat": "46.8672427",
		"number": "10",
		"street": "Mattenweg",
		"city": "Schattdorf",
		"district": "",
		"postcode": "6467"
	},
	{
		"lon": "8.6544987",
		"lat": "46.8690369",
		"number": "11",
		"street": "Grundmatte",
		"city": "Schattdorf",
		"district": "",
		"postcode": "6467"
	},
	{
		"lon": "8.6547597",
		"lat": "46.8686148",
		"number": "6",
		"street": "Grundmatte",
		"city": "Schattdorf",
		"district": "",
		"postcode": "6467"
	},
	{
		"lon": "8.6547197",
		"lat": "46.8679434",
		"number": "10",
		"street": "Felderstrasse",
		"city": "Schattdorf",
		"district": "",
		"postcode": "6467"
	},
	{
		"lon": "8.6544122",
		"lat": "46.8674501",
		"number": "11",
		"street": "Mattenweg",
		"city": "Schattdorf",
		"district": "",
		"postcode": "6467"
	},
	{
		"lon": "8.6444979",
		"lat": "46.8623773",
		"number": "1",
		"street": "Oelerrütti",
		"city": "Schattdorf",
		"district": "",
		"postcode": "6467"
	},
	{
		"lon": "8.644228",
		"lat": "46.862623",
		"number": "2",
		"street": "Oelerrütti",
		"city": "Schattdorf",
		"district": "",
		"postcode": "6467"
	},
	{
		"lon": "8.6443952",
		"lat": "46.8630621",
		"number": "34",
		"street": "Rüttistrasse",
		"city": "Schattdorf",
		"district": "",
		"postcode": "6467"
	},
	{
		"lon": "8.6439443",
		"lat": "46.8628419",
		"number": "38",
		"street": "Rüttistrasse",
		"city": "Schattdorf",
		"district": "",
		"postcode": "6467"
	},
	{
		"lon": "8.6441703",
		"lat": "46.8629745",
		"number": "36",
		"street": "Rüttistrasse",
		"city": "Schattdorf",
		"district": "",
		"postcode": "6467"
	},
	{
		"lon": "8.6809705",
		"lat": "46.8599453",
		"number": "8",
		"street": "Studenbergli",
		"city": "Haldi b. Schattdorf",
		"district": "",
		"postcode": "6469"
	},
	{
		"lon": "8.6807935",
		"lat": "46.8602351",
		"number": "10",
		"street": "Studenbergli",
		"city": "Haldi b. Schattdorf",
		"district": "",
		"postcode": "6469"
	},
	{
		"lon": "8.6812092",
		"lat": "46.8600596",
		"number": "12",
		"street": "Studenbergli",
		"city": "Haldi b. Schattdorf",
		"district": "",
		"postcode": "6469"
	},
	{
		"lon": "8.6810945",
		"lat": "46.8602048",
		"number": "14",
		"street": "Studenbergli",
		"city": "Haldi b. Schattdorf",
		"district": "",
		"postcode": "6469"
	},
	{
		"lon": "8.6591281",
		"lat": "46.8606265",
		"number": "7",
		"street": "Bitzi",
		"city": "Schattdorf",
		"district": "",
		"postcode": "6467"
	},
	{
		"lon": "8.6598894",
		"lat": "46.860621",
		"number": "23",
		"street": "Trippstrasse",
		"city": "Schattdorf",
		"district": "",
		"postcode": "6467"
	},
	{
		"lon": "8.658329",
		"lat": "46.8607591",
		"number": "3",
		"street": "Bitzi",
		"city": "Schattdorf",
		"district": "",
		"postcode": "6467"
	},
	{
		"lon": "8.6583999",
		"lat": "46.8610229",
		"number": "8",
		"street": "Bitzi",
		"city": "Schattdorf",
		"district": "",
		"postcode": "6467"
	},
	{
		"lon": "8.6585664",
		"lat": "46.860857",
		"number": "12",
		"street": "Bitzi",
		"city": "Schattdorf",
		"district": "",
		"postcode": "6467"
	},
	{
		"lon": "8.6595686",
		"lat": "46.8606227",
		"number": "19",
		"street": "Trippstrasse",
		"city": "Schattdorf",
		"district": "",
		"postcode": "6467"
	},
	{
		"lon": "8.6588242",
		"lat": "46.8610918",
		"number": "10",
		"street": "Bitzi",
		"city": "Schattdorf",
		"district": "",
		"postcode": "6467"
	},
	{
		"lon": "8.6589187",
		"lat": "46.8608794",
		"number": "16",
		"street": "Bitzi",
		"city": "Schattdorf",
		"district": "",
		"postcode": "6467"
	},
	{
		"lon": "8.6591353",
		"lat": "46.8608299",
		"number": "9",
		"street": "Bitzi",
		"city": "Schattdorf",
		"district": "",
		"postcode": "6467"
	},
	{
		"lon": "8.6560008",
		"lat": "46.8598712",
		"number": "5",
		"street": "Bustistrasse",
		"city": "Schattdorf",
		"district": "",
		"postcode": "6467"
	},
	{
		"lon": "8.6568712",
		"lat": "46.8605748",
		"number": "4",
		"street": "Bustistrasse",
		"city": "Schattdorf",
		"district": "",
		"postcode": "6467"
	},
	{
		"lon": "8.6561795",
		"lat": "46.8601415",
		"number": "10",
		"street": "Bustistrasse",
		"city": "Schattdorf",
		"district": "",
		"postcode": "6467"
	},
	{
		"lon": "8.6572774",
		"lat": "46.8603547",
		"number": "5",
		"street": "Busti",
		"city": "Schattdorf",
		"district": "",
		"postcode": "6467"
	},
	{
		"lon": "8.6572013",
		"lat": "46.8601456",
		"number": "3",
		"street": "Busti",
		"city": "Schattdorf",
		"district": "",
		"postcode": "6467"
	},
	{
		"lon": "8.6577355",
		"lat": "46.8605289",
		"number": "12",
		"street": "Busti",
		"city": "Schattdorf",
		"district": "",
		"postcode": "6467"
	},
	{
		"lon": "8.6573994",
		"lat": "46.8606378",
		"number": "7",
		"street": "Busti",
		"city": "Schattdorf",
		"district": "",
		"postcode": "6467"
	},
	{
		"lon": "8.6562853",
		"lat": "46.8603943",
		"number": "16",
		"street": "Acherlistrasse",
		"city": "Schattdorf",
		"district": "",
		"postcode": "6467"
	},
	{
		"lon": "8.6575871",
		"lat": "46.8603997",
		"number": "10b",
		"street": "Busti",
		"city": "Schattdorf",
		"district": "",
		"postcode": "6467"
	},
	{
		"lon": "8.6570556",
		"lat": "46.8599173",
		"number": "1",
		"street": "Busti",
		"city": "Schattdorf",
		"district": "",
		"postcode": "6467"
	},
	{
		"lon": "8.6394933",
		"lat": "46.859912",
		"number": "22",
		"street": "Militärstrasse",
		"city": "Schattdorf",
		"district": "",
		"postcode": "6467"
	},
	{
		"lon": "8.6831154",
		"lat": "46.8585545",
		"number": "5",
		"street": "Sodberg",
		"city": "Haldi b. Schattdorf",
		"district": "",
		"postcode": "6469"
	},
	{
		"lon": "8.6818935",
		"lat": "46.8584598",
		"number": "2",
		"street": "Sodberg",
		"city": "Haldi b. Schattdorf",
		"district": "",
		"postcode": "6469"
	},
	{
		"lon": "8.6823137",
		"lat": "46.8584822",
		"number": "3",
		"street": "Sodberg",
		"city": "Haldi b. Schattdorf",
		"district": "",
		"postcode": "6469"
	},
	{
		"lon": "8.6790876",
		"lat": "46.8584902",
		"number": "3",
		"street": "Ribenen",
		"city": "Haldi b. Schattdorf",
		"district": "",
		"postcode": "6469"
	},
	{
		"lon": "8.6788141",
		"lat": "46.8585742",
		"number": "",
		"street": "Ribenen",
		"city": "Haldi b. Schattdorf",
		"district": "",
		"postcode": "6469"
	},
	{
		"lon": "8.6787561",
		"lat": "46.8583319",
		"number": "",
		"street": "Ribenen",
		"city": "Haldi b. Schattdorf",
		"district": "",
		"postcode": "6469"
	},
	{
		"lon": "8.6751609",
		"lat": "46.8588296",
		"number": "1",
		"street": "Pappental",
		"city": "Haldi b. Schattdorf",
		"district": "",
		"postcode": "6469"
	},
	{
		"lon": "8.6621849",
		"lat": "46.8591849",
		"number": "",
		"street": "Obertripp",
		"city": "Schattdorf",
		"district": "",
		"postcode": "6467"
	},
	{
		"lon": "8.6701622",
		"lat": "46.8564544",
		"number": "3",
		"street": "Teiftal",
		"city": "Schattdorf",
		"district": "",
		"postcode": "6467"
	},
	{
		"lon": "8.6686392",
		"lat": "46.8569566",
		"number": "2",
		"street": "Teiftal",
		"city": "Schattdorf",
		"district": "",
		"postcode": "6467"
	},
	{
		"lon": "8.6570859",
		"lat": "46.8569991",
		"number": "24",
		"street": "Eggelistrasse",
		"city": "Schattdorf",
		"district": "",
		"postcode": "6467"
	},
	{
		"lon": "8.6563488",
		"lat": "46.8570693",
		"number": "10",
		"street": "Rissliweg",
		"city": "Schattdorf",
		"district": "",
		"postcode": "6467"
	},
	{
		"lon": "8.6561134",
		"lat": "46.8568042",
		"number": "8",
		"street": "Rissliweg",
		"city": "Schattdorf",
		"district": "",
		"postcode": "6467"
	},
	{
		"lon": "8.6552417",
		"lat": "46.8571853",
		"number": "43",
		"street": "Acherlistrasse",
		"city": "Schattdorf",
		"district": "",
		"postcode": "6467"
	},
	{
		"lon": "8.656797",
		"lat": "46.8568163",
		"number": "22",
		"street": "Eggelistrasse",
		"city": "Schattdorf",
		"district": "",
		"postcode": "6467"
	},
	{
		"lon": "8.6561167",
		"lat": "46.8574094",
		"number": "24",
		"street": "Rissliweg",
		"city": "Schattdorf",
		"district": "",
		"postcode": "6467"
	},
	{
		"lon": "8.6568051",
		"lat": "46.8573831",
		"number": "12",
		"street": "Rissliweg",
		"city": "Schattdorf",
		"district": "",
		"postcode": "6467"
	},
	{
		"lon": "8.6559923",
		"lat": "46.8571869",
		"number": "22b",
		"street": "Rissliweg",
		"city": "Schattdorf",
		"district": "",
		"postcode": "6467"
	},
	{
		"lon": "8.6501621",
		"lat": "46.8545697",
		"number": "16",
		"street": "Breitacherlistrasse",
		"city": "Schattdorf",
		"district": "",
		"postcode": "6467"
	},
	{
		"lon": "8.6508715",
		"lat": "46.8545167",
		"number": "17",
		"street": "Breitacherlistrasse",
		"city": "Schattdorf",
		"district": "",
		"postcode": "6467"
	},
	{
		"lon": "8.6506916",
		"lat": "46.8543261",
		"number": "19",
		"street": "Breitacherlistrasse",
		"city": "Schattdorf",
		"district": "",
		"postcode": "6467"
	},
	{
		"lon": "8.6465229",
		"lat": "46.8550058",
		"number": "101",
		"street": "Gotthardstrasse",
		"city": "Schattdorf",
		"district": "",
		"postcode": "6467"
	},
	{
		"lon": "8.6458367",
		"lat": "46.8553999",
		"number": "9",
		"street": "Militärstrasse",
		"city": "Schattdorf",
		"district": "",
		"postcode": "6467"
	},
	{
		"lon": "8.6450498",
		"lat": "46.8553992",
		"number": "9a",
		"street": "Militärstrasse",
		"city": "Schattdorf",
		"district": "",
		"postcode": "6467"
	},
	{
		"lon": "8.6448024",
		"lat": "46.8536621",
		"number": "104",
		"street": "Gotthardstrasse",
		"city": "Schattdorf",
		"district": "",
		"postcode": "6467"
	},
	{
		"lon": "8.6419935",
		"lat": "46.8553436",
		"number": "6",
		"street": "Rossgiessenstrasse",
		"city": "Schattdorf",
		"district": "",
		"postcode": "6467"
	},
	{
		"lon": "8.6427723",
		"lat": "46.8538651",
		"number": "5b",
		"street": "Umfahrungsstrasse",
		"city": "Schattdorf",
		"district": "",
		"postcode": "6467"
	},
	{
		"lon": "8.6558878",
		"lat": "46.8680569",
		"number": "19b",
		"street": "Mattenweg",
		"city": "Schattdorf",
		"district": "",
		"postcode": "6467"
	},
	{
		"lon": "8.6555857",
		"lat": "46.8677999",
		"number": "16",
		"street": "Mattenweg",
		"city": "Schattdorf",
		"district": "",
		"postcode": "6467"
	},
	{
		"lon": "8.6555486",
		"lat": "46.86841",
		"number": "16",
		"street": "Felderstrasse",
		"city": "Schattdorf",
		"district": "",
		"postcode": "6467"
	},
	{
		"lon": "8.6551472",
		"lat": "46.8677646",
		"number": "15",
		"street": "Mattenweg",
		"city": "Schattdorf",
		"district": "",
		"postcode": "6467"
	},
	{
		"lon": "8.5693009",
		"lat": "46.6219886",
		"number": "1",
		"street": "Hofacher",
		"city": "Hospental",
		"district": "",
		"postcode": "6493"
	},
	{
		"lon": "8.6549191",
		"lat": "46.8597501",
		"number": "14",
		"street": "Geilenbielstrasse",
		"city": "Schattdorf",
		"district": "",
		"postcode": "6467"
	},
	{
		"lon": "8.6567054",
		"lat": "46.8604164",
		"number": "6",
		"street": "Bustistrasse",
		"city": "Schattdorf",
		"district": "",
		"postcode": "6467"
	},
	{
		"lon": "8.6566526",
		"lat": "46.860143",
		"number": "1",
		"street": "Bustistrasse",
		"city": "Schattdorf",
		"district": "",
		"postcode": "6467"
	},
	{
		"lon": "8.6558429",
		"lat": "46.860026",
		"number": "12",
		"street": "Acherlistrasse",
		"city": "Schattdorf",
		"district": "",
		"postcode": "6467"
	},
	{
		"lon": "8.6563042",
		"lat": "46.8596553",
		"number": "2",
		"street": "Geilenbielstrasse",
		"city": "Schattdorf",
		"district": "",
		"postcode": "6467"
	},
	{
		"lon": "8.6582977",
		"lat": "46.8612886",
		"number": "4",
		"street": "Bitzi",
		"city": "Schattdorf",
		"district": "",
		"postcode": "6467"
	},
	{
		"lon": "8.6581066",
		"lat": "46.8611169",
		"number": "2",
		"street": "Bitzi",
		"city": "Schattdorf",
		"district": "",
		"postcode": "6467"
	},
	{
		"lon": "8.6564562",
		"lat": "46.859916",
		"number": "3",
		"street": "Bustistrasse",
		"city": "Schattdorf",
		"district": "",
		"postcode": "6467"
	},
	{
		"lon": "8.6556562",
		"lat": "46.860162",
		"number": "10",
		"street": "Acherlistrasse",
		"city": "Schattdorf",
		"district": "",
		"postcode": "6467"
	},
	{
		"lon": "8.6581415",
		"lat": "46.8609121",
		"number": "1",
		"street": "Bitzi",
		"city": "Schattdorf",
		"district": "",
		"postcode": "6467"
	},
	{
		"lon": "8.6582564",
		"lat": "46.8606348",
		"number": "4",
		"street": "Trippstrasse",
		"city": "Schattdorf",
		"district": "",
		"postcode": "6467"
	},
	{
		"lon": "8.6552148",
		"lat": "46.8599474",
		"number": "8",
		"street": "Acherlistrasse",
		"city": "Schattdorf",
		"district": "",
		"postcode": "6467"
	},
	{
		"lon": "8.6559266",
		"lat": "46.860331",
		"number": "14b",
		"street": "Acherlistrasse",
		"city": "Schattdorf",
		"district": "",
		"postcode": "6467"
	},
	{
		"lon": "8.6558284",
		"lat": "46.8602676",
		"number": "14a",
		"street": "Acherlistrasse",
		"city": "Schattdorf",
		"district": "",
		"postcode": "6467"
	},
	{
		"lon": "8.6564997",
		"lat": "46.8602113",
		"number": "8",
		"street": "Bustistrasse",
		"city": "Schattdorf",
		"district": "",
		"postcode": "6467"
	},
	{
		"lon": "8.6538343",
		"lat": "46.8600712",
		"number": "33",
		"street": "Langgasse",
		"city": "Schattdorf",
		"district": "",
		"postcode": "6467"
	},
	{
		"lon": "8.6533736",
		"lat": "46.8600844",
		"number": "37",
		"street": "Langgasse",
		"city": "Schattdorf",
		"district": "",
		"postcode": "6467"
	},
	{
		"lon": "8.6535698",
		"lat": "46.8600858",
		"number": "35",
		"street": "Langgasse",
		"city": "Schattdorf",
		"district": "",
		"postcode": "6467"
	},
	{
		"lon": "8.6534",
		"lat": "46.8610417",
		"number": "5",
		"street": "Leitgässli",
		"city": "Schattdorf",
		"district": "",
		"postcode": "6467"
	},
	{
		"lon": "8.6531669",
		"lat": "46.8594366",
		"number": "43",
		"street": "Langgasse",
		"city": "Schattdorf",
		"district": "",
		"postcode": "6467"
	},
	{
		"lon": "8.6528469",
		"lat": "46.8594598",
		"number": "7",
		"street": "Achern",
		"city": "Schattdorf",
		"district": "",
		"postcode": "6467"
	},
	{
		"lon": "8.6526075",
		"lat": "46.8594228",
		"number": "5",
		"street": "Achern",
		"city": "Schattdorf",
		"district": "",
		"postcode": "6467"
	},
	{
		"lon": "8.6548211",
		"lat": "46.8612425",
		"number": "22",
		"street": "Langgasse",
		"city": "Schattdorf",
		"district": "",
		"postcode": "6467"
	},
	{
		"lon": "8.6534667",
		"lat": "46.8605102",
		"number": "36",
		"street": "Langgasse",
		"city": "Schattdorf",
		"district": "",
		"postcode": "6467"
	},
	{
		"lon": "8.6545552",
		"lat": "46.8598132",
		"number": "4",
		"street": "Acherlistrasse",
		"city": "Schattdorf",
		"district": "",
		"postcode": "6467"
	},
	{
		"lon": "8.6547254",
		"lat": "46.8610726",
		"number": "24",
		"street": "Langgasse",
		"city": "Schattdorf",
		"district": "",
		"postcode": "6467"
	},
	{
		"lon": "8.6530855",
		"lat": "46.861054",
		"number": "6",
		"street": "Leitgässli",
		"city": "Schattdorf",
		"district": "",
		"postcode": "6467"
	},
	{
		"lon": "8.6530415",
		"lat": "46.8608476",
		"number": "8",
		"street": "Leitgässli",
		"city": "Schattdorf",
		"district": "",
		"postcode": "6467"
	},
	{
		"lon": "8.6528262",
		"lat": "46.8598767",
		"number": "40",
		"street": "Langgasse",
		"city": "Schattdorf",
		"district": "",
		"postcode": "6467"
	},
	{
		"lon": "8.6485493",
		"lat": "46.861138",
		"number": "4",
		"street": "Weingarten",
		"city": "Schattdorf",
		"district": "",
		"postcode": "6467"
	},
	{
		"lon": "8.650307",
		"lat": "46.8611464",
		"number": "11",
		"street": "Bärengand",
		"city": "Schattdorf",
		"district": "",
		"postcode": "6467"
	},
	{
		"lon": "8.6481409",
		"lat": "46.8598918",
		"number": "1",
		"street": "Landsgemeindestrasse",
		"city": "Schattdorf",
		"district": "",
		"postcode": "6467"
	},
	{
		"lon": "8.6480838",
		"lat": "46.8608551",
		"number": "2",
		"street": "Weingarten",
		"city": "Schattdorf",
		"district": "",
		"postcode": "6467"
	},
	{
		"lon": "8.6509739",
		"lat": "46.8610584",
		"number": "6",
		"street": "Bärengand",
		"city": "Schattdorf",
		"district": "",
		"postcode": "6467"
	},
	{
		"lon": "8.6484071",
		"lat": "46.8594842",
		"number": "6",
		"street": "Landsgemeindestrasse",
		"city": "Schattdorf",
		"district": "",
		"postcode": "6467"
	},
	{
		"lon": "8.6513925",
		"lat": "46.861009",
		"number": "5",
		"street": "Bärengand",
		"city": "Schattdorf",
		"district": "",
		"postcode": "6467"
	},
	{
		"lon": "8.6489806",
		"lat": "46.8606135",
		"number": "28",
		"street": "Bötzlingerstrasse",
		"city": "Schattdorf",
		"district": "",
		"postcode": "6467"
	},
	{
		"lon": "8.6511543",
		"lat": "46.8609126",
		"number": "8",
		"street": "Bärengand",
		"city": "Schattdorf",
		"district": "",
		"postcode": "6467"
	},
	{
		"lon": "8.6470211",
		"lat": "46.8598944",
		"number": "10b",
		"street": "Gandstrasse",
		"city": "Schattdorf",
		"district": "",
		"postcode": "6467"
	},
	{
		"lon": "8.6471642",
		"lat": "46.8610638",
		"number": "1a",
		"street": "Gandrütti",
		"city": "Schattdorf",
		"district": "",
		"postcode": "6467"
	},
	{
		"lon": "8.6475333",
		"lat": "46.8608699",
		"number": "84",
		"street": "Gotthardstrasse",
		"city": "Schattdorf",
		"district": "",
		"postcode": "6467"
	},
	{
		"lon": "8.6457742",
		"lat": "46.8613832",
		"number": "23a",
		"street": "Gandrütti",
		"city": "Schattdorf",
		"district": "",
		"postcode": "6467"
	},
	{
		"lon": "8.6472841",
		"lat": "46.8597029",
		"number": "90",
		"street": "Gotthardstrasse",
		"city": "Schattdorf",
		"district": "",
		"postcode": "6467"
	},
	{
		"lon": "8.6469341",
		"lat": "46.8598361",
		"number": "10a",
		"street": "Gandstrasse",
		"city": "Schattdorf",
		"district": "",
		"postcode": "6467"
	},
	{
		"lon": "8.6466987",
		"lat": "46.8610856",
		"number": "18",
		"street": "Gandrütti",
		"city": "Schattdorf",
		"district": "",
		"postcode": "6467"
	},
	{
		"lon": "8.6452402",
		"lat": "46.8603812",
		"number": "41",
		"street": "Gandrütti",
		"city": "Schattdorf",
		"district": "",
		"postcode": "6467"
	},
	{
		"lon": "8.6461665",
		"lat": "46.8607493",
		"number": "32",
		"street": "Gandrütti",
		"city": "Schattdorf",
		"district": "",
		"postcode": "6467"
	},
	{
		"lon": "8.6448397",
		"lat": "46.8606553",
		"number": "45",
		"street": "Gandrütti",
		"city": "Schattdorf",
		"district": "",
		"postcode": "6467"
	},
	{
		"lon": "8.6446265",
		"lat": "46.8605047",
		"number": "58",
		"street": "Breitrütti",
		"city": "Schattdorf",
		"district": "",
		"postcode": "6467"
	},
	{
		"lon": "8.6446323",
		"lat": "46.8607655",
		"number": "47",
		"street": "Gandrütti",
		"city": "Schattdorf",
		"district": "",
		"postcode": "6467"
	},
	{
		"lon": "8.6467469",
		"lat": "46.8597266",
		"number": "8a",
		"street": "Gandstrasse",
		"city": "Schattdorf",
		"district": "",
		"postcode": "6467"
	},
	{
		"lon": "8.6455446",
		"lat": "46.860504",
		"number": "40",
		"street": "Gandrütti",
		"city": "Schattdorf",
		"district": "",
		"postcode": "6467"
	},
	{
		"lon": "8.6455344",
		"lat": "46.8602008",
		"number": "39",
		"street": "Gandrütti",
		"city": "Schattdorf",
		"district": "",
		"postcode": "6467"
	},
	{
		"lon": "8.6457411",
		"lat": "46.8600467",
		"number": "39a",
		"street": "Gandrütti",
		"city": "Schattdorf",
		"district": "",
		"postcode": "6467"
	},
	{
		"lon": "8.6465552",
		"lat": "46.8602068",
		"number": "13",
		"street": "Gandstrasse",
		"city": "Schattdorf",
		"district": "",
		"postcode": "6467"
	},
	{
		"lon": "8.647063",
		"lat": "46.8594698",
		"number": "4",
		"street": "Gandstrasse",
		"city": "Schattdorf",
		"district": "",
		"postcode": "6467"
	},
	{
		"lon": "8.6478755",
		"lat": "46.8600742",
		"number": "87",
		"street": "Gotthardstrasse",
		"city": "Schattdorf",
		"district": "",
		"postcode": "6467"
	},
	{
		"lon": "8.646218",
		"lat": "46.8595343",
		"number": "7",
		"street": "Gandstrasse",
		"city": "Schattdorf",
		"district": "",
		"postcode": "6467"
	},
	{
		"lon": "8.6458419",
		"lat": "46.8603119",
		"number": "37",
		"street": "Gandrütti",
		"city": "Schattdorf",
		"district": "",
		"postcode": "6467"
	},
	{
		"lon": "8.6451964",
		"lat": "46.8607685",
		"number": "44",
		"street": "Gandrütti",
		"city": "Schattdorf",
		"district": "",
		"postcode": "6467"
	},
	{
		"lon": "8.645364",
		"lat": "46.8606408",
		"number": "42",
		"street": "Gandrütti",
		"city": "Schattdorf",
		"district": "",
		"postcode": "6467"
	},
	{
		"lon": "8.6471588",
		"lat": "46.8608907",
		"number": "3",
		"street": "Gandrütti",
		"city": "Schattdorf",
		"district": "",
		"postcode": "6467"
	},
	{
		"lon": "8.6479535",
		"lat": "46.8597229",
		"number": "2",
		"street": "Landsgemeindestrasse",
		"city": "Schattdorf",
		"district": "",
		"postcode": "6467"
	},
	{
		"lon": "8.6433947",
		"lat": "46.8603256",
		"number": "71",
		"street": "Rüttistrasse",
		"city": "Schattdorf",
		"district": "",
		"postcode": "6467"
	},
	{
		"lon": "8.6433079",
		"lat": "46.8613642",
		"number": "53",
		"street": "Rüttistrasse",
		"city": "Schattdorf",
		"district": "",
		"postcode": "6467"
	},
	{
		"lon": "8.6415885",
		"lat": "46.8613103",
		"number": "3",
		"street": "Rüttigasse",
		"city": "Schattdorf",
		"district": "",
		"postcode": "6467"
	},
	{
		"lon": "8.6566257",
		"lat": "46.8582128",
		"number": "8",
		"street": "Wickerigstrasse",
		"city": "Schattdorf",
		"district": "",
		"postcode": "6467"
	},
	{
		"lon": "8.6570931",
		"lat": "46.858149",
		"number": "17",
		"street": "Rissliweg",
		"city": "Schattdorf",
		"district": "",
		"postcode": "6467"
	},
	{
		"lon": "8.6572075",
		"lat": "46.8579064",
		"number": "16b",
		"street": "Rissliweg",
		"city": "Schattdorf",
		"district": "",
		"postcode": "6467"
	},
	{
		"lon": "8.656057",
		"lat": "46.8575904",
		"number": "25",
		"street": "Rissliweg",
		"city": "Schattdorf",
		"district": "",
		"postcode": "6467"
	},
	{
		"lon": "8.6559057",
		"lat": "46.857927",
		"number": "4",
		"street": "Wickerigstrasse",
		"city": "Schattdorf",
		"district": "",
		"postcode": "6467"
	},
	{
		"lon": "8.65619",
		"lat": "46.8581272",
		"number": "6",
		"street": "Wickerigstrasse",
		"city": "Schattdorf",
		"district": "",
		"postcode": "6467"
	},
	{
		"lon": "8.6566062",
		"lat": "46.8578266",
		"number": "28",
		"street": "Rissliweg",
		"city": "Schattdorf",
		"district": "",
		"postcode": "6467"
	},
	{
		"lon": "8.6570063",
		"lat": "46.8579333",
		"number": "15",
		"street": "Rissliweg",
		"city": "Schattdorf",
		"district": "",
		"postcode": "6467"
	},
	{
		"lon": "8.6571945",
		"lat": "46.8578939",
		"number": "16a",
		"street": "Rissliweg",
		"city": "Schattdorf",
		"district": "",
		"postcode": "6467"
	},
	{
		"lon": "8.6556307",
		"lat": "46.8580054",
		"number": "1",
		"street": "Wickerigstrasse",
		"city": "Schattdorf",
		"district": "",
		"postcode": "6467"
	},
	{
		"lon": "8.6520105",
		"lat": "46.858587",
		"number": "107",
		"street": "Achern",
		"city": "Schattdorf",
		"district": "",
		"postcode": "6467"
	},
	{
		"lon": "8.6513932",
		"lat": "46.8583517",
		"number": "103",
		"street": "Achern",
		"city": "Schattdorf",
		"district": "",
		"postcode": "6467"
	},
	{
		"lon": "8.6518499",
		"lat": "46.8583086",
		"number": "106",
		"street": "Achern",
		"city": "Schattdorf",
		"district": "",
		"postcode": "6467"
	},
	{
		"lon": "8.6515717",
		"lat": "46.8578917",
		"number": "110",
		"street": "Achern",
		"city": "Schattdorf",
		"district": "",
		"postcode": "6467"
	},
	{
		"lon": "8.651905",
		"lat": "46.8580713",
		"number": "108",
		"street": "Achern",
		"city": "Schattdorf",
		"district": "",
		"postcode": "6467"
	},
	{
		"lon": "8.6521671",
		"lat": "46.8576934",
		"number": "7",
		"street": "Schipfistrasse",
		"city": "Schattdorf",
		"district": "",
		"postcode": "6467"
	},
	{
		"lon": "8.6526932",
		"lat": "46.8576329",
		"number": "4",
		"street": "Schipfistrasse",
		"city": "Schattdorf",
		"district": "",
		"postcode": "6467"
	},
	{
		"lon": "8.6529364",
		"lat": "46.8578192",
		"number": "6",
		"street": "Schipfistrasse",
		"city": "Schattdorf",
		"district": "",
		"postcode": "6467"
	},
	{
		"lon": "8.6530513",
		"lat": "46.8576744",
		"number": "8",
		"street": "Schipfistrasse",
		"city": "Schattdorf",
		"district": "",
		"postcode": "6467"
	},
	{
		"lon": "8.6483753",
		"lat": "46.8592326",
		"number": "32",
		"street": "Bötzlingerstrasse",
		"city": "Schattdorf",
		"district": "",
		"postcode": "6467"
	},
	{
		"lon": "8.6480942",
		"lat": "46.8583989",
		"number": "40",
		"street": "Bötzlingerstrasse",
		"city": "Schattdorf",
		"district": "",
		"postcode": "6467"
	},
	{
		"lon": "8.6511169",
		"lat": "46.8582251",
		"number": "101b",
		"street": "Achern",
		"city": "Schattdorf",
		"district": "",
		"postcode": "6467"
	},
	{
		"lon": "8.6510844",
		"lat": "46.8581891",
		"number": "101a",
		"street": "Achern",
		"city": "Schattdorf",
		"district": "",
		"postcode": "6467"
	},
	{
		"lon": "8.6508806",
		"lat": "46.8575213",
		"number": "114b",
		"street": "Achern",
		"city": "Schattdorf",
		"district": "",
		"postcode": "6467"
	},
	{
		"lon": "8.650978",
		"lat": "46.8575943",
		"number": "114a",
		"street": "Achern",
		"city": "Schattdorf",
		"district": "",
		"postcode": "6467"
	},
	{
		"lon": "8.6508207",
		"lat": "46.8578767",
		"number": "100a",
		"street": "Achern",
		"city": "Schattdorf",
		"district": "",
		"postcode": "6467"
	},
	{
		"lon": "8.6509096",
		"lat": "46.8579447",
		"number": "100b",
		"street": "Achern",
		"city": "Schattdorf",
		"district": "",
		"postcode": "6467"
	},
	{
		"lon": "8.6511798",
		"lat": "46.8580445",
		"number": "102a",
		"street": "Achern",
		"city": "Schattdorf",
		"district": "",
		"postcode": "6467"
	},
	{
		"lon": "8.646522",
		"lat": "46.8590542",
		"number": "4",
		"street": "Spitzrütti",
		"city": "Schattdorf",
		"district": "",
		"postcode": "6467"
	},
	{
		"lon": "8.6464245",
		"lat": "46.8593881",
		"number": "5",
		"street": "Gandstrasse",
		"city": "Schattdorf",
		"district": "",
		"postcode": "6467"
	},
	{
		"lon": "8.6464986",
		"lat": "46.8580109",
		"number": "92",
		"street": "Gotthardstrasse",
		"city": "Schattdorf",
		"district": "",
		"postcode": "6467"
	},
	{
		"lon": "8.6466628",
		"lat": "46.8583151",
		"number": "5",
		"street": "Gassrütti",
		"city": "Schattdorf",
		"district": "",
		"postcode": "6467"
	},
	{
		"lon": "8.6463617",
		"lat": "46.8588459",
		"number": "3",
		"street": "Spitzrütti",
		"city": "Schattdorf",
		"district": "",
		"postcode": "6467"
	},
	{
		"lon": "8.6466178",
		"lat": "46.858738",
		"number": "1",
		"street": "Spitzrütti",
		"city": "Schattdorf",
		"district": "",
		"postcode": "6467"
	},
	{
		"lon": "8.6468927",
		"lat": "46.8592123",
		"number": "1d",
		"street": "Gandstrasse",
		"city": "Schattdorf",
		"district": "",
		"postcode": "6467"
	},
	{
		"lon": "8.6469724",
		"lat": "46.8586716",
		"number": "1",
		"street": "Gassrütti",
		"city": "Schattdorf",
		"district": "",
		"postcode": "6467"
	},
	{
		"lon": "8.6463662",
		"lat": "46.8585431",
		"number": "2",
		"street": "Gassrütti",
		"city": "Schattdorf",
		"district": "",
		"postcode": "6467"
	},
	{
		"lon": "8.6457253",
		"lat": "46.8592066",
		"number": "9",
		"street": "Spitzrütti",
		"city": "Schattdorf",
		"district": "",
		"postcode": "6467"
	},
	{
		"lon": "8.6427468",
		"lat": "46.859148",
		"number": "7",
		"street": "Breitrütti",
		"city": "Schattdorf",
		"district": "",
		"postcode": "6467"
	},
	{
		"lon": "8.642978",
		"lat": "46.8589296",
		"number": "8",
		"street": "Breitrütti",
		"city": "Schattdorf",
		"district": "",
		"postcode": "6467"
	},
	{
		"lon": "8.6431462",
		"lat": "46.8588289",
		"number": "10",
		"street": "Breitrütti",
		"city": "Schattdorf",
		"district": "",
		"postcode": "6467"
	},
	{
		"lon": "8.64347",
		"lat": "46.8586456",
		"number": "12",
		"street": "Breitrütti",
		"city": "Schattdorf",
		"district": "",
		"postcode": "6467"
	},
	{
		"lon": "8.6430366",
		"lat": "46.8594528",
		"number": "67",
		"street": "Rüttistrasse",
		"city": "Schattdorf",
		"district": "",
		"postcode": "6467"
	},
	{
		"lon": "8.6405834",
		"lat": "46.8580012",
		"number": "32",
		"street": "Umfahrungsstrasse",
		"city": "Schattdorf",
		"district": "",
		"postcode": "6467"
	},
	{
		"lon": "8.6384784",
		"lat": "46.8581152",
		"number": "23",
		"street": "Umfahrungsstrasse",
		"city": "Schattdorf",
		"district": "",
		"postcode": "6467"
	},
	{
		"lon": "8.6392828",
		"lat": "46.8584916",
		"number": "25",
		"street": "Umfahrungsstrasse",
		"city": "Schattdorf",
		"district": "",
		"postcode": "6467"
	},
	{
		"lon": "8.6396781",
		"lat": "46.8587875",
		"number": "27",
		"street": "Umfahrungsstrasse",
		"city": "Schattdorf",
		"district": "",
		"postcode": "6467"
	},
	{
		"lon": "8.6545186",
		"lat": "46.8570781",
		"number": "50",
		"street": "Acherlistrasse",
		"city": "Schattdorf",
		"district": "",
		"postcode": "6467"
	},
	{
		"lon": "8.6531916",
		"lat": "46.8555971",
		"number": "71",
		"street": "Acherlistrasse",
		"city": "Schattdorf",
		"district": "",
		"postcode": "6467"
	},
	{
		"lon": "8.6541858",
		"lat": "46.8565993",
		"number": "1",
		"street": "Unterer Biel",
		"city": "Schattdorf",
		"district": "",
		"postcode": "6467"
	},
	{
		"lon": "8.6538777",
		"lat": "46.8564673",
		"number": "2",
		"street": "Unterer Biel",
		"city": "Schattdorf",
		"district": "",
		"postcode": "6467"
	},
	{
		"lon": "8.6541984",
		"lat": "46.8563723",
		"number": "4",
		"street": "Unterer Biel",
		"city": "Schattdorf",
		"district": "",
		"postcode": "6467"
	},
	{
		"lon": "8.6542844",
		"lat": "46.8561046",
		"number": "6",
		"street": "Unterer Biel",
		"city": "Schattdorf",
		"district": "",
		"postcode": "6467"
	},
	{
		"lon": "8.6546617",
		"lat": "46.8562876",
		"number": "5",
		"street": "Unterer Biel",
		"city": "Schattdorf",
		"district": "",
		"postcode": "6467"
	},
	{
		"lon": "8.6545819",
		"lat": "46.8565206",
		"number": "3",
		"street": "Unterer Biel",
		"city": "Schattdorf",
		"district": "",
		"postcode": "6467"
	},
	{
		"lon": "8.6547475",
		"lat": "46.855544",
		"number": "9",
		"street": "Eggelistrasse",
		"city": "Schattdorf",
		"district": "",
		"postcode": "6467"
	},
	{
		"lon": "8.6532071",
		"lat": "46.855886",
		"number": "57",
		"street": "Acherlistrasse",
		"city": "Schattdorf",
		"district": "",
		"postcode": "6467"
	},
	{
		"lon": "8.6490364",
		"lat": "46.8571384",
		"number": "1",
		"street": "Gubel",
		"city": "Schattdorf",
		"district": "",
		"postcode": "6467"
	},
	{
		"lon": "8.650602",
		"lat": "46.8573558",
		"number": "116",
		"street": "Achern",
		"city": "Schattdorf",
		"district": "",
		"postcode": "6467"
	},
	{
		"lon": "8.6507197",
		"lat": "46.8571519",
		"number": "117",
		"street": "Achern",
		"city": "Schattdorf",
		"district": "",
		"postcode": "6467"
	},
	{
		"lon": "8.6511063",
		"lat": "46.8574259",
		"number": "113",
		"street": "Achern",
		"city": "Schattdorf",
		"district": "",
		"postcode": "6467"
	},
	{
		"lon": "8.6508746",
		"lat": "46.8572922",
		"number": "115",
		"street": "Achern",
		"city": "Schattdorf",
		"district": "",
		"postcode": "6467"
	},
	{
		"lon": "8.6456785",
		"lat": "46.8565351",
		"number": "1",
		"street": "Militärstrasse",
		"city": "Schattdorf",
		"district": "",
		"postcode": "6467"
	},
	{
		"lon": "8.6467803",
		"lat": "46.8565415",
		"number": "58",
		"street": "Bötzlingerstrasse",
		"city": "Schattdorf",
		"district": "",
		"postcode": "6467"
	},
	{
		"lon": "8.6469718",
		"lat": "46.8568904",
		"number": "54",
		"street": "Bötzlingerstrasse",
		"city": "Schattdorf",
		"district": "",
		"postcode": "6467"
	},
	{
		"lon": "8.6470482",
		"lat": "46.8573754",
		"number": "50",
		"street": "Bötzlingerstrasse",
		"city": "Schattdorf",
		"district": "",
		"postcode": "6467"
	},
	{
		"lon": "8.6389051",
		"lat": "46.8562555",
		"number": "13",
		"street": "Umfahrungsstrasse",
		"city": "Schattdorf",
		"district": "",
		"postcode": "6467"
	},
	{
		"lon": "8.6379902",
		"lat": "46.8569848",
		"number": "19",
		"street": "Umfahrungsstrasse",
		"city": "Schattdorf",
		"district": "",
		"postcode": "6467"
	},
	{
		"lon": "8.6396686",
		"lat": "46.8557977",
		"number": "9",
		"street": "Umfahrungsstrasse",
		"city": "Schattdorf",
		"district": "",
		"postcode": "6467"
	},
	{
		"lon": "8.6385183",
		"lat": "46.8563452",
		"number": "15",
		"street": "Umfahrungsstrasse",
		"city": "Schattdorf",
		"district": "",
		"postcode": "6467"
	},
	{
		"lon": "8.6392141",
		"lat": "46.8560004",
		"number": "11",
		"street": "Umfahrungsstrasse",
		"city": "Schattdorf",
		"district": "",
		"postcode": "6467"
	},
	{
		"lon": "8.6381516",
		"lat": "46.8569173",
		"number": "19a",
		"street": "Umfahrungsstrasse",
		"city": "Schattdorf",
		"district": "",
		"postcode": "6467"
	},
	{
		"lon": "8.6383742",
		"lat": "46.856716",
		"number": "17",
		"street": "Umfahrungsstrasse",
		"city": "Schattdorf",
		"district": "",
		"postcode": "6467"
	},
	{
		"lon": "8.6408985",
		"lat": "46.8568786",
		"number": "26c",
		"street": "Umfahrungsstrasse",
		"city": "Schattdorf",
		"district": "",
		"postcode": "6467"
	},
	{
		"lon": "8.6388602",
		"lat": "46.8575039",
		"number": "24",
		"street": "Umfahrungsstrasse",
		"city": "Schattdorf",
		"district": "",
		"postcode": "6467"
	},
	{
		"lon": "8.6829675",
		"lat": "46.8544267",
		"number": "6",
		"street": "Schwandiberg",
		"city": "Haldi b. Schattdorf",
		"district": "",
		"postcode": "6469"
	},
	{
		"lon": "8.6839603",
		"lat": "46.8536962",
		"number": "5",
		"street": "Schilligli",
		"city": "Haldi b. Schattdorf",
		"district": "",
		"postcode": "6469"
	},
	{
		"lon": "8.6847251",
		"lat": "46.85331",
		"number": "30",
		"street": "Schilligli",
		"city": "Haldi b. Schattdorf",
		"district": "",
		"postcode": "6469"
	},
	{
		"lon": "8.6844477",
		"lat": "46.8537898",
		"number": "9",
		"street": "Schilligli",
		"city": "Haldi b. Schattdorf",
		"district": "",
		"postcode": "6469"
	},
	{
		"lon": "8.6851997",
		"lat": "46.8551131",
		"number": "21",
		"street": "Kellerberg",
		"city": "Haldi b. Schattdorf",
		"district": "",
		"postcode": "6469"
	},
	{
		"lon": "8.6854889",
		"lat": "46.855146",
		"number": "19",
		"street": "Kellerberg",
		"city": "Haldi b. Schattdorf",
		"district": "",
		"postcode": "6469"
	},
	{
		"lon": "8.6851297",
		"lat": "46.854925",
		"number": "17",
		"street": "Kellerberg",
		"city": "Haldi b. Schattdorf",
		"district": "",
		"postcode": "6469"
	},
	{
		"lon": "8.6854051",
		"lat": "46.854922",
		"number": "15",
		"street": "Kellerberg",
		"city": "Haldi b. Schattdorf",
		"district": "",
		"postcode": "6469"
	},
	{
		"lon": "8.6627675",
		"lat": "46.8548154",
		"number": "1",
		"street": "Lehn",
		"city": "Schattdorf",
		"district": "",
		"postcode": "6467"
	},
	{
		"lon": "8.6550354",
		"lat": "46.855363",
		"number": "8",
		"street": "Eggelistrasse",
		"city": "Schattdorf",
		"district": "",
		"postcode": "6467"
	},
	{
		"lon": "8.6532117",
		"lat": "46.8553919",
		"number": "69",
		"street": "Acherlistrasse",
		"city": "Schattdorf",
		"district": "",
		"postcode": "6467"
	},
	{
		"lon": "8.6522434",
		"lat": "46.8552218",
		"number": "64",
		"street": "Acherlistrasse",
		"city": "Schattdorf",
		"district": "",
		"postcode": "6467"
	},
	{
		"lon": "8.6521399",
		"lat": "46.8554134",
		"number": "60",
		"street": "Acherlistrasse",
		"city": "Schattdorf",
		"district": "",
		"postcode": "6467"
	},
	{
		"lon": "8.6531326",
		"lat": "46.8537246",
		"number": "72",
		"street": "Acherlistrasse",
		"city": "Schattdorf",
		"district": "",
		"postcode": "6467"
	},
	{
		"lon": "8.6537253",
		"lat": "46.8537115",
		"number": "2",
		"street": "Eggelistrasse",
		"city": "Schattdorf",
		"district": "",
		"postcode": "6467"
	},
	{
		"lon": "8.653502",
		"lat": "46.8541582",
		"number": "1",
		"street": "Eggelistrasse",
		"city": "Schattdorf",
		"district": "",
		"postcode": "6467"
	},
	{
		"lon": "8.6536242",
		"lat": "46.8544281",
		"number": "3b",
		"street": "Eggelistrasse",
		"city": "Schattdorf",
		"district": "",
		"postcode": "6467"
	},
	{
		"lon": "8.6534439",
		"lat": "46.8547517",
		"number": "6a",
		"street": "Trigglistrasse",
		"city": "Schattdorf",
		"district": "",
		"postcode": "6467"
	},
	{
		"lon": "8.6535892",
		"lat": "46.8548574",
		"number": "6b",
		"street": "Trigglistrasse",
		"city": "Schattdorf",
		"district": "",
		"postcode": "6467"
	},
	{
		"lon": "8.6539717",
		"lat": "46.8547814",
		"number": "7",
		"street": "Eggelistrasse",
		"city": "Schattdorf",
		"district": "",
		"postcode": "6467"
	},
	{
		"lon": "8.653719",
		"lat": "46.8549656",
		"number": "8a",
		"street": "Trigglistrasse",
		"city": "Schattdorf",
		"district": "",
		"postcode": "6467"
	},
	{
		"lon": "8.6538194",
		"lat": "46.8550611",
		"number": "8b",
		"street": "Trigglistrasse",
		"city": "Schattdorf",
		"district": "",
		"postcode": "6467"
	},
	{
		"lon": "8.6533537",
		"lat": "46.855063",
		"number": "5",
		"street": "Trigglistrasse",
		"city": "Schattdorf",
		"district": "",
		"postcode": "6467"
	},
	{
		"lon": "8.6529969",
		"lat": "46.8547404",
		"number": "1b",
		"street": "Trigglistrasse",
		"city": "Schattdorf",
		"district": "",
		"postcode": "6467"
	},
	{
		"lon": "8.6537677",
		"lat": "46.8545686",
		"number": "5",
		"street": "Eggelistrasse",
		"city": "Schattdorf",
		"district": "",
		"postcode": "6467"
	},
	{
		"lon": "8.6531139",
		"lat": "46.8549363",
		"number": "3",
		"street": "Trigglistrasse",
		"city": "Schattdorf",
		"district": "",
		"postcode": "6467"
	},
	{
		"lon": "8.7630122",
		"lat": "46.8744864",
		"number": "7",
		"street": "Lehmatt",
		"city": "Unterschächen",
		"district": "",
		"postcode": "6465"
	},
	{
		"lon": "8.7656767",
		"lat": "46.8732216",
		"number": "1",
		"street": "Weidli",
		"city": "Unterschächen",
		"district": "",
		"postcode": "6465"
	},
	{
		"lon": "8.7648795",
		"lat": "46.8722271",
		"number": "1",
		"street": "Neu Äbnet",
		"city": "Unterschächen",
		"district": "",
		"postcode": "6465"
	},
	{
		"lon": "8.7641517",
		"lat": "46.8718131",
		"number": "1",
		"street": "Ober Äbnet",
		"city": "Unterschächen",
		"district": "",
		"postcode": "6465"
	},
	{
		"lon": "8.7624749",
		"lat": "46.8716389",
		"number": "1",
		"street": "Lerche",
		"city": "Unterschächen",
		"district": "",
		"postcode": "6465"
	},
	{
		"lon": "8.7627729",
		"lat": "46.8715321",
		"number": "1",
		"street": "Bergfridä",
		"city": "Unterschächen",
		"district": "",
		"postcode": "6465"
	},
	{
		"lon": "8.763312",
		"lat": "46.8714474",
		"number": "1",
		"street": "Förstli",
		"city": "Unterschächen",
		"district": "",
		"postcode": "6465"
	},
	{
		"lon": "8.7595503",
		"lat": "46.8728873",
		"number": "2",
		"street": "Mettenenstrasse",
		"city": "Unterschächen",
		"district": "",
		"postcode": "6465"
	},
	{
		"lon": "8.7602117",
		"lat": "46.8728455",
		"number": "1",
		"street": "Ober Urigen",
		"city": "Unterschächen",
		"district": "",
		"postcode": "6465"
	},
	{
		"lon": "8.7587206",
		"lat": "46.8715041",
		"number": "2",
		"street": "Urigen",
		"city": "Unterschächen",
		"district": "",
		"postcode": "6465"
	},
	{
		"lon": "8.7593615",
		"lat": "46.871855",
		"number": "3",
		"street": "Urigen",
		"city": "Unterschächen",
		"district": "",
		"postcode": "6465"
	},
	{
		"lon": "8.7575838",
		"lat": "46.8715564",
		"number": "1",
		"street": "Urigen",
		"city": "Unterschächen",
		"district": "",
		"postcode": "6465"
	},
	{
		"lon": "8.7632454",
		"lat": "46.8708772",
		"number": "1",
		"street": "Unter Äbnet",
		"city": "Unterschächen",
		"district": "",
		"postcode": "6465"
	},
	{
		"lon": "8.7580962",
		"lat": "46.8710789",
		"number": "1",
		"street": "Getschwilerstrasse",
		"city": "Unterschächen",
		"district": "",
		"postcode": "6465"
	},
	{
		"lon": "8.7601019",
		"lat": "46.8717033",
		"number": "5",
		"street": "Urigen",
		"city": "Unterschächen",
		"district": "",
		"postcode": "6465"
	},
	{
		"lon": "8.7640794",
		"lat": "46.8736215",
		"number": "3",
		"street": "Lehmatt",
		"city": "Unterschächen",
		"district": "",
		"postcode": "6465"
	},
	{
		"lon": "8.8546374",
		"lat": "46.8680024",
		"number": "94",
		"street": "Klausenstrasse",
		"city": "Unterschächen",
		"district": "",
		"postcode": "6465"
	},
	{
		"lon": "8.8554187",
		"lat": "46.8680412",
		"number": "96",
		"street": "Klausenstrasse",
		"city": "Unterschächen",
		"district": "",
		"postcode": "6465"
	},
	{
		"lon": "8.7914489",
		"lat": "46.8658307",
		"number": "1",
		"street": "Berg",
		"city": "Unterschächen",
		"district": "",
		"postcode": "6465"
	},
	{
		"lon": "8.7908542",
		"lat": "46.865395",
		"number": "1",
		"street": "Grube",
		"city": "Unterschächen",
		"district": "",
		"postcode": "6465"
	},
	{
		"lon": "8.7892173",
		"lat": "46.8649605",
		"number": "7",
		"street": "Schwanden",
		"city": "Unterschächen",
		"district": "",
		"postcode": "6465"
	},
	{
		"lon": "8.788659",
		"lat": "46.8650051",
		"number": "5",
		"street": "Schwanden",
		"city": "Unterschächen",
		"district": "",
		"postcode": "6465"
	},
	{
		"lon": "8.7887263",
		"lat": "46.8645411",
		"number": "3",
		"street": "Schwanden",
		"city": "Unterschächen",
		"district": "",
		"postcode": "6465"
	},
	{
		"lon": "8.7867155",
		"lat": "46.8659091",
		"number": "1",
		"street": "Steinbergli",
		"city": "Unterschächen",
		"district": "",
		"postcode": "6465"
	},
	{
		"lon": "8.7868186",
		"lat": "46.8660211",
		"number": "2",
		"street": "Steinbergli",
		"city": "Unterschächen",
		"district": "",
		"postcode": "6465"
	},
	{
		"lon": "8.7861948",
		"lat": "46.8652515",
		"number": "1",
		"street": "Schwanden",
		"city": "Unterschächen",
		"district": "",
		"postcode": "6465"
	},
	{
		"lon": "8.7839165",
		"lat": "46.8649131",
		"number": "1",
		"street": "Höll",
		"city": "Unterschächen",
		"district": "",
		"postcode": "6465"
	},
	{
		"lon": "8.6191587",
		"lat": "46.9487981",
		"number": "7",
		"street": "Seeblick",
		"city": "Sisikon",
		"district": "",
		"postcode": "6452"
	},
	{
		"lon": "8.6205405",
		"lat": "46.9479935",
		"number": "8",
		"street": "Untere Bachmatt",
		"city": "Sisikon",
		"district": "",
		"postcode": "6452"
	},
	{
		"lon": "8.6199288",
		"lat": "46.9482517",
		"number": "1",
		"street": "Seestrasse",
		"city": "Sisikon",
		"district": "",
		"postcode": "6452"
	},
	{
		"lon": "8.620396",
		"lat": "46.9485888",
		"number": "2",
		"street": "Seestrasse",
		"city": "Sisikon",
		"district": "",
		"postcode": "6452"
	},
	{
		"lon": "8.6204412",
		"lat": "46.9476617",
		"number": "16",
		"street": "Untere Bachmatt",
		"city": "Sisikon",
		"district": "",
		"postcode": "6452"
	},
	{
		"lon": "8.6206018",
		"lat": "46.947795",
		"number": "14",
		"street": "Untere Bachmatt",
		"city": "Sisikon",
		"district": "",
		"postcode": "6452"
	},
	{
		"lon": "8.6205899",
		"lat": "46.9478491",
		"number": "12",
		"street": "Untere Bachmatt",
		"city": "Sisikon",
		"district": "",
		"postcode": "6452"
	},
	{
		"lon": "8.6918168",
		"lat": "46.9342818",
		"number": "",
		"street": "Abedweid",
		"city": "Riemenstalden",
		"district": "",
		"postcode": "6452"
	},
	{
		"lon": "8.6926409",
		"lat": "46.9351384",
		"number": "",
		"street": "Lidernen",
		"city": "Riemenstalden",
		"district": "",
		"postcode": "6452"
	},
	{
		"lon": "8.6871878",
		"lat": "46.9346081",
		"number": "",
		"street": "Gitschen",
		"city": "Riemenstalden",
		"district": "",
		"postcode": "6452"
	},
	{
		"lon": "8.6161968",
		"lat": "46.9392129",
		"number": "",
		"street": "Gumpisch",
		"city": "Sisikon",
		"district": "",
		"postcode": "6452"
	},
	{
		"lon": "8.614199",
		"lat": "46.9349512",
		"number": "",
		"street": "Usser Tellen",
		"city": "Sisikon",
		"district": "",
		"postcode": "6452"
	},
	{
		"lon": "8.612773",
		"lat": "46.9340032",
		"number": "",
		"street": "Am See",
		"city": "Sisikon",
		"district": "",
		"postcode": "6452"
	},
	{
		"lon": "8.6138852",
		"lat": "46.9326154",
		"number": "",
		"street": "Tellsplatte",
		"city": "Sisikon",
		"district": "",
		"postcode": "6452"
	},
	{
		"lon": "8.6118228",
		"lat": "46.9307095",
		"number": "",
		"street": "Grüt",
		"city": "Sisikon",
		"district": "",
		"postcode": "6452"
	},
	{
		"lon": "8.614073",
		"lat": "46.9331001",
		"number": "",
		"street": "Tellsplatte",
		"city": "Sisikon",
		"district": "",
		"postcode": "6452"
	},
	{
		"lon": "8.6191299",
		"lat": "46.9294514",
		"number": "",
		"street": "Unteraxen",
		"city": "Sisikon",
		"district": "",
		"postcode": "6452"
	},
	{
		"lon": "8.6187614",
		"lat": "46.9298034",
		"number": "",
		"street": "Unteraxen",
		"city": "Sisikon",
		"district": "",
		"postcode": "6452"
	},
	{
		"lon": "8.6912664",
		"lat": "46.924478",
		"number": "",
		"street": "Spilau",
		"city": "Riemenstalden",
		"district": "",
		"postcode": "6452"
	},
	{
		"lon": "8.5685765",
		"lat": "46.6191978",
		"number": "17",
		"street": "Gotthardstrasse",
		"city": "Hospental",
		"district": "",
		"postcode": "6493"
	},
	{
		"lon": "8.5684524",
		"lat": "46.6188842",
		"number": "3",
		"street": "Letzi",
		"city": "Hospental",
		"district": "",
		"postcode": "6493"
	},
	{
		"lon": "8.5696146",
		"lat": "46.6195114",
		"number": "11",
		"street": "Gotthardstrasse",
		"city": "Hospental",
		"district": "",
		"postcode": "6493"
	},
	{
		"lon": "8.5699019",
		"lat": "46.6195175",
		"number": "9",
		"street": "Gotthardstrasse",
		"city": "Hospental",
		"district": "",
		"postcode": "6493"
	},
	{
		"lon": "8.5680795",
		"lat": "46.6191578",
		"number": "18",
		"street": "Gotthardstrasse",
		"city": "Hospental",
		"district": "",
		"postcode": "6493"
	},
	{
		"lon": "8.5682988",
		"lat": "46.6190297",
		"number": "21",
		"street": "Gotthardstrasse",
		"city": "Hospental",
		"district": "",
		"postcode": "6493"
	},
	{
		"lon": "8.5679874",
		"lat": "46.6191227",
		"number": "20",
		"street": "Gotthardstrasse",
		"city": "Hospental",
		"district": "",
		"postcode": "6493"
	},
	{
		"lon": "8.5706173",
		"lat": "46.6187637",
		"number": "4",
		"street": "Himmelbiel",
		"city": "Hospental",
		"district": "",
		"postcode": "6493"
	},
	{
		"lon": "8.5693174",
		"lat": "46.6190375",
		"number": "1",
		"street": "Mühleweg",
		"city": "Hospental",
		"district": "",
		"postcode": "6493"
	},
	{
		"lon": "8.5665093",
		"lat": "46.6177429",
		"number": "5",
		"street": "St. Karl",
		"city": "Hospental",
		"district": "",
		"postcode": "6493"
	},
	{
		"lon": "8.5671783",
		"lat": "46.618519",
		"number": "40",
		"street": "Gotthardstrasse",
		"city": "Hospental",
		"district": "",
		"postcode": "6493"
	},
	{
		"lon": "8.5653129",
		"lat": "46.6173499",
		"number": "2",
		"street": "Obergadmen",
		"city": "Hospental",
		"district": "",
		"postcode": "6493"
	},
	{
		"lon": "8.5672023",
		"lat": "46.618883",
		"number": "1",
		"street": "Barotschweg",
		"city": "Hospental",
		"district": "",
		"postcode": "6493"
	},
	{
		"lon": "8.5661663",
		"lat": "46.6175754",
		"number": "1",
		"street": "Furkastrasse",
		"city": "Hospental",
		"district": "",
		"postcode": "6493"
	},
	{
		"lon": "8.5683497",
		"lat": "46.6189662",
		"number": "1",
		"street": "Letzi",
		"city": "Hospental",
		"district": "",
		"postcode": "6493"
	},
	{
		"lon": "8.5674194",
		"lat": "46.6181837",
		"number": "42",
		"street": "Gotthardstrasse",
		"city": "Hospental",
		"district": "",
		"postcode": "6493"
	},
	{
		"lon": "8.5684613",
		"lat": "46.6193069",
		"number": "14",
		"street": "Gotthardstrasse",
		"city": "Hospental",
		"district": "",
		"postcode": "6493"
	},
	{
		"lon": "8.5678947",
		"lat": "46.6190607",
		"number": "22",
		"street": "Gotthardstrasse",
		"city": "Hospental",
		"district": "",
		"postcode": "6493"
	},
	{
		"lon": "8.567795",
		"lat": "46.6192866",
		"number": "1",
		"street": "Kirchplatz",
		"city": "Hospental",
		"district": "",
		"postcode": "6493"
	},
	{
		"lon": "8.5677769",
		"lat": "46.6184231",
		"number": "29",
		"street": "Gotthardstrasse",
		"city": "Hospental",
		"district": "",
		"postcode": "6493"
	},
	{
		"lon": "8.5679871",
		"lat": "46.618484",
		"number": "2",
		"street": "Stutz",
		"city": "Hospental",
		"district": "",
		"postcode": "6493"
	},
	{
		"lon": "8.5677543",
		"lat": "46.619215",
		"number": "2",
		"street": "Kirchweg",
		"city": "Hospental",
		"district": "",
		"postcode": "6493"
	},
	{
		"lon": "8.5675116",
		"lat": "46.617598",
		"number": "4",
		"street": "Alte Gotthardstrasse",
		"city": "Hospental",
		"district": "",
		"postcode": "6493"
	},
	{
		"lon": "8.56763",
		"lat": "46.6188924",
		"number": "28",
		"street": "Gotthardstrasse",
		"city": "Hospental",
		"district": "",
		"postcode": "6493"
	},
	{
		"lon": "8.5686905",
		"lat": "46.6186527",
		"number": "9",
		"street": "Letzi",
		"city": "Hospental",
		"district": "",
		"postcode": "6493"
	},
	{
		"lon": "8.5674034",
		"lat": "46.6186697",
		"number": "36",
		"street": "Gotthardstrasse",
		"city": "Hospental",
		"district": "",
		"postcode": "6493"
	}
]