[
	{
		"lon": "1.8426004",
		"lat": "48.6823311",
		"number": "132",
		"street": "rue de chartres",
		"city": "Le Perray-en-Yvelines",
		"district": "",
		"postcode": "78610"
	},
	{
		"lon": "1.8426004",
		"lat": "48.6823311",
		"number": "132",
		"street": "rue de chartres",
		"city": "Le Perray-en-Yvelines",
		"district": "",
		"postcode": "78610"
	},
	{
		"lon": "1.8426004",
		"lat": "48.6823311",
		"number": "132",
		"street": "rue de chartres",
		"city": "Le Perray-en-Yvelines",
		"district": "",
		"postcode": "78610"
	},
	{
		"lon": "1.8426004",
		"lat": "48.6823311",
		"number": "132",
		"street": "rue de chartres",
		"city": "Le Perray-en-Yvelines",
		"district": "",
		"postcode": "78610"
	},
	{
		"lon": "2.1776637",
		"lat": "48.8000339",
		"number": "74",
		"street": "avenue gaston boissier",
		"city": "Viroflay",
		"district": "",
		"postcode": "78220"
	},
	{
		"lon": "2.1776637",
		"lat": "48.8000339",
		"number": "74",
		"street": "avenue gaston boissier",
		"city": "Viroflay",
		"district": "",
		"postcode": "78220"
	},
	{
		"lon": "2.1323632",
		"lat": "48.786188",
		"number": "1",
		"street": "rue du haras",
		"city": "Buc",
		"district": "",
		"postcode": "78530"
	},
	{
		"lon": "2.111856",
		"lat": "48.8794487",
		"number": "12",
		"street": "rue de paris",
		"city": "Le Port-Marly",
		"district": "",
		"postcode": "78560"
	},
	{
		"lon": "2.111856",
		"lat": "48.8794487",
		"number": "12",
		"street": "rue de paris",
		"city": "Le Port-Marly",
		"district": "",
		"postcode": "78560"
	},
	{
		"lon": "2.111856",
		"lat": "48.8794487",
		"number": "12",
		"street": "rue de paris",
		"city": "Le Port-Marly",
		"district": "",
		"postcode": "78560"
	},
	{
		"lon": "2.111856",
		"lat": "48.8794487",
		"number": "12",
		"street": "rue de paris",
		"city": "Le Port-Marly",
		"district": "",
		"postcode": "78560"
	},
	{
		"lon": "2.0651109",
		"lat": "48.8686079",
		"number": "31",
		"street": "route de saint-nom",
		"city": "L'Étang-la-Ville",
		"district": "",
		"postcode": "78620"
	},
	{
		"lon": "2.0651109",
		"lat": "48.8686079",
		"number": "31",
		"street": "route de saint-nom",
		"city": "L'Étang-la-Ville",
		"district": "",
		"postcode": "78620"
	},
	{
		"lon": "2.0651109",
		"lat": "48.8686079",
		"number": "31",
		"street": "route de saint-nom",
		"city": "L'Étang-la-Ville",
		"district": "",
		"postcode": "78620"
	},
	{
		"lon": "2.0651109",
		"lat": "48.8686079",
		"number": "31",
		"street": "route de saint-nom",
		"city": "L'Étang-la-Ville",
		"district": "",
		"postcode": "78620"
	},
	{
		"lon": "2.0651109",
		"lat": "48.8686079",
		"number": "31",
		"street": "route de saint-nom",
		"city": "L'Étang-la-Ville",
		"district": "",
		"postcode": "78620"
	},
	{
		"lon": "2.0651109",
		"lat": "48.8686079",
		"number": "31",
		"street": "route de saint-nom",
		"city": "L'Étang-la-Ville",
		"district": "",
		"postcode": "78620"
	},
	{
		"lon": "2.0651109",
		"lat": "48.8686079",
		"number": "31",
		"street": "route de saint-nom",
		"city": "L'Étang-la-Ville",
		"district": "",
		"postcode": "78620"
	},
	{
		"lon": "2.0651109",
		"lat": "48.8686079",
		"number": "31",
		"street": "route de saint-nom",
		"city": "L'Étang-la-Ville",
		"district": "",
		"postcode": "78620"
	},
	{
		"lon": "2.0651109",
		"lat": "48.8686079",
		"number": "31",
		"street": "route de saint-nom",
		"city": "L'Étang-la-Ville",
		"district": "",
		"postcode": "78620"
	},
	{
		"lon": "2.0651109",
		"lat": "48.8686079",
		"number": "31",
		"street": "route de saint-nom",
		"city": "L'Étang-la-Ville",
		"district": "",
		"postcode": "78620"
	},
	{
		"lon": "2.1312875",
		"lat": "48.7844965",
		"number": "9",
		"street": "rue du haras",
		"city": "Buc",
		"district": "",
		"postcode": "78530"
	},
	{
		"lon": "2.1312875",
		"lat": "48.7844965",
		"number": "9",
		"street": "rue du haras",
		"city": "Buc",
		"district": "",
		"postcode": "78530"
	},
	{
		"lon": "2.1312875",
		"lat": "48.7844965",
		"number": "9",
		"street": "rue du haras",
		"city": "Buc",
		"district": "",
		"postcode": "78530"
	},
	{
		"lon": "2.0684011",
		"lat": "48.8692605",
		"number": "12",
		"street": "route de saint-nom",
		"city": "L'Étang-la-Ville",
		"district": "",
		"postcode": "78620"
	},
	{
		"lon": "2.0684011",
		"lat": "48.8692605",
		"number": "12",
		"street": "route de saint-nom",
		"city": "L'Étang-la-Ville",
		"district": "",
		"postcode": "78620"
	},
	{
		"lon": "2.0684011",
		"lat": "48.8692605",
		"number": "12",
		"street": "route de saint-nom",
		"city": "L'Étang-la-Ville",
		"district": "",
		"postcode": "78620"
	},
	{
		"lon": "2.0684011",
		"lat": "48.8692605",
		"number": "12",
		"street": "route de saint-nom",
		"city": "L'Étang-la-Ville",
		"district": "",
		"postcode": "78620"
	},
	{
		"lon": "2.0684011",
		"lat": "48.8692605",
		"number": "12",
		"street": "route de saint-nom",
		"city": "L'Étang-la-Ville",
		"district": "",
		"postcode": "78620"
	},
	{
		"lon": "2.0684011",
		"lat": "48.8692605",
		"number": "12",
		"street": "route de saint-nom",
		"city": "L'Étang-la-Ville",
		"district": "",
		"postcode": "78620"
	},
	{
		"lon": "2.0684011",
		"lat": "48.8692605",
		"number": "12",
		"street": "route de saint-nom",
		"city": "L'Étang-la-Ville",
		"district": "",
		"postcode": "78620"
	},
	{
		"lon": "2.0684011",
		"lat": "48.8692605",
		"number": "12",
		"street": "route de saint-nom",
		"city": "L'Étang-la-Ville",
		"district": "",
		"postcode": "78620"
	},
	{
		"lon": "2.0684011",
		"lat": "48.8692605",
		"number": "12",
		"street": "route de saint-nom",
		"city": "L'Étang-la-Ville",
		"district": "",
		"postcode": "78620"
	},
	{
		"lon": "2.0684011",
		"lat": "48.8692605",
		"number": "12",
		"street": "route de saint-nom",
		"city": "L'Étang-la-Ville",
		"district": "",
		"postcode": "78620"
	},
	{
		"lon": "2.168792",
		"lat": "48.8061227",
		"number": "16",
		"street": "rue gabriel peri",
		"city": "Viroflay",
		"district": "",
		"postcode": "78220"
	},
	{
		"lon": "2.168792",
		"lat": "48.8061227",
		"number": "16",
		"street": "rue gabriel peri",
		"city": "Viroflay",
		"district": "",
		"postcode": "78220"
	},
	{
		"lon": "2.168792",
		"lat": "48.8061227",
		"number": "16",
		"street": "rue gabriel peri",
		"city": "Viroflay",
		"district": "",
		"postcode": "78220"
	},
	{
		"lon": "2.168792",
		"lat": "48.8061227",
		"number": "16",
		"street": "rue gabriel peri",
		"city": "Viroflay",
		"district": "",
		"postcode": "78220"
	},
	{
		"lon": "2.168792",
		"lat": "48.8061227",
		"number": "16",
		"street": "rue gabriel peri",
		"city": "Viroflay",
		"district": "",
		"postcode": "78220"
	},
	{
		"lon": "2.168792",
		"lat": "48.8061227",
		"number": "16",
		"street": "rue gabriel peri",
		"city": "Viroflay",
		"district": "",
		"postcode": "78220"
	},
	{
		"lon": "2.1763266",
		"lat": "48.8065967",
		"number": "8",
		"street": "rue du général gallieni",
		"city": "Viroflay",
		"district": "",
		"postcode": "78220"
	},
	{
		"lon": "2.1763266",
		"lat": "48.8065967",
		"number": "8",
		"street": "rue du général gallieni",
		"city": "Viroflay",
		"district": "",
		"postcode": "78220"
	},
	{
		"lon": "2.1675039",
		"lat": "48.7725076",
		"number": "21",
		"street": "rue albert calmette",
		"city": "Jouy-en-Josas",
		"district": "",
		"postcode": "78350"
	},
	{
		"lon": "2.1675039",
		"lat": "48.7725076",
		"number": "21",
		"street": "rue albert calmette",
		"city": "Jouy-en-Josas",
		"district": "",
		"postcode": "78350"
	},
	{
		"lon": "2.1675039",
		"lat": "48.7725076",
		"number": "21",
		"street": "rue albert calmette",
		"city": "Jouy-en-Josas",
		"district": "",
		"postcode": "78350"
	},
	{
		"lon": "2.1323632",
		"lat": "48.786188",
		"number": "1",
		"street": "rue du haras",
		"city": "Buc",
		"district": "",
		"postcode": "78530"
	},
	{
		"lon": "2.126558",
		"lat": "48.77245",
		"number": "1",
		"street": "rue marie thérèse de clinchamps",
		"city": "Buc",
		"district": "",
		"postcode": "78530"
	},
	{
		"lon": "2.126558",
		"lat": "48.77245",
		"number": "1",
		"street": "rue marie thérèse de clinchamps",
		"city": "Buc",
		"district": "",
		"postcode": "78530"
	},
	{
		"lon": "2.126558",
		"lat": "48.77245",
		"number": "1",
		"street": "rue marie thérèse de clinchamps",
		"city": "Buc",
		"district": "",
		"postcode": "78530"
	},
	{
		"lon": "2.1768616",
		"lat": "48.8070384",
		"number": "4",
		"street": "rue du général gallieni",
		"city": "Viroflay",
		"district": "",
		"postcode": "78220"
	},
	{
		"lon": "2.1768616",
		"lat": "48.8070384",
		"number": "4",
		"street": "rue du général gallieni",
		"city": "Viroflay",
		"district": "",
		"postcode": "78220"
	},
	{
		"lon": "2.1768616",
		"lat": "48.8070384",
		"number": "4",
		"street": "rue du général gallieni",
		"city": "Viroflay",
		"district": "",
		"postcode": "78220"
	},
	{
		"lon": "2.1708392",
		"lat": "48.8073619",
		"number": "58",
		"street": "rue du général gallieni",
		"city": "Viroflay",
		"district": "",
		"postcode": "78220"
	},
	{
		"lon": "2.1708392",
		"lat": "48.8073619",
		"number": "58",
		"street": "rue du général gallieni",
		"city": "Viroflay",
		"district": "",
		"postcode": "78220"
	},
	{
		"lon": "2.1708392",
		"lat": "48.8073619",
		"number": "58",
		"street": "rue du général gallieni",
		"city": "Viroflay",
		"district": "",
		"postcode": "78220"
	},
	{
		"lon": "2.1648097",
		"lat": "48.8036215",
		"number": "4",
		"street": "rue de l'abbé dalloz",
		"city": "Viroflay",
		"district": "",
		"postcode": "78220"
	},
	{
		"lon": "2.1648097",
		"lat": "48.8036215",
		"number": "4",
		"street": "rue de l'abbé dalloz",
		"city": "Viroflay",
		"district": "",
		"postcode": "78220"
	},
	{
		"lon": "2.1648097",
		"lat": "48.8036215",
		"number": "4",
		"street": "rue de l'abbé dalloz",
		"city": "Viroflay",
		"district": "",
		"postcode": "78220"
	},
	{
		"lon": "2.0634257",
		"lat": "48.8657375",
		"number": "19",
		"street": "chemin du clos saint-martin",
		"city": "L'Étang-la-Ville",
		"district": "",
		"postcode": "78620"
	},
	{
		"lon": "2.0634257",
		"lat": "48.8657375",
		"number": "19",
		"street": "chemin du clos saint-martin",
		"city": "L'Étang-la-Ville",
		"district": "",
		"postcode": "78620"
	},
	{
		"lon": "2.1727549",
		"lat": "48.7573228",
		"number": "1",
		"street": "rue de la libération",
		"city": "Jouy-en-Josas",
		"district": "",
		"postcode": "78350"
	},
	{
		"lon": "2.1727549",
		"lat": "48.7573228",
		"number": "1",
		"street": "rue de la libération",
		"city": "Jouy-en-Josas",
		"district": "",
		"postcode": "78350"
	},
	{
		"lon": "2.1727549",
		"lat": "48.7573228",
		"number": "1",
		"street": "rue de la libération",
		"city": "Jouy-en-Josas",
		"district": "",
		"postcode": "78350"
	},
	{
		"lon": "2.1727549",
		"lat": "48.7573228",
		"number": "1",
		"street": "rue de la libération",
		"city": "Jouy-en-Josas",
		"district": "",
		"postcode": "78350"
	},
	{
		"lon": "2.1727549",
		"lat": "48.7573228",
		"number": "1",
		"street": "rue de la libération",
		"city": "Jouy-en-Josas",
		"district": "",
		"postcode": "78350"
	},
	{
		"lon": "2.1727549",
		"lat": "48.7573228",
		"number": "1",
		"street": "rue de la libération",
		"city": "Jouy-en-Josas",
		"district": "",
		"postcode": "78350"
	},
	{
		"lon": "2.1727549",
		"lat": "48.7573228",
		"number": "1",
		"street": "rue de la libération",
		"city": "Jouy-en-Josas",
		"district": "",
		"postcode": "78350"
	},
	{
		"lon": "2.1727549",
		"lat": "48.7573228",
		"number": "1",
		"street": "rue de la libération",
		"city": "Jouy-en-Josas",
		"district": "",
		"postcode": "78350"
	},
	{
		"lon": "2.1727549",
		"lat": "48.7573228",
		"number": "1",
		"street": "rue de la libération",
		"city": "Jouy-en-Josas",
		"district": "",
		"postcode": "78350"
	},
	{
		"lon": "2.1727549",
		"lat": "48.7573228",
		"number": "1",
		"street": "rue de la libération",
		"city": "Jouy-en-Josas",
		"district": "",
		"postcode": "78350"
	},
	{
		"lon": "2.1727549",
		"lat": "48.7573228",
		"number": "1",
		"street": "rue de la libération",
		"city": "Jouy-en-Josas",
		"district": "",
		"postcode": "78350"
	},
	{
		"lon": "2.1727549",
		"lat": "48.7573228",
		"number": "1",
		"street": "rue de la libération",
		"city": "Jouy-en-Josas",
		"district": "",
		"postcode": "78350"
	},
	{
		"lon": "2.1727549",
		"lat": "48.7573228",
		"number": "1",
		"street": "rue de la libération",
		"city": "Jouy-en-Josas",
		"district": "",
		"postcode": "78350"
	},
	{
		"lon": "2.1739423",
		"lat": "48.7981725",
		"number": "9",
		"street": "rue jean racine",
		"city": "Viroflay",
		"district": "",
		"postcode": "78220"
	},
	{
		"lon": "2.1739423",
		"lat": "48.7981725",
		"number": "9",
		"street": "rue jean racine",
		"city": "Viroflay",
		"district": "",
		"postcode": "78220"
	},
	{
		"lon": "2.1739423",
		"lat": "48.7981725",
		"number": "9",
		"street": "rue jean racine",
		"city": "Viroflay",
		"district": "",
		"postcode": "78220"
	},
	{
		"lon": "2.1739423",
		"lat": "48.7981725",
		"number": "9",
		"street": "rue jean racine",
		"city": "Viroflay",
		"district": "",
		"postcode": "78220"
	},
	{
		"lon": "2.1697958",
		"lat": "48.7992608",
		"number": "30",
		"street": "rue jean rey",
		"city": "Viroflay",
		"district": "",
		"postcode": "78220"
	},
	{
		"lon": "2.1697958",
		"lat": "48.7992608",
		"number": "30",
		"street": "rue jean rey",
		"city": "Viroflay",
		"district": "",
		"postcode": "78220"
	},
	{
		"lon": "2.1697958",
		"lat": "48.7992608",
		"number": "30",
		"street": "rue jean rey",
		"city": "Viroflay",
		"district": "",
		"postcode": "78220"
	},
	{
		"lon": "2.1697958",
		"lat": "48.7992608",
		"number": "30",
		"street": "rue jean rey",
		"city": "Viroflay",
		"district": "",
		"postcode": "78220"
	},
	{
		"lon": "2.1697958",
		"lat": "48.7992608",
		"number": "30",
		"street": "rue jean rey",
		"city": "Viroflay",
		"district": "",
		"postcode": "78220"
	},
	{
		"lon": "2.1697958",
		"lat": "48.7992608",
		"number": "30",
		"street": "rue jean rey",
		"city": "Viroflay",
		"district": "",
		"postcode": "78220"
	},
	{
		"lon": "2.1697958",
		"lat": "48.7992608",
		"number": "30",
		"street": "rue jean rey",
		"city": "Viroflay",
		"district": "",
		"postcode": "78220"
	},
	{
		"lon": "2.1697958",
		"lat": "48.7992608",
		"number": "30",
		"street": "rue jean rey",
		"city": "Viroflay",
		"district": "",
		"postcode": "78220"
	},
	{
		"lon": "2.1697958",
		"lat": "48.7992608",
		"number": "30",
		"street": "rue jean rey",
		"city": "Viroflay",
		"district": "",
		"postcode": "78220"
	},
	{
		"lon": "2.1697958",
		"lat": "48.7992608",
		"number": "30",
		"street": "rue jean rey",
		"city": "Viroflay",
		"district": "",
		"postcode": "78220"
	},
	{
		"lon": "2.1697958",
		"lat": "48.7992608",
		"number": "30",
		"street": "rue jean rey",
		"city": "Viroflay",
		"district": "",
		"postcode": "78220"
	},
	{
		"lon": "2.1697958",
		"lat": "48.7992608",
		"number": "30",
		"street": "rue jean rey",
		"city": "Viroflay",
		"district": "",
		"postcode": "78220"
	},
	{
		"lon": "2.1820064",
		"lat": "48.8054457",
		"number": "2",
		"street": "rue des marais",
		"city": "Viroflay",
		"district": "",
		"postcode": "78220"
	},
	{
		"lon": "2.1820064",
		"lat": "48.8054457",
		"number": "2",
		"street": "rue des marais",
		"city": "Viroflay",
		"district": "",
		"postcode": "78220"
	},
	{
		"lon": "2.1820064",
		"lat": "48.8054457",
		"number": "2",
		"street": "rue des marais",
		"city": "Viroflay",
		"district": "",
		"postcode": "78220"
	},
	{
		"lon": "2.1820064",
		"lat": "48.8054457",
		"number": "2",
		"street": "rue des marais",
		"city": "Viroflay",
		"district": "",
		"postcode": "78220"
	},
	{
		"lon": "2.1820064",
		"lat": "48.8054457",
		"number": "2",
		"street": "rue des marais",
		"city": "Viroflay",
		"district": "",
		"postcode": "78220"
	},
	{
		"lon": "2.1820064",
		"lat": "48.8054457",
		"number": "2",
		"street": "rue des marais",
		"city": "Viroflay",
		"district": "",
		"postcode": "78220"
	},
	{
		"lon": "2.1682143",
		"lat": "48.7635379",
		"number": "5",
		"street": "rue pierre bonnard",
		"city": "Jouy-en-Josas",
		"district": "",
		"postcode": "78350"
	},
	{
		"lon": "2.1682143",
		"lat": "48.7635379",
		"number": "5",
		"street": "rue pierre bonnard",
		"city": "Jouy-en-Josas",
		"district": "",
		"postcode": "78350"
	},
	{
		"lon": "1.5872854",
		"lat": "49.0332476",
		"number": "2",
		"street": "place des fiefs",
		"city": "Bonnières-sur-Seine",
		"district": "",
		"postcode": "78270"
	},
	{
		"lon": "1.5872854",
		"lat": "49.0332476",
		"number": "2",
		"street": "place des fiefs",
		"city": "Bonnières-sur-Seine",
		"district": "",
		"postcode": "78270"
	},
	{
		"lon": "1.5875081",
		"lat": "49.033457",
		"number": "1",
		"street": "place des fiefs",
		"city": "Bonnières-sur-Seine",
		"district": "",
		"postcode": "78270"
	},
	{
		"lon": "1.5875081",
		"lat": "49.033457",
		"number": "1",
		"street": "place des fiefs",
		"city": "Bonnières-sur-Seine",
		"district": "",
		"postcode": "78270"
	},
	{
		"lon": "1.6330894",
		"lat": "49.0015595",
		"number": "7",
		"street": "impasse des pressoirs",
		"city": "Rosny-sur-Seine",
		"district": "",
		"postcode": "78710"
	},
	{
		"lon": "1.6330894",
		"lat": "49.0015595",
		"number": "7",
		"street": "impasse des pressoirs",
		"city": "Rosny-sur-Seine",
		"district": "",
		"postcode": "78710"
	},
	{
		"lon": "1.6330894",
		"lat": "49.0015595",
		"number": "7",
		"street": "impasse des pressoirs",
		"city": "Rosny-sur-Seine",
		"district": "",
		"postcode": "78710"
	},
	{
		"lon": "1.6330894",
		"lat": "49.0015595",
		"number": "7",
		"street": "impasse des pressoirs",
		"city": "Rosny-sur-Seine",
		"district": "",
		"postcode": "78710"
	},
	{
		"lon": "1.6815415",
		"lat": "48.9990269",
		"number": "2",
		"street": "rue charles gounod",
		"city": "Mantes-la-Jolie",
		"district": "",
		"postcode": "78200"
	},
	{
		"lon": "1.6815415",
		"lat": "48.9990269",
		"number": "2",
		"street": "rue charles gounod",
		"city": "Mantes-la-Jolie",
		"district": "",
		"postcode": "78200"
	},
	{
		"lon": "1.7000609",
		"lat": "48.9927241",
		"number": "68",
		"street": "rue émile zola",
		"city": "Mantes-la-Jolie",
		"district": "",
		"postcode": "78200"
	},
	{
		"lon": "1.7000609",
		"lat": "48.9927241",
		"number": "68",
		"street": "rue émile zola",
		"city": "Mantes-la-Jolie",
		"district": "",
		"postcode": "78200"
	},
	{
		"lon": "1.7000609",
		"lat": "48.9927241",
		"number": "68",
		"street": "rue émile zola",
		"city": "Mantes-la-Jolie",
		"district": "",
		"postcode": "78200"
	},
	{
		"lon": "1.7000609",
		"lat": "48.9927241",
		"number": "68",
		"street": "rue émile zola",
		"city": "Mantes-la-Jolie",
		"district": "",
		"postcode": "78200"
	},
	{
		"lon": "1.8470472",
		"lat": "48.9919486",
		"number": "3",
		"street": "rue de la poste",
		"city": "Juziers",
		"district": "",
		"postcode": "78820"
	},
	{
		"lon": "1.8470472",
		"lat": "48.9919486",
		"number": "3",
		"street": "rue de la poste",
		"city": "Juziers",
		"district": "",
		"postcode": "78820"
	},
	{
		"lon": "1.6803221",
		"lat": "48.999893",
		"number": "4",
		"street": "rue clément ader",
		"city": "Mantes-la-Jolie",
		"district": "",
		"postcode": "78200"
	},
	{
		"lon": "1.6803221",
		"lat": "48.999893",
		"number": "4",
		"street": "rue clément ader",
		"city": "Mantes-la-Jolie",
		"district": "",
		"postcode": "78200"
	},
	{
		"lon": "1.6803221",
		"lat": "48.999893",
		"number": "4",
		"street": "rue clément ader",
		"city": "Mantes-la-Jolie",
		"district": "",
		"postcode": "78200"
	},
	{
		"lon": "1.6803221",
		"lat": "48.999893",
		"number": "4",
		"street": "rue clément ader",
		"city": "Mantes-la-Jolie",
		"district": "",
		"postcode": "78200"
	},
	{
		"lon": "1.6803221",
		"lat": "48.999893",
		"number": "4",
		"street": "rue clément ader",
		"city": "Mantes-la-Jolie",
		"district": "",
		"postcode": "78200"
	},
	{
		"lon": "1.6803892",
		"lat": "49.0002121",
		"number": "2",
		"street": "rue clément ader",
		"city": "Mantes-la-Jolie",
		"district": "",
		"postcode": "78200"
	},
	{
		"lon": "1.6803892",
		"lat": "49.0002121",
		"number": "2",
		"street": "rue clément ader",
		"city": "Mantes-la-Jolie",
		"district": "",
		"postcode": "78200"
	},
	{
		"lon": "1.6803892",
		"lat": "49.0002121",
		"number": "2",
		"street": "rue clément ader",
		"city": "Mantes-la-Jolie",
		"district": "",
		"postcode": "78200"
	},
	{
		"lon": "1.6803892",
		"lat": "49.0002121",
		"number": "2",
		"street": "rue clément ader",
		"city": "Mantes-la-Jolie",
		"district": "",
		"postcode": "78200"
	},
	{
		"lon": "1.6803892",
		"lat": "49.0002121",
		"number": "2",
		"street": "rue clément ader",
		"city": "Mantes-la-Jolie",
		"district": "",
		"postcode": "78200"
	},
	{
		"lon": "1.6803892",
		"lat": "49.0002121",
		"number": "2",
		"street": "rue clément ader",
		"city": "Mantes-la-Jolie",
		"district": "",
		"postcode": "78200"
	},
	{
		"lon": "1.6803892",
		"lat": "49.0002121",
		"number": "2",
		"street": "rue clément ader",
		"city": "Mantes-la-Jolie",
		"district": "",
		"postcode": "78200"
	},
	{
		"lon": "1.6803892",
		"lat": "49.0002121",
		"number": "2",
		"street": "rue clément ader",
		"city": "Mantes-la-Jolie",
		"district": "",
		"postcode": "78200"
	},
	{
		"lon": "1.6803892",
		"lat": "49.0002121",
		"number": "2",
		"street": "rue clément ader",
		"city": "Mantes-la-Jolie",
		"district": "",
		"postcode": "78200"
	},
	{
		"lon": "1.6803892",
		"lat": "49.0002121",
		"number": "2",
		"street": "rue clément ader",
		"city": "Mantes-la-Jolie",
		"district": "",
		"postcode": "78200"
	},
	{
		"lon": "2.193303",
		"lat": "48.9296142",
		"number": "26",
		"street": "rue desaix",
		"city": "Houilles",
		"district": "",
		"postcode": "78800"
	},
	{
		"lon": "2.193303",
		"lat": "48.9296142",
		"number": "26",
		"street": "rue desaix",
		"city": "Houilles",
		"district": "",
		"postcode": "78800"
	},
	{
		"lon": "2.193303",
		"lat": "48.9296142",
		"number": "26",
		"street": "rue desaix",
		"city": "Houilles",
		"district": "",
		"postcode": "78800"
	},
	{
		"lon": "2.1936245",
		"lat": "48.927717",
		"number": "13",
		"street": "rue stalingrad",
		"city": "Houilles",
		"district": "",
		"postcode": "78800"
	},
	{
		"lon": "2.1936245",
		"lat": "48.927717",
		"number": "13",
		"street": "rue stalingrad",
		"city": "Houilles",
		"district": "",
		"postcode": "78800"
	},
	{
		"lon": "2.1936245",
		"lat": "48.927717",
		"number": "13",
		"street": "rue stalingrad",
		"city": "Houilles",
		"district": "",
		"postcode": "78800"
	},
	{
		"lon": "2.1936245",
		"lat": "48.927717",
		"number": "13",
		"street": "rue stalingrad",
		"city": "Houilles",
		"district": "",
		"postcode": "78800"
	},
	{
		"lon": "2.1936245",
		"lat": "48.927717",
		"number": "13",
		"street": "rue stalingrad",
		"city": "Houilles",
		"district": "",
		"postcode": "78800"
	},
	{
		"lon": "2.1936245",
		"lat": "48.927717",
		"number": "13",
		"street": "rue stalingrad",
		"city": "Houilles",
		"district": "",
		"postcode": "78800"
	},
	{
		"lon": "2.1517881",
		"lat": "48.9334428",
		"number": "1",
		"street": "rue de verdun",
		"city": "Sartrouville",
		"district": "",
		"postcode": "78500"
	},
	{
		"lon": "2.193303",
		"lat": "48.9296142",
		"number": "26",
		"street": "rue desaix",
		"city": "Houilles",
		"district": "",
		"postcode": "78800"
	},
	{
		"lon": "2.193303",
		"lat": "48.9296142",
		"number": "26",
		"street": "rue desaix",
		"city": "Houilles",
		"district": "",
		"postcode": "78800"
	},
	{
		"lon": "2.193303",
		"lat": "48.9296142",
		"number": "26",
		"street": "rue desaix",
		"city": "Houilles",
		"district": "",
		"postcode": "78800"
	},
	{
		"lon": "2.193303",
		"lat": "48.9296142",
		"number": "26",
		"street": "rue desaix",
		"city": "Houilles",
		"district": "",
		"postcode": "78800"
	},
	{
		"lon": "2.193303",
		"lat": "48.9296142",
		"number": "26",
		"street": "rue desaix",
		"city": "Houilles",
		"district": "",
		"postcode": "78800"
	},
	{
		"lon": "2.1517881",
		"lat": "48.9334428",
		"number": "1",
		"street": "rue de verdun",
		"city": "Sartrouville",
		"district": "",
		"postcode": "78500"
	},
	{
		"lon": "2.1517881",
		"lat": "48.9334428",
		"number": "1",
		"street": "rue de verdun",
		"city": "Sartrouville",
		"district": "",
		"postcode": "78500"
	},
	{
		"lon": "2.1517881",
		"lat": "48.9334428",
		"number": "1",
		"street": "rue de verdun",
		"city": "Sartrouville",
		"district": "",
		"postcode": "78500"
	},
	{
		"lon": "2.1517881",
		"lat": "48.9334428",
		"number": "1",
		"street": "rue de verdun",
		"city": "Sartrouville",
		"district": "",
		"postcode": "78500"
	},
	{
		"lon": "2.1517881",
		"lat": "48.9334428",
		"number": "1",
		"street": "rue de verdun",
		"city": "Sartrouville",
		"district": "",
		"postcode": "78500"
	},
	{
		"lon": "2.1931154",
		"lat": "48.9297461",
		"number": "28",
		"street": "rue desaix",
		"city": "Houilles",
		"district": "",
		"postcode": "78800"
	},
	{
		"lon": "2.1931154",
		"lat": "48.9297461",
		"number": "28",
		"street": "rue desaix",
		"city": "Houilles",
		"district": "",
		"postcode": "78800"
	},
	{
		"lon": "2.1931154",
		"lat": "48.9297461",
		"number": "28",
		"street": "rue desaix",
		"city": "Houilles",
		"district": "",
		"postcode": "78800"
	},
	{
		"lon": "2.1931154",
		"lat": "48.9297461",
		"number": "28",
		"street": "rue desaix",
		"city": "Houilles",
		"district": "",
		"postcode": "78800"
	},
	{
		"lon": "2.1931154",
		"lat": "48.9297461",
		"number": "28",
		"street": "rue desaix",
		"city": "Houilles",
		"district": "",
		"postcode": "78800"
	},
	{
		"lon": "2.1931154",
		"lat": "48.9297461",
		"number": "28",
		"street": "rue desaix",
		"city": "Houilles",
		"district": "",
		"postcode": "78800"
	},
	{
		"lon": "2.1936245",
		"lat": "48.927717",
		"number": "13",
		"street": "rue stalingrad",
		"city": "Houilles",
		"district": "",
		"postcode": "78800"
	},
	{
		"lon": "2.1495733",
		"lat": "48.9354955",
		"number": "102",
		"street": "avenue ronce",
		"city": "Sartrouville",
		"district": "",
		"postcode": "78500"
	},
	{
		"lon": "2.1931154",
		"lat": "48.9297461",
		"number": "28",
		"street": "rue desaix",
		"city": "Houilles",
		"district": "",
		"postcode": "78800"
	},
	{
		"lon": "2.1931154",
		"lat": "48.9297461",
		"number": "28",
		"street": "rue desaix",
		"city": "Houilles",
		"district": "",
		"postcode": "78800"
	},
	{
		"lon": "2.1517881",
		"lat": "48.9334428",
		"number": "1",
		"street": "rue de verdun",
		"city": "Sartrouville",
		"district": "",
		"postcode": "78500"
	},
	{
		"lon": "2.1495733",
		"lat": "48.9354955",
		"number": "102",
		"street": "avenue ronce",
		"city": "Sartrouville",
		"district": "",
		"postcode": "78500"
	},
	{
		"lon": "2.193303",
		"lat": "48.9296142",
		"number": "26",
		"street": "rue desaix",
		"city": "Houilles",
		"district": "",
		"postcode": "78800"
	},
	{
		"lon": "2.0331684",
		"lat": "48.9065303",
		"number": "97",
		"street": "grande rue",
		"city": "Chambourcy",
		"district": "",
		"postcode": "78240"
	},
	{
		"lon": "2.0331684",
		"lat": "48.9065303",
		"number": "97",
		"street": "grande rue",
		"city": "Chambourcy",
		"district": "",
		"postcode": "78240"
	},
	{
		"lon": "2.0331684",
		"lat": "48.9065303",
		"number": "97",
		"street": "grande rue",
		"city": "Chambourcy",
		"district": "",
		"postcode": "78240"
	},
	{
		"lon": "2.0331684",
		"lat": "48.9065303",
		"number": "97",
		"street": "grande rue",
		"city": "Chambourcy",
		"district": "",
		"postcode": "78240"
	},
	{
		"lon": "2.0331684",
		"lat": "48.9065303",
		"number": "97",
		"street": "grande rue",
		"city": "Chambourcy",
		"district": "",
		"postcode": "78240"
	},
	{
		"lon": "2.0331684",
		"lat": "48.9065303",
		"number": "97",
		"street": "grande rue",
		"city": "Chambourcy",
		"district": "",
		"postcode": "78240"
	},
	{
		"lon": "2.0331684",
		"lat": "48.9065303",
		"number": "97",
		"street": "grande rue",
		"city": "Chambourcy",
		"district": "",
		"postcode": "78240"
	},
	{
		"lon": "2.0331684",
		"lat": "48.9065303",
		"number": "97",
		"street": "grande rue",
		"city": "Chambourcy",
		"district": "",
		"postcode": "78240"
	},
	{
		"lon": "2.0331684",
		"lat": "48.9065303",
		"number": "97",
		"street": "grande rue",
		"city": "Chambourcy",
		"district": "",
		"postcode": "78240"
	},
	{
		"lon": "2.0331684",
		"lat": "48.9065303",
		"number": "97",
		"street": "grande rue",
		"city": "Chambourcy",
		"district": "",
		"postcode": "78240"
	},
	{
		"lon": "2.0331684",
		"lat": "48.9065303",
		"number": "97",
		"street": "grande rue",
		"city": "Chambourcy",
		"district": "",
		"postcode": "78240"
	},
	{
		"lon": "2.0331684",
		"lat": "48.9065303",
		"number": "97",
		"street": "grande rue",
		"city": "Chambourcy",
		"district": "",
		"postcode": "78240"
	},
	{
		"lon": "2.0331684",
		"lat": "48.9065303",
		"number": "97",
		"street": "grande rue",
		"city": "Chambourcy",
		"district": "",
		"postcode": "78240"
	},
	{
		"lon": "2.0331684",
		"lat": "48.9065303",
		"number": "97",
		"street": "grande rue",
		"city": "Chambourcy",
		"district": "",
		"postcode": "78240"
	},
	{
		"lon": "2.0331684",
		"lat": "48.9065303",
		"number": "97",
		"street": "grande rue",
		"city": "Chambourcy",
		"district": "",
		"postcode": "78240"
	},
	{
		"lon": "2.1778166",
		"lat": "48.9291358",
		"number": "53",
		"street": "rue condorcet",
		"city": "Houilles",
		"district": "",
		"postcode": "78800"
	},
	{
		"lon": "2.1778166",
		"lat": "48.9291358",
		"number": "53",
		"street": "rue condorcet",
		"city": "Houilles",
		"district": "",
		"postcode": "78800"
	},
	{
		"lon": "2.1778166",
		"lat": "48.9291358",
		"number": "53",
		"street": "rue condorcet",
		"city": "Houilles",
		"district": "",
		"postcode": "78800"
	},
	{
		"lon": "2.1778166",
		"lat": "48.9291358",
		"number": "53",
		"street": "rue condorcet",
		"city": "Houilles",
		"district": "",
		"postcode": "78800"
	},
	{
		"lon": "2.174399",
		"lat": "48.9303371",
		"number": "129",
		"street": "rue lavoisier",
		"city": "Houilles",
		"district": "",
		"postcode": "78800"
	},
	{
		"lon": "2.174399",
		"lat": "48.9303371",
		"number": "129",
		"street": "rue lavoisier",
		"city": "Houilles",
		"district": "",
		"postcode": "78800"
	},
	{
		"lon": "2.174399",
		"lat": "48.9303371",
		"number": "129",
		"street": "rue lavoisier",
		"city": "Houilles",
		"district": "",
		"postcode": "78800"
	},
	{
		"lon": "2.174399",
		"lat": "48.9303371",
		"number": "129",
		"street": "rue lavoisier",
		"city": "Houilles",
		"district": "",
		"postcode": "78800"
	},
	{
		"lon": "2.174399",
		"lat": "48.9303371",
		"number": "129",
		"street": "rue lavoisier",
		"city": "Houilles",
		"district": "",
		"postcode": "78800"
	},
	{
		"lon": "2.174399",
		"lat": "48.9303371",
		"number": "129",
		"street": "rue lavoisier",
		"city": "Houilles",
		"district": "",
		"postcode": "78800"
	},
	{
		"lon": "2.174399",
		"lat": "48.9303371",
		"number": "129",
		"street": "rue lavoisier",
		"city": "Houilles",
		"district": "",
		"postcode": "78800"
	},
	{
		"lon": "2.174399",
		"lat": "48.9303371",
		"number": "129",
		"street": "rue lavoisier",
		"city": "Houilles",
		"district": "",
		"postcode": "78800"
	},
	{
		"lon": "2.174399",
		"lat": "48.9303371",
		"number": "129",
		"street": "rue lavoisier",
		"city": "Houilles",
		"district": "",
		"postcode": "78800"
	},
	{
		"lon": "2.174399",
		"lat": "48.9303371",
		"number": "129",
		"street": "rue lavoisier",
		"city": "Houilles",
		"district": "",
		"postcode": "78800"
	},
	{
		"lon": "2.174399",
		"lat": "48.9303371",
		"number": "129",
		"street": "rue lavoisier",
		"city": "Houilles",
		"district": "",
		"postcode": "78800"
	},
	{
		"lon": "2.1502561",
		"lat": "48.9332179",
		"number": "139",
		"street": "avenue de la république",
		"city": "Sartrouville",
		"district": "",
		"postcode": "78500"
	},
	{
		"lon": "2.1502561",
		"lat": "48.9332179",
		"number": "139",
		"street": "avenue de la république",
		"city": "Sartrouville",
		"district": "",
		"postcode": "78500"
	},
	{
		"lon": "2.1502561",
		"lat": "48.9332179",
		"number": "139",
		"street": "avenue de la république",
		"city": "Sartrouville",
		"district": "",
		"postcode": "78500"
	},
	{
		"lon": "2.1502561",
		"lat": "48.9332179",
		"number": "139",
		"street": "avenue de la république",
		"city": "Sartrouville",
		"district": "",
		"postcode": "78500"
	},
	{
		"lon": "2.1502561",
		"lat": "48.9332179",
		"number": "139",
		"street": "avenue de la république",
		"city": "Sartrouville",
		"district": "",
		"postcode": "78500"
	},
	{
		"lon": "2.0380862",
		"lat": "48.908035",
		"number": "15",
		"street": "rue francis pedron",
		"city": "Chambourcy",
		"district": "",
		"postcode": "78240"
	},
	{
		"lon": "2.0380862",
		"lat": "48.908035",
		"number": "15",
		"street": "rue francis pedron",
		"city": "Chambourcy",
		"district": "",
		"postcode": "78240"
	},
	{
		"lon": "2.0380862",
		"lat": "48.908035",
		"number": "15",
		"street": "rue francis pedron",
		"city": "Chambourcy",
		"district": "",
		"postcode": "78240"
	},
	{
		"lon": "2.0380862",
		"lat": "48.908035",
		"number": "15",
		"street": "rue francis pedron",
		"city": "Chambourcy",
		"district": "",
		"postcode": "78240"
	},
	{
		"lon": "2.0380862",
		"lat": "48.908035",
		"number": "15",
		"street": "rue francis pedron",
		"city": "Chambourcy",
		"district": "",
		"postcode": "78240"
	},
	{
		"lon": "2.0380862",
		"lat": "48.908035",
		"number": "15",
		"street": "rue francis pedron",
		"city": "Chambourcy",
		"district": "",
		"postcode": "78240"
	},
	{
		"lon": "2.0749055",
		"lat": "48.9923831",
		"number": "1",
		"street": "rue des cotes de vannes",
		"city": "Conflans-Sainte-Honorine",
		"district": "",
		"postcode": "78700"
	},
	{
		"lon": "2.0749055",
		"lat": "48.9923831",
		"number": "1",
		"street": "rue des cotes de vannes",
		"city": "Conflans-Sainte-Honorine",
		"district": "",
		"postcode": "78700"
	},
	{
		"lon": "2.1769039",
		"lat": "48.9304902",
		"number": "102",
		"street": "rue condorcet",
		"city": "Houilles",
		"district": "",
		"postcode": "78800"
	},
	{
		"lon": "2.1769039",
		"lat": "48.9304902",
		"number": "102",
		"street": "rue condorcet",
		"city": "Houilles",
		"district": "",
		"postcode": "78800"
	},
	{
		"lon": "2.1769039",
		"lat": "48.9304902",
		"number": "102",
		"street": "rue condorcet",
		"city": "Houilles",
		"district": "",
		"postcode": "78800"
	},
	{
		"lon": "2.1769039",
		"lat": "48.9304902",
		"number": "102",
		"street": "rue condorcet",
		"city": "Houilles",
		"district": "",
		"postcode": "78800"
	},
	{
		"lon": "2.1708984",
		"lat": "48.9271474",
		"number": "4",
		"street": "rue edison",
		"city": "Houilles",
		"district": "",
		"postcode": "78800"
	},
	{
		"lon": "2.1708984",
		"lat": "48.9271474",
		"number": "4",
		"street": "rue edison",
		"city": "Houilles",
		"district": "",
		"postcode": "78800"
	},
	{
		"lon": "2.1708984",
		"lat": "48.9271474",
		"number": "4",
		"street": "rue edison",
		"city": "Houilles",
		"district": "",
		"postcode": "78800"
	},
	{
		"lon": "2.0456364",
		"lat": "48.9042372",
		"number": "7",
		"street": "rue du clos de la famille",
		"city": "Chambourcy",
		"district": "",
		"postcode": "78240"
	},
	{
		"lon": "2.0456364",
		"lat": "48.9042372",
		"number": "7",
		"street": "rue du clos de la famille",
		"city": "Chambourcy",
		"district": "",
		"postcode": "78240"
	},
	{
		"lon": "2.0456364",
		"lat": "48.9042372",
		"number": "7",
		"street": "rue du clos de la famille",
		"city": "Chambourcy",
		"district": "",
		"postcode": "78240"
	},
	{
		"lon": "2.0765665",
		"lat": "48.9903437",
		"number": "2",
		"street": "avenue gaston le cousin",
		"city": "Conflans-Sainte-Honorine",
		"district": "",
		"postcode": "78700"
	},
	{
		"lon": "2.0765665",
		"lat": "48.9903437",
		"number": "2",
		"street": "avenue gaston le cousin",
		"city": "Conflans-Sainte-Honorine",
		"district": "",
		"postcode": "78700"
	},
	{
		"lon": "2.0765665",
		"lat": "48.9903437",
		"number": "2",
		"street": "avenue gaston le cousin",
		"city": "Conflans-Sainte-Honorine",
		"district": "",
		"postcode": "78700"
	},
	{
		"lon": "2.0765665",
		"lat": "48.9903437",
		"number": "2",
		"street": "avenue gaston le cousin",
		"city": "Conflans-Sainte-Honorine",
		"district": "",
		"postcode": "78700"
	},
	{
		"lon": "2.0753491",
		"lat": "48.9994017",
		"number": "48",
		"street": "rue des frères françois",
		"city": "Conflans-Sainte-Honorine",
		"district": "",
		"postcode": "78700"
	},
	{
		"lon": "2.0753491",
		"lat": "48.9994017",
		"number": "48",
		"street": "rue des frères françois",
		"city": "Conflans-Sainte-Honorine",
		"district": "",
		"postcode": "78700"
	},
	{
		"lon": "2.0753491",
		"lat": "48.9994017",
		"number": "48",
		"street": "rue des frères françois",
		"city": "Conflans-Sainte-Honorine",
		"district": "",
		"postcode": "78700"
	},
	{
		"lon": "2.0753491",
		"lat": "48.9994017",
		"number": "48",
		"street": "rue des frères françois",
		"city": "Conflans-Sainte-Honorine",
		"district": "",
		"postcode": "78700"
	},
	{
		"lon": "2.0753491",
		"lat": "48.9994017",
		"number": "48",
		"street": "rue des frères françois",
		"city": "Conflans-Sainte-Honorine",
		"district": "",
		"postcode": "78700"
	},
	{
		"lon": "2.0753491",
		"lat": "48.9994017",
		"number": "48",
		"street": "rue des frères françois",
		"city": "Conflans-Sainte-Honorine",
		"district": "",
		"postcode": "78700"
	},
	{
		"lon": "2.1187245",
		"lat": "48.7688747",
		"number": "3",
		"street": "rue albert calmette",
		"city": "Buc",
		"district": "",
		"postcode": "78530"
	},
	{
		"lon": "2.1181405",
		"lat": "48.7688929",
		"number": "8",
		"street": "rue albert calmette",
		"city": "Buc",
		"district": "",
		"postcode": "78530"
	},
	{
		"lon": "1.9988788",
		"lat": "48.7270967",
		"number": "6",
		"street": "rue du clair bois",
		"city": "Saint-Lambert",
		"district": "",
		"postcode": "78470"
	},
	{
		"lon": "1.9996182",
		"lat": "48.7288101",
		"number": "18",
		"street": "rue de la ferme",
		"city": "Saint-Lambert",
		"district": "",
		"postcode": "78470"
	},
	{
		"lon": "1.9710505",
		"lat": "48.8005834",
		"number": "7",
		"street": "rue rené descartes",
		"city": "Plaisir",
		"district": "",
		"postcode": "78370"
	},
	{
		"lon": "1.9599385",
		"lat": "48.8060709",
		"number": "1959",
		"street": "rue jules régnier",
		"city": "Plaisir",
		"district": "",
		"postcode": "78370"
	},
	{
		"lon": "1.9538044",
		"lat": "48.8208554",
		"number": "2",
		"street": "rue maximilien robespierre",
		"city": "Plaisir",
		"district": "",
		"postcode": "78370"
	},
	{
		"lon": "1.9502765",
		"lat": "48.807735",
		"number": "39",
		"street": "impasse de la châtaigneraie",
		"city": "Plaisir",
		"district": "",
		"postcode": "78370"
	},
	{
		"lon": "1.9494191",
		"lat": "48.8077796",
		"number": "75",
		"street": "impasse de la châtaigneraie",
		"city": "Plaisir",
		"district": "",
		"postcode": "78370"
	},
	{
		"lon": "1.9447834",
		"lat": "48.8260387",
		"number": "62",
		"street": "rue abel guyet",
		"city": "Plaisir",
		"district": "",
		"postcode": "78370"
	},
	{
		"lon": "1.9441097",
		"lat": "48.8184101",
		"number": "9002",
		"street": "rue albert calmette",
		"city": "Plaisir",
		"district": "",
		"postcode": "78370"
	},
	{
		"lon": "1.9442698",
		"lat": "48.8308811",
		"number": "536",
		"street": "rue abel guyet",
		"city": "Plaisir",
		"district": "",
		"postcode": "78370"
	},
	{
		"lon": "1.941271",
		"lat": "48.8333136",
		"number": "11",
		"street": "impasse forest",
		"city": "Plaisir",
		"district": "",
		"postcode": "78370"
	},
	{
		"lon": "1.94172",
		"lat": "48.8346856",
		"number": "65",
		"street": "rue du pont de poissy",
		"city": "Plaisir",
		"district": "",
		"postcode": "78370"
	},
	{
		"lon": "1.9581064",
		"lat": "48.8161233",
		"number": "557",
		"street": "rue de la bretechelle",
		"city": "Plaisir",
		"district": "",
		"postcode": "78370"
	},
	{
		"lon": "1.956169",
		"lat": "48.7993552",
		"number": "177",
		"street": "rue des poiriers",
		"city": "Plaisir",
		"district": "",
		"postcode": "78370"
	},
	{
		"lon": "1.972285",
		"lat": "48.8066149",
		"number": "9",
		"street": "rue georges bizet",
		"city": "Plaisir",
		"district": "",
		"postcode": "78370"
	},
	{
		"lon": "1.9681416",
		"lat": "48.8066043",
		"number": "27",
		"street": "rue vincent van gogh",
		"city": "Plaisir",
		"district": "",
		"postcode": "78370"
	},
	{
		"lon": "1.9671066",
		"lat": "48.8195373",
		"number": "98",
		"street": "rue d'autriche",
		"city": "Plaisir",
		"district": "",
		"postcode": "78370"
	},
	{
		"lon": "1.952788",
		"lat": "48.8069664",
		"number": "1376",
		"street": "rue jules régnier",
		"city": "Plaisir",
		"district": "",
		"postcode": "78370"
	},
	{
		"lon": "1.9750588",
		"lat": "48.8060612",
		"number": "12",
		"street": "rue darius milhaud",
		"city": "Plaisir",
		"district": "",
		"postcode": "78370"
	},
	{
		"lon": "1.9544914",
		"lat": "48.7984141",
		"number": "23",
		"street": "rue des poiriers",
		"city": "Plaisir",
		"district": "",
		"postcode": "78370"
	},
	{
		"lon": "1.9235276",
		"lat": "48.8172569",
		"number": "1843",
		"street": "rue de la boissière",
		"city": "Plaisir",
		"district": "",
		"postcode": "78370"
	},
	{
		"lon": "1.960975",
		"lat": "48.8270421",
		"number": "9001",
		"street": "rue pierre maître",
		"city": "Plaisir",
		"district": "",
		"postcode": "78370"
	},
	{
		"lon": "1.960975",
		"lat": "48.8270421",
		"number": "9002",
		"street": "rue pierre maître",
		"city": "Plaisir",
		"district": "",
		"postcode": "78370"
	},
	{
		"lon": "1.9614314",
		"lat": "48.8220471",
		"number": "59",
		"street": "rue claude chappe",
		"city": "Plaisir",
		"district": "",
		"postcode": "78370"
	},
	{
		"lon": "1.9615971",
		"lat": "48.8223426",
		"number": "93",
		"street": "rue claude chappe",
		"city": "Plaisir",
		"district": "",
		"postcode": "78370"
	},
	{
		"lon": "1.9608016",
		"lat": "48.8047131",
		"number": "2094",
		"street": "rue jules régnier",
		"city": "Plaisir",
		"district": "",
		"postcode": "78370"
	},
	{
		"lon": "1.967969",
		"lat": "48.8007376",
		"number": "21",
		"street": "rue pascal",
		"city": "Plaisir",
		"district": "",
		"postcode": "78370"
	},
	{
		"lon": "1.9813366",
		"lat": "48.801016",
		"number": "52",
		"street": "rue pierre curie",
		"city": "Plaisir",
		"district": "",
		"postcode": "78370"
	},
	{
		"lon": "1.9682509",
		"lat": "48.8010782",
		"number": "19",
		"street": "rue pascal",
		"city": "Plaisir",
		"district": "",
		"postcode": "78370"
	},
	{
		"lon": "1.9682509",
		"lat": "48.8010791",
		"number": "19",
		"street": "rue pascal",
		"city": "Plaisir",
		"district": "",
		"postcode": "78370"
	},
	{
		"lon": "1.9696748",
		"lat": "48.8010258",
		"number": "16",
		"street": "rue rené descartes",
		"city": "Plaisir",
		"district": "",
		"postcode": "78370"
	},
	{
		"lon": "1.9697014",
		"lat": "48.80099",
		"number": "15",
		"street": "rue rené descartes",
		"city": "Plaisir",
		"district": "",
		"postcode": "78370"
	},
	{
		"lon": "1.9694309",
		"lat": "48.8011721",
		"number": "14",
		"street": "rue rené descartes",
		"city": "Plaisir",
		"district": "",
		"postcode": "78370"
	},
	{
		"lon": "1.9806705",
		"lat": "48.8012442",
		"number": "50",
		"street": "rue pierre curie",
		"city": "Plaisir",
		"district": "",
		"postcode": "78370"
	},
	{
		"lon": "1.9666022",
		"lat": "48.8019688",
		"number": "4",
		"street": "rue pierre curie",
		"city": "Plaisir",
		"district": "",
		"postcode": "78370"
	},
	{
		"lon": "1.9678325",
		"lat": "48.8019947",
		"number": "4",
		"street": "rue rené descartes",
		"city": "Plaisir",
		"district": "",
		"postcode": "78370"
	},
	{
		"lon": "1.9680551",
		"lat": "48.8018941",
		"number": "6",
		"street": "rue rené descartes",
		"city": "Plaisir",
		"district": "",
		"postcode": "78370"
	},
	{
		"lon": "1.9705109",
		"lat": "48.8019153",
		"number": "2",
		"street": "rue de jalna",
		"city": "Plaisir",
		"district": "",
		"postcode": "78370"
	},
	{
		"lon": "1.9694005",
		"lat": "48.8019516",
		"number": "4",
		"street": "rue du petit pont",
		"city": "Plaisir",
		"district": "",
		"postcode": "78370"
	},
	{
		"lon": "1.9827657",
		"lat": "48.800555",
		"number": "54",
		"street": "rue pierre curie",
		"city": "Plaisir",
		"district": "",
		"postcode": "78370"
	},
	{
		"lon": "1.9570431",
		"lat": "48.7969038",
		"number": "331",
		"street": "rue rené lacoste",
		"city": "Plaisir",
		"district": "",
		"postcode": "78370"
	},
	{
		"lon": "1.9560425",
		"lat": "48.7958085",
		"number": "201",
		"street": "rue rené lacoste",
		"city": "Plaisir",
		"district": "",
		"postcode": "78370"
	},
	{
		"lon": "1.9556341",
		"lat": "48.7953993",
		"number": "141",
		"street": "rue rené lacoste",
		"city": "Plaisir",
		"district": "",
		"postcode": "78370"
	},
	{
		"lon": "1.9557295",
		"lat": "48.7953965",
		"number": "136",
		"street": "rue rené lacoste",
		"city": "Plaisir",
		"district": "",
		"postcode": "78370"
	},
	{
		"lon": "1.9562082",
		"lat": "48.7956265",
		"number": "27",
		"street": "rue henri cochet",
		"city": "Plaisir",
		"district": "",
		"postcode": "78370"
	},
	{
		"lon": "1.9569508",
		"lat": "48.7958659",
		"number": "66",
		"street": "rue jean borotra",
		"city": "Plaisir",
		"district": "",
		"postcode": "78370"
	},
	{
		"lon": "1.9574439",
		"lat": "48.7970107",
		"number": "5",
		"street": "rue toto brugnon",
		"city": "Plaisir",
		"district": "",
		"postcode": "78370"
	},
	{
		"lon": "1.957748",
		"lat": "48.7973938",
		"number": "58",
		"street": "place suzanne lenglen",
		"city": "Plaisir",
		"district": "",
		"postcode": "78370"
	},
	{
		"lon": "1.9576349",
		"lat": "48.7972651",
		"number": "401",
		"street": "rue rené lacoste",
		"city": "Plaisir",
		"district": "",
		"postcode": "78370"
	},
	{
		"lon": "1.9575752",
		"lat": "48.7971836",
		"number": "383",
		"street": "rue rené lacoste",
		"city": "Plaisir",
		"district": "",
		"postcode": "78370"
	},
	{
		"lon": "1.9574177",
		"lat": "48.7970977",
		"number": "377",
		"street": "rue rené lacoste",
		"city": "Plaisir",
		"district": "",
		"postcode": "78370"
	},
	{
		"lon": "1.9572114",
		"lat": "48.7970626",
		"number": "355",
		"street": "rue rené lacoste",
		"city": "Plaisir",
		"district": "",
		"postcode": "78370"
	},
	{
		"lon": "1.9571148",
		"lat": "48.7969907",
		"number": "347",
		"street": "rue rené lacoste",
		"city": "Plaisir",
		"district": "",
		"postcode": "78370"
	},
	{
		"lon": "1.9644672",
		"lat": "48.803134",
		"number": "2424",
		"street": "rue jules régnier",
		"city": "Plaisir",
		"district": "",
		"postcode": "78370"
	},
	{
		"lon": "1.9661223",
		"lat": "48.8027526",
		"number": "13",
		"street": "rue prosper dufour",
		"city": "Plaisir",
		"district": "",
		"postcode": "78370"
	},
	{
		"lon": "1.9656606",
		"lat": "48.8027576",
		"number": "2518",
		"street": "rue jules régnier",
		"city": "Plaisir",
		"district": "",
		"postcode": "78370"
	},
	{
		"lon": "1.9656279",
		"lat": "48.803243",
		"number": "50",
		"street": "rue alfred champy",
		"city": "Plaisir",
		"district": "",
		"postcode": "78370"
	},
	{
		"lon": "1.9668608",
		"lat": "48.8032069",
		"number": "115",
		"street": "sentier pierre roux",
		"city": "Plaisir",
		"district": "",
		"postcode": "78370"
	},
	{
		"lon": "1.9678796",
		"lat": "48.8024341",
		"number": "16",
		"street": "rue pierre curie",
		"city": "Plaisir",
		"district": "",
		"postcode": "78370"
	},
	{
		"lon": "1.967552",
		"lat": "48.8023377",
		"number": "14",
		"street": "rue pierre curie",
		"city": "Plaisir",
		"district": "",
		"postcode": "78370"
	},
	{
		"lon": "1.9672437",
		"lat": "48.8022298",
		"number": "12",
		"street": "rue pierre curie",
		"city": "Plaisir",
		"district": "",
		"postcode": "78370"
	},
	{
		"lon": "1.9671667",
		"lat": "48.8021986",
		"number": "10",
		"street": "rue pierre curie",
		"city": "Plaisir",
		"district": "",
		"postcode": "78370"
	},
	{
		"lon": "1.9670856",
		"lat": "48.8021682",
		"number": "8",
		"street": "rue pierre curie",
		"city": "Plaisir",
		"district": "",
		"postcode": "78370"
	},
	{
		"lon": "1.9669398",
		"lat": "48.8021058",
		"number": "6",
		"street": "rue pierre curie",
		"city": "Plaisir",
		"district": "",
		"postcode": "78370"
	},
	{
		"lon": "1.9667844",
		"lat": "48.8023931",
		"number": "2610",
		"street": "rue jules régnier",
		"city": "Plaisir",
		"district": "",
		"postcode": "78370"
	},
	{
		"lon": "1.9685768",
		"lat": "48.8026398",
		"number": "20",
		"street": "rue pierre curie",
		"city": "Plaisir",
		"district": "",
		"postcode": "78370"
	},
	{
		"lon": "1.9682938",
		"lat": "48.8025573",
		"number": "18",
		"street": "rue pierre curie",
		"city": "Plaisir",
		"district": "",
		"postcode": "78370"
	},
	{
		"lon": "1.9691832",
		"lat": "48.8021989",
		"number": "11",
		"street": "rue pascal",
		"city": "Plaisir",
		"district": "",
		"postcode": "78370"
	},
	{
		"lon": "1.9699913",
		"lat": "48.8029938",
		"number": "26",
		"street": "rue pierre curie",
		"city": "Plaisir",
		"district": "",
		"postcode": "78370"
	},
	{
		"lon": "1.9697564",
		"lat": "48.8029585",
		"number": "24",
		"street": "rue pierre curie",
		"city": "Plaisir",
		"district": "",
		"postcode": "78370"
	},
	{
		"lon": "1.969641",
		"lat": "48.802944",
		"number": "22",
		"street": "rue pierre curie",
		"city": "Plaisir",
		"district": "",
		"postcode": "78370"
	},
	{
		"lon": "1.9696736",
		"lat": "48.8022571",
		"number": "9",
		"street": "rue pascal",
		"city": "Plaisir",
		"district": "",
		"postcode": "78370"
	},
	{
		"lon": "1.9694194",
		"lat": "48.8025112",
		"number": "7",
		"street": "rue pascal",
		"city": "Plaisir",
		"district": "",
		"postcode": "78370"
	},
	{
		"lon": "1.9694901",
		"lat": "48.8026531",
		"number": "5",
		"street": "rue pascal",
		"city": "Plaisir",
		"district": "",
		"postcode": "78370"
	},
	{
		"lon": "1.9695136",
		"lat": "48.8027738",
		"number": "3",
		"street": "rue pascal",
		"city": "Plaisir",
		"district": "",
		"postcode": "78370"
	},
	{
		"lon": "1.9695136",
		"lat": "48.8027738",
		"number": "3",
		"street": "rue pascal",
		"city": "Plaisir",
		"district": "",
		"postcode": "78370"
	},
	{
		"lon": "1.969679",
		"lat": "48.8039166",
		"number": "11",
		"street": "rue antoine laurent lavoisier",
		"city": "Plaisir",
		"district": "",
		"postcode": "78370"
	},
	{
		"lon": "1.9695926",
		"lat": "48.8037387",
		"number": "9",
		"street": "rue antoine laurent lavoisier",
		"city": "Plaisir",
		"district": "",
		"postcode": "78370"
	},
	{
		"lon": "1.9693758",
		"lat": "48.8030649",
		"number": "1",
		"street": "rue antoine laurent lavoisier",
		"city": "Plaisir",
		"district": "",
		"postcode": "78370"
	},
	{
		"lon": "1.971846",
		"lat": "48.8025699",
		"number": "36",
		"street": "rue pierre curie",
		"city": "Plaisir",
		"district": "",
		"postcode": "78370"
	},
	{
		"lon": "1.9716422",
		"lat": "48.8038579",
		"number": "14",
		"street": "rue albert einstein",
		"city": "Plaisir",
		"district": "",
		"postcode": "78370"
	},
	{
		"lon": "1.9716201",
		"lat": "48.8038047",
		"number": "12",
		"street": "rue albert einstein",
		"city": "Plaisir",
		"district": "",
		"postcode": "78370"
	},
	{
		"lon": "1.9714888",
		"lat": "48.80363",
		"number": "10",
		"street": "rue albert einstein",
		"city": "Plaisir",
		"district": "",
		"postcode": "78370"
	},
	{
		"lon": "1.9714862",
		"lat": "48.8035553",
		"number": "8",
		"street": "rue albert einstein",
		"city": "Plaisir",
		"district": "",
		"postcode": "78370"
	},
	{
		"lon": "1.9714825",
		"lat": "48.8034662",
		"number": "6",
		"street": "rue albert einstein",
		"city": "Plaisir",
		"district": "",
		"postcode": "78370"
	},
	{
		"lon": "1.9714761",
		"lat": "48.8033744",
		"number": "4",
		"street": "rue albert einstein",
		"city": "Plaisir",
		"district": "",
		"postcode": "78370"
	},
	{
		"lon": "1.9715461",
		"lat": "48.8032788",
		"number": "2",
		"street": "rue albert einstein",
		"city": "Plaisir",
		"district": "",
		"postcode": "78370"
	},
	{
		"lon": "1.9728418",
		"lat": "48.803719",
		"number": "12",
		"street": "rue maurice ravel",
		"city": "Plaisir",
		"district": "",
		"postcode": "78370"
	},
	{
		"lon": "1.9732105",
		"lat": "48.8037356",
		"number": "10",
		"street": "rue maurice ravel",
		"city": "Plaisir",
		"district": "",
		"postcode": "78370"
	},
	{
		"lon": "1.9733632",
		"lat": "48.8037243",
		"number": "8",
		"street": "rue maurice ravel",
		"city": "Plaisir",
		"district": "",
		"postcode": "78370"
	},
	{
		"lon": "1.9724707",
		"lat": "48.8034109",
		"number": "2",
		"street": "rue maurice ravel",
		"city": "Plaisir",
		"district": "",
		"postcode": "78370"
	},
	{
		"lon": "1.9651587",
		"lat": "48.8014976",
		"number": "9025",
		"street": "rue pierre curie",
		"city": "Plaisir",
		"district": "",
		"postcode": "78370"
	},
	{
		"lon": "1.9747962",
		"lat": "48.803143",
		"number": "9009",
		"street": "rue pierre curie",
		"city": "Plaisir",
		"district": "",
		"postcode": "78370"
	},
	{
		"lon": "1.974725",
		"lat": "48.8031622",
		"number": "40",
		"street": "rue pierre curie",
		"city": "Plaisir",
		"district": "",
		"postcode": "78370"
	},
	{
		"lon": "1.9743512",
		"lat": "48.8032003",
		"number": "38",
		"street": "rue pierre curie",
		"city": "Plaisir",
		"district": "",
		"postcode": "78370"
	},
	{
		"lon": "1.9759922",
		"lat": "48.8027692",
		"number": "44",
		"street": "rue pierre curie",
		"city": "Plaisir",
		"district": "",
		"postcode": "78370"
	},
	{
		"lon": "1.9769399",
		"lat": "48.8024913",
		"number": "46",
		"street": "rue pierre curie",
		"city": "Plaisir",
		"district": "",
		"postcode": "78370"
	},
	{
		"lon": "1.9769399",
		"lat": "48.8024913",
		"number": "46",
		"street": "rue pierre curie",
		"city": "Plaisir",
		"district": "",
		"postcode": "78370"
	},
	{
		"lon": "1.9778492",
		"lat": "48.8022949",
		"number": "49",
		"street": "rue pierre curie",
		"city": "Plaisir",
		"district": "",
		"postcode": "78370"
	},
	{
		"lon": "1.9688733",
		"lat": "48.8018292",
		"number": "15",
		"street": "rue pascal",
		"city": "Plaisir",
		"district": "",
		"postcode": "78370"
	},
	{
		"lon": "1.9682741",
		"lat": "48.8017665",
		"number": "10",
		"street": "rue rené descartes",
		"city": "Plaisir",
		"district": "",
		"postcode": "78370"
	},
	{
		"lon": "1.9684747",
		"lat": "48.801672",
		"number": "10",
		"street": "rue rené descartes",
		"city": "Plaisir",
		"district": "",
		"postcode": "78370"
	},
	{
		"lon": "1.9700191",
		"lat": "48.8016538",
		"number": "8",
		"street": "rue du petit pont",
		"city": "Plaisir",
		"district": "",
		"postcode": "78370"
	},
	{
		"lon": "1.969854",
		"lat": "48.8017397",
		"number": "6",
		"street": "rue du petit pont",
		"city": "Plaisir",
		"district": "",
		"postcode": "78370"
	},
	{
		"lon": "1.9790798",
		"lat": "48.8018899",
		"number": "51",
		"street": "rue pierre curie",
		"city": "Plaisir",
		"district": "",
		"postcode": "78370"
	},
	{
		"lon": "1.9790798",
		"lat": "48.8018899",
		"number": "51",
		"street": "rue pierre curie",
		"city": "Plaisir",
		"district": "",
		"postcode": "78370"
	},
	{
		"lon": "1.9657999",
		"lat": "48.8015697",
		"number": "2",
		"street": "rue pierre curie",
		"city": "Plaisir",
		"district": "",
		"postcode": "78370"
	},
	{
		"lon": "1.96926",
		"lat": "48.8012749",
		"number": "12",
		"street": "rue rené descartes",
		"city": "Plaisir",
		"district": "",
		"postcode": "78370"
	},
	{
		"lon": "1.9690369",
		"lat": "48.8014052",
		"number": "10",
		"street": "rue rené descartes",
		"city": "Plaisir",
		"district": "",
		"postcode": "78370"
	},
	{
		"lon": "1.970278",
		"lat": "48.8015778",
		"number": "12",
		"street": "rue du petit pont",
		"city": "Plaisir",
		"district": "",
		"postcode": "78370"
	},
	{
		"lon": "1.9577423",
		"lat": "48.7976825",
		"number": "42",
		"street": "place suzanne lenglen",
		"city": "Plaisir",
		"district": "",
		"postcode": "78370"
	},
	{
		"lon": "1.9577837",
		"lat": "48.7977206",
		"number": "37",
		"street": "place suzanne lenglen",
		"city": "Plaisir",
		"district": "",
		"postcode": "78370"
	},
	{
		"lon": "1.9578421",
		"lat": "48.7977292",
		"number": "32",
		"street": "place suzanne lenglen",
		"city": "Plaisir",
		"district": "",
		"postcode": "78370"
	},
	{
		"lon": "1.9495117",
		"lat": "48.7989218",
		"number": "43",
		"street": "avenue de sainte-apolline",
		"city": "Plaisir",
		"district": "",
		"postcode": "78370"
	},
	{
		"lon": "1.9542653",
		"lat": "48.7993701",
		"number": "122",
		"street": "rue des cerisiers",
		"city": "Plaisir",
		"district": "",
		"postcode": "78370"
	},
	{
		"lon": "1.9564744",
		"lat": "48.7963403",
		"number": "267",
		"street": "rue rené lacoste",
		"city": "Plaisir",
		"district": "",
		"postcode": "78370"
	},
	{
		"lon": "1.9563944",
		"lat": "48.7962532",
		"number": "247",
		"street": "rue rené lacoste",
		"city": "Plaisir",
		"district": "",
		"postcode": "78370"
	},
	{
		"lon": "1.9563305",
		"lat": "48.7961807",
		"number": "243",
		"street": "rue rené lacoste",
		"city": "Plaisir",
		"district": "",
		"postcode": "78370"
	},
	{
		"lon": "1.9562707",
		"lat": "48.7961091",
		"number": "233",
		"street": "rue rené lacoste",
		"city": "Plaisir",
		"district": "",
		"postcode": "78370"
	},
	{
		"lon": "1.9561935",
		"lat": "48.7960194",
		"number": "217",
		"street": "rue rené lacoste",
		"city": "Plaisir",
		"district": "",
		"postcode": "78370"
	},
	{
		"lon": "1.9561163",
		"lat": "48.7959306",
		"number": "211",
		"street": "rue rené lacoste",
		"city": "Plaisir",
		"district": "",
		"postcode": "78370"
	},
	{
		"lon": "1.9569133",
		"lat": "48.795969",
		"number": "56",
		"street": "rue jean borotra",
		"city": "Plaisir",
		"district": "",
		"postcode": "78370"
	},
	{
		"lon": "1.9568692",
		"lat": "48.7960658",
		"number": "46",
		"street": "rue jean borotra",
		"city": "Plaisir",
		"district": "",
		"postcode": "78370"
	},
	{
		"lon": "1.9568209",
		"lat": "48.7961661",
		"number": "40",
		"street": "rue jean borotra",
		"city": "Plaisir",
		"district": "",
		"postcode": "78370"
	},
	{
		"lon": "1.9567584",
		"lat": "48.796296",
		"number": "26",
		"street": "rue jean borotra",
		"city": "Plaisir",
		"district": "",
		"postcode": "78370"
	},
	{
		"lon": "1.95691",
		"lat": "48.7967506",
		"number": "317",
		"street": "rue rené lacoste",
		"city": "Plaisir",
		"district": "",
		"postcode": "78370"
	},
	{
		"lon": "1.9568367",
		"lat": "48.7966717",
		"number": "301",
		"street": "rue rené lacoste",
		"city": "Plaisir",
		"district": "",
		"postcode": "78370"
	},
	{
		"lon": "1.9567368",
		"lat": "48.7965584",
		"number": "287",
		"street": "rue rené lacoste",
		"city": "Plaisir",
		"district": "",
		"postcode": "78370"
	},
	{
		"lon": "1.9566314",
		"lat": "48.7964505",
		"number": "281",
		"street": "rue rené lacoste",
		"city": "Plaisir",
		"district": "",
		"postcode": "78370"
	},
	{
		"lon": "1.9569685",
		"lat": "48.7968195",
		"number": "327",
		"street": "rue rené lacoste",
		"city": "Plaisir",
		"district": "",
		"postcode": "78370"
	},
	{
		"lon": "1.9610017",
		"lat": "48.7914561",
		"number": "1",
		"street": "rue des frênes",
		"city": "Plaisir",
		"district": "",
		"postcode": "78370"
	},
	{
		"lon": "1.9612166",
		"lat": "48.7913986",
		"number": "3",
		"street": "rue des frênes",
		"city": "Plaisir",
		"district": "",
		"postcode": "78370"
	},
	{
		"lon": "1.9609607",
		"lat": "48.7899636",
		"number": "28",
		"street": "rue des frênes",
		"city": "Plaisir",
		"district": "",
		"postcode": "78370"
	},
	{
		"lon": "1.9607404",
		"lat": "48.7900867",
		"number": "24",
		"street": "rue des frênes",
		"city": "Plaisir",
		"district": "",
		"postcode": "78370"
	},
	{
		"lon": "1.9534651",
		"lat": "48.8234401",
		"number": "55",
		"street": "place du silo 9",
		"city": "Plaisir",
		"district": "",
		"postcode": "78370"
	},
	{
		"lon": "1.9643769",
		"lat": "48.8235944",
		"number": "41",
		"street": "rue jean jaurès",
		"city": "Plaisir",
		"district": "",
		"postcode": "78370"
	},
	{
		"lon": "1.9658191",
		"lat": "48.8235404",
		"number": "38",
		"street": "chemin alain savary",
		"city": "Plaisir",
		"district": "",
		"postcode": "78370"
	},
	{
		"lon": "1.9658359",
		"lat": "48.8235864",
		"number": "30",
		"street": "chemin alain savary",
		"city": "Plaisir",
		"district": "",
		"postcode": "78370"
	},
	{
		"lon": "1.9653457",
		"lat": "48.823574",
		"number": "37",
		"street": "chemin adolfo perez esquivel",
		"city": "Plaisir",
		"district": "",
		"postcode": "78370"
	},
	{
		"lon": "1.9443366",
		"lat": "48.8238185",
		"number": "32",
		"street": "rue de touraine",
		"city": "Plaisir",
		"district": "",
		"postcode": "78370"
	},
	{
		"lon": "1.9443366",
		"lat": "48.8238185",
		"number": "30",
		"street": "rue de touraine",
		"city": "Plaisir",
		"district": "",
		"postcode": "78370"
	},
	{
		"lon": "1.9628122",
		"lat": "48.8239829",
		"number": "98",
		"street": "rue françois mauriac",
		"city": "Plaisir",
		"district": "",
		"postcode": "78370"
	},
	{
		"lon": "1.9646516",
		"lat": "48.8239566",
		"number": "87",
		"street": "rue jean jaurès",
		"city": "Plaisir",
		"district": "",
		"postcode": "78370"
	},
	{
		"lon": "1.963567",
		"lat": "48.8239742",
		"number": "151",
		"street": "rue françois mauriac",
		"city": "Plaisir",
		"district": "",
		"postcode": "78370"
	},
	{
		"lon": "1.9611814",
		"lat": "48.8237952",
		"number": "72",
		"street": "rue jacques prévert",
		"city": "Plaisir",
		"district": "",
		"postcode": "78370"
	},
	{
		"lon": "1.9610913",
		"lat": "48.8238052",
		"number": "66",
		"street": "rue jacques prévert",
		"city": "Plaisir",
		"district": "",
		"postcode": "78370"
	},
	{
		"lon": "1.9609847",
		"lat": "48.8238186",
		"number": "56",
		"street": "rue jacques prévert",
		"city": "Plaisir",
		"district": "",
		"postcode": "78370"
	},
	{
		"lon": "1.9634885",
		"lat": "48.8238143",
		"number": "138",
		"street": "rue françois mauriac",
		"city": "Plaisir",
		"district": "",
		"postcode": "78370"
	},
	{
		"lon": "1.9652835",
		"lat": "48.8238955",
		"number": "152",
		"street": "rue jean jaurès",
		"city": "Plaisir",
		"district": "",
		"postcode": "78370"
	},
	{
		"lon": "1.9651824",
		"lat": "48.8239099",
		"number": "142",
		"street": "rue jean jaurès",
		"city": "Plaisir",
		"district": "",
		"postcode": "78370"
	},
	{
		"lon": "1.9650787",
		"lat": "48.8239216",
		"number": "136",
		"street": "rue jean jaurès",
		"city": "Plaisir",
		"district": "",
		"postcode": "78370"
	},
	{
		"lon": "1.9661557",
		"lat": "48.8239417",
		"number": "112",
		"street": "rue rené cassin",
		"city": "Plaisir",
		"district": "",
		"postcode": "78370"
	},
	{
		"lon": "1.9662086",
		"lat": "48.8238873",
		"number": "104",
		"street": "rue rené cassin",
		"city": "Plaisir",
		"district": "",
		"postcode": "78370"
	},
	{
		"lon": "1.9630583",
		"lat": "48.8240723",
		"number": "97",
		"street": "rue françois mauriac",
		"city": "Plaisir",
		"district": "",
		"postcode": "78370"
	},
	{
		"lon": "1.963623",
		"lat": "48.8240376",
		"number": "165",
		"street": "rue françois mauriac",
		"city": "Plaisir",
		"district": "",
		"postcode": "78370"
	},
	{
		"lon": "1.9655222",
		"lat": "48.8241539",
		"number": "41",
		"street": "chemin victor schoelcher",
		"city": "Plaisir",
		"district": "",
		"postcode": "78370"
	},
	{
		"lon": "1.9655837",
		"lat": "48.8241454",
		"number": "31",
		"street": "chemin victor schoelcher",
		"city": "Plaisir",
		"district": "",
		"postcode": "78370"
	},
	{
		"lon": "1.9656725",
		"lat": "48.82413",
		"number": "27",
		"street": "chemin victor schoelcher",
		"city": "Plaisir",
		"district": "",
		"postcode": "78370"
	},
	{
		"lon": "1.9657544",
		"lat": "48.8241199",
		"number": "17",
		"street": "chemin victor schoelcher",
		"city": "Plaisir",
		"district": "",
		"postcode": "78370"
	},
	{
		"lon": "1.9658652",
		"lat": "48.8241011",
		"number": "15",
		"street": "chemin victor schoelcher",
		"city": "Plaisir",
		"district": "",
		"postcode": "78370"
	},
	{
		"lon": "1.9659253",
		"lat": "48.8240917",
		"number": "5",
		"street": "chemin victor schoelcher",
		"city": "Plaisir",
		"district": "",
		"postcode": "78370"
	},
	{
		"lon": "1.9143935",
		"lat": "48.8186593",
		"number": "8",
		"street": "rue charles baudelaire",
		"city": "Plaisir",
		"district": "",
		"postcode": "78370"
	},
	{
		"lon": "1.9214135",
		"lat": "48.8186527",
		"number": "21",
		"street": "rue maurice barrès",
		"city": "Plaisir",
		"district": "",
		"postcode": "78370"
	},
	{
		"lon": "1.9147428",
		"lat": "48.8182362",
		"number": "4",
		"street": "rue charles baudelaire",
		"city": "Plaisir",
		"district": "",
		"postcode": "78370"
	},
	{
		"lon": "1.9210618",
		"lat": "48.8182754",
		"number": "5",
		"street": "rue victor hugo",
		"city": "Plaisir",
		"district": "",
		"postcode": "78370"
	},
	{
		"lon": "1.9225856",
		"lat": "48.8183548",
		"number": "2",
		"street": "impasse jean baptiste clément",
		"city": "Plaisir",
		"district": "",
		"postcode": "78370"
	},
	{
		"lon": "1.9226442",
		"lat": "48.8183535",
		"number": "1",
		"street": "impasse jean baptiste clément",
		"city": "Plaisir",
		"district": "",
		"postcode": "78370"
	},
	{
		"lon": "1.9246108",
		"lat": "48.8182938",
		"number": "21",
		"street": "rue paul bourget",
		"city": "Plaisir",
		"district": "",
		"postcode": "78370"
	},
	{
		"lon": "1.9252541",
		"lat": "48.8184013",
		"number": "19",
		"street": "rue paul bourget",
		"city": "Plaisir",
		"district": "",
		"postcode": "78370"
	},
	{
		"lon": "1.925963",
		"lat": "48.8183744",
		"number": "15",
		"street": "rue paul bourget",
		"city": "Plaisir",
		"district": "",
		"postcode": "78370"
	},
	{
		"lon": "1.9264583",
		"lat": "48.8183266",
		"number": "9",
		"street": "rue paul bourget",
		"city": "Plaisir",
		"district": "",
		"postcode": "78370"
	},
	{
		"lon": "1.927334",
		"lat": "48.8183345",
		"number": "9001",
		"street": "rue paul bourget",
		"city": "Plaisir",
		"district": "",
		"postcode": "78370"
	},
	{
		"lon": "1.9301981",
		"lat": "48.8183413",
		"number": "1331",
		"street": "rue de la boissière",
		"city": "Plaisir",
		"district": "",
		"postcode": "78370"
	},
	{
		"lon": "1.9306186",
		"lat": "48.8184278",
		"number": "1317",
		"street": "rue de la boissière",
		"city": "Plaisir",
		"district": "",
		"postcode": "78370"
	},
	{
		"lon": "1.9306186",
		"lat": "48.8184278",
		"number": "1317",
		"street": "rue de la boissière",
		"city": "Plaisir",
		"district": "",
		"postcode": "78370"
	},
	{
		"lon": "1.9305765",
		"lat": "48.8184184",
		"number": "1307",
		"street": "rue de la boissière",
		"city": "Plaisir",
		"district": "",
		"postcode": "78370"
	},
	{
		"lon": "1.9469684",
		"lat": "48.8185513",
		"number": "6",
		"street": "rue de la république",
		"city": "Plaisir",
		"district": "",
		"postcode": "78370"
	},
	{
		"lon": "1.9525956",
		"lat": "48.8186493",
		"number": "48",
		"street": "rue de l'escargot",
		"city": "Plaisir",
		"district": "",
		"postcode": "78370"
	},
	{
		"lon": "1.9663488",
		"lat": "48.8186673",
		"number": "41",
		"street": "place de l'europe",
		"city": "Plaisir",
		"district": "",
		"postcode": "78370"
	},
	{
		"lon": "1.9662367",
		"lat": "48.8187581",
		"number": "23",
		"street": "place de l'europe",
		"city": "Plaisir",
		"district": "",
		"postcode": "78370"
	},
	{
		"lon": "1.9198315",
		"lat": "48.8204625",
		"number": "102",
		"street": "rue michel ange",
		"city": "Plaisir",
		"district": "",
		"postcode": "78370"
	},
	{
		"lon": "1.9195044",
		"lat": "48.8205369",
		"number": "100",
		"street": "rue michel ange",
		"city": "Plaisir",
		"district": "",
		"postcode": "78370"
	},
	{
		"lon": "1.9207416",
		"lat": "48.8205166",
		"number": "6",
		"street": "allée françois rude",
		"city": "Plaisir",
		"district": "",
		"postcode": "78370"
	},
	{
		"lon": "1.9249055",
		"lat": "48.8205127",
		"number": "1",
		"street": "avenue paul albert bartholome",
		"city": "Plaisir",
		"district": "",
		"postcode": "78370"
	},
	{
		"lon": "1.9470416",
		"lat": "48.8207933",
		"number": "220",
		"street": "rue des vignes",
		"city": "Plaisir",
		"district": "",
		"postcode": "78370"
	},
	{
		"lon": "1.9470416",
		"lat": "48.8207933",
		"number": "220",
		"street": "rue des vignes",
		"city": "Plaisir",
		"district": "",
		"postcode": "78370"
	},
	{
		"lon": "1.9608905",
		"lat": "48.8208947",
		"number": "85",
		"street": "rue jean louis gay lussac",
		"city": "Plaisir",
		"district": "",
		"postcode": "78370"
	},
	{
		"lon": "1.9647594",
		"lat": "48.8211351",
		"number": "64",
		"street": "rue de suède",
		"city": "Plaisir",
		"district": "",
		"postcode": "78370"
	},
	{
		"lon": "1.9444358",
		"lat": "48.8202604",
		"number": "4",
		"street": "avenue marc laurent",
		"city": "Plaisir",
		"district": "",
		"postcode": "78370"
	},
	{
		"lon": "1.9444253",
		"lat": "48.8201748",
		"number": "2",
		"street": "avenue marc laurent",
		"city": "Plaisir",
		"district": "",
		"postcode": "78370"
	},
	{
		"lon": "1.9454",
		"lat": "48.820268",
		"number": "1",
		"street": "rue de l'avignou",
		"city": "Plaisir",
		"district": "",
		"postcode": "78370"
	},
	{
		"lon": "1.9468905",
		"lat": "48.8202514",
		"number": "265",
		"street": "rue des vignes",
		"city": "Plaisir",
		"district": "",
		"postcode": "78370"
	},
	{
		"lon": "1.9591839",
		"lat": "48.8202727",
		"number": "84",
		"street": "rue marie jean antoine condorcet",
		"city": "Plaisir",
		"district": "",
		"postcode": "78370"
	},
	{
		"lon": "1.9592103",
		"lat": "48.8203836",
		"number": "74",
		"street": "rue marie jean antoine condorcet",
		"city": "Plaisir",
		"district": "",
		"postcode": "78370"
	},
	{
		"lon": "1.9595737",
		"lat": "48.8201952",
		"number": "108",
		"street": "rue marie jean antoine condorcet",
		"city": "Plaisir",
		"district": "",
		"postcode": "78370"
	},
	{
		"lon": "1.9594293",
		"lat": "48.8201957",
		"number": "106",
		"street": "rue marie jean antoine condorcet",
		"city": "Plaisir",
		"district": "",
		"postcode": "78370"
	},
	{
		"lon": "1.959304",
		"lat": "48.8201937",
		"number": "104",
		"street": "rue marie jean antoine condorcet",
		"city": "Plaisir",
		"district": "",
		"postcode": "78370"
	},
	{
		"lon": "1.9138305",
		"lat": "48.8196661",
		"number": "15",
		"street": "rue charles baudelaire",
		"city": "Plaisir",
		"district": "",
		"postcode": "78370"
	},
	{
		"lon": "1.9196467",
		"lat": "48.8197844",
		"number": "9001",
		"street": "allée andré charles boulle",
		"city": "Plaisir",
		"district": "",
		"postcode": "78370"
	},
	{
		"lon": "1.9188903",
		"lat": "48.8198073",
		"number": "16",
		"street": "allée andré charles boulle",
		"city": "Plaisir",
		"district": "",
		"postcode": "78370"
	},
	{
		"lon": "1.919145",
		"lat": "48.819806",
		"number": "14",
		"street": "allée andré charles boulle",
		"city": "Plaisir",
		"district": "",
		"postcode": "78370"
	},
	{
		"lon": "1.9194039",
		"lat": "48.8198029",
		"number": "12",
		"street": "allée andré charles boulle",
		"city": "Plaisir",
		"district": "",
		"postcode": "78370"
	},
	{
		"lon": "1.9199902",
		"lat": "48.8197722",
		"number": "10",
		"street": "allée andré charles boulle",
		"city": "Plaisir",
		"district": "",
		"postcode": "78370"
	},
	{
		"lon": "1.9199491",
		"lat": "48.8197827",
		"number": "8",
		"street": "allée andré charles boulle",
		"city": "Plaisir",
		"district": "",
		"postcode": "78370"
	},
	{
		"lon": "1.921214",
		"lat": "48.8197392",
		"number": "27",
		"street": "avenue paul albert bartholome",
		"city": "Plaisir",
		"district": "",
		"postcode": "78370"
	},
	{
		"lon": "1.9202449",
		"lat": "48.8197718",
		"number": "6",
		"street": "allée andré charles boulle",
		"city": "Plaisir",
		"district": "",
		"postcode": "78370"
	},
	{
		"lon": "1.9426733",
		"lat": "48.8199291",
		"number": "122",
		"street": "rue rené bazin",
		"city": "Plaisir",
		"district": "",
		"postcode": "78370"
	},
	{
		"lon": "1.944441",
		"lat": "48.8200068",
		"number": "20",
		"street": "rue de la république",
		"city": "Plaisir",
		"district": "",
		"postcode": "78370"
	},
	{
		"lon": "1.9601543",
		"lat": "48.8201768",
		"number": "700",
		"street": "avenue des sablons",
		"city": "Plaisir",
		"district": "",
		"postcode": "78370"
	},
	{
		"lon": "1.9241681",
		"lat": "48.8196831",
		"number": "14",
		"street": "allée jean baptiste carpeaux",
		"city": "Plaisir",
		"district": "",
		"postcode": "78370"
	},
	{
		"lon": "1.9245816",
		"lat": "48.8196445",
		"number": "18",
		"street": "allée jean baptiste carpeaux",
		"city": "Plaisir",
		"district": "",
		"postcode": "78370"
	},
	{
		"lon": "1.9244628",
		"lat": "48.8197235",
		"number": "16",
		"street": "allée jean baptiste carpeaux",
		"city": "Plaisir",
		"district": "",
		"postcode": "78370"
	},
	{
		"lon": "1.933894",
		"lat": "48.8197693",
		"number": "1019",
		"street": "rue de la boissière",
		"city": "Plaisir",
		"district": "",
		"postcode": "78370"
	},
	{
		"lon": "1.9437381",
		"lat": "48.819809",
		"number": "41",
		"street": "rue rené bazin",
		"city": "Plaisir",
		"district": "",
		"postcode": "78370"
	},
	{
		"lon": "1.9438335",
		"lat": "48.8198053",
		"number": "33",
		"street": "rue rené bazin",
		"city": "Plaisir",
		"district": "",
		"postcode": "78370"
	},
	{
		"lon": "1.9439044",
		"lat": "48.8198024",
		"number": "29",
		"street": "rue rené bazin",
		"city": "Plaisir",
		"district": "",
		"postcode": "78370"
	},
	{
		"lon": "1.9439766",
		"lat": "48.8198012",
		"number": "27",
		"street": "rue rené bazin",
		"city": "Plaisir",
		"district": "",
		"postcode": "78370"
	},
	{
		"lon": "1.9510747",
		"lat": "48.8199797",
		"number": "11",
		"street": "rue jules verne",
		"city": "Plaisir",
		"district": "",
		"postcode": "78370"
	},
	{
		"lon": "1.9510017",
		"lat": "48.8198864",
		"number": "9",
		"street": "rue jules verne",
		"city": "Plaisir",
		"district": "",
		"postcode": "78370"
	},
	{
		"lon": "1.9600112",
		"lat": "48.8199759",
		"number": "710",
		"street": "avenue des sablons",
		"city": "Plaisir",
		"district": "",
		"postcode": "78370"
	},
	{
		"lon": "1.91402",
		"lat": "48.8192639",
		"number": "26",
		"street": "rue alfred de musset",
		"city": "Plaisir",
		"district": "",
		"postcode": "78370"
	},
	{
		"lon": "1.9167867",
		"lat": "48.8193097",
		"number": "60",
		"street": "rue voltaire",
		"city": "Plaisir",
		"district": "",
		"postcode": "78370"
	},
	{
		"lon": "1.9186353",
		"lat": "48.8192284",
		"number": "77",
		"street": "rue voltaire",
		"city": "Plaisir",
		"district": "",
		"postcode": "78370"
	},
	{
		"lon": "1.9181365",
		"lat": "48.8192455",
		"number": "73",
		"street": "rue voltaire",
		"city": "Plaisir",
		"district": "",
		"postcode": "78370"
	},
	{
		"lon": "1.919295",
		"lat": "48.8192038",
		"number": "79",
		"street": "rue voltaire",
		"city": "Plaisir",
		"district": "",
		"postcode": "78370"
	},
	{
		"lon": "1.9201482",
		"lat": "48.8192457",
		"number": "33",
		"street": "avenue paul albert bartholome",
		"city": "Plaisir",
		"district": "",
		"postcode": "78370"
	},
	{
		"lon": "1.9203542",
		"lat": "48.8192925",
		"number": "31",
		"street": "avenue paul albert bartholome",
		"city": "Plaisir",
		"district": "",
		"postcode": "78370"
	},
	{
		"lon": "1.9465654",
		"lat": "48.8194859",
		"number": "9005",
		"street": "rue de l'avignou",
		"city": "Plaisir",
		"district": "",
		"postcode": "78370"
	},
	{
		"lon": "1.9460175",
		"lat": "48.8195719",
		"number": "7",
		"street": "rue de l'avignou",
		"city": "Plaisir",
		"district": "",
		"postcode": "78370"
	},
	{
		"lon": "1.94628",
		"lat": "48.8195229",
		"number": "5",
		"street": "impasse de l'avignou",
		"city": "Plaisir",
		"district": "",
		"postcode": "78370"
	},
	{
		"lon": "1.9468721",
		"lat": "48.8195398",
		"number": "1",
		"street": "impasse de l'avignou",
		"city": "Plaisir",
		"district": "",
		"postcode": "78370"
	},
	{
		"lon": "1.9505727",
		"lat": "48.8194788",
		"number": "9002",
		"street": "rue jules verne",
		"city": "Plaisir",
		"district": "",
		"postcode": "78370"
	},
	{
		"lon": "1.9506943",
		"lat": "48.8195941",
		"number": "5",
		"street": "rue jules verne",
		"city": "Plaisir",
		"district": "",
		"postcode": "78370"
	},
	{
		"lon": "1.9610181",
		"lat": "48.8195494",
		"number": "89",
		"street": "avenue des bauges",
		"city": "Plaisir",
		"district": "",
		"postcode": "78370"
	},
	{
		"lon": "1.961123",
		"lat": "48.8195485",
		"number": "81",
		"street": "avenue des bauges",
		"city": "Plaisir",
		"district": "",
		"postcode": "78370"
	},
	{
		"lon": "1.9612374",
		"lat": "48.8195486",
		"number": "71",
		"street": "avenue des bauges",
		"city": "Plaisir",
		"district": "",
		"postcode": "78370"
	},
	{
		"lon": "1.9614417",
		"lat": "48.8195467",
		"number": "59",
		"street": "avenue des bauges",
		"city": "Plaisir",
		"district": "",
		"postcode": "78370"
	},
	{
		"lon": "1.9615615",
		"lat": "48.8195487",
		"number": "47",
		"street": "avenue des bauges",
		"city": "Plaisir",
		"district": "",
		"postcode": "78370"
	},
	{
		"lon": "1.9616691",
		"lat": "48.8195478",
		"number": "39",
		"street": "avenue des bauges",
		"city": "Plaisir",
		"district": "",
		"postcode": "78370"
	},
	{
		"lon": "1.9442368",
		"lat": "48.8193259",
		"number": "1",
		"street": "rue albert calmette",
		"city": "Plaisir",
		"district": "",
		"postcode": "78370"
	},
	{
		"lon": "1.9454215",
		"lat": "48.81934",
		"number": "18",
		"street": "rue de la république",
		"city": "Plaisir",
		"district": "",
		"postcode": "78370"
	},
	{
		"lon": "1.9610689",
		"lat": "48.8195273",
		"number": "97",
		"street": "avenue des bauges",
		"city": "Plaisir",
		"district": "",
		"postcode": "78370"
	},
	{
		"lon": "1.9669898",
		"lat": "48.8195183",
		"number": "88",
		"street": "rue d'autriche",
		"city": "Plaisir",
		"district": "",
		"postcode": "78370"
	},
	{
		"lon": "1.9215309",
		"lat": "48.8188381",
		"number": "19",
		"street": "rue maurice barrès",
		"city": "Plaisir",
		"district": "",
		"postcode": "78370"
	},
	{
		"lon": "1.9249236",
		"lat": "48.8188444",
		"number": "6",
		"street": "impasse maurice barrès",
		"city": "Plaisir",
		"district": "",
		"postcode": "78370"
	},
	{
		"lon": "1.9272541",
		"lat": "48.8189067",
		"number": "14",
		"street": "rue jules michelet",
		"city": "Plaisir",
		"district": "",
		"postcode": "78370"
	},
	{
		"lon": "1.9457863",
		"lat": "48.8190176",
		"number": "16",
		"street": "rue de la république",
		"city": "Plaisir",
		"district": "",
		"postcode": "78370"
	},
	{
		"lon": "1.9508806",
		"lat": "48.8190669",
		"number": "26",
		"street": "rue de l'avignou",
		"city": "Plaisir",
		"district": "",
		"postcode": "78370"
	},
	{
		"lon": "1.9508806",
		"lat": "48.8190669",
		"number": "26",
		"street": "rue de l'avignou",
		"city": "Plaisir",
		"district": "",
		"postcode": "78370"
	},
	{
		"lon": "1.9510816",
		"lat": "48.8190273",
		"number": "28",
		"street": "rue de l'avignou",
		"city": "Plaisir",
		"district": "",
		"postcode": "78370"
	},
	{
		"lon": "1.9509957",
		"lat": "48.8190346",
		"number": "28",
		"street": "rue de l'avignou",
		"city": "Plaisir",
		"district": "",
		"postcode": "78370"
	},
	{
		"lon": "1.961771",
		"lat": "48.8192186",
		"number": "147",
		"street": "rue james watt",
		"city": "Plaisir",
		"district": "",
		"postcode": "78370"
	},
	{
		"lon": "1.9617716",
		"lat": "48.8191242",
		"number": "139",
		"street": "rue james watt",
		"city": "Plaisir",
		"district": "",
		"postcode": "78370"
	},
	{
		"lon": "1.9609719",
		"lat": "48.8192",
		"number": "61",
		"street": "rue james watt",
		"city": "Plaisir",
		"district": "",
		"postcode": "78370"
	},
	{
		"lon": "1.9435409",
		"lat": "48.8234221",
		"number": "9001",
		"street": "rue d'anjou",
		"city": "Plaisir",
		"district": "",
		"postcode": "78370"
	},
	{
		"lon": "1.9614627",
		"lat": "48.8237571",
		"number": "100",
		"street": "rue jacques prévert",
		"city": "Plaisir",
		"district": "",
		"postcode": "78370"
	},
	{
		"lon": "1.9613848",
		"lat": "48.8237691",
		"number": "86",
		"street": "rue jacques prévert",
		"city": "Plaisir",
		"district": "",
		"postcode": "78370"
	},
	{
		"lon": "1.9612988",
		"lat": "48.82378",
		"number": "82",
		"street": "rue jacques prévert",
		"city": "Plaisir",
		"district": "",
		"postcode": "78370"
	},
	{
		"lon": "1.9612415",
		"lat": "48.8237867",
		"number": "76",
		"street": "rue jacques prévert",
		"city": "Plaisir",
		"district": "",
		"postcode": "78370"
	},
	{
		"lon": "1.964202",
		"lat": "48.8236181",
		"number": "27",
		"street": "rue jean jaurès",
		"city": "Plaisir",
		"district": "",
		"postcode": "78370"
	},
	{
		"lon": "1.9634692",
		"lat": "48.823753",
		"number": "140",
		"street": "rue françois mauriac",
		"city": "Plaisir",
		"district": "",
		"postcode": "78370"
	},
	{
		"lon": "1.9653672",
		"lat": "48.8236615",
		"number": "27",
		"street": "chemin adolfo perez esquivel",
		"city": "Plaisir",
		"district": "",
		"postcode": "78370"
	},
	{
		"lon": "1.9662766",
		"lat": "48.8238249",
		"number": "96",
		"street": "rue rené cassin",
		"city": "Plaisir",
		"district": "",
		"postcode": "78370"
	},
	{
		"lon": "1.953523",
		"lat": "48.8233398",
		"number": "53",
		"street": "place du silo 9",
		"city": "Plaisir",
		"district": "",
		"postcode": "78370"
	},
	{
		"lon": "1.9615968",
		"lat": "48.8233841",
		"number": "269",
		"street": "rue marcel pagnol",
		"city": "Plaisir",
		"district": "",
		"postcode": "78370"
	},
	{
		"lon": "1.9657953",
		"lat": "48.8234349",
		"number": "52",
		"street": "chemin alain savary",
		"city": "Plaisir",
		"district": "",
		"postcode": "78370"
	},
	{
		"lon": "1.9658068",
		"lat": "48.8234746",
		"number": "42",
		"street": "chemin alain savary",
		"city": "Plaisir",
		"district": "",
		"postcode": "78370"
	},
	{
		"lon": "1.9664372",
		"lat": "48.8234836",
		"number": "53",
		"street": "rue rené cassin",
		"city": "Plaisir",
		"district": "",
		"postcode": "78370"
	},
	{
		"lon": "1.9664125",
		"lat": "48.8234268",
		"number": "47",
		"street": "rue rené cassin",
		"city": "Plaisir",
		"district": "",
		"postcode": "78370"
	},
	{
		"lon": "1.9533702",
		"lat": "48.8230777",
		"number": "47",
		"street": "place du silo 9",
		"city": "Plaisir",
		"district": "",
		"postcode": "78370"
	},
	{
		"lon": "1.9543014",
		"lat": "48.823308",
		"number": "9020",
		"street": "rue du valibout",
		"city": "Plaisir",
		"district": "",
		"postcode": "78370"
	},
	{
		"lon": "1.9615628",
		"lat": "48.8231761",
		"number": "293",
		"street": "rue marcel pagnol",
		"city": "Plaisir",
		"district": "",
		"postcode": "78370"
	},
	{
		"lon": "1.9615956",
		"lat": "48.8232393",
		"number": "283",
		"street": "rue marcel pagnol",
		"city": "Plaisir",
		"district": "",
		"postcode": "78370"
	},
	{
		"lon": "1.961564",
		"lat": "48.8233236",
		"number": "275",
		"street": "rue marcel pagnol",
		"city": "Plaisir",
		"district": "",
		"postcode": "78370"
	},
	{
		"lon": "1.9644409",
		"lat": "48.8231839",
		"number": "38",
		"street": "rue jean monnet",
		"city": "Plaisir",
		"district": "",
		"postcode": "78370"
	},
	{
		"lon": "1.9644696",
		"lat": "48.8232445",
		"number": "34",
		"street": "rue jean monnet",
		"city": "Plaisir",
		"district": "",
		"postcode": "78370"
	},
	{
		"lon": "1.9650781",
		"lat": "48.8232623",
		"number": "47",
		"street": "chemin desmond tutu",
		"city": "Plaisir",
		"district": "",
		"postcode": "78370"
	},
	{
		"lon": "1.9650562",
		"lat": "48.8232028",
		"number": "45",
		"street": "chemin desmond tutu",
		"city": "Plaisir",
		"district": "",
		"postcode": "78370"
	},
	{
		"lon": "1.9657776",
		"lat": "48.8233664",
		"number": "56",
		"street": "chemin alain savary",
		"city": "Plaisir",
		"district": "",
		"postcode": "78370"
	},
	{
		"lon": "1.9663865",
		"lat": "48.8233645",
		"number": "39",
		"street": "rue rené cassin",
		"city": "Plaisir",
		"district": "",
		"postcode": "78370"
	},
	{
		"lon": "1.9663526",
		"lat": "48.8232859",
		"number": "27",
		"street": "rue rené cassin",
		"city": "Plaisir",
		"district": "",
		"postcode": "78370"
	},
	{
		"lon": "1.9663226",
		"lat": "48.82322",
		"number": "21",
		"street": "rue rené cassin",
		"city": "Plaisir",
		"district": "",
		"postcode": "78370"
	},
	{
		"lon": "1.9614302",
		"lat": "48.8229294",
		"number": "321",
		"street": "rue marcel pagnol",
		"city": "Plaisir",
		"district": "",
		"postcode": "78370"
	},
	{
		"lon": "1.9632472",
		"lat": "48.8227949",
		"number": "129",
		"street": "rue joseph wresinski",
		"city": "Plaisir",
		"district": "",
		"postcode": "78370"
	},
	{
		"lon": "1.9633623",
		"lat": "48.8227618",
		"number": "123",
		"street": "rue joseph wresinski",
		"city": "Plaisir",
		"district": "",
		"postcode": "78370"
	},
	{
		"lon": "1.9634485",
		"lat": "48.8227427",
		"number": "115",
		"street": "rue joseph wresinski",
		"city": "Plaisir",
		"district": "",
		"postcode": "78370"
	},
	{
		"lon": "1.9639009",
		"lat": "48.8227988",
		"number": "146",
		"street": "rue jean moulin",
		"city": "Plaisir",
		"district": "",
		"postcode": "78370"
	},
	{
		"lon": "1.9639898",
		"lat": "48.8227798",
		"number": "138",
		"street": "rue jean moulin",
		"city": "Plaisir",
		"district": "",
		"postcode": "78370"
	},
	{
		"lon": "1.9640733",
		"lat": "48.8227634",
		"number": "132",
		"street": "rue jean moulin",
		"city": "Plaisir",
		"district": "",
		"postcode": "78370"
	},
	{
		"lon": "1.9641744",
		"lat": "48.8227454",
		"number": "126",
		"street": "rue jean moulin",
		"city": "Plaisir",
		"district": "",
		"postcode": "78370"
	},
	{
		"lon": "1.9646954",
		"lat": "48.8228516",
		"number": "96",
		"street": "rue jean monnet",
		"city": "Plaisir",
		"district": "",
		"postcode": "78370"
	},
	{
		"lon": "1.9646202",
		"lat": "48.8228653",
		"number": "88",
		"street": "rue jean monnet",
		"city": "Plaisir",
		"district": "",
		"postcode": "78370"
	},
	{
		"lon": "1.9644746",
		"lat": "48.8228551",
		"number": "78",
		"street": "rue jean monnet",
		"city": "Plaisir",
		"district": "",
		"postcode": "78370"
	},
	{
		"lon": "1.9643571",
		"lat": "48.8228747",
		"number": "74",
		"street": "rue jean monnet",
		"city": "Plaisir",
		"district": "",
		"postcode": "78370"
	},
	{
		"lon": "1.9643302",
		"lat": "48.8229267",
		"number": "68",
		"street": "rue jean monnet",
		"city": "Plaisir",
		"district": "",
		"postcode": "78370"
	},
	{
		"lon": "1.9649018",
		"lat": "48.8228138",
		"number": "110",
		"street": "rue jean monnet",
		"city": "Plaisir",
		"district": "",
		"postcode": "78370"
	},
	{
		"lon": "1.964787",
		"lat": "48.8228344",
		"number": "102",
		"street": "rue jean monnet",
		"city": "Plaisir",
		"district": "",
		"postcode": "78370"
	},
	{
		"lon": "1.9663148",
		"lat": "48.8229258",
		"number": "242",
		"street": "rue jean monnet",
		"city": "Plaisir",
		"district": "",
		"postcode": "78370"
	},
	{
		"lon": "1.9662849",
		"lat": "48.8228545",
		"number": "232",
		"street": "rue jean monnet",
		"city": "Plaisir",
		"district": "",
		"postcode": "78370"
	},
	{
		"lon": "1.9448215",
		"lat": "48.8225402",
		"number": "34",
		"street": "avenue marc laurent",
		"city": "Plaisir",
		"district": "",
		"postcode": "78370"
	},
	{
		"lon": "1.9635594",
		"lat": "48.8225746",
		"number": "111",
		"street": "rue joseph wresinski",
		"city": "Plaisir",
		"district": "",
		"postcode": "78370"
	},
	{
		"lon": "1.9636",
		"lat": "48.8226559",
		"number": "109",
		"street": "rue joseph wresinski",
		"city": "Plaisir",
		"district": "",
		"postcode": "78370"
	},
	{
		"lon": "1.9636326",
		"lat": "48.8227308",
		"number": "107",
		"street": "rue joseph wresinski",
		"city": "Plaisir",
		"district": "",
		"postcode": "78370"
	},
	{
		"lon": "1.9642868",
		"lat": "48.822643",
		"number": "116",
		"street": "rue jean moulin",
		"city": "Plaisir",
		"district": "",
		"postcode": "78370"
	},
	{
		"lon": "1.9642608",
		"lat": "48.8225771",
		"number": "110",
		"street": "rue jean moulin",
		"city": "Plaisir",
		"district": "",
		"postcode": "78370"
	},
	{
		"lon": "1.9661295",
		"lat": "48.8225843",
		"number": "202",
		"street": "rue jean monnet",
		"city": "Plaisir",
		"district": "",
		"postcode": "78370"
	},
	{
		"lon": "1.9660324",
		"lat": "48.8226032",
		"number": "200",
		"street": "rue jean monnet",
		"city": "Plaisir",
		"district": "",
		"postcode": "78370"
	},
	{
		"lon": "1.9658998",
		"lat": "48.8226281",
		"number": "190",
		"street": "rue jean monnet",
		"city": "Plaisir",
		"district": "",
		"postcode": "78370"
	},
	{
		"lon": "1.9658015",
		"lat": "48.8226399",
		"number": "180",
		"street": "rue jean monnet",
		"city": "Plaisir",
		"district": "",
		"postcode": "78370"
	},
	{
		"lon": "1.9656976",
		"lat": "48.8226597",
		"number": "174",
		"street": "rue jean monnet",
		"city": "Plaisir",
		"district": "",
		"postcode": "78370"
	},
	{
		"lon": "1.9654788",
		"lat": "48.8227036",
		"number": "152",
		"street": "rue jean monnet",
		"city": "Plaisir",
		"district": "",
		"postcode": "78370"
	},
	{
		"lon": "1.9653749",
		"lat": "48.8227243",
		"number": "148",
		"street": "rue jean monnet",
		"city": "Plaisir",
		"district": "",
		"postcode": "78370"
	},
	{
		"lon": "1.966261",
		"lat": "48.8227545",
		"number": "220",
		"street": "rue jean monnet",
		"city": "Plaisir",
		"district": "",
		"postcode": "78370"
	},
	{
		"lon": "1.9662389",
		"lat": "48.8226994",
		"number": "214",
		"street": "rue jean monnet",
		"city": "Plaisir",
		"district": "",
		"postcode": "78370"
	},
	{
		"lon": "1.9662155",
		"lat": "48.8226444",
		"number": "208",
		"street": "rue jean monnet",
		"city": "Plaisir",
		"district": "",
		"postcode": "78370"
	},
	{
		"lon": "1.9661933",
		"lat": "48.8225947",
		"number": "204",
		"street": "rue jean monnet",
		"city": "Plaisir",
		"district": "",
		"postcode": "78370"
	},
	{
		"lon": "1.9554688",
		"lat": "48.8224188",
		"number": "14",
		"street": "allée saint-just",
		"city": "Plaisir",
		"district": "",
		"postcode": "78370"
	},
	{
		"lon": "1.9550322",
		"lat": "48.8223223",
		"number": "12",
		"street": "allée saint-just",
		"city": "Plaisir",
		"district": "",
		"postcode": "78370"
	},
	{
		"lon": "1.9634948",
		"lat": "48.8224697",
		"number": "113",
		"street": "rue joseph wresinski",
		"city": "Plaisir",
		"district": "",
		"postcode": "78370"
	},
	{
		"lon": "1.9641834",
		"lat": "48.8224982",
		"number": "99",
		"street": "rue jean moulin",
		"city": "Plaisir",
		"district": "",
		"postcode": "78370"
	},
	{
		"lon": "1.9645557",
		"lat": "48.8224789",
		"number": "74",
		"street": "rue jean moulin",
		"city": "Plaisir",
		"district": "",
		"postcode": "78370"
	},
	{
		"lon": "1.9646459",
		"lat": "48.8224617",
		"number": "66",
		"street": "rue jean moulin",
		"city": "Plaisir",
		"district": "",
		"postcode": "78370"
	},
	{
		"lon": "1.9647252",
		"lat": "48.8224471",
		"number": "58",
		"street": "rue jean moulin",
		"city": "Plaisir",
		"district": "",
		"postcode": "78370"
	},
	{
		"lon": "1.9648925",
		"lat": "48.8223874",
		"number": "51",
		"street": "rue jean moulin",
		"city": "Plaisir",
		"district": "",
		"postcode": "78370"
	},
	{
		"lon": "1.9655294",
		"lat": "48.8223497",
		"number": "41",
		"street": "rue henri frenay",
		"city": "Plaisir",
		"district": "",
		"postcode": "78370"
	},
	{
		"lon": "1.9655502",
		"lat": "48.8224021",
		"number": "33",
		"street": "rue henri frenay",
		"city": "Plaisir",
		"district": "",
		"postcode": "78370"
	},
	{
		"lon": "1.9655814",
		"lat": "48.8224743",
		"number": "27",
		"street": "rue henri frenay",
		"city": "Plaisir",
		"district": "",
		"postcode": "78370"
	},
	{
		"lon": "1.9284606",
		"lat": "48.8226951",
		"number": "8",
		"street": "route de saint-germain de la grange",
		"city": "Plaisir",
		"district": "",
		"postcode": "78370"
	},
	{
		"lon": "1.9532511",
		"lat": "48.8230433",
		"number": "45",
		"street": "place du silo 9",
		"city": "Plaisir",
		"district": "",
		"postcode": "78370"
	},
	{
		"lon": "1.9531682",
		"lat": "48.8230309",
		"number": "43",
		"street": "place du silo 9",
		"city": "Plaisir",
		"district": "",
		"postcode": "78370"
	},
	{
		"lon": "1.9614538",
		"lat": "48.8229719",
		"number": "315",
		"street": "rue marcel pagnol",
		"city": "Plaisir",
		"district": "",
		"postcode": "78370"
	},
	{
		"lon": "1.9614775",
		"lat": "48.8230143",
		"number": "311",
		"street": "rue marcel pagnol",
		"city": "Plaisir",
		"district": "",
		"postcode": "78370"
	},
	{
		"lon": "1.9614998",
		"lat": "48.8230559",
		"number": "305",
		"street": "rue marcel pagnol",
		"city": "Plaisir",
		"district": "",
		"postcode": "78370"
	},
	{
		"lon": "1.9615287",
		"lat": "48.823111",
		"number": "299",
		"street": "rue marcel pagnol",
		"city": "Plaisir",
		"district": "",
		"postcode": "78370"
	},
	{
		"lon": "1.9640421",
		"lat": "48.8231643",
		"number": "27",
		"street": "rue joseph wresinski",
		"city": "Plaisir",
		"district": "",
		"postcode": "78370"
	},
	{
		"lon": "1.9643495",
		"lat": "48.8229826",
		"number": "64",
		"street": "rue jean monnet",
		"city": "Plaisir",
		"district": "",
		"postcode": "78370"
	},
	{
		"lon": "1.9643768",
		"lat": "48.8230485",
		"number": "56",
		"street": "rue jean monnet",
		"city": "Plaisir",
		"district": "",
		"postcode": "78370"
	},
	{
		"lon": "1.9650278",
		"lat": "48.8231207",
		"number": "35",
		"street": "chemin desmond tutu",
		"city": "Plaisir",
		"district": "",
		"postcode": "78370"
	},
	{
		"lon": "1.9650246",
		"lat": "48.8230766",
		"number": "25",
		"street": "chemin desmond tutu",
		"city": "Plaisir",
		"district": "",
		"postcode": "78370"
	},
	{
		"lon": "1.9662967",
		"lat": "48.8231505",
		"number": "11",
		"street": "rue rené cassin",
		"city": "Plaisir",
		"district": "",
		"postcode": "78370"
	},
	{
		"lon": "1.958955",
		"lat": "48.8221865",
		"number": "76",
		"street": "rue romain rolland",
		"city": "Plaisir",
		"district": "",
		"postcode": "78370"
	},
	{
		"lon": "1.9588853",
		"lat": "48.8221994",
		"number": "68",
		"street": "rue romain rolland",
		"city": "Plaisir",
		"district": "",
		"postcode": "78370"
	},
	{
		"lon": "1.9588004",
		"lat": "48.8222239",
		"number": "62",
		"street": "rue romain rolland",
		"city": "Plaisir",
		"district": "",
		"postcode": "78370"
	},
	{
		"lon": "1.9648573",
		"lat": "48.8223097",
		"number": "53",
		"street": "rue jean moulin",
		"city": "Plaisir",
		"district": "",
		"postcode": "78370"
	},
	{
		"lon": "1.9439098",
		"lat": "48.8220222",
		"number": "1",
		"street": "rue du poitou",
		"city": "Plaisir",
		"district": "",
		"postcode": "78370"
	},
	{
		"lon": "1.9446936",
		"lat": "48.8219958",
		"number": "22",
		"street": "avenue marc laurent",
		"city": "Plaisir",
		"district": "",
		"postcode": "78370"
	},
	{
		"lon": "1.9582566",
		"lat": "48.8221022",
		"number": "159",
		"street": "rue jean antoine chaptal",
		"city": "Plaisir",
		"district": "",
		"postcode": "78370"
	},
	{
		"lon": "1.9584738",
		"lat": "48.8220735",
		"number": "157",
		"street": "rue jean antoine chaptal",
		"city": "Plaisir",
		"district": "",
		"postcode": "78370"
	},
	{
		"lon": "1.9591916",
		"lat": "48.8220708",
		"number": "147",
		"street": "rue françois arago",
		"city": "Plaisir",
		"district": "",
		"postcode": "78370"
	},
	{
		"lon": "1.9601082",
		"lat": "48.8221444",
		"number": "421",
		"street": "avenue des sablons",
		"city": "Plaisir",
		"district": "",
		"postcode": "78370"
	},
	{
		"lon": "1.9595143",
		"lat": "48.8220799",
		"number": "112",
		"street": "rue romain rolland",
		"city": "Plaisir",
		"district": "",
		"postcode": "78370"
	},
	{
		"lon": "1.964809",
		"lat": "48.8222023",
		"number": "55",
		"street": "rue jean moulin",
		"city": "Plaisir",
		"district": "",
		"postcode": "78370"
	},
	{
		"lon": "1.918997",
		"lat": "48.8207715",
		"number": "96",
		"street": "rue michel ange",
		"city": "Plaisir",
		"district": "",
		"postcode": "78370"
	},
	{
		"lon": "1.9212254",
		"lat": "48.8208969",
		"number": "20",
		"street": "allée pierre cartellier",
		"city": "Plaisir",
		"district": "",
		"postcode": "78370"
	},
	{
		"lon": "1.9270264",
		"lat": "48.8209014",
		"number": "28",
		"street": "rue jules michelet",
		"city": "Plaisir",
		"district": "",
		"postcode": "78370"
	},
	{
		"lon": "1.9445507",
		"lat": "48.8209782",
		"number": "12",
		"street": "avenue marc laurent",
		"city": "Plaisir",
		"district": "",
		"postcode": "78370"
	},
	{
		"lon": "1.9593933",
		"lat": "48.8211101",
		"number": "29",
		"street": "rue jean antoine chaptal",
		"city": "Plaisir",
		"district": "",
		"postcode": "78370"
	},
	{
		"lon": "1.9594264",
		"lat": "48.8211608",
		"number": "27",
		"street": "rue jean antoine chaptal",
		"city": "Plaisir",
		"district": "",
		"postcode": "78370"
	},
	{
		"lon": "1.9608467",
		"lat": "48.8211066",
		"number": "57",
		"street": "rue jean louis gay lussac",
		"city": "Plaisir",
		"district": "",
		"postcode": "78370"
	},
	{
		"lon": "1.9608289",
		"lat": "48.821182",
		"number": "49",
		"street": "rue jean louis gay lussac",
		"city": "Plaisir",
		"district": "",
		"postcode": "78370"
	},
	{
		"lon": "1.96151",
		"lat": "48.8211087",
		"number": "76",
		"street": "rue gaspard monge",
		"city": "Plaisir",
		"district": "",
		"postcode": "78370"
	},
	{
		"lon": "1.9614159",
		"lat": "48.8211853",
		"number": "68",
		"street": "rue gaspard monge",
		"city": "Plaisir",
		"district": "",
		"postcode": "78370"
	},
	{
		"lon": "1.9661825",
		"lat": "48.8212868",
		"number": "1",
		"street": "impasse du pont levis",
		"city": "Plaisir",
		"district": "",
		"postcode": "78370"
	},
	{
		"lon": "1.9201056",
		"lat": "48.8203786",
		"number": "104",
		"street": "rue michel ange",
		"city": "Plaisir",
		"district": "",
		"postcode": "78370"
	},
	{
		"lon": "1.9209494",
		"lat": "48.8204132",
		"number": "4",
		"street": "allée françois rude",
		"city": "Plaisir",
		"district": "",
		"postcode": "78370"
	},
	{
		"lon": "1.9223969",
		"lat": "48.8204308",
		"number": "21",
		"street": "avenue paul albert bartholome",
		"city": "Plaisir",
		"district": "",
		"postcode": "78370"
	},
	{
		"lon": "1.9226441",
		"lat": "48.8204672",
		"number": "19",
		"street": "avenue paul albert bartholome",
		"city": "Plaisir",
		"district": "",
		"postcode": "78370"
	},
	{
		"lon": "1.9228756",
		"lat": "48.8204692",
		"number": "17",
		"street": "avenue paul albert bartholome",
		"city": "Plaisir",
		"district": "",
		"postcode": "78370"
	},
	{
		"lon": "1.9231433",
		"lat": "48.8204348",
		"number": "15",
		"street": "avenue paul albert bartholome",
		"city": "Plaisir",
		"district": "",
		"postcode": "78370"
	},
	{
		"lon": "1.9240992",
		"lat": "48.8204479",
		"number": "7",
		"street": "avenue paul albert bartholome",
		"city": "Plaisir",
		"district": "",
		"postcode": "78370"
	},
	{
		"lon": "1.9243042",
		"lat": "48.8204794",
		"number": "5",
		"street": "avenue paul albert bartholome",
		"city": "Plaisir",
		"district": "",
		"postcode": "78370"
	},
	{
		"lon": "1.9245859",
		"lat": "48.82049",
		"number": "3",
		"street": "avenue paul albert bartholome",
		"city": "Plaisir",
		"district": "",
		"postcode": "78370"
	},
	{
		"lon": "1.9274238",
		"lat": "48.8205209",
		"number": "4",
		"street": "rue jean giono",
		"city": "Plaisir",
		"district": "",
		"postcode": "78370"
	},
	{
		"lon": "1.948122",
		"lat": "48.8206436",
		"number": "148",
		"street": "rue des vignes",
		"city": "Plaisir",
		"district": "",
		"postcode": "78370"
	},
	{
		"lon": "1.9594421",
		"lat": "48.8207832",
		"number": "26",
		"street": "rue marie jean antoine condorcet",
		"city": "Plaisir",
		"district": "",
		"postcode": "78370"
	},
	{
		"lon": "1.9616563",
		"lat": "48.8208078",
		"number": "114",
		"street": "rue gaspard monge",
		"city": "Plaisir",
		"district": "",
		"postcode": "78370"
	},
	{
		"lon": "1.9202572",
		"lat": "48.8209547",
		"number": "4",
		"street": "allée frédéric bartholdi",
		"city": "Plaisir",
		"district": "",
		"postcode": "78370"
	},
	{
		"lon": "1.9518638",
		"lat": "48.8212449",
		"number": "9051",
		"street": "rue jules verne",
		"city": "Plaisir",
		"district": "",
		"postcode": "78370"
	},
	{
		"lon": "1.9591819",
		"lat": "48.8213322",
		"number": "44",
		"street": "rue jean antoine chaptal",
		"city": "Plaisir",
		"district": "",
		"postcode": "78370"
	},
	{
		"lon": "1.9594552",
		"lat": "48.8212852",
		"number": "20",
		"street": "rue jean antoine chaptal",
		"city": "Plaisir",
		"district": "",
		"postcode": "78370"
	},
	{
		"lon": "1.9595554",
		"lat": "48.8213166",
		"number": "16",
		"street": "rue jean antoine chaptal",
		"city": "Plaisir",
		"district": "",
		"postcode": "78370"
	},
	{
		"lon": "1.9585607",
		"lat": "48.8218098",
		"number": "128",
		"street": "rue jean antoine chaptal",
		"city": "Plaisir",
		"district": "",
		"postcode": "78370"
	},
	{
		"lon": "1.9586124",
		"lat": "48.8216808",
		"number": "106",
		"street": "rue jean antoine chaptal",
		"city": "Plaisir",
		"district": "",
		"postcode": "78370"
	},
	{
		"lon": "1.9593823",
		"lat": "48.8217972",
		"number": "113",
		"street": "rue françois arago",
		"city": "Plaisir",
		"district": "",
		"postcode": "78370"
	},
	{
		"lon": "1.9594453",
		"lat": "48.821715",
		"number": "101",
		"street": "rue françois arago",
		"city": "Plaisir",
		"district": "",
		"postcode": "78370"
	},
	{
		"lon": "1.9613227",
		"lat": "48.8218294",
		"number": "25",
		"street": "rue claude chappe",
		"city": "Plaisir",
		"district": "",
		"postcode": "78370"
	},
	{
		"lon": "1.9613154",
		"lat": "48.8217843",
		"number": "23",
		"street": "rue claude chappe",
		"city": "Plaisir",
		"district": "",
		"postcode": "78370"
	},
	{
		"lon": "1.9191107",
		"lat": "48.8210028",
		"number": "94",
		"street": "rue michel ange",
		"city": "Plaisir",
		"district": "",
		"postcode": "78370"
	},
	{
		"lon": "1.9278902",
		"lat": "48.8210908",
		"number": "10",
		"street": "rue jean giono",
		"city": "Plaisir",
		"district": "",
		"postcode": "78370"
	},
	{
		"lon": "1.9588397",
		"lat": "48.8214138",
		"number": "72",
		"street": "rue jean antoine chaptal",
		"city": "Plaisir",
		"district": "",
		"postcode": "78370"
	},
	{
		"lon": "1.9589273",
		"lat": "48.821393",
		"number": "64",
		"street": "rue jean antoine chaptal",
		"city": "Plaisir",
		"district": "",
		"postcode": "78370"
	},
	{
		"lon": "1.9590916",
		"lat": "48.8213521",
		"number": "52",
		"street": "rue jean antoine chaptal",
		"city": "Plaisir",
		"district": "",
		"postcode": "78370"
	},
	{
		"lon": "1.9596284",
		"lat": "48.8213433",
		"number": "4",
		"street": "rue jean antoine chaptal",
		"city": "Plaisir",
		"district": "",
		"postcode": "78370"
	},
	{
		"lon": "1.9663175",
		"lat": "48.8214175",
		"number": "3",
		"street": "impasse du pont levis",
		"city": "Plaisir",
		"district": "",
		"postcode": "78370"
	},
	{
		"lon": "1.9181073",
		"lat": "48.8216332",
		"number": "3",
		"street": "chemin des marettes",
		"city": "Plaisir",
		"district": "",
		"postcode": "78370"
	},
	{
		"lon": "1.920418",
		"lat": "48.821539",
		"number": "53",
		"street": "rue michel ange",
		"city": "Plaisir",
		"district": "",
		"postcode": "78370"
	},
	{
		"lon": "1.9209769",
		"lat": "48.8215198",
		"number": "45",
		"street": "rue michel ange",
		"city": "Plaisir",
		"district": "",
		"postcode": "78370"
	},
	{
		"lon": "1.9211384",
		"lat": "48.8215491",
		"number": "43",
		"street": "rue michel ange",
		"city": "Plaisir",
		"district": "",
		"postcode": "78370"
	},
	{
		"lon": "1.9212756",
		"lat": "48.8215665",
		"number": "41",
		"street": "rue michel ange",
		"city": "Plaisir",
		"district": "",
		"postcode": "78370"
	},
	{
		"lon": "1.9214062",
		"lat": "48.8215731",
		"number": "39",
		"street": "rue michel ange",
		"city": "Plaisir",
		"district": "",
		"postcode": "78370"
	},
	{
		"lon": "1.9215302",
		"lat": "48.8215706",
		"number": "37",
		"street": "rue michel ange",
		"city": "Plaisir",
		"district": "",
		"postcode": "78370"
	},
	{
		"lon": "1.9216898",
		"lat": "48.8215604",
		"number": "35",
		"street": "rue michel ange",
		"city": "Plaisir",
		"district": "",
		"postcode": "78370"
	},
	{
		"lon": "1.958679",
		"lat": "48.8220249",
		"number": "156",
		"street": "rue jean antoine chaptal",
		"city": "Plaisir",
		"district": "",
		"postcode": "78370"
	},
	{
		"lon": "1.9586461",
		"lat": "48.821968",
		"number": "148",
		"street": "rue jean antoine chaptal",
		"city": "Plaisir",
		"district": "",
		"postcode": "78370"
	},
	{
		"lon": "1.9585963",
		"lat": "48.8218731",
		"number": "136",
		"street": "rue jean antoine chaptal",
		"city": "Plaisir",
		"district": "",
		"postcode": "78370"
	},
	{
		"lon": "1.9592351",
		"lat": "48.8220064",
		"number": "139",
		"street": "rue françois arago",
		"city": "Plaisir",
		"district": "",
		"postcode": "78370"
	},
	{
		"lon": "1.9592772",
		"lat": "48.8219483",
		"number": "133",
		"street": "rue françois arago",
		"city": "Plaisir",
		"district": "",
		"postcode": "78370"
	},
	{
		"lon": "1.9593403",
		"lat": "48.8218553",
		"number": "121",
		"street": "rue françois arago",
		"city": "Plaisir",
		"district": "",
		"postcode": "78370"
	},
	{
		"lon": "1.9191066",
		"lat": "48.8213284",
		"number": "90",
		"street": "rue michel ange",
		"city": "Plaisir",
		"district": "",
		"postcode": "78370"
	},
	{
		"lon": "1.9206123",
		"lat": "48.8214976",
		"number": "51",
		"street": "rue michel ange",
		"city": "Plaisir",
		"district": "",
		"postcode": "78370"
	},
	{
		"lon": "1.9207394",
		"lat": "48.8214789",
		"number": "49",
		"street": "rue michel ange",
		"city": "Plaisir",
		"district": "",
		"postcode": "78370"
	},
	{
		"lon": "1.920882",
		"lat": "48.8215",
		"number": "47",
		"street": "rue michel ange",
		"city": "Plaisir",
		"district": "",
		"postcode": "78370"
	},
	{
		"lon": "1.9225015",
		"lat": "48.8214993",
		"number": "33",
		"street": "rue michel ange",
		"city": "Plaisir",
		"district": "",
		"postcode": "78370"
	},
	{
		"lon": "1.9226833",
		"lat": "48.8214713",
		"number": "31",
		"street": "rue michel ange",
		"city": "Plaisir",
		"district": "",
		"postcode": "78370"
	},
	{
		"lon": "1.9228353",
		"lat": "48.8214295",
		"number": "29",
		"street": "rue michel ange",
		"city": "Plaisir",
		"district": "",
		"postcode": "78370"
	},
	{
		"lon": "1.9229709",
		"lat": "48.821392",
		"number": "27",
		"street": "rue michel ange",
		"city": "Plaisir",
		"district": "",
		"postcode": "78370"
	},
	{
		"lon": "1.9231408",
		"lat": "48.8213459",
		"number": "25",
		"street": "rue michel ange",
		"city": "Plaisir",
		"district": "",
		"postcode": "78370"
	},
	{
		"lon": "1.9273527",
		"lat": "48.8213954",
		"number": "564",
		"street": "rue du clos",
		"city": "Plaisir",
		"district": "",
		"postcode": "78370"
	},
	{
		"lon": "1.9191369",
		"lat": "48.8211838",
		"number": "92",
		"street": "rue michel ange",
		"city": "Plaisir",
		"district": "",
		"postcode": "78370"
	},
	{
		"lon": "1.9271199",
		"lat": "48.8211937",
		"number": "30",
		"street": "rue jules michelet",
		"city": "Plaisir",
		"district": "",
		"postcode": "78370"
	},
	{
		"lon": "1.9279732",
		"lat": "48.8212922",
		"number": "12",
		"street": "rue jean giono",
		"city": "Plaisir",
		"district": "",
		"postcode": "78370"
	},
	{
		"lon": "1.9445863",
		"lat": "48.8213716",
		"number": "14",
		"street": "avenue marc laurent",
		"city": "Plaisir",
		"district": "",
		"postcode": "78370"
	},
	{
		"lon": "1.9574471",
		"lat": "48.821443",
		"number": "660",
		"street": "rue du valibout",
		"city": "Plaisir",
		"district": "",
		"postcode": "78370"
	},
	{
		"lon": "1.9586993",
		"lat": "48.8215538",
		"number": "92",
		"street": "rue jean antoine chaptal",
		"city": "Plaisir",
		"district": "",
		"postcode": "78370"
	},
	{
		"lon": "1.9594902",
		"lat": "48.8216497",
		"number": "97",
		"street": "rue françois arago",
		"city": "Plaisir",
		"district": "",
		"postcode": "78370"
	},
	{
		"lon": "1.9595322",
		"lat": "48.8215925",
		"number": "87",
		"street": "rue françois arago",
		"city": "Plaisir",
		"district": "",
		"postcode": "78370"
	},
	{
		"lon": "1.9613501",
		"lat": "48.821477",
		"number": "270",
		"street": "rue romain rolland",
		"city": "Plaisir",
		"district": "",
		"postcode": "78370"
	},
	{
		"lon": "1.9612297",
		"lat": "48.8215057",
		"number": "256",
		"street": "rue romain rolland",
		"city": "Plaisir",
		"district": "",
		"postcode": "78370"
	},
	{
		"lon": "1.9610258",
		"lat": "48.8215524",
		"number": "248",
		"street": "rue romain rolland",
		"city": "Plaisir",
		"district": "",
		"postcode": "78370"
	},
	{
		"lon": "1.9609259",
		"lat": "48.8215759",
		"number": "234",
		"street": "rue romain rolland",
		"city": "Plaisir",
		"district": "",
		"postcode": "78370"
	},
	{
		"lon": "1.9608219",
		"lat": "48.8215992",
		"number": "230",
		"street": "rue romain rolland",
		"city": "Plaisir",
		"district": "",
		"postcode": "78370"
	},
	{
		"lon": "1.9607207",
		"lat": "48.8216218",
		"number": "218",
		"street": "rue romain rolland",
		"city": "Plaisir",
		"district": "",
		"postcode": "78370"
	},
	{
		"lon": "1.9192349",
		"lat": "48.8205956",
		"number": "98",
		"street": "rue michel ange",
		"city": "Plaisir",
		"district": "",
		"postcode": "78370"
	},
	{
		"lon": "1.9434575",
		"lat": "48.8208175",
		"number": "15",
		"street": "rue du clos du village",
		"city": "Plaisir",
		"district": "",
		"postcode": "78370"
	},
	{
		"lon": "1.9438674",
		"lat": "48.820822",
		"number": "2",
		"street": "rue du clos du village",
		"city": "Plaisir",
		"district": "",
		"postcode": "78370"
	},
	{
		"lon": "1.9445291",
		"lat": "48.8208332",
		"number": "10",
		"street": "avenue marc laurent",
		"city": "Plaisir",
		"district": "",
		"postcode": "78370"
	},
	{
		"lon": "1.9470646",
		"lat": "48.8208673",
		"number": "218",
		"street": "rue des vignes",
		"city": "Plaisir",
		"district": "",
		"postcode": "78370"
	},
	{
		"lon": "1.947188",
		"lat": "48.8206246",
		"number": "205",
		"street": "rue des vignes",
		"city": "Plaisir",
		"district": "",
		"postcode": "78370"
	},
	{
		"lon": "1.9472207",
		"lat": "48.8206276",
		"number": "201",
		"street": "rue des vignes",
		"city": "Plaisir",
		"district": "",
		"postcode": "78370"
	},
	{
		"lon": "1.9572211",
		"lat": "48.8209581",
		"number": "594",
		"street": "rue du valibout",
		"city": "Plaisir",
		"district": "",
		"postcode": "78370"
	},
	{
		"lon": "1.9575122",
		"lat": "48.820841",
		"number": "570",
		"street": "rue du valibout",
		"city": "Plaisir",
		"district": "",
		"postcode": "78370"
	},
	{
		"lon": "1.9608756",
		"lat": "48.8209575",
		"number": "75",
		"street": "rue jean louis gay lussac",
		"city": "Plaisir",
		"district": "",
		"postcode": "78370"
	},
	{
		"lon": "1.9608578",
		"lat": "48.8210302",
		"number": "71",
		"street": "rue jean louis gay lussac",
		"city": "Plaisir",
		"district": "",
		"postcode": "78370"
	},
	{
		"lon": "1.9616254",
		"lat": "48.8209254",
		"number": "102",
		"street": "rue gaspard monge",
		"city": "Plaisir",
		"district": "",
		"postcode": "78370"
	},
	{
		"lon": "1.9615941",
		"lat": "48.8209889",
		"number": "94",
		"street": "rue gaspard monge",
		"city": "Plaisir",
		"district": "",
		"postcode": "78370"
	},
	{
		"lon": "1.9615575",
		"lat": "48.8210498",
		"number": "86",
		"street": "rue gaspard monge",
		"city": "Plaisir",
		"district": "",
		"postcode": "78370"
	},
	{
		"lon": "1.9214263",
		"lat": "48.8198796",
		"number": "25",
		"street": "avenue paul albert bartholome",
		"city": "Plaisir",
		"district": "",
		"postcode": "78370"
	},
	{
		"lon": "1.9206732",
		"lat": "48.8200024",
		"number": "110",
		"street": "rue michel ange",
		"city": "Plaisir",
		"district": "",
		"postcode": "78370"
	},
	{
		"lon": "1.9256878",
		"lat": "48.8199639",
		"number": "8",
		"street": "allée antoine bourdelle",
		"city": "Plaisir",
		"district": "",
		"postcode": "78370"
	},
	{
		"lon": "1.9253859",
		"lat": "48.8200034",
		"number": "6",
		"street": "allée antoine bourdelle",
		"city": "Plaisir",
		"district": "",
		"postcode": "78370"
	},
	{
		"lon": "1.9250916",
		"lat": "48.8200772",
		"number": "4",
		"street": "allée antoine bourdelle",
		"city": "Plaisir",
		"district": "",
		"postcode": "78370"
	},
	{
		"lon": "1.9260704",
		"lat": "48.81997",
		"number": "12",
		"street": "allée antoine bourdelle",
		"city": "Plaisir",
		"district": "",
		"postcode": "78370"
	},
	{
		"lon": "1.925954",
		"lat": "48.8200013",
		"number": "10",
		"street": "allée antoine bourdelle",
		"city": "Plaisir",
		"district": "",
		"postcode": "78370"
	},
	{
		"lon": "1.927286",
		"lat": "48.8200034",
		"number": "9001",
		"street": "rue jules michelet",
		"city": "Plaisir",
		"district": "",
		"postcode": "78370"
	},
	{
		"lon": "1.9272236",
		"lat": "48.8201252",
		"number": "26",
		"street": "rue jules michelet",
		"city": "Plaisir",
		"district": "",
		"postcode": "78370"
	},
	{
		"lon": "1.934481",
		"lat": "48.8201064",
		"number": "685",
		"street": "rue rené bazin",
		"city": "Plaisir",
		"district": "",
		"postcode": "78370"
	},
	{
		"lon": "1.9205404",
		"lat": "48.8201055",
		"number": "108",
		"street": "rue michel ange",
		"city": "Plaisir",
		"district": "",
		"postcode": "78370"
	},
	{
		"lon": "1.9218617",
		"lat": "48.820166",
		"number": "23",
		"street": "avenue paul albert bartholome",
		"city": "Plaisir",
		"district": "",
		"postcode": "78370"
	},
	{
		"lon": "1.9271993",
		"lat": "48.8202464",
		"number": "9020",
		"street": "rue jules michelet",
		"city": "Plaisir",
		"district": "",
		"postcode": "78370"
	},
	{
		"lon": "1.9480467",
		"lat": "48.8203938",
		"number": "125",
		"street": "rue des vignes",
		"city": "Plaisir",
		"district": "",
		"postcode": "78370"
	},
	{
		"lon": "1.9480269",
		"lat": "48.8203613",
		"number": "117",
		"street": "rue des vignes",
		"city": "Plaisir",
		"district": "",
		"postcode": "78370"
	},
	{
		"lon": "1.9592742",
		"lat": "48.820457",
		"number": "56",
		"street": "rue marie jean antoine condorcet",
		"city": "Plaisir",
		"district": "",
		"postcode": "78370"
	},
	{
		"lon": "1.9593122",
		"lat": "48.820532",
		"number": "54",
		"street": "rue marie jean antoine condorcet",
		"city": "Plaisir",
		"district": "",
		"postcode": "78370"
	},
	{
		"lon": "1.9600279",
		"lat": "48.8205013",
		"number": "16",
		"street": "rue d'alembert",
		"city": "Plaisir",
		"district": "",
		"postcode": "78370"
	},
	{
		"lon": "1.9609254",
		"lat": "48.82051",
		"number": "125",
		"street": "rue jean louis gay lussac",
		"city": "Plaisir",
		"district": "",
		"postcode": "78370"
	},
	{
		"lon": "1.917771",
		"lat": "48.8201866",
		"number": "114",
		"street": "sentier théophile gautier",
		"city": "Plaisir",
		"district": "",
		"postcode": "78370"
	},
	{
		"lon": "1.9203536",
		"lat": "48.820245",
		"number": "106",
		"street": "rue michel ange",
		"city": "Plaisir",
		"district": "",
		"postcode": "78370"
	},
	{
		"lon": "1.9212769",
		"lat": "48.820319",
		"number": "2",
		"street": "allée françois rude",
		"city": "Plaisir",
		"district": "",
		"postcode": "78370"
	},
	{
		"lon": "1.9233524",
		"lat": "48.8203998",
		"number": "13",
		"street": "avenue paul albert bartholome",
		"city": "Plaisir",
		"district": "",
		"postcode": "78370"
	},
	{
		"lon": "1.9236037",
		"lat": "48.8203634",
		"number": "11",
		"street": "avenue paul albert bartholome",
		"city": "Plaisir",
		"district": "",
		"postcode": "78370"
	},
	{
		"lon": "1.9238498",
		"lat": "48.8203854",
		"number": "9",
		"street": "avenue paul albert bartholome",
		"city": "Plaisir",
		"district": "",
		"postcode": "78370"
	},
	{
		"lon": "1.9248967",
		"lat": "48.8202806",
		"number": "2",
		"street": "allée antoine bourdelle",
		"city": "Plaisir",
		"district": "",
		"postcode": "78370"
	},
	{
		"lon": "1.9348905",
		"lat": "48.8203304",
		"number": "685",
		"street": "rue rené bazin",
		"city": "Plaisir",
		"district": "",
		"postcode": "78370"
	},
	{
		"lon": "1.9434251",
		"lat": "48.8204664",
		"number": "3",
		"street": "rue du clos du village",
		"city": "Plaisir",
		"district": "",
		"postcode": "78370"
	},
	{
		"lon": "1.9477325",
		"lat": "48.820508",
		"number": "163",
		"street": "rue des vignes",
		"city": "Plaisir",
		"district": "",
		"postcode": "78370"
	},
	{
		"lon": "1.9481024",
		"lat": "48.8206021",
		"number": "146",
		"street": "rue des vignes",
		"city": "Plaisir",
		"district": "",
		"postcode": "78370"
	},
	{
		"lon": "1.9593569",
		"lat": "48.8206133",
		"number": "36",
		"street": "rue marie jean antoine condorcet",
		"city": "Plaisir",
		"district": "",
		"postcode": "78370"
	},
	{
		"lon": "1.9594069",
		"lat": "48.8207046",
		"number": "34",
		"street": "rue marie jean antoine condorcet",
		"city": "Plaisir",
		"district": "",
		"postcode": "78370"
	},
	{
		"lon": "1.9600301",
		"lat": "48.8206669",
		"number": "34",
		"street": "rue d'alembert",
		"city": "Plaisir",
		"district": "",
		"postcode": "78370"
	},
	{
		"lon": "1.9600304",
		"lat": "48.8205805",
		"number": "32",
		"street": "rue d'alembert",
		"city": "Plaisir",
		"district": "",
		"postcode": "78370"
	},
	{
		"lon": "1.9609268",
		"lat": "48.8205748",
		"number": "117",
		"street": "rue jean louis gay lussac",
		"city": "Plaisir",
		"district": "",
		"postcode": "78370"
	},
	{
		"lon": "1.9609225",
		"lat": "48.8206521",
		"number": "109",
		"street": "rue jean louis gay lussac",
		"city": "Plaisir",
		"district": "",
		"postcode": "78370"
	},
	{
		"lon": "1.9609214",
		"lat": "48.8207106",
		"number": "101",
		"street": "rue jean louis gay lussac",
		"city": "Plaisir",
		"district": "",
		"postcode": "78370"
	},
	{
		"lon": "1.9616742",
		"lat": "48.8207288",
		"number": "120",
		"street": "rue gaspard monge",
		"city": "Plaisir",
		"district": "",
		"postcode": "78370"
	},
	{
		"lon": "1.9146003",
		"lat": "48.8184076",
		"number": "6",
		"street": "rue charles baudelaire",
		"city": "Plaisir",
		"district": "",
		"postcode": "78370"
	},
	{
		"lon": "1.9271451",
		"lat": "48.818644",
		"number": "12",
		"street": "rue jules michelet",
		"city": "Plaisir",
		"district": "",
		"postcode": "78370"
	},
	{
		"lon": "1.9314517",
		"lat": "48.8186466",
		"number": "1233",
		"street": "rue de la boissière",
		"city": "Plaisir",
		"district": "",
		"postcode": "78370"
	},
	{
		"lon": "1.9314517",
		"lat": "48.8186466",
		"number": "1233",
		"street": "rue de la boissière",
		"city": "Plaisir",
		"district": "",
		"postcode": "78370"
	},
	{
		"lon": "1.9463359",
		"lat": "48.8187769",
		"number": "10",
		"street": "rue de la république",
		"city": "Plaisir",
		"district": "",
		"postcode": "78370"
	},
	{
		"lon": "1.9466854",
		"lat": "48.8186693",
		"number": "8",
		"street": "rue de la république",
		"city": "Plaisir",
		"district": "",
		"postcode": "78370"
	},
	{
		"lon": "1.9619689",
		"lat": "48.8189271",
		"number": "120",
		"street": "rue james watt",
		"city": "Plaisir",
		"district": "",
		"postcode": "78370"
	},
	{
		"lon": "1.9618092",
		"lat": "48.8189428",
		"number": "118",
		"street": "rue james watt",
		"city": "Plaisir",
		"district": "",
		"postcode": "78370"
	},
	{
		"lon": "1.9620547",
		"lat": "48.818927",
		"number": "122",
		"street": "rue james watt",
		"city": "Plaisir",
		"district": "",
		"postcode": "78370"
	},
	{
		"lon": "1.9645945",
		"lat": "48.818877",
		"number": "155",
		"street": "rue lowestoft",
		"city": "Plaisir",
		"district": "",
		"postcode": "78370"
	},
	{
		"lon": "1.9646776",
		"lat": "48.8188759",
		"number": "153",
		"street": "rue lowestoft",
		"city": "Plaisir",
		"district": "",
		"postcode": "78370"
	},
	{
		"lon": "1.9647607",
		"lat": "48.8188758",
		"number": "149",
		"street": "rue lowestoft",
		"city": "Plaisir",
		"district": "",
		"postcode": "78370"
	},
	{
		"lon": "1.9653613",
		"lat": "48.8188783",
		"number": "109",
		"street": "rue lowestoft",
		"city": "Plaisir",
		"district": "",
		"postcode": "78370"
	},
	{
		"lon": "1.9654484",
		"lat": "48.818879",
		"number": "107",
		"street": "rue lowestoft",
		"city": "Plaisir",
		"district": "",
		"postcode": "78370"
	},
	{
		"lon": "1.9655315",
		"lat": "48.8188788",
		"number": "105",
		"street": "rue lowestoft",
		"city": "Plaisir",
		"district": "",
		"postcode": "78370"
	},
	{
		"lon": "1.9141923",
		"lat": "48.8189039",
		"number": "10",
		"street": "rue charles baudelaire",
		"city": "Plaisir",
		"district": "",
		"postcode": "78370"
	},
	{
		"lon": "1.9198917",
		"lat": "48.8190005",
		"number": "98",
		"street": "rue voltaire",
		"city": "Plaisir",
		"district": "",
		"postcode": "78370"
	},
	{
		"lon": "1.9194582",
		"lat": "48.8190866",
		"number": "72",
		"street": "rue voltaire",
		"city": "Plaisir",
		"district": "",
		"postcode": "78370"
	},
	{
		"lon": "1.9200716",
		"lat": "48.8190633",
		"number": "85",
		"street": "rue maurice barrès",
		"city": "Plaisir",
		"district": "",
		"postcode": "78370"
	},
	{
		"lon": "1.9215485",
		"lat": "48.8189103",
		"number": "9052",
		"street": "rue maurice barrès",
		"city": "Plaisir",
		"district": "",
		"postcode": "78370"
	},
	{
		"lon": "1.9249422",
		"lat": "48.8190631",
		"number": "8",
		"street": "impasse maurice barrès",
		"city": "Plaisir",
		"district": "",
		"postcode": "78370"
	},
	{
		"lon": "1.9275489",
		"lat": "48.8190758",
		"number": "18",
		"street": "rue jules michelet",
		"city": "Plaisir",
		"district": "",
		"postcode": "78370"
	},
	{
		"lon": "1.9273104",
		"lat": "48.8191474",
		"number": "16",
		"street": "rue jules michelet",
		"city": "Plaisir",
		"district": "",
		"postcode": "78370"
	},
	{
		"lon": "1.9442025",
		"lat": "48.8192078",
		"number": "3",
		"street": "rue albert calmette",
		"city": "Plaisir",
		"district": "",
		"postcode": "78370"
	},
	{
		"lon": "1.9503109",
		"lat": "48.8192229",
		"number": "1",
		"street": "rue jules verne",
		"city": "Plaisir",
		"district": "",
		"postcode": "78370"
	},
	{
		"lon": "1.9617718",
		"lat": "48.8193167",
		"number": "159",
		"street": "rue james watt",
		"city": "Plaisir",
		"district": "",
		"postcode": "78370"
	},
	{
		"lon": "1.960971",
		"lat": "48.8192467",
		"number": "37",
		"street": "rue james watt",
		"city": "Plaisir",
		"district": "",
		"postcode": "78370"
	},
	{
		"lon": "1.9609709",
		"lat": "48.8193169",
		"number": "31",
		"street": "rue james watt",
		"city": "Plaisir",
		"district": "",
		"postcode": "78370"
	},
	{
		"lon": "1.9137703",
		"lat": "48.8194829",
		"number": "13",
		"street": "rue charles baudelaire",
		"city": "Plaisir",
		"district": "",
		"postcode": "78370"
	},
	{
		"lon": "1.9137313",
		"lat": "48.8193279",
		"number": "11",
		"street": "rue charles baudelaire",
		"city": "Plaisir",
		"district": "",
		"postcode": "78370"
	},
	{
		"lon": "1.9159777",
		"lat": "48.8194382",
		"number": "54",
		"street": "rue voltaire",
		"city": "Plaisir",
		"district": "",
		"postcode": "78370"
	},
	{
		"lon": "1.9165188",
		"lat": "48.8193532",
		"number": "58",
		"street": "rue voltaire",
		"city": "Plaisir",
		"district": "",
		"postcode": "78370"
	},
	{
		"lon": "1.9162279",
		"lat": "48.8193946",
		"number": "56",
		"street": "rue voltaire",
		"city": "Plaisir",
		"district": "",
		"postcode": "78370"
	},
	{
		"lon": "1.9206058",
		"lat": "48.8193775",
		"number": "29",
		"street": "avenue paul albert bartholome",
		"city": "Plaisir",
		"district": "",
		"postcode": "78370"
	},
	{
		"lon": "1.9208787",
		"lat": "48.8194223",
		"number": "28",
		"street": "avenue paul albert bartholome",
		"city": "Plaisir",
		"district": "",
		"postcode": "78370"
	},
	{
		"lon": "1.9210372",
		"lat": "48.819528",
		"number": "26",
		"street": "avenue paul albert bartholome",
		"city": "Plaisir",
		"district": "",
		"postcode": "78370"
	},
	{
		"lon": "1.9436592",
		"lat": "48.8196041",
		"number": "45",
		"street": "rue rené bazin",
		"city": "Plaisir",
		"district": "",
		"postcode": "78370"
	},
	{
		"lon": "1.9437344",
		"lat": "48.8195895",
		"number": "43",
		"street": "rue rené bazin",
		"city": "Plaisir",
		"district": "",
		"postcode": "78370"
	},
	{
		"lon": "1.9440475",
		"lat": "48.8197973",
		"number": "21",
		"street": "rue rené bazin",
		"city": "Plaisir",
		"district": "",
		"postcode": "78370"
	},
	{
		"lon": "1.9455784",
		"lat": "48.8196651",
		"number": "5",
		"street": "rue de l'avignou",
		"city": "Plaisir",
		"district": "",
		"postcode": "78370"
	},
	{
		"lon": "1.9455884",
		"lat": "48.8196436",
		"number": "3",
		"street": "rue de l'avignou",
		"city": "Plaisir",
		"district": "",
		"postcode": "78370"
	},
	{
		"lon": "1.9467952",
		"lat": "48.8195724",
		"number": "3",
		"street": "impasse de l'avignou",
		"city": "Plaisir",
		"district": "",
		"postcode": "78370"
	},
	{
		"lon": "1.9508671",
		"lat": "48.8197368",
		"number": "7",
		"street": "rue jules verne",
		"city": "Plaisir",
		"district": "",
		"postcode": "78370"
	},
	{
		"lon": "1.9601275",
		"lat": "48.8198114",
		"number": "722",
		"street": "avenue des sablons",
		"city": "Plaisir",
		"district": "",
		"postcode": "78370"
	},
	{
		"lon": "1.9669446",
		"lat": "48.8198786",
		"number": "78",
		"street": "rue du portugal",
		"city": "Plaisir",
		"district": "",
		"postcode": "78370"
	},
	{
		"lon": "1.9447284",
		"lat": "48.8123344",
		"number": "9",
		"street": "rue anatole france",
		"city": "Plaisir",
		"district": "",
		"postcode": "78370"
	},
	{
		"lon": "1.9446503",
		"lat": "48.8121566",
		"number": "7",
		"street": "rue anatole france",
		"city": "Plaisir",
		"district": "",
		"postcode": "78370"
	},
	{
		"lon": "1.9446349",
		"lat": "48.8120422",
		"number": "5",
		"street": "rue anatole france",
		"city": "Plaisir",
		"district": "",
		"postcode": "78370"
	},
	{
		"lon": "1.9447962",
		"lat": "48.8119447",
		"number": "3",
		"street": "rue anatole france",
		"city": "Plaisir",
		"district": "",
		"postcode": "78370"
	},
	{
		"lon": "1.9450567",
		"lat": "48.811857",
		"number": "1",
		"street": "rue anatole france",
		"city": "Plaisir",
		"district": "",
		"postcode": "78370"
	},
	{
		"lon": "1.9455218",
		"lat": "48.8120248",
		"number": "255",
		"street": "rue jules régnier",
		"city": "Plaisir",
		"district": "",
		"postcode": "78370"
	},
	{
		"lon": "1.9455287",
		"lat": "48.8121562",
		"number": "235",
		"street": "rue jules régnier",
		"city": "Plaisir",
		"district": "",
		"postcode": "78370"
	},
	{
		"lon": "1.9611627",
		"lat": "48.8044968",
		"number": "2048",
		"street": "rue jules régnier",
		"city": "Plaisir",
		"district": "",
		"postcode": "78370"
	},
	{
		"lon": "1.9611627",
		"lat": "48.8044968",
		"number": "2048",
		"street": "rue jules régnier",
		"city": "Plaisir",
		"district": "",
		"postcode": "78370"
	},
	{
		"lon": "1.9658409",
		"lat": "48.8043098",
		"number": "283",
		"street": "sentier pierre roux",
		"city": "Plaisir",
		"district": "",
		"postcode": "78370"
	},
	{
		"lon": "1.9662731",
		"lat": "48.8045591",
		"number": "4",
		"street": "rue paul cézanne",
		"city": "Plaisir",
		"district": "",
		"postcode": "78370"
	},
	{
		"lon": "1.967669",
		"lat": "48.8044749",
		"number": "12",
		"street": "rue paul cézanne",
		"city": "Plaisir",
		"district": "",
		"postcode": "78370"
	},
	{
		"lon": "1.9673064",
		"lat": "48.804496",
		"number": "10",
		"street": "rue paul cézanne",
		"city": "Plaisir",
		"district": "",
		"postcode": "78370"
	},
	{
		"lon": "1.9669861",
		"lat": "48.8045158",
		"number": "8",
		"street": "rue paul cézanne",
		"city": "Plaisir",
		"district": "",
		"postcode": "78370"
	},
	{
		"lon": "1.9666262",
		"lat": "48.8045369",
		"number": "6",
		"street": "rue paul cézanne",
		"city": "Plaisir",
		"district": "",
		"postcode": "78370"
	},
	{
		"lon": "1.9679867",
		"lat": "48.8044551",
		"number": "14",
		"street": "rue paul cézanne",
		"city": "Plaisir",
		"district": "",
		"postcode": "78370"
	},
	{
		"lon": "1.9716624",
		"lat": "48.8044239",
		"number": "28",
		"street": "rue albert einstein",
		"city": "Plaisir",
		"district": "",
		"postcode": "78370"
	},
	{
		"lon": "1.9748794",
		"lat": "48.8045208",
		"number": "11",
		"street": "rue jean-philippe rameau",
		"city": "Plaisir",
		"district": "",
		"postcode": "78370"
	},
	{
		"lon": "1.9750595",
		"lat": "48.8045025",
		"number": "9",
		"street": "rue jean-philippe rameau",
		"city": "Plaisir",
		"district": "",
		"postcode": "78370"
	},
	{
		"lon": "1.9751898",
		"lat": "48.8045918",
		"number": "7",
		"street": "rue jean-philippe rameau",
		"city": "Plaisir",
		"district": "",
		"postcode": "78370"
	},
	{
		"lon": "1.9663051",
		"lat": "48.8050028",
		"number": "195",
		"street": "rue des moulins",
		"city": "Plaisir",
		"district": "",
		"postcode": "78370"
	},
	{
		"lon": "1.9670618",
		"lat": "48.8050228",
		"number": "9001",
		"street": "rue des moulins",
		"city": "Plaisir",
		"district": "",
		"postcode": "78370"
	},
	{
		"lon": "1.9674095",
		"lat": "48.8049988",
		"number": "9001",
		"street": "rue des moulins",
		"city": "Plaisir",
		"district": "",
		"postcode": "78370"
	},
	{
		"lon": "1.9700788",
		"lat": "48.804904",
		"number": "23",
		"street": "chemin de la relativité",
		"city": "Plaisir",
		"district": "",
		"postcode": "78370"
	},
	{
		"lon": "1.9696727",
		"lat": "48.8050597",
		"number": "25",
		"street": "rue antoine laurent lavoisier",
		"city": "Plaisir",
		"district": "",
		"postcode": "78370"
	},
	{
		"lon": "1.9694851",
		"lat": "48.8048386",
		"number": "3",
		"street": "rue ambroise paré",
		"city": "Plaisir",
		"district": "",
		"postcode": "78370"
	},
	{
		"lon": "1.9714519",
		"lat": "48.8050157",
		"number": "44",
		"street": "rue albert einstein",
		"city": "Plaisir",
		"district": "",
		"postcode": "78370"
	},
	{
		"lon": "1.9714261",
		"lat": "48.8049417",
		"number": "42",
		"street": "rue albert einstein",
		"city": "Plaisir",
		"district": "",
		"postcode": "78370"
	},
	{
		"lon": "1.9740767",
		"lat": "48.8050382",
		"number": "4",
		"street": "rue hector berlioz",
		"city": "Plaisir",
		"district": "",
		"postcode": "78370"
	},
	{
		"lon": "1.9735254",
		"lat": "48.8050299",
		"number": "2",
		"street": "rue hector berlioz",
		"city": "Plaisir",
		"district": "",
		"postcode": "78370"
	},
	{
		"lon": "1.9749384",
		"lat": "48.8049107",
		"number": "10",
		"street": "rue jean-philippe rameau",
		"city": "Plaisir",
		"district": "",
		"postcode": "78370"
	},
	{
		"lon": "1.9761423",
		"lat": "48.8050416",
		"number": "1",
		"street": "rue camille saint-saëns",
		"city": "Plaisir",
		"district": "",
		"postcode": "78370"
	},
	{
		"lon": "1.9777008",
		"lat": "48.8050738",
		"number": "35",
		"street": "rue claude debussy",
		"city": "Plaisir",
		"district": "",
		"postcode": "78370"
	},
	{
		"lon": "1.9782958",
		"lat": "48.8051436",
		"number": "31",
		"street": "rue claude debussy",
		"city": "Plaisir",
		"district": "",
		"postcode": "78370"
	},
	{
		"lon": "1.954183",
		"lat": "48.8059874",
		"number": "1522",
		"street": "rue jules régnier",
		"city": "Plaisir",
		"district": "",
		"postcode": "78370"
	},
	{
		"lon": "1.9599252",
		"lat": "48.8060564",
		"number": "1951",
		"street": "rue jules régnier",
		"city": "Plaisir",
		"district": "",
		"postcode": "78370"
	},
	{
		"lon": "1.9597821",
		"lat": "48.8060633",
		"number": "1943",
		"street": "rue jules régnier",
		"city": "Plaisir",
		"district": "",
		"postcode": "78370"
	},
	{
		"lon": "1.959638",
		"lat": "48.8060503",
		"number": "1927",
		"street": "rue jules régnier",
		"city": "Plaisir",
		"district": "",
		"postcode": "78370"
	},
	{
		"lon": "1.9602116",
		"lat": "48.8059654",
		"number": "10",
		"street": "sentier du clos langrone",
		"city": "Plaisir",
		"district": "",
		"postcode": "78370"
	},
	{
		"lon": "1.9627492",
		"lat": "48.8059946",
		"number": "53",
		"street": "rue vincent van gogh",
		"city": "Plaisir",
		"district": "",
		"postcode": "78370"
	},
	{
		"lon": "1.9664253",
		"lat": "48.8062216",
		"number": "9",
		"street": "rue alfred sisley",
		"city": "Plaisir",
		"district": "",
		"postcode": "78370"
	},
	{
		"lon": "1.9667802",
		"lat": "48.8062481",
		"number": "7",
		"street": "rue alfred sisley",
		"city": "Plaisir",
		"district": "",
		"postcode": "78370"
	},
	{
		"lon": "1.9702757",
		"lat": "48.8061766",
		"number": "1",
		"street": "rue vincent van gogh",
		"city": "Plaisir",
		"district": "",
		"postcode": "78370"
	},
	{
		"lon": "1.9743869",
		"lat": "48.8062291",
		"number": "12",
		"street": "rue hector berlioz",
		"city": "Plaisir",
		"district": "",
		"postcode": "78370"
	},
	{
		"lon": "1.9754711",
		"lat": "48.8060783",
		"number": "10",
		"street": "rue darius milhaud",
		"city": "Plaisir",
		"district": "",
		"postcode": "78370"
	},
	{
		"lon": "1.975812",
		"lat": "48.8061891",
		"number": "8",
		"street": "rue darius milhaud",
		"city": "Plaisir",
		"district": "",
		"postcode": "78370"
	},
	{
		"lon": "1.9772475",
		"lat": "48.8061762",
		"number": "13",
		"street": "rue gabriel fauré",
		"city": "Plaisir",
		"district": "",
		"postcode": "78370"
	},
	{
		"lon": "1.9784926",
		"lat": "48.8062903",
		"number": "8",
		"street": "rue paul dukas",
		"city": "Plaisir",
		"district": "",
		"postcode": "78370"
	},
	{
		"lon": "1.9786813",
		"lat": "48.806246",
		"number": "6",
		"street": "rue paul dukas",
		"city": "Plaisir",
		"district": "",
		"postcode": "78370"
	},
	{
		"lon": "1.9798371",
		"lat": "48.806121",
		"number": "17",
		"street": "rue claude debussy",
		"city": "Plaisir",
		"district": "",
		"postcode": "78370"
	},
	{
		"lon": "1.9797706",
		"lat": "48.8063201",
		"number": "15",
		"street": "rue claude debussy",
		"city": "Plaisir",
		"district": "",
		"postcode": "78370"
	},
	{
		"lon": "1.9538828",
		"lat": "48.8057483",
		"number": "1518",
		"street": "rue jules régnier",
		"city": "Plaisir",
		"district": "",
		"postcode": "78370"
	},
	{
		"lon": "1.9607241",
		"lat": "48.8058043",
		"number": "50",
		"street": "rue du buisson",
		"city": "Plaisir",
		"district": "",
		"postcode": "78370"
	},
	{
		"lon": "1.9631535",
		"lat": "48.8057958",
		"number": "51",
		"street": "rue vincent van gogh",
		"city": "Plaisir",
		"district": "",
		"postcode": "78370"
	},
	{
		"lon": "1.9648016",
		"lat": "48.8058388",
		"number": "47",
		"street": "rue vincent van gogh",
		"city": "Plaisir",
		"district": "",
		"postcode": "78370"
	},
	{
		"lon": "1.9741776",
		"lat": "48.8060042",
		"number": "11",
		"street": "rue hector berlioz",
		"city": "Plaisir",
		"district": "",
		"postcode": "78370"
	},
	{
		"lon": "1.9770398",
		"lat": "48.8060035",
		"number": "15",
		"street": "rue gabriel fauré",
		"city": "Plaisir",
		"district": "",
		"postcode": "78370"
	},
	{
		"lon": "1.9788797",
		"lat": "48.8060598",
		"number": "4",
		"street": "rue paul dukas",
		"city": "Plaisir",
		"district": "",
		"postcode": "78370"
	},
	{
		"lon": "1.9790228",
		"lat": "48.8059135",
		"number": "2",
		"street": "rue paul dukas",
		"city": "Plaisir",
		"district": "",
		"postcode": "78370"
	},
	{
		"lon": "1.9470623",
		"lat": "48.8075619",
		"number": "45",
		"street": "impasse du 5 juin 1944",
		"city": "Plaisir",
		"district": "",
		"postcode": "78370"
	},
	{
		"lon": "1.9505811",
		"lat": "48.8080965",
		"number": "11",
		"street": "rue du pasteur martin luther king",
		"city": "Plaisir",
		"district": "",
		"postcode": "78370"
	},
	{
		"lon": "1.9508615",
		"lat": "48.8081026",
		"number": "9",
		"street": "rue du pasteur martin luther king",
		"city": "Plaisir",
		"district": "",
		"postcode": "78370"
	},
	{
		"lon": "1.9511388",
		"lat": "48.8081257",
		"number": "7",
		"street": "rue du pasteur martin luther king",
		"city": "Plaisir",
		"district": "",
		"postcode": "78370"
	},
	{
		"lon": "1.9541159",
		"lat": "48.8079045",
		"number": "10",
		"street": "sentier de la chaîne",
		"city": "Plaisir",
		"district": "",
		"postcode": "78370"
	},
	{
		"lon": "1.9648449",
		"lat": "48.8082515",
		"number": "6",
		"street": "rue edgar degas",
		"city": "Plaisir",
		"district": "",
		"postcode": "78370"
	},
	{
		"lon": "1.9663536",
		"lat": "48.8077087",
		"number": "17",
		"street": "rue pierre bonnard",
		"city": "Plaisir",
		"district": "",
		"postcode": "78370"
	},
	{
		"lon": "1.9664197",
		"lat": "48.8078082",
		"number": "15",
		"street": "rue pierre bonnard",
		"city": "Plaisir",
		"district": "",
		"postcode": "78370"
	},
	{
		"lon": "1.9662752",
		"lat": "48.8081595",
		"number": "11",
		"street": "rue pierre bonnard",
		"city": "Plaisir",
		"district": "",
		"postcode": "78370"
	},
	{
		"lon": "1.9677535",
		"lat": "48.8079142",
		"number": "12",
		"street": "rue paul gauguin",
		"city": "Plaisir",
		"district": "",
		"postcode": "78370"
	},
	{
		"lon": "1.9688138",
		"lat": "48.8080735",
		"number": "34",
		"street": "rue paul gauguin",
		"city": "Plaisir",
		"district": "",
		"postcode": "78370"
	},
	{
		"lon": "1.9689128",
		"lat": "48.8078882",
		"number": "32",
		"street": "rue paul gauguin",
		"city": "Plaisir",
		"district": "",
		"postcode": "78370"
	},
	{
		"lon": "1.9689906",
		"lat": "48.8077414",
		"number": "30",
		"street": "rue paul gauguin",
		"city": "Plaisir",
		"district": "",
		"postcode": "78370"
	},
	{
		"lon": "1.967995",
		"lat": "48.8080269",
		"number": "10",
		"street": "rue paul gauguin",
		"city": "Plaisir",
		"district": "",
		"postcode": "78370"
	},
	{
		"lon": "1.9682608",
		"lat": "48.8081533",
		"number": "8",
		"street": "rue paul gauguin",
		"city": "Plaisir",
		"district": "",
		"postcode": "78370"
	},
	{
		"lon": "1.968474",
		"lat": "48.8082523",
		"number": "6",
		"street": "rue paul gauguin",
		"city": "Plaisir",
		"district": "",
		"postcode": "78370"
	},
	{
		"lon": "1.9698217",
		"lat": "48.8081317",
		"number": "9",
		"street": "rue édouard manet",
		"city": "Plaisir",
		"district": "",
		"postcode": "78370"
	},
	{
		"lon": "1.9698933",
		"lat": "48.8078868",
		"number": "7",
		"street": "rue édouard manet",
		"city": "Plaisir",
		"district": "",
		"postcode": "78370"
	},
	{
		"lon": "1.974743",
		"lat": "48.8078583",
		"number": "6",
		"street": "rue françois couperin",
		"city": "Plaisir",
		"district": "",
		"postcode": "78370"
	},
	{
		"lon": "1.9771068",
		"lat": "48.8080728",
		"number": "24",
		"street": "rue françois couperin",
		"city": "Plaisir",
		"district": "",
		"postcode": "78370"
	},
	{
		"lon": "1.976872",
		"lat": "48.8082435",
		"number": "22",
		"street": "rue françois couperin",
		"city": "Plaisir",
		"district": "",
		"postcode": "78370"
	},
	{
		"lon": "1.9615468",
		"lat": "48.8042851",
		"number": "2166",
		"street": "rue jules régnier",
		"city": "Plaisir",
		"district": "",
		"postcode": "78370"
	},
	{
		"lon": "1.9615908",
		"lat": "48.804263",
		"number": "2166",
		"street": "rue jules régnier",
		"city": "Plaisir",
		"district": "",
		"postcode": "78370"
	},
	{
		"lon": "1.9657912",
		"lat": "48.8043435",
		"number": "9005",
		"street": "sentier pierre roux",
		"city": "Plaisir",
		"district": "",
		"postcode": "78370"
	},
	{
		"lon": "1.9683538",
		"lat": "48.8043423",
		"number": "16",
		"street": "rue paul cézanne",
		"city": "Plaisir",
		"district": "",
		"postcode": "78370"
	},
	{
		"lon": "1.969546",
		"lat": "48.8042374",
		"number": "15",
		"street": "rue antoine laurent lavoisier",
		"city": "Plaisir",
		"district": "",
		"postcode": "78370"
	},
	{
		"lon": "1.9717099",
		"lat": "48.8043622",
		"number": "26",
		"street": "rue albert einstein",
		"city": "Plaisir",
		"district": "",
		"postcode": "78370"
	},
	{
		"lon": "1.9718443",
		"lat": "48.804313",
		"number": "24",
		"street": "rue albert einstein",
		"city": "Plaisir",
		"district": "",
		"postcode": "78370"
	},
	{
		"lon": "1.9718414",
		"lat": "48.8042536",
		"number": "22",
		"street": "rue albert einstein",
		"city": "Plaisir",
		"district": "",
		"postcode": "78370"
	},
	{
		"lon": "1.9717285",
		"lat": "48.804178",
		"number": "20",
		"street": "rue albert einstein",
		"city": "Plaisir",
		"district": "",
		"postcode": "78370"
	},
	{
		"lon": "1.9758604",
		"lat": "48.804209",
		"number": "9",
		"street": "rue camille saint-saëns",
		"city": "Plaisir",
		"district": "",
		"postcode": "78370"
	},
	{
		"lon": "1.9759861",
		"lat": "48.8043989",
		"number": "7",
		"street": "rue camille saint-saëns",
		"city": "Plaisir",
		"district": "",
		"postcode": "78370"
	},
	{
		"lon": "1.9697137",
		"lat": "48.8040167",
		"number": "13",
		"street": "rue antoine laurent lavoisier",
		"city": "Plaisir",
		"district": "",
		"postcode": "78370"
	},
	{
		"lon": "1.9716991",
		"lat": "48.8040797",
		"number": "18",
		"street": "rue albert einstein",
		"city": "Plaisir",
		"district": "",
		"postcode": "78370"
	},
	{
		"lon": "1.9716747",
		"lat": "48.8040075",
		"number": "16",
		"street": "rue albert einstein",
		"city": "Plaisir",
		"district": "",
		"postcode": "78370"
	},
	{
		"lon": "1.9727048",
		"lat": "48.8041756",
		"number": "14",
		"street": "rue maurice ravel",
		"city": "Plaisir",
		"district": "",
		"postcode": "78370"
	},
	{
		"lon": "1.9464289",
		"lat": "48.8139064",
		"number": "1",
		"street": "rue françois coppée",
		"city": "Plaisir",
		"district": "",
		"postcode": "78370"
	},
	{
		"lon": "1.9462847",
		"lat": "48.8142361",
		"number": "2",
		"street": "rue ernest lavisse",
		"city": "Plaisir",
		"district": "",
		"postcode": "78370"
	},
	{
		"lon": "1.9465021",
		"lat": "48.8141948",
		"number": "19",
		"street": "rue jean jacques rousseau",
		"city": "Plaisir",
		"district": "",
		"postcode": "78370"
	},
	{
		"lon": "1.9465021",
		"lat": "48.8141939",
		"number": "19",
		"street": "rue jean jacques rousseau",
		"city": "Plaisir",
		"district": "",
		"postcode": "78370"
	},
	{
		"lon": "1.9449221",
		"lat": "48.8125178",
		"number": "15",
		"street": "rue anatole france",
		"city": "Plaisir",
		"district": "",
		"postcode": "78370"
	},
	{
		"lon": "1.9448351",
		"lat": "48.8125126",
		"number": "13",
		"street": "rue anatole france",
		"city": "Plaisir",
		"district": "",
		"postcode": "78370"
	},
	{
		"lon": "1.9447751",
		"lat": "48.8124464",
		"number": "11",
		"street": "rue anatole france",
		"city": "Plaisir",
		"district": "",
		"postcode": "78370"
	},
	{
		"lon": "1.9460587",
		"lat": "48.813358",
		"number": "97",
		"street": "rue jules régnier",
		"city": "Plaisir",
		"district": "",
		"postcode": "78370"
	},
	{
		"lon": "1.9464593",
		"lat": "48.8134794",
		"number": "5",
		"street": "rue françois coppée",
		"city": "Plaisir",
		"district": "",
		"postcode": "78370"
	},
	{
		"lon": "1.9464001",
		"lat": "48.8137154",
		"number": "3",
		"street": "rue françois coppée",
		"city": "Plaisir",
		"district": "",
		"postcode": "78370"
	},
	{
		"lon": "1.9559532",
		"lat": "48.8110847",
		"number": "1",
		"street": "rue pierre ronsard",
		"city": "Plaisir",
		"district": "",
		"postcode": "78370"
	},
	{
		"lon": "1.9674532",
		"lat": "48.8105622",
		"number": "35",
		"street": "rue édouard manet",
		"city": "Plaisir",
		"district": "",
		"postcode": "78370"
	},
	{
		"lon": "1.9678827",
		"lat": "48.8106046",
		"number": "33",
		"street": "rue édouard manet",
		"city": "Plaisir",
		"district": "",
		"postcode": "78370"
	},
	{
		"lon": "1.9682846",
		"lat": "48.8104606",
		"number": "31",
		"street": "rue édouard manet",
		"city": "Plaisir",
		"district": "",
		"postcode": "78370"
	},
	{
		"lon": "1.9500197",
		"lat": "48.8085207",
		"number": "18",
		"street": "rue françois coppée",
		"city": "Plaisir",
		"district": "",
		"postcode": "78370"
	},
	{
		"lon": "1.9503319",
		"lat": "48.8086394",
		"number": "19",
		"street": "rue ernest hemingway",
		"city": "Plaisir",
		"district": "",
		"postcode": "78370"
	},
	{
		"lon": "1.9506193",
		"lat": "48.8087697",
		"number": "17",
		"street": "rue ernest hemingway",
		"city": "Plaisir",
		"district": "",
		"postcode": "78370"
	},
	{
		"lon": "1.9507949",
		"lat": "48.808773",
		"number": "15",
		"street": "rue ernest hemingway",
		"city": "Plaisir",
		"district": "",
		"postcode": "78370"
	},
	{
		"lon": "1.9514001",
		"lat": "48.8082009",
		"number": "5",
		"street": "rue du pasteur martin luther king",
		"city": "Plaisir",
		"district": "",
		"postcode": "78370"
	},
	{
		"lon": "1.9516407",
		"lat": "48.808292",
		"number": "3",
		"street": "rue du pasteur martin luther king",
		"city": "Plaisir",
		"district": "",
		"postcode": "78370"
	},
	{
		"lon": "1.9512726",
		"lat": "48.8088536",
		"number": "13",
		"street": "rue ernest hemingway",
		"city": "Plaisir",
		"district": "",
		"postcode": "78370"
	},
	{
		"lon": "1.9514867",
		"lat": "48.8089095",
		"number": "11",
		"street": "rue ernest hemingway",
		"city": "Plaisir",
		"district": "",
		"postcode": "78370"
	},
	{
		"lon": "1.9517343",
		"lat": "48.808918",
		"number": "9",
		"street": "rue ernest hemingway",
		"city": "Plaisir",
		"district": "",
		"postcode": "78370"
	},
	{
		"lon": "1.9527626",
		"lat": "48.8088424",
		"number": "3",
		"street": "rue ernest hemingway",
		"city": "Plaisir",
		"district": "",
		"postcode": "78370"
	},
	{
		"lon": "1.953037",
		"lat": "48.8088098",
		"number": "1",
		"street": "rue ernest hemingway",
		"city": "Plaisir",
		"district": "",
		"postcode": "78370"
	},
	{
		"lon": "1.9639938",
		"lat": "48.8086678",
		"number": "9011",
		"street": "rue auguste renoir",
		"city": "Plaisir",
		"district": "",
		"postcode": "78370"
	},
	{
		"lon": "1.9639938",
		"lat": "48.8086678",
		"number": "9010",
		"street": "rue auguste renoir",
		"city": "Plaisir",
		"district": "",
		"postcode": "78370"
	},
	{
		"lon": "1.9639938",
		"lat": "48.8086678",
		"number": "9001",
		"street": "rue auguste renoir",
		"city": "Plaisir",
		"district": "",
		"postcode": "78370"
	},
	{
		"lon": "1.966124",
		"lat": "48.808509",
		"number": "9",
		"street": "rue pierre bonnard",
		"city": "Plaisir",
		"district": "",
		"postcode": "78370"
	},
	{
		"lon": "1.9660317",
		"lat": "48.8086998",
		"number": "7",
		"street": "rue pierre bonnard",
		"city": "Plaisir",
		"district": "",
		"postcode": "78370"
	},
	{
		"lon": "1.9659178",
		"lat": "48.8088796",
		"number": "5",
		"street": "rue pierre bonnard",
		"city": "Plaisir",
		"district": "",
		"postcode": "78370"
	},
	{
		"lon": "1.9657339",
		"lat": "48.8090174",
		"number": "3",
		"street": "rue pierre bonnard",
		"city": "Plaisir",
		"district": "",
		"postcode": "78370"
	},
	{
		"lon": "1.9655848",
		"lat": "48.8091214",
		"number": "1",
		"street": "rue pierre bonnard",
		"city": "Plaisir",
		"district": "",
		"postcode": "78370"
	},
	{
		"lon": "1.9669709",
		"lat": "48.8084426",
		"number": "17",
		"street": "rue gustave courbet",
		"city": "Plaisir",
		"district": "",
		"postcode": "78370"
	},
	{
		"lon": "1.9670664",
		"lat": "48.8085028",
		"number": "15",
		"street": "rue gustave courbet",
		"city": "Plaisir",
		"district": "",
		"postcode": "78370"
	},
	{
		"lon": "1.9668139",
		"lat": "48.8089431",
		"number": "8",
		"street": "rue gustave courbet",
		"city": "Plaisir",
		"district": "",
		"postcode": "78370"
	},
	{
		"lon": "1.9667282",
		"lat": "48.8091438",
		"number": "6",
		"street": "rue gustave courbet",
		"city": "Plaisir",
		"district": "",
		"postcode": "78370"
	},
	{
		"lon": "1.9666469",
		"lat": "48.809332",
		"number": "4",
		"street": "rue gustave courbet",
		"city": "Plaisir",
		"district": "",
		"postcode": "78370"
	},
	{
		"lon": "1.968706",
		"lat": "48.8083604",
		"number": "4",
		"street": "rue paul gauguin",
		"city": "Plaisir",
		"district": "",
		"postcode": "78370"
	},
	{
		"lon": "1.9689948",
		"lat": "48.808496",
		"number": "2",
		"street": "rue paul gauguin",
		"city": "Plaisir",
		"district": "",
		"postcode": "78370"
	},
	{
		"lon": "1.9688539",
		"lat": "48.8092845",
		"number": "19",
		"street": "rue édouard manet",
		"city": "Plaisir",
		"district": "",
		"postcode": "78370"
	},
	{
		"lon": "1.9689667",
		"lat": "48.8090903",
		"number": "17",
		"street": "rue édouard manet",
		"city": "Plaisir",
		"district": "",
		"postcode": "78370"
	},
	{
		"lon": "1.969106",
		"lat": "48.8089323",
		"number": "15",
		"street": "rue édouard manet",
		"city": "Plaisir",
		"district": "",
		"postcode": "78370"
	},
	{
		"lon": "1.969497",
		"lat": "48.8085112",
		"number": "13",
		"street": "rue édouard manet",
		"city": "Plaisir",
		"district": "",
		"postcode": "78370"
	},
	{
		"lon": "1.9696472",
		"lat": "48.8083514",
		"number": "11",
		"street": "rue édouard manet",
		"city": "Plaisir",
		"district": "",
		"postcode": "78370"
	},
	{
		"lon": "1.9759346",
		"lat": "48.8087527",
		"number": "16",
		"street": "rue françois couperin",
		"city": "Plaisir",
		"district": "",
		"postcode": "78370"
	},
	{
		"lon": "1.9766427",
		"lat": "48.8084079",
		"number": "20",
		"street": "rue françois couperin",
		"city": "Plaisir",
		"district": "",
		"postcode": "78370"
	},
	{
		"lon": "1.9764231",
		"lat": "48.8085653",
		"number": "18",
		"street": "rue françois couperin",
		"city": "Plaisir",
		"district": "",
		"postcode": "78370"
	},
	{
		"lon": "1.9653832",
		"lat": "48.8095361",
		"number": "45",
		"street": "rue édouard manet",
		"city": "Plaisir",
		"district": "",
		"postcode": "78370"
	},
	{
		"lon": "1.9656165",
		"lat": "48.8096541",
		"number": "43",
		"street": "rue édouard manet",
		"city": "Plaisir",
		"district": "",
		"postcode": "78370"
	},
	{
		"lon": "1.9658592",
		"lat": "48.809774",
		"number": "41",
		"street": "rue édouard manet",
		"city": "Plaisir",
		"district": "",
		"postcode": "78370"
	},
	{
		"lon": "1.9661505",
		"lat": "48.8099178",
		"number": "39",
		"street": "rue édouard manet",
		"city": "Plaisir",
		"district": "",
		"postcode": "78370"
	},
	{
		"lon": "1.966547",
		"lat": "48.8095641",
		"number": "2",
		"street": "rue gustave courbet",
		"city": "Plaisir",
		"district": "",
		"postcode": "78370"
	},
	{
		"lon": "1.9666252",
		"lat": "48.8101539",
		"number": "37",
		"street": "rue édouard manet",
		"city": "Plaisir",
		"district": "",
		"postcode": "78370"
	},
	{
		"lon": "1.9676056",
		"lat": "48.8095373",
		"number": "10",
		"street": "rue camille corot",
		"city": "Plaisir",
		"district": "",
		"postcode": "78370"
	},
	{
		"lon": "1.9675285",
		"lat": "48.8097156",
		"number": "8",
		"street": "rue camille corot",
		"city": "Plaisir",
		"district": "",
		"postcode": "78370"
	},
	{
		"lon": "1.967443",
		"lat": "48.8099109",
		"number": "6",
		"street": "rue camille corot",
		"city": "Plaisir",
		"district": "",
		"postcode": "78370"
	},
	{
		"lon": "1.967363",
		"lat": "48.8100973",
		"number": "4",
		"street": "rue camille corot",
		"city": "Plaisir",
		"district": "",
		"postcode": "78370"
	},
	{
		"lon": "1.9672746",
		"lat": "48.8103007",
		"number": "2",
		"street": "rue camille corot",
		"city": "Plaisir",
		"district": "",
		"postcode": "78370"
	},
	{
		"lon": "1.9684501",
		"lat": "48.8102155",
		"number": "29",
		"street": "rue édouard manet",
		"city": "Plaisir",
		"district": "",
		"postcode": "78370"
	},
	{
		"lon": "1.9685343",
		"lat": "48.8100184",
		"number": "27",
		"street": "rue édouard manet",
		"city": "Plaisir",
		"district": "",
		"postcode": "78370"
	},
	{
		"lon": "1.9686127",
		"lat": "48.8098428",
		"number": "25",
		"street": "rue édouard manet",
		"city": "Plaisir",
		"district": "",
		"postcode": "78370"
	},
	{
		"lon": "1.968704",
		"lat": "48.8096331",
		"number": "23",
		"street": "rue édouard manet",
		"city": "Plaisir",
		"district": "",
		"postcode": "78370"
	},
	{
		"lon": "1.9687783",
		"lat": "48.8094593",
		"number": "21",
		"street": "rue édouard manet",
		"city": "Plaisir",
		"district": "",
		"postcode": "78370"
	},
	{
		"lon": "1.9461536",
		"lat": "48.8073794",
		"number": "811",
		"street": "rue jules régnier",
		"city": "Plaisir",
		"district": "",
		"postcode": "78370"
	},
	{
		"lon": "1.9474764",
		"lat": "48.8070835",
		"number": "955",
		"street": "rue jules régnier",
		"city": "Plaisir",
		"district": "",
		"postcode": "78370"
	},
	{
		"lon": "1.9486053",
		"lat": "48.8074154",
		"number": "37",
		"street": "rue du lieutenant dunk",
		"city": "Plaisir",
		"district": "",
		"postcode": "78370"
	},
	{
		"lon": "1.9486896",
		"lat": "48.8072866",
		"number": "31",
		"street": "rue du lieutenant dunk",
		"city": "Plaisir",
		"district": "",
		"postcode": "78370"
	},
	{
		"lon": "1.9522969",
		"lat": "48.807214",
		"number": "9010",
		"street": "rue jules régnier",
		"city": "Plaisir",
		"district": "",
		"postcode": "78370"
	},
	{
		"lon": "1.95512",
		"lat": "48.8071991",
		"number": "5",
		"street": "sentier de la chaîne",
		"city": "Plaisir",
		"district": "",
		"postcode": "78370"
	},
	{
		"lon": "1.9628658",
		"lat": "48.8073205",
		"number": "8",
		"street": "rue auguste renoir",
		"city": "Plaisir",
		"district": "",
		"postcode": "78370"
	},
	{
		"lon": "1.9627962",
		"lat": "48.8071202",
		"number": "6",
		"street": "rue auguste renoir",
		"city": "Plaisir",
		"district": "",
		"postcode": "78370"
	},
	{
		"lon": "1.9643403",
		"lat": "48.80747",
		"number": "10",
		"street": "rue raoul dufy",
		"city": "Plaisir",
		"district": "",
		"postcode": "78370"
	},
	{
		"lon": "1.964601",
		"lat": "48.8073706",
		"number": "8",
		"street": "rue raoul dufy",
		"city": "Plaisir",
		"district": "",
		"postcode": "78370"
	},
	{
		"lon": "1.9648109",
		"lat": "48.8072906",
		"number": "6",
		"street": "rue raoul dufy",
		"city": "Plaisir",
		"district": "",
		"postcode": "78370"
	},
	{
		"lon": "1.967807",
		"lat": "48.8074136",
		"number": "20",
		"street": "rue paul gauguin",
		"city": "Plaisir",
		"district": "",
		"postcode": "78370"
	},
	{
		"lon": "1.9675367",
		"lat": "48.8075157",
		"number": "18",
		"street": "rue paul gauguin",
		"city": "Plaisir",
		"district": "",
		"postcode": "78370"
	},
	{
		"lon": "1.9688748",
		"lat": "48.807538",
		"number": "28",
		"street": "rue paul gauguin",
		"city": "Plaisir",
		"district": "",
		"postcode": "78370"
	},
	{
		"lon": "1.9686158",
		"lat": "48.8074152",
		"number": "26",
		"street": "rue paul gauguin",
		"city": "Plaisir",
		"district": "",
		"postcode": "78370"
	},
	{
		"lon": "1.9683392",
		"lat": "48.8072869",
		"number": "24",
		"street": "rue paul gauguin",
		"city": "Plaisir",
		"district": "",
		"postcode": "78370"
	},
	{
		"lon": "1.9680512",
		"lat": "48.8073213",
		"number": "22",
		"street": "rue paul gauguin",
		"city": "Plaisir",
		"district": "",
		"postcode": "78370"
	},
	{
		"lon": "1.9698395",
		"lat": "48.8075076",
		"number": "3",
		"street": "rue édouard manet",
		"city": "Plaisir",
		"district": "",
		"postcode": "78370"
	},
	{
		"lon": "1.9698092",
		"lat": "48.8073167",
		"number": "1",
		"street": "rue édouard manet",
		"city": "Plaisir",
		"district": "",
		"postcode": "78370"
	},
	{
		"lon": "1.9744491",
		"lat": "48.8075005",
		"number": "2",
		"street": "rue françois couperin",
		"city": "Plaisir",
		"district": "",
		"postcode": "78370"
	},
	{
		"lon": "1.9755759",
		"lat": "48.8074634",
		"number": "12",
		"street": "rue albert roussel",
		"city": "Plaisir",
		"district": "",
		"postcode": "78370"
	},
	{
		"lon": "1.9758441",
		"lat": "48.8073308",
		"number": "10",
		"street": "rue albert roussel",
		"city": "Plaisir",
		"district": "",
		"postcode": "78370"
	},
	{
		"lon": "1.9780961",
		"lat": "48.8073411",
		"number": "1",
		"street": "rue gabriel fauré",
		"city": "Plaisir",
		"district": "",
		"postcode": "78370"
	},
	{
		"lon": "1.9460266",
		"lat": "48.8074655",
		"number": "835",
		"street": "rue jules régnier",
		"city": "Plaisir",
		"district": "",
		"postcode": "78370"
	},
	{
		"lon": "1.9484061",
		"lat": "48.8075018",
		"number": "241",
		"street": "rue du lieutenant dunk",
		"city": "Plaisir",
		"district": "",
		"postcode": "78370"
	},
	{
		"lon": "1.9505391",
		"lat": "48.8074792",
		"number": "13",
		"street": "rue françois coppée",
		"city": "Plaisir",
		"district": "",
		"postcode": "78370"
	},
	{
		"lon": "1.9628811",
		"lat": "48.8076462",
		"number": "17",
		"street": "rue auguste renoir",
		"city": "Plaisir",
		"district": "",
		"postcode": "78370"
	},
	{
		"lon": "1.9698749",
		"lat": "48.8077166",
		"number": "5",
		"street": "rue édouard manet",
		"city": "Plaisir",
		"district": "",
		"postcode": "78370"
	},
	{
		"lon": "1.9746145",
		"lat": "48.8076719",
		"number": "4",
		"street": "rue françois couperin",
		"city": "Plaisir",
		"district": "",
		"postcode": "78370"
	},
	{
		"lon": "1.9511565",
		"lat": "48.807043",
		"number": "1223",
		"street": "rue jules régnier",
		"city": "Plaisir",
		"district": "",
		"postcode": "78370"
	},
	{
		"lon": "1.9528917",
		"lat": "48.8066849",
		"number": "1410",
		"street": "rue jules régnier",
		"city": "Plaisir",
		"district": "",
		"postcode": "78370"
	},
	{
		"lon": "1.952788",
		"lat": "48.8069664",
		"number": "1376",
		"street": "rue jules régnier",
		"city": "Plaisir",
		"district": "",
		"postcode": "78370"
	},
	{
		"lon": "1.9604294",
		"lat": "48.8069243",
		"number": "5",
		"street": "rue horace vernet",
		"city": "Plaisir",
		"district": "",
		"postcode": "78370"
	},
	{
		"lon": "1.9625814",
		"lat": "48.8068998",
		"number": "11",
		"street": "rue auguste renoir",
		"city": "Plaisir",
		"district": "",
		"postcode": "78370"
	},
	{
		"lon": "1.9625602",
		"lat": "48.8068016",
		"number": "10",
		"street": "rue auguste renoir",
		"city": "Plaisir",
		"district": "",
		"postcode": "78370"
	},
	{
		"lon": "1.9663873",
		"lat": "48.8069022",
		"number": "33",
		"street": "rue vincent van gogh",
		"city": "Plaisir",
		"district": "",
		"postcode": "78370"
	},
	{
		"lon": "1.9653501",
		"lat": "48.8070866",
		"number": "4",
		"street": "rue raoul dufy",
		"city": "Plaisir",
		"district": "",
		"postcode": "78370"
	},
	{
		"lon": "1.9656026",
		"lat": "48.8069907",
		"number": "2",
		"street": "rue raoul dufy",
		"city": "Plaisir",
		"district": "",
		"postcode": "78370"
	},
	{
		"lon": "1.9667643",
		"lat": "48.80691",
		"number": "31",
		"street": "rue vincent van gogh",
		"city": "Plaisir",
		"district": "",
		"postcode": "78370"
	},
	{
		"lon": "1.968931",
		"lat": "48.8067605",
		"number": "21",
		"street": "rue vincent van gogh",
		"city": "Plaisir",
		"district": "",
		"postcode": "78370"
	},
	{
		"lon": "1.9694415",
		"lat": "48.8069762",
		"number": "11",
		"street": "rue vincent van gogh",
		"city": "Plaisir",
		"district": "",
		"postcode": "78370"
	},
	{
		"lon": "1.9699505",
		"lat": "48.8069878",
		"number": "9",
		"street": "rue vincent van gogh",
		"city": "Plaisir",
		"district": "",
		"postcode": "78370"
	},
	{
		"lon": "1.9702221",
		"lat": "48.8068912",
		"number": "7",
		"street": "rue vincent van gogh",
		"city": "Plaisir",
		"district": "",
		"postcode": "78370"
	},
	{
		"lon": "1.9704661",
		"lat": "48.8068052",
		"number": "5",
		"street": "rue vincent van gogh",
		"city": "Plaisir",
		"district": "",
		"postcode": "78370"
	},
	{
		"lon": "1.9741536",
		"lat": "48.8071526",
		"number": "20",
		"street": "rue hector berlioz",
		"city": "Plaisir",
		"district": "",
		"postcode": "78370"
	},
	{
		"lon": "1.9741325",
		"lat": "48.8068394",
		"number": "18",
		"street": "rue hector berlioz",
		"city": "Plaisir",
		"district": "",
		"postcode": "78370"
	},
	{
		"lon": "1.9747906",
		"lat": "48.8069611",
		"number": "2",
		"street": "rue emmanuel chabrier",
		"city": "Plaisir",
		"district": "",
		"postcode": "78370"
	},
	{
		"lon": "1.9750668",
		"lat": "48.8068312",
		"number": "4",
		"street": "rue emmanuel chabrier",
		"city": "Plaisir",
		"district": "",
		"postcode": "78370"
	},
	{
		"lon": "1.9765793",
		"lat": "48.8069179",
		"number": "2",
		"street": "rue darius milhaud",
		"city": "Plaisir",
		"district": "",
		"postcode": "78370"
	},
	{
		"lon": "1.9762404",
		"lat": "48.8071885",
		"number": "8",
		"street": "rue albert roussel",
		"city": "Plaisir",
		"district": "",
		"postcode": "78370"
	},
	{
		"lon": "1.9766938",
		"lat": "48.8071887",
		"number": "6",
		"street": "rue albert roussel",
		"city": "Plaisir",
		"district": "",
		"postcode": "78370"
	},
	{
		"lon": "1.9770451",
		"lat": "48.8071935",
		"number": "4",
		"street": "rue albert roussel",
		"city": "Plaisir",
		"district": "",
		"postcode": "78370"
	},
	{
		"lon": "1.9773657",
		"lat": "48.8071621",
		"number": "2",
		"street": "rue albert roussel",
		"city": "Plaisir",
		"district": "",
		"postcode": "78370"
	},
	{
		"lon": "1.9777634",
		"lat": "48.8069514",
		"number": "5",
		"street": "rue gabriel fauré",
		"city": "Plaisir",
		"district": "",
		"postcode": "78370"
	},
	{
		"lon": "1.9779404",
		"lat": "48.8071607",
		"number": "3",
		"street": "rue gabriel fauré",
		"city": "Plaisir",
		"district": "",
		"postcode": "78370"
	},
	{
		"lon": "1.9792471",
		"lat": "48.8068391",
		"number": "9",
		"street": "rue claude debussy",
		"city": "Plaisir",
		"district": "",
		"postcode": "78370"
	},
	{
		"lon": "1.953908",
		"lat": "48.8061865",
		"number": "1476",
		"street": "rue jules régnier",
		"city": "Plaisir",
		"district": "",
		"postcode": "78370"
	},
	{
		"lon": "1.9534637",
		"lat": "48.80634",
		"number": "1454",
		"street": "rue jules régnier",
		"city": "Plaisir",
		"district": "",
		"postcode": "78370"
	},
	{
		"lon": "1.9534637",
		"lat": "48.80634",
		"number": "1454",
		"street": "rue jules régnier",
		"city": "Plaisir",
		"district": "",
		"postcode": "78370"
	},
	{
		"lon": "1.9536627",
		"lat": "48.8062653",
		"number": "1454",
		"street": "rue jules régnier",
		"city": "Plaisir",
		"district": "",
		"postcode": "78370"
	},
	{
		"lon": "1.9544311",
		"lat": "48.8064474",
		"number": "1585",
		"street": "rue jules régnier",
		"city": "Plaisir",
		"district": "",
		"postcode": "78370"
	},
	{
		"lon": "1.9547155",
		"lat": "48.8063915",
		"number": "1577",
		"street": "rue jules régnier",
		"city": "Plaisir",
		"district": "",
		"postcode": "78370"
	},
	{
		"lon": "1.9544488",
		"lat": "48.8062425",
		"number": "1537",
		"street": "rue jules régnier",
		"city": "Plaisir",
		"district": "",
		"postcode": "78370"
	},
	{
		"lon": "1.9566055",
		"lat": "48.8064574",
		"number": "1701",
		"street": "rue jules régnier",
		"city": "Plaisir",
		"district": "",
		"postcode": "78370"
	},
	{
		"lon": "1.9566042",
		"lat": "48.8064565",
		"number": "1701",
		"street": "rue jules régnier",
		"city": "Plaisir",
		"district": "",
		"postcode": "78370"
	},
	{
		"lon": "1.9564239",
		"lat": "48.8064828",
		"number": "1687",
		"street": "rue jules régnier",
		"city": "Plaisir",
		"district": "",
		"postcode": "78370"
	},
	{
		"lon": "1.956271",
		"lat": "48.8065013",
		"number": "1677",
		"street": "rue jules régnier",
		"city": "Plaisir",
		"district": "",
		"postcode": "78370"
	},
	{
		"lon": "1.9559243",
		"lat": "48.8065432",
		"number": "1643",
		"street": "rue jules régnier",
		"city": "Plaisir",
		"district": "",
		"postcode": "78370"
	},
	{
		"lon": "1.9557081",
		"lat": "48.8065953",
		"number": "1623",
		"street": "rue jules régnier",
		"city": "Plaisir",
		"district": "",
		"postcode": "78370"
	},
	{
		"lon": "1.9602502",
		"lat": "48.8065558",
		"number": "3",
		"street": "rue horace vernet",
		"city": "Plaisir",
		"district": "",
		"postcode": "78370"
	},
	{
		"lon": "1.960153",
		"lat": "48.8063085",
		"number": "1",
		"street": "rue horace vernet",
		"city": "Plaisir",
		"district": "",
		"postcode": "78370"
	},
	{
		"lon": "1.9624384",
		"lat": "48.8064875",
		"number": "7",
		"street": "rue auguste renoir",
		"city": "Plaisir",
		"district": "",
		"postcode": "78370"
	},
	{
		"lon": "1.9672205",
		"lat": "48.8062915",
		"number": "5",
		"street": "rue alfred sisley",
		"city": "Plaisir",
		"district": "",
		"postcode": "78370"
	},
	{
		"lon": "1.967419",
		"lat": "48.8063741",
		"number": "3",
		"street": "rue alfred sisley",
		"city": "Plaisir",
		"district": "",
		"postcode": "78370"
	},
	{
		"lon": "1.9677551",
		"lat": "48.8065273",
		"number": "1",
		"street": "rue alfred sisley",
		"city": "Plaisir",
		"district": "",
		"postcode": "78370"
	},
	{
		"lon": "1.9684367",
		"lat": "48.806624",
		"number": "25",
		"street": "rue vincent van gogh",
		"city": "Plaisir",
		"district": "",
		"postcode": "78370"
	},
	{
		"lon": "1.9686957",
		"lat": "48.8066775",
		"number": "23",
		"street": "rue vincent van gogh",
		"city": "Plaisir",
		"district": "",
		"postcode": "78370"
	},
	{
		"lon": "1.9704009",
		"lat": "48.8063855",
		"number": "3",
		"street": "rue vincent van gogh",
		"city": "Plaisir",
		"district": "",
		"postcode": "78370"
	},
	{
		"lon": "1.9726737",
		"lat": "48.806584",
		"number": "7",
		"street": "rue georges bizet",
		"city": "Plaisir",
		"district": "",
		"postcode": "78370"
	},
	{
		"lon": "1.9730181",
		"lat": "48.8065915",
		"number": "5",
		"street": "rue georges bizet",
		"city": "Plaisir",
		"district": "",
		"postcode": "78370"
	},
	{
		"lon": "1.9734029",
		"lat": "48.8065525",
		"number": "1",
		"street": "rue georges bizet",
		"city": "Plaisir",
		"district": "",
		"postcode": "78370"
	},
	{
		"lon": "1.9742265",
		"lat": "48.8066315",
		"number": "16",
		"street": "rue hector berlioz",
		"city": "Plaisir",
		"district": "",
		"postcode": "78370"
	},
	{
		"lon": "1.974311",
		"lat": "48.8064218",
		"number": "14",
		"street": "rue hector berlioz",
		"city": "Plaisir",
		"district": "",
		"postcode": "78370"
	},
	{
		"lon": "1.9753768",
		"lat": "48.8066486",
		"number": "8",
		"street": "rue emmanuel chabrier",
		"city": "Plaisir",
		"district": "",
		"postcode": "78370"
	},
	{
		"lon": "1.9751897",
		"lat": "48.8066056",
		"number": "6",
		"street": "rue emmanuel chabrier",
		"city": "Plaisir",
		"district": "",
		"postcode": "78370"
	},
	{
		"lon": "1.9761766",
		"lat": "48.8064153",
		"number": "6",
		"street": "rue darius milhaud",
		"city": "Plaisir",
		"district": "",
		"postcode": "78370"
	}
]