[
	{
		"lon": "9.6171688",
		"lat": "47.0944307",
		"number": "145",
		"street": "Kurrstrasse",
		"city": "Triesenberg",
		"district": "",
		"postcode": "9497"
	},
	{
		"lon": "9.6118897",
		"lat": "47.0951802",
		"number": "236",
		"street": "Heitastrasse",
		"city": "Triesenberg",
		"district": "",
		"postcode": "9497"
	},
	{
		"lon": "9.6120401",
		"lat": "47.0949714",
		"number": "238",
		"street": "Heitastrasse",
		"city": "Triesenberg",
		"district": "",
		"postcode": "9497"
	},
	{
		"lon": "9.6114333",
		"lat": "47.096169",
		"number": "220",
		"street": "Heitastrasse",
		"city": "Triesenberg",
		"district": "",
		"postcode": "9497"
	},
	{
		"lon": "9.6185088",
		"lat": "47.0945096",
		"number": "149",
		"street": "Kurrstrasse",
		"city": "Triesenberg",
		"district": "",
		"postcode": "9497"
	},
	{
		"lon": "9.612265",
		"lat": "47.095268",
		"number": "268",
		"street": "Heitastrasse",
		"city": "Triesenberg",
		"district": "",
		"postcode": "9497"
	},
	{
		"lon": "9.6129757",
		"lat": "47.0950274",
		"number": "278",
		"street": "Heitastrasse",
		"city": "Triesenberg",
		"district": "",
		"postcode": "9497"
	},
	{
		"lon": "9.6128301",
		"lat": "47.0940061",
		"number": "252",
		"street": "Heitastrasse",
		"city": "Triesenberg",
		"district": "",
		"postcode": "9497"
	},
	{
		"lon": "9.6171569",
		"lat": "47.0923117",
		"number": "166",
		"street": "Kurrstrasse",
		"city": "Triesenberg",
		"district": "",
		"postcode": "9497"
	},
	{
		"lon": "9.6172674",
		"lat": "47.0932456",
		"number": "159",
		"street": "Kurrstrasse",
		"city": "Triesenberg",
		"district": "",
		"postcode": "9497"
	},
	{
		"lon": "9.6175616",
		"lat": "47.0941494",
		"number": "153",
		"street": "Kurrstrasse",
		"city": "Triesenberg",
		"district": "",
		"postcode": "9497"
	},
	{
		"lon": "9.612573",
		"lat": "47.094193",
		"number": "250",
		"street": "Heitastrasse",
		"city": "Triesenberg",
		"district": "",
		"postcode": "9497"
	},
	{
		"lon": "9.6117723",
		"lat": "47.0951028",
		"number": "240",
		"street": "Heitastrasse",
		"city": "Triesenberg",
		"district": "",
		"postcode": "9497"
	},
	{
		"lon": "9.6128034",
		"lat": "47.0949392",
		"number": "272",
		"street": "Heitastrasse",
		"city": "Triesenberg",
		"district": "",
		"postcode": "9497"
	},
	{
		"lon": "9.6123269",
		"lat": "47.0949984",
		"number": "264",
		"street": "Heitastrasse",
		"city": "Triesenberg",
		"district": "",
		"postcode": "9497"
	},
	{
		"lon": "9.6129467",
		"lat": "47.094286",
		"number": "258",
		"street": "Heitastrasse",
		"city": "Triesenberg",
		"district": "",
		"postcode": "9497"
	},
	{
		"lon": "9.6200043",
		"lat": "47.0930943",
		"number": "96",
		"street": "Turnastrasse",
		"city": "Triesenberg",
		"district": "",
		"postcode": "9497"
	},
	{
		"lon": "9.6125472",
		"lat": "47.0951324",
		"number": "270",
		"street": "Heitastrasse",
		"city": "Triesenberg",
		"district": "",
		"postcode": "9497"
	},
	{
		"lon": "9.6121334",
		"lat": "47.0945791",
		"number": "246",
		"street": "Heitastrasse",
		"city": "Triesenberg",
		"district": "",
		"postcode": "9497"
	},
	{
		"lon": "9.6124944",
		"lat": "47.0955165",
		"number": "228",
		"street": "Heitastrasse",
		"city": "Triesenberg",
		"district": "",
		"postcode": "9497"
	},
	{
		"lon": "9.6131135",
		"lat": "47.0952115",
		"number": "282",
		"street": "Heitastrasse",
		"city": "Triesenberg",
		"district": "",
		"postcode": "9497"
	},
	{
		"lon": "9.6130398",
		"lat": "47.0951173",
		"number": "280",
		"street": "Heitastrasse",
		"city": "Triesenberg",
		"district": "",
		"postcode": "9497"
	},
	{
		"lon": "9.6132758",
		"lat": "47.0945749",
		"number": "276",
		"street": "Heitastrasse",
		"city": "Triesenberg",
		"district": "",
		"postcode": "9497"
	},
	{
		"lon": "9.6124816",
		"lat": "47.0959138",
		"number": "227",
		"street": "Heitastrasse",
		"city": "Triesenberg",
		"district": "",
		"postcode": "9497"
	},
	{
		"lon": "9.6135078",
		"lat": "47.0960905",
		"number": "189",
		"street": "Heitastrasse",
		"city": "Triesenberg",
		"district": "",
		"postcode": "9497"
	},
	{
		"lon": "9.6118433",
		"lat": "47.096166",
		"number": "222",
		"street": "Heitastrasse",
		"city": "Triesenberg",
		"district": "",
		"postcode": "9497"
	},
	{
		"lon": "9.6137006",
		"lat": "47.0961517",
		"number": "187",
		"street": "Heitastrasse",
		"city": "Triesenberg",
		"district": "",
		"postcode": "9497"
	},
	{
		"lon": "9.6138959",
		"lat": "47.0961638",
		"number": "185",
		"street": "Heitastrasse",
		"city": "Triesenberg",
		"district": "",
		"postcode": "9497"
	},
	{
		"lon": "9.6139546",
		"lat": "47.0963566",
		"number": "181",
		"street": "Heitastrasse",
		"city": "Triesenberg",
		"district": "",
		"postcode": "9497"
	},
	{
		"lon": "9.6137284",
		"lat": "47.0964693",
		"number": "179",
		"street": "Heitastrasse",
		"city": "Triesenberg",
		"district": "",
		"postcode": "9497"
	},
	{
		"lon": "9.6134249",
		"lat": "47.0965356",
		"number": "175",
		"street": "Heitastrasse",
		"city": "Triesenberg",
		"district": "",
		"postcode": "9497"
	},
	{
		"lon": "9.6127706",
		"lat": "47.0965903",
		"number": "197",
		"street": "Heitastrasse",
		"city": "Triesenberg",
		"district": "",
		"postcode": "9497"
	},
	{
		"lon": "9.6128789",
		"lat": "47.0965571",
		"number": "195",
		"street": "Heitastrasse",
		"city": "Triesenberg",
		"district": "",
		"postcode": "9497"
	},
	{
		"lon": "9.6118814",
		"lat": "47.0964761",
		"number": "218",
		"street": "Heitastrasse",
		"city": "Triesenberg",
		"district": "",
		"postcode": "9497"
	},
	{
		"lon": "9.6140871",
		"lat": "47.0960896",
		"number": "183",
		"street": "Heitastrasse",
		"city": "Triesenberg",
		"district": "",
		"postcode": "9497"
	},
	{
		"lon": "9.6155529",
		"lat": "47.0964583",
		"number": "136",
		"street": "Kurrstrasse",
		"city": "Triesenberg",
		"district": "",
		"postcode": "9497"
	},
	{
		"lon": "9.6160585",
		"lat": "47.0964584",
		"number": "135",
		"street": "Kurrstrasse",
		"city": "Triesenberg",
		"district": "",
		"postcode": "9497"
	},
	{
		"lon": "9.5451812",
		"lat": "47.1067845",
		"number": "29",
		"street": "Am Wangerberg",
		"city": "Triesenberg",
		"district": "",
		"postcode": "9497"
	},
	{
		"lon": "9.5449038",
		"lat": "47.1071216",
		"number": "26",
		"street": "Am Wangerberg",
		"city": "Triesenberg",
		"district": "",
		"postcode": "9497"
	},
	{
		"lon": "9.5448755",
		"lat": "47.1069443",
		"number": "28",
		"street": "Am Wangerberg",
		"city": "Triesenberg",
		"district": "",
		"postcode": "9497"
	},
	{
		"lon": "9.5448177",
		"lat": "47.1068571",
		"number": "30",
		"street": "Am Wangerberg",
		"city": "Triesenberg",
		"district": "",
		"postcode": "9497"
	},
	{
		"lon": "9.5442349",
		"lat": "47.106814",
		"number": "40",
		"street": "Am Wangerberg",
		"city": "Triesenberg",
		"district": "",
		"postcode": "9497"
	},
	{
		"lon": "9.544531",
		"lat": "47.1067613",
		"number": "38",
		"street": "Am Wangerberg",
		"city": "Triesenberg",
		"district": "",
		"postcode": "9497"
	},
	{
		"lon": "9.5447799",
		"lat": "47.1066523",
		"number": "39",
		"street": "Am Wangerberg",
		"city": "Triesenberg",
		"district": "",
		"postcode": "9497"
	},
	{
		"lon": "9.5446263",
		"lat": "47.1065769",
		"number": "41",
		"street": "Am Wangerberg",
		"city": "Triesenberg",
		"district": "",
		"postcode": "9497"
	},
	{
		"lon": "9.5440892",
		"lat": "47.1066901",
		"number": "44",
		"street": "Am Wangerberg",
		"city": "Triesenberg",
		"district": "",
		"postcode": "9497"
	},
	{
		"lon": "9.5439362",
		"lat": "47.1063588",
		"number": "48",
		"street": "Am Wangerberg",
		"city": "Triesenberg",
		"district": "",
		"postcode": "9497"
	},
	{
		"lon": "9.5442312",
		"lat": "47.1064202",
		"number": "47",
		"street": "Am Wangerberg",
		"city": "Triesenberg",
		"district": "",
		"postcode": "9497"
	},
	{
		"lon": "9.5444011",
		"lat": "47.1065975",
		"number": "43",
		"street": "Am Wangerberg",
		"city": "Triesenberg",
		"district": "",
		"postcode": "9497"
	},
	{
		"lon": "9.5443567",
		"lat": "47.1057531",
		"number": "9",
		"street": "Raistrasse",
		"city": "Triesenberg",
		"district": "",
		"postcode": "9497"
	},
	{
		"lon": "9.5440897",
		"lat": "47.1058065",
		"number": "5",
		"street": "Raistrasse",
		"city": "Triesenberg",
		"district": "",
		"postcode": "9497"
	},
	{
		"lon": "9.5441561",
		"lat": "47.1054661",
		"number": "11",
		"street": "Raistrasse",
		"city": "Triesenberg",
		"district": "",
		"postcode": "9497"
	},
	{
		"lon": "9.5442987",
		"lat": "47.1060558",
		"number": "2",
		"street": "Holderlochstrasse",
		"city": "Triesenberg",
		"district": "",
		"postcode": "9497"
	},
	{
		"lon": "9.5434101",
		"lat": "47.1065113",
		"number": "11",
		"street": "Bödastrasse",
		"city": "Triesenberg",
		"district": "",
		"postcode": "9497"
	},
	{
		"lon": "9.5431733",
		"lat": "47.1063471",
		"number": "15",
		"street": "Bödastrasse",
		"city": "Triesenberg",
		"district": "",
		"postcode": "9497"
	},
	{
		"lon": "9.5434981",
		"lat": "47.1067508",
		"number": "10",
		"street": "Bödastrasse",
		"city": "Triesenberg",
		"district": "",
		"postcode": "9497"
	},
	{
		"lon": "9.5432266",
		"lat": "47.1067075",
		"number": "12",
		"street": "Bödastrasse",
		"city": "Triesenberg",
		"district": "",
		"postcode": "9497"
	},
	{
		"lon": "9.5431235",
		"lat": "47.1065288",
		"number": "13",
		"street": "Bödastrasse",
		"city": "Triesenberg",
		"district": "",
		"postcode": "9497"
	},
	{
		"lon": "9.543421",
		"lat": "47.1068421",
		"number": "14",
		"street": "Bödastrasse",
		"city": "Triesenberg",
		"district": "",
		"postcode": "9497"
	},
	{
		"lon": "9.5430376",
		"lat": "47.1075615",
		"number": "58",
		"street": "Chalberrütistrasse",
		"city": "Triesenberg",
		"district": "",
		"postcode": "9497"
	},
	{
		"lon": "9.5457096",
		"lat": "47.1070019",
		"number": "36",
		"street": "Farabodastrasse",
		"city": "Triesenberg",
		"district": "",
		"postcode": "9497"
	},
	{
		"lon": "9.5438264",
		"lat": "47.1061236",
		"number": "70",
		"street": "Chalberrütistrasse",
		"city": "Triesenberg",
		"district": "",
		"postcode": "9497"
	},
	{
		"lon": "9.544482",
		"lat": "47.1063164",
		"number": "7",
		"street": "Holderlochstrasse",
		"city": "Triesenberg",
		"district": "",
		"postcode": "9497"
	},
	{
		"lon": "9.5453367",
		"lat": "47.1064291",
		"number": "19",
		"street": "Holderlochstrasse",
		"city": "Triesenberg",
		"district": "",
		"postcode": "9497"
	},
	{
		"lon": "9.5453502",
		"lat": "47.1062486",
		"number": "15",
		"street": "Holderlochstrasse",
		"city": "Triesenberg",
		"district": "",
		"postcode": "9497"
	},
	{
		"lon": "9.5438928",
		"lat": "47.1067238",
		"number": "2",
		"street": "Bödastrasse",
		"city": "Triesenberg",
		"district": "",
		"postcode": "9497"
	},
	{
		"lon": "9.5437517",
		"lat": "47.106584",
		"number": "4",
		"street": "Bödastrasse",
		"city": "Triesenberg",
		"district": "",
		"postcode": "9497"
	},
	{
		"lon": "9.5436226",
		"lat": "47.1065876",
		"number": "6",
		"street": "Bödastrasse",
		"city": "Triesenberg",
		"district": "",
		"postcode": "9497"
	},
	{
		"lon": "9.545339",
		"lat": "47.1065165",
		"number": "21",
		"street": "Holderlochstrasse",
		"city": "Triesenberg",
		"district": "",
		"postcode": "9497"
	},
	{
		"lon": "9.546095",
		"lat": "47.1070828",
		"number": "37",
		"street": "Farabodastrasse",
		"city": "Triesenberg",
		"district": "",
		"postcode": "9497"
	},
	{
		"lon": "9.5464634",
		"lat": "47.1072877",
		"number": "29",
		"street": "Farabodastrasse",
		"city": "Triesenberg",
		"district": "",
		"postcode": "9497"
	},
	{
		"lon": "9.5464621",
		"lat": "47.1074333",
		"number": "33",
		"street": "Farabodastrasse",
		"city": "Triesenberg",
		"district": "",
		"postcode": "9497"
	},
	{
		"lon": "9.5460386",
		"lat": "47.10649",
		"number": "40",
		"street": "Farabodastrasse",
		"city": "Triesenberg",
		"district": "",
		"postcode": "9497"
	},
	{
		"lon": "9.5464523",
		"lat": "47.1073745",
		"number": "31",
		"street": "Farabodastrasse",
		"city": "Triesenberg",
		"district": "",
		"postcode": "9497"
	},
	{
		"lon": "9.5464981",
		"lat": "47.1072335",
		"number": "27",
		"street": "Farabodastrasse",
		"city": "Triesenberg",
		"district": "",
		"postcode": "9497"
	},
	{
		"lon": "9.5460052",
		"lat": "47.107345",
		"number": "15",
		"street": "Farabodastrasse",
		"city": "Triesenberg",
		"district": "",
		"postcode": "9497"
	},
	{
		"lon": "9.5457794",
		"lat": "47.1064441",
		"number": "20",
		"street": "Holderlochstrasse",
		"city": "Triesenberg",
		"district": "",
		"postcode": "9497"
	},
	{
		"lon": "9.5453454",
		"lat": "47.1078295",
		"number": "16",
		"street": "Am Wangerberg",
		"city": "Triesenberg",
		"district": "",
		"postcode": "9497"
	},
	{
		"lon": "9.5449324",
		"lat": "47.1078684",
		"number": "31",
		"street": "Chalberrütistrasse",
		"city": "Triesenberg",
		"district": "",
		"postcode": "9497"
	},
	{
		"lon": "9.5445463",
		"lat": "47.1078553",
		"number": "35",
		"street": "Chalberrütistrasse",
		"city": "Triesenberg",
		"district": "",
		"postcode": "9497"
	},
	{
		"lon": "9.553803",
		"lat": "47.1033028",
		"number": "24",
		"street": "Guggerbodastrasse",
		"city": "Triesenberg",
		"district": "",
		"postcode": "9497"
	},
	{
		"lon": "9.554819",
		"lat": "47.1031257",
		"number": "33",
		"street": "Guggerbodastrasse",
		"city": "Triesenberg",
		"district": "",
		"postcode": "9497"
	},
	{
		"lon": "9.5537569",
		"lat": "47.1036288",
		"number": "26",
		"street": "Guggerbodastrasse",
		"city": "Triesenberg",
		"district": "",
		"postcode": "9497"
	},
	{
		"lon": "9.6094296",
		"lat": "47.0992678",
		"number": "23",
		"street": "Stubistrasse",
		"city": "Triesenberg",
		"district": "",
		"postcode": "9497"
	},
	{
		"lon": "9.6093143",
		"lat": "47.0993181",
		"number": "25",
		"street": "Stubistrasse",
		"city": "Triesenberg",
		"district": "",
		"postcode": "9497"
	},
	{
		"lon": "9.6092843",
		"lat": "47.0994968",
		"number": "27",
		"street": "Stubistrasse",
		"city": "Triesenberg",
		"district": "",
		"postcode": "9497"
	},
	{
		"lon": "9.6143186",
		"lat": "47.0993339",
		"number": "69",
		"street": "Kurrstrasse",
		"city": "Triesenberg",
		"district": "",
		"postcode": "9497"
	},
	{
		"lon": "9.6083709",
		"lat": "47.1014047",
		"number": "30",
		"street": "Stubistrasse",
		"city": "Triesenberg",
		"district": "",
		"postcode": "9497"
	},
	{
		"lon": "9.6049524",
		"lat": "47.1049913",
		"number": "60",
		"street": "Malbunstrasse",
		"city": "Triesenberg",
		"district": "",
		"postcode": "9497"
	},
	{
		"lon": "9.6045473",
		"lat": "47.1053189",
		"number": "58",
		"street": "Malbunstrasse",
		"city": "Triesenberg",
		"district": "",
		"postcode": "9497"
	},
	{
		"lon": "9.611255",
		"lat": "47.0994146",
		"number": "57",
		"street": "Heitastrasse",
		"city": "Triesenberg",
		"district": "",
		"postcode": "9497"
	},
	{
		"lon": "9.6118238",
		"lat": "47.0975677",
		"number": "132",
		"street": "Heitastrasse",
		"city": "Triesenberg",
		"district": "",
		"postcode": "9497"
	},
	{
		"lon": "9.61178",
		"lat": "47.0976827",
		"number": "130",
		"street": "Heitastrasse",
		"city": "Triesenberg",
		"district": "",
		"postcode": "9497"
	},
	{
		"lon": "9.6117192",
		"lat": "47.0977984",
		"number": "128",
		"street": "Heitastrasse",
		"city": "Triesenberg",
		"district": "",
		"postcode": "9497"
	},
	{
		"lon": "9.6117507",
		"lat": "47.1002994",
		"number": "19",
		"street": "Kurrstrasse",
		"city": "Triesenberg",
		"district": "",
		"postcode": "9497"
	},
	{
		"lon": "9.6112965",
		"lat": "47.0999875",
		"number": "16",
		"street": "Kurrstrasse",
		"city": "Triesenberg",
		"district": "",
		"postcode": "9497"
	},
	{
		"lon": "9.6114634",
		"lat": "47.1003413",
		"number": "17",
		"street": "Kurrstrasse",
		"city": "Triesenberg",
		"district": "",
		"postcode": "9497"
	},
	{
		"lon": "9.6111554",
		"lat": "47.1006646",
		"number": "5",
		"street": "Kurrstrasse",
		"city": "Triesenberg",
		"district": "",
		"postcode": "9497"
	},
	{
		"lon": "9.6117166",
		"lat": "47.0995867",
		"number": "61",
		"street": "Heitastrasse",
		"city": "Triesenberg",
		"district": "",
		"postcode": "9497"
	},
	{
		"lon": "9.6111669",
		"lat": "47.0995995",
		"number": "51",
		"street": "Heitastrasse",
		"city": "Triesenberg",
		"district": "",
		"postcode": "9497"
	},
	{
		"lon": "9.6106956",
		"lat": "47.0997016",
		"number": "41",
		"street": "Heitastrasse",
		"city": "Triesenberg",
		"district": "",
		"postcode": "9497"
	},
	{
		"lon": "9.6106378",
		"lat": "47.1001795",
		"number": "27",
		"street": "Heitastrasse",
		"city": "Triesenberg",
		"district": "",
		"postcode": "9497"
	},
	{
		"lon": "9.6105438",
		"lat": "47.1002535",
		"number": "25",
		"street": "Heitastrasse",
		"city": "Triesenberg",
		"district": "",
		"postcode": "9497"
	},
	{
		"lon": "9.6115022",
		"lat": "47.0996974",
		"number": "24",
		"street": "Kurrstrasse",
		"city": "Triesenberg",
		"district": "",
		"postcode": "9497"
	},
	{
		"lon": "9.6113547",
		"lat": "47.0996449",
		"number": "22",
		"street": "Kurrstrasse",
		"city": "Triesenberg",
		"district": "",
		"postcode": "9497"
	},
	{
		"lon": "9.6086854",
		"lat": "47.0996197",
		"number": "31a",
		"street": "Stubistrasse",
		"city": "Triesenberg",
		"district": "",
		"postcode": "9497"
	},
	{
		"lon": "9.6087859",
		"lat": "47.0997961",
		"number": "31b",
		"street": "Stubistrasse",
		"city": "Triesenberg",
		"district": "",
		"postcode": "9497"
	},
	{
		"lon": "9.6089657",
		"lat": "47.0995508",
		"number": "29",
		"street": "Stubistrasse",
		"city": "Triesenberg",
		"district": "",
		"postcode": "9497"
	},
	{
		"lon": "9.6095259",
		"lat": "47.100893",
		"number": "5",
		"street": "Stubistrasse",
		"city": "Triesenberg",
		"district": "",
		"postcode": "9497"
	},
	{
		"lon": "9.6098463",
		"lat": "47.1009371",
		"number": "3",
		"street": "Stubistrasse",
		"city": "Triesenberg",
		"district": "",
		"postcode": "9497"
	},
	{
		"lon": "9.6091673",
		"lat": "47.1007768",
		"number": "7",
		"street": "Stubistrasse",
		"city": "Triesenberg",
		"district": "",
		"postcode": "9497"
	},
	{
		"lon": "9.6078857",
		"lat": "47.1007554",
		"number": "73",
		"street": "Stubistrasse",
		"city": "Triesenberg",
		"district": "",
		"postcode": "9497"
	},
	{
		"lon": "9.6076841",
		"lat": "47.1008837",
		"number": "75",
		"street": "Stubistrasse",
		"city": "Triesenberg",
		"district": "",
		"postcode": "9497"
	},
	{
		"lon": "9.6073658",
		"lat": "47.101064",
		"number": "79",
		"street": "Stubistrasse",
		"city": "Triesenberg",
		"district": "",
		"postcode": "9497"
	},
	{
		"lon": "9.6081098",
		"lat": "47.1010266",
		"number": "46",
		"street": "Stubistrasse",
		"city": "Triesenberg",
		"district": "",
		"postcode": "9497"
	},
	{
		"lon": "9.6082307",
		"lat": "47.1008116",
		"number": "48",
		"street": "Stubistrasse",
		"city": "Triesenberg",
		"district": "",
		"postcode": "9497"
	},
	{
		"lon": "9.6090915",
		"lat": "47.1001647",
		"number": "15",
		"street": "Stubistrasse",
		"city": "Triesenberg",
		"district": "",
		"postcode": "9497"
	},
	{
		"lon": "9.6091353",
		"lat": "47.0999593",
		"number": "17",
		"street": "Stubistrasse",
		"city": "Triesenberg",
		"district": "",
		"postcode": "9497"
	},
	{
		"lon": "9.6085032",
		"lat": "47.099732",
		"number": "33",
		"street": "Stubistrasse",
		"city": "Triesenberg",
		"district": "",
		"postcode": "9497"
	},
	{
		"lon": "9.6084468",
		"lat": "47.100101",
		"number": "41",
		"street": "Stubistrasse",
		"city": "Triesenberg",
		"district": "",
		"postcode": "9497"
	},
	{
		"lon": "9.6084578",
		"lat": "47.1002722",
		"number": "43",
		"street": "Stubistrasse",
		"city": "Triesenberg",
		"district": "",
		"postcode": "9497"
	},
	{
		"lon": "9.6085125",
		"lat": "47.1004682",
		"number": "45",
		"street": "Stubistrasse",
		"city": "Triesenberg",
		"district": "",
		"postcode": "9497"
	},
	{
		"lon": "9.6078429",
		"lat": "47.1004962",
		"number": "63",
		"street": "Stubistrasse",
		"city": "Triesenberg",
		"district": "",
		"postcode": "9497"
	},
	{
		"lon": "9.6078829",
		"lat": "47.10052",
		"number": "61",
		"street": "Stubistrasse",
		"city": "Triesenberg",
		"district": "",
		"postcode": "9497"
	},
	{
		"lon": "9.6080236",
		"lat": "47.1006041",
		"number": "59",
		"street": "Stubistrasse",
		"city": "Triesenberg",
		"district": "",
		"postcode": "9497"
	},
	{
		"lon": "9.6077993",
		"lat": "47.1004696",
		"number": "65",
		"street": "Stubistrasse",
		"city": "Triesenberg",
		"district": "",
		"postcode": "9497"
	},
	{
		"lon": "9.6075861",
		"lat": "47.1004286",
		"number": "67",
		"street": "Stubistrasse",
		"city": "Triesenberg",
		"district": "",
		"postcode": "9497"
	},
	{
		"lon": "9.6077042",
		"lat": "47.1002996",
		"number": "57",
		"street": "Stubistrasse",
		"city": "Triesenberg",
		"district": "",
		"postcode": "9497"
	},
	{
		"lon": "9.6099017",
		"lat": "47.100231",
		"number": "22",
		"street": "Heitastrasse",
		"city": "Triesenberg",
		"district": "",
		"postcode": "9497"
	},
	{
		"lon": "9.6093921",
		"lat": "47.0999606",
		"number": "12",
		"street": "Heitastrasse",
		"city": "Triesenberg",
		"district": "",
		"postcode": "9497"
	},
	{
		"lon": "9.6093756",
		"lat": "47.1001069",
		"number": "10",
		"street": "Heitastrasse",
		"city": "Triesenberg",
		"district": "",
		"postcode": "9497"
	},
	{
		"lon": "9.609597",
		"lat": "47.100137",
		"number": "16",
		"street": "Heitastrasse",
		"city": "Triesenberg",
		"district": "",
		"postcode": "9497"
	},
	{
		"lon": "9.6097539",
		"lat": "47.1004296",
		"number": "20",
		"street": "Heitastrasse",
		"city": "Triesenberg",
		"district": "",
		"postcode": "9497"
	},
	{
		"lon": "9.6101288",
		"lat": "47.1005996",
		"number": "19",
		"street": "Heitastrasse",
		"city": "Triesenberg",
		"district": "",
		"postcode": "9497"
	},
	{
		"lon": "9.6095667",
		"lat": "47.1006704",
		"number": "4",
		"street": "Heitastrasse",
		"city": "Triesenberg",
		"district": "",
		"postcode": "9497"
	},
	{
		"lon": "9.6099616",
		"lat": "47.1007786",
		"number": "3",
		"street": "Heitastrasse",
		"city": "Triesenberg",
		"district": "",
		"postcode": "9497"
	},
	{
		"lon": "9.6092992",
		"lat": "47.1004064",
		"number": "6",
		"street": "Heitastrasse",
		"city": "Triesenberg",
		"district": "",
		"postcode": "9497"
	},
	{
		"lon": "9.6142119",
		"lat": "47.0992038",
		"number": "77",
		"street": "Kurrstrasse",
		"city": "Triesenberg",
		"district": "",
		"postcode": "9497"
	},
	{
		"lon": "9.6142291",
		"lat": "47.0986729",
		"number": "82",
		"street": "Kurrstrasse",
		"city": "Triesenberg",
		"district": "",
		"postcode": "9497"
	},
	{
		"lon": "9.615429",
		"lat": "47.0977549",
		"number": "101",
		"street": "Kurrstrasse",
		"city": "Triesenberg",
		"district": "",
		"postcode": "9497"
	},
	{
		"lon": "9.6144921",
		"lat": "47.0992356",
		"number": "81",
		"street": "Kurrstrasse",
		"city": "Triesenberg",
		"district": "",
		"postcode": "9497"
	},
	{
		"lon": "9.6152311",
		"lat": "47.0980942",
		"number": "93",
		"street": "Kurrstrasse",
		"city": "Triesenberg",
		"district": "",
		"postcode": "9497"
	},
	{
		"lon": "9.6151764",
		"lat": "47.0983689",
		"number": "89",
		"street": "Kurrstrasse",
		"city": "Triesenberg",
		"district": "",
		"postcode": "9497"
	},
	{
		"lon": "9.6105769",
		"lat": "47.0993537",
		"number": "52",
		"street": "Heitastrasse",
		"city": "Triesenberg",
		"district": "",
		"postcode": "9497"
	},
	{
		"lon": "9.6120725",
		"lat": "47.0987926",
		"number": "91",
		"street": "Heitastrasse",
		"city": "Triesenberg",
		"district": "",
		"postcode": "9497"
	},
	{
		"lon": "9.6113753",
		"lat": "47.09894",
		"number": "83",
		"street": "Heitastrasse",
		"city": "Triesenberg",
		"district": "",
		"postcode": "9497"
	},
	{
		"lon": "9.6115438",
		"lat": "47.0990467",
		"number": "81",
		"street": "Heitastrasse",
		"city": "Triesenberg",
		"district": "",
		"postcode": "9497"
	},
	{
		"lon": "9.6118495",
		"lat": "47.0990488",
		"number": "77",
		"street": "Heitastrasse",
		"city": "Triesenberg",
		"district": "",
		"postcode": "9497"
	},
	{
		"lon": "9.6117245",
		"lat": "47.0991574",
		"number": "75",
		"street": "Heitastrasse",
		"city": "Triesenberg",
		"district": "",
		"postcode": "9497"
	},
	{
		"lon": "9.6112314",
		"lat": "47.0990277",
		"number": "73",
		"street": "Heitastrasse",
		"city": "Triesenberg",
		"district": "",
		"postcode": "9497"
	},
	{
		"lon": "9.6110924",
		"lat": "47.0991223",
		"number": "71",
		"street": "Heitastrasse",
		"city": "Triesenberg",
		"district": "",
		"postcode": "9497"
	},
	{
		"lon": "9.6113203",
		"lat": "47.0992102",
		"number": "69",
		"street": "Heitastrasse",
		"city": "Triesenberg",
		"district": "",
		"postcode": "9497"
	},
	{
		"lon": "9.6114933",
		"lat": "47.0992907",
		"number": "67",
		"street": "Heitastrasse",
		"city": "Triesenberg",
		"district": "",
		"postcode": "9497"
	},
	{
		"lon": "9.6117115",
		"lat": "47.099415",
		"number": "65",
		"street": "Heitastrasse",
		"city": "Triesenberg",
		"district": "",
		"postcode": "9497"
	},
	{
		"lon": "9.6122107",
		"lat": "47.0978807",
		"number": "127",
		"street": "Heitastrasse",
		"city": "Triesenberg",
		"district": "",
		"postcode": "9497"
	},
	{
		"lon": "9.6119066",
		"lat": "47.0979249",
		"number": "125",
		"street": "Heitastrasse",
		"city": "Triesenberg",
		"district": "",
		"postcode": "9497"
	},
	{
		"lon": "9.6122119",
		"lat": "47.0980349",
		"number": "123",
		"street": "Heitastrasse",
		"city": "Triesenberg",
		"district": "",
		"postcode": "9497"
	},
	{
		"lon": "9.6124782",
		"lat": "47.0979848",
		"number": "121",
		"street": "Heitastrasse",
		"city": "Triesenberg",
		"district": "",
		"postcode": "9497"
	},
	{
		"lon": "9.6118071",
		"lat": "47.0981265",
		"number": "109",
		"street": "Heitastrasse",
		"city": "Triesenberg",
		"district": "",
		"postcode": "9497"
	},
	{
		"lon": "9.6117415",
		"lat": "47.0983982",
		"number": "105",
		"street": "Heitastrasse",
		"city": "Triesenberg",
		"district": "",
		"postcode": "9497"
	},
	{
		"lon": "9.6135943",
		"lat": "47.0990977",
		"number": "59",
		"street": "Kurrstrasse",
		"city": "Triesenberg",
		"district": "",
		"postcode": "9497"
	},
	{
		"lon": "9.6132718",
		"lat": "47.0989599",
		"number": "60",
		"street": "Kurrstrasse",
		"city": "Triesenberg",
		"district": "",
		"postcode": "9497"
	},
	{
		"lon": "9.6134245",
		"lat": "47.0988487",
		"number": "62",
		"street": "Kurrstrasse",
		"city": "Triesenberg",
		"district": "",
		"postcode": "9497"
	},
	{
		"lon": "9.6137985",
		"lat": "47.0991858",
		"number": "61",
		"street": "Kurrstrasse",
		"city": "Triesenberg",
		"district": "",
		"postcode": "9497"
	},
	{
		"lon": "9.6140432",
		"lat": "47.0990915",
		"number": "71",
		"street": "Kurrstrasse",
		"city": "Triesenberg",
		"district": "",
		"postcode": "9497"
	},
	{
		"lon": "9.6138415",
		"lat": "47.0990313",
		"number": "73",
		"street": "Kurrstrasse",
		"city": "Triesenberg",
		"district": "",
		"postcode": "9497"
	},
	{
		"lon": "9.6101726",
		"lat": "47.0989927",
		"number": "46",
		"street": "Heitastrasse",
		"city": "Triesenberg",
		"district": "",
		"postcode": "9497"
	},
	{
		"lon": "9.6103458",
		"lat": "47.0988553",
		"number": "48",
		"street": "Heitastrasse",
		"city": "Triesenberg",
		"district": "",
		"postcode": "9497"
	},
	{
		"lon": "9.612695",
		"lat": "47.0977494",
		"number": "139",
		"street": "Heitastrasse",
		"city": "Triesenberg",
		"district": "",
		"postcode": "9497"
	},
	{
		"lon": "9.6121555",
		"lat": "47.097845",
		"number": "129",
		"street": "Heitastrasse",
		"city": "Triesenberg",
		"district": "",
		"postcode": "9497"
	},
	{
		"lon": "9.6120102",
		"lat": "47.0977188",
		"number": "131",
		"street": "Heitastrasse",
		"city": "Triesenberg",
		"district": "",
		"postcode": "9497"
	},
	{
		"lon": "9.6124485",
		"lat": "47.09781",
		"number": "137",
		"street": "Heitastrasse",
		"city": "Triesenberg",
		"district": "",
		"postcode": "9497"
	},
	{
		"lon": "9.6106774",
		"lat": "47.0991829",
		"number": "54",
		"street": "Heitastrasse",
		"city": "Triesenberg",
		"district": "",
		"postcode": "9497"
	},
	{
		"lon": "9.6103931",
		"lat": "47.1016254",
		"number": "49",
		"street": "Im Malbun",
		"city": "Triesenberg",
		"district": "",
		"postcode": "9497"
	},
	{
		"lon": "9.6098612",
		"lat": "47.1018284",
		"number": "33",
		"street": "Im Malbun",
		"city": "Triesenberg",
		"district": "",
		"postcode": "9497"
	},
	{
		"lon": "9.6088809",
		"lat": "47.1039015",
		"number": "63",
		"street": "Malbunstrasse",
		"city": "Triesenberg",
		"district": "",
		"postcode": "9497"
	},
	{
		"lon": "9.6097274",
		"lat": "47.1019127",
		"number": "31",
		"street": "Im Malbun",
		"city": "Triesenberg",
		"district": "",
		"postcode": "9497"
	},
	{
		"lon": "9.6077819",
		"lat": "47.1001299",
		"number": "53h",
		"street": "Stubistrasse",
		"city": "Triesenberg",
		"district": "",
		"postcode": "9497"
	},
	{
		"lon": "9.6078584",
		"lat": "47.1000404",
		"number": "53g",
		"street": "Stubistrasse",
		"city": "Triesenberg",
		"district": "",
		"postcode": "9497"
	},
	{
		"lon": "9.6079284",
		"lat": "47.100005",
		"number": "53f",
		"street": "Stubistrasse",
		"city": "Triesenberg",
		"district": "",
		"postcode": "9497"
	},
	{
		"lon": "9.6081288",
		"lat": "47.1000659",
		"number": "53d",
		"street": "Stubistrasse",
		"city": "Triesenberg",
		"district": "",
		"postcode": "9497"
	},
	{
		"lon": "9.608059",
		"lat": "47.1001012",
		"number": "53e",
		"street": "Stubistrasse",
		"city": "Triesenberg",
		"district": "",
		"postcode": "9497"
	},
	{
		"lon": "9.608125",
		"lat": "47.1001618",
		"number": "53c",
		"street": "Stubistrasse",
		"city": "Triesenberg",
		"district": "",
		"postcode": "9497"
	},
	{
		"lon": "9.6069716",
		"lat": "47.1033171",
		"number": "70",
		"street": "Malbunstrasse",
		"city": "Triesenberg",
		"district": "",
		"postcode": "9497"
	},
	{
		"lon": "9.6078988",
		"lat": "47.1002447",
		"number": "53a",
		"street": "Stubistrasse",
		"city": "Triesenberg",
		"district": "",
		"postcode": "9497"
	},
	{
		"lon": "9.608529",
		"lat": "47.1027685",
		"number": "6",
		"street": "Turnastrasse",
		"city": "Triesenberg",
		"district": "",
		"postcode": "9497"
	},
	{
		"lon": "9.6080742",
		"lat": "47.1001923",
		"number": "53b",
		"street": "Stubistrasse",
		"city": "Triesenberg",
		"district": "",
		"postcode": "9497"
	},
	{
		"lon": "9.6109864",
		"lat": "47.0992614",
		"number": "55",
		"street": "Heitastrasse",
		"city": "Triesenberg",
		"district": "",
		"postcode": "9497"
	},
	{
		"lon": "9.6081493",
		"lat": "47.10041",
		"number": "49",
		"street": "Stubistrasse",
		"city": "Triesenberg",
		"district": "",
		"postcode": "9497"
	},
	{
		"lon": "9.6134666",
		"lat": "47.09917",
		"number": "57",
		"street": "Kurrstrasse",
		"city": "Triesenberg",
		"district": "",
		"postcode": "9497"
	},
	{
		"lon": "9.6104572",
		"lat": "47.0990513",
		"number": "56",
		"street": "Heitastrasse",
		"city": "Triesenberg",
		"district": "",
		"postcode": "9497"
	},
	{
		"lon": "9.6105805",
		"lat": "47.0989387",
		"number": "70",
		"street": "Heitastrasse",
		"city": "Triesenberg",
		"district": "",
		"postcode": "9497"
	},
	{
		"lon": "9.6108",
		"lat": "47.0990077",
		"number": "72",
		"street": "Heitastrasse",
		"city": "Triesenberg",
		"district": "",
		"postcode": "9497"
	},
	{
		"lon": "9.6108997",
		"lat": "47.0988507",
		"number": "74",
		"street": "Heitastrasse",
		"city": "Triesenberg",
		"district": "",
		"postcode": "9497"
	},
	{
		"lon": "9.6106674",
		"lat": "47.0987778",
		"number": "76",
		"street": "Heitastrasse",
		"city": "Triesenberg",
		"district": "",
		"postcode": "9497"
	},
	{
		"lon": "9.612064",
		"lat": "47.0981876",
		"number": "111",
		"street": "Heitastrasse",
		"city": "Triesenberg",
		"district": "",
		"postcode": "9497"
	},
	{
		"lon": "9.6079832",
		"lat": "47.1033342",
		"number": "3",
		"street": "Im Malbun",
		"city": "Triesenberg",
		"district": "",
		"postcode": "9497"
	},
	{
		"lon": "9.6107118",
		"lat": "47.101223",
		"number": "53",
		"street": "Im Malbun",
		"city": "Triesenberg",
		"district": "",
		"postcode": "9497"
	},
	{
		"lon": "9.6107897",
		"lat": "47.1010571",
		"number": "55",
		"street": "Im Malbun",
		"city": "Triesenberg",
		"district": "",
		"postcode": "9497"
	},
	{
		"lon": "9.6127026",
		"lat": "47.0966982",
		"number": "199a",
		"street": "Heitastrasse",
		"city": "Triesenberg",
		"district": "",
		"postcode": "9497"
	},
	{
		"lon": "9.611139",
		"lat": "47.0998902",
		"number": "14",
		"street": "Kurrstrasse",
		"city": "Triesenberg",
		"district": "",
		"postcode": "9497"
	},
	{
		"lon": "9.612683",
		"lat": "47.0967387",
		"number": "199b",
		"street": "Heitastrasse",
		"city": "Triesenberg",
		"district": "",
		"postcode": "9497"
	},
	{
		"lon": "9.6119755",
		"lat": "47.1003048",
		"number": "21",
		"street": "Kurrstrasse",
		"city": "Triesenberg",
		"district": "",
		"postcode": "9497"
	},
	{
		"lon": "9.611919",
		"lat": "47.1001241",
		"number": "27",
		"street": "Kurrstrasse",
		"city": "Triesenberg",
		"district": "",
		"postcode": "9497"
	},
	{
		"lon": "9.6102057",
		"lat": "47.1013545",
		"number": "43",
		"street": "Im Malbun",
		"city": "Triesenberg",
		"district": "",
		"postcode": "9497"
	},
	{
		"lon": "9.6125541",
		"lat": "47.097339",
		"number": "149",
		"street": "Heitastrasse",
		"city": "Triesenberg",
		"district": "",
		"postcode": "9497"
	},
	{
		"lon": "9.6120095",
		"lat": "47.1000961",
		"number": "29",
		"street": "Kurrstrasse",
		"city": "Triesenberg",
		"district": "",
		"postcode": "9497"
	},
	{
		"lon": "9.6103148",
		"lat": "47.102044",
		"number": "39",
		"street": "Im Malbun",
		"city": "Triesenberg",
		"district": "",
		"postcode": "9497"
	},
	{
		"lon": "9.6130949",
		"lat": "47.0997097",
		"number": "49",
		"street": "Kurrstrasse",
		"city": "Triesenberg",
		"district": "",
		"postcode": "9497"
	},
	{
		"lon": "9.6127247",
		"lat": "47.097456",
		"number": "151",
		"street": "Heitastrasse",
		"city": "Triesenberg",
		"district": "",
		"postcode": "9497"
	},
	{
		"lon": "9.6138254",
		"lat": "47.0993644",
		"number": "53",
		"street": "Kurrstrasse",
		"city": "Triesenberg",
		"district": "",
		"postcode": "9497"
	},
	{
		"lon": "9.613614",
		"lat": "47.0992667",
		"number": "55",
		"street": "Kurrstrasse",
		"city": "Triesenberg",
		"district": "",
		"postcode": "9497"
	},
	{
		"lon": "9.6139217",
		"lat": "47.0995312",
		"number": "51",
		"street": "Kurrstrasse",
		"city": "Triesenberg",
		"district": "",
		"postcode": "9497"
	},
	{
		"lon": "9.6139977",
		"lat": "47.099272",
		"number": "63",
		"street": "Kurrstrasse",
		"city": "Triesenberg",
		"district": "",
		"postcode": "9497"
	},
	{
		"lon": "9.6125388",
		"lat": "47.0976011",
		"number": "141",
		"street": "Heitastrasse",
		"city": "Triesenberg",
		"district": "",
		"postcode": "9497"
	},
	{
		"lon": "9.6122958",
		"lat": "47.0976773",
		"number": "135",
		"street": "Heitastrasse",
		"city": "Triesenberg",
		"district": "",
		"postcode": "9497"
	},
	{
		"lon": "9.4763159",
		"lat": "47.0555794",
		"number": "8",
		"street": "Freiaberg",
		"city": "Balzers",
		"district": "",
		"postcode": "9496"
	},
	{
		"lon": "9.4793334",
		"lat": "47.0634359",
		"number": "1",
		"street": "Äule",
		"city": "Balzers",
		"district": "",
		"postcode": "9496"
	},
	{
		"lon": "9.5107009",
		"lat": "47.0716911",
		"number": "9",
		"street": "Lowal",
		"city": "Balzers",
		"district": "",
		"postcode": "9496"
	},
	{
		"lon": "9.5104348",
		"lat": "47.0710913",
		"number": "19",
		"street": "Lowal",
		"city": "Balzers",
		"district": "",
		"postcode": "9496"
	},
	{
		"lon": "9.5088916",
		"lat": "47.0759316",
		"number": "10",
		"street": "Föhrenweg",
		"city": "Balzers",
		"district": "",
		"postcode": "9496"
	},
	{
		"lon": "9.5089771",
		"lat": "47.0754719",
		"number": "15",
		"street": "Föhrenweg",
		"city": "Balzers",
		"district": "",
		"postcode": "9496"
	},
	{
		"lon": "9.5083428",
		"lat": "47.0762532",
		"number": "3",
		"street": "Gewerbestrasse",
		"city": "Balzers",
		"district": "",
		"postcode": "9496"
	},
	{
		"lon": "9.5121572",
		"lat": "47.0767533",
		"number": "25",
		"street": "Landstrasse",
		"city": "Balzers",
		"district": "",
		"postcode": "9496"
	},
	{
		"lon": "9.5086122",
		"lat": "47.0763173",
		"number": "6",
		"street": "Föhrenweg",
		"city": "Balzers",
		"district": "",
		"postcode": "9496"
	},
	{
		"lon": "9.5088846",
		"lat": "47.0758143",
		"number": "12",
		"street": "Föhrenweg",
		"city": "Balzers",
		"district": "",
		"postcode": "9496"
	},
	{
		"lon": "9.5067575",
		"lat": "47.0756035",
		"number": "20",
		"street": "Mühlesträssle",
		"city": "Balzers",
		"district": "",
		"postcode": "9496"
	},
	{
		"lon": "9.5132032",
		"lat": "47.0768645",
		"number": "5",
		"street": "Alte Landstrasse",
		"city": "Balzers",
		"district": "",
		"postcode": "9496"
	},
	{
		"lon": "9.5109695",
		"lat": "47.0739193",
		"number": "8",
		"street": "Landstrasse",
		"city": "Balzers",
		"district": "",
		"postcode": "9496"
	},
	{
		"lon": "9.4933034",
		"lat": "47.06274",
		"number": "37",
		"street": "Rheinstrasse",
		"city": "Balzers",
		"district": "",
		"postcode": "9496"
	},
	{
		"lon": "9.5087256",
		"lat": "47.0770892",
		"number": "37",
		"street": "Neugrüt",
		"city": "Balzers",
		"district": "",
		"postcode": "9496"
	},
	{
		"lon": "9.5102826",
		"lat": "47.07071",
		"number": "23",
		"street": "Lowal",
		"city": "Balzers",
		"district": "",
		"postcode": "9496"
	},
	{
		"lon": "9.4973049",
		"lat": "47.0746222",
		"number": "2",
		"street": "Rheinau",
		"city": "Balzers",
		"district": "",
		"postcode": "9496"
	},
	{
		"lon": "9.5115535",
		"lat": "47.0747403",
		"number": "14",
		"street": "Landstrasse",
		"city": "Balzers",
		"district": "",
		"postcode": "9496"
	},
	{
		"lon": "9.5112573",
		"lat": "47.0766307",
		"number": "9",
		"street": "Kanalstrasse",
		"city": "Balzers",
		"district": "",
		"postcode": "9496"
	},
	{
		"lon": "9.5089978",
		"lat": "47.0768133",
		"number": "1",
		"street": "Föhrenweg",
		"city": "Balzers",
		"district": "",
		"postcode": "9496"
	},
	{
		"lon": "9.5076483",
		"lat": "47.0759786",
		"number": "7",
		"street": "Gewerbestrasse",
		"city": "Balzers",
		"district": "",
		"postcode": "9496"
	},
	{
		"lon": "9.5055014",
		"lat": "47.068543",
		"number": "2",
		"street": "Plattenbach",
		"city": "Balzers",
		"district": "",
		"postcode": "9496"
	},
	{
		"lon": "9.5132921",
		"lat": "47.0761987",
		"number": "8",
		"street": "Alte Landstrasse",
		"city": "Balzers",
		"district": "",
		"postcode": "9496"
	},
	{
		"lon": "9.5073384",
		"lat": "47.075439",
		"number": "20",
		"street": "Föhrenweg",
		"city": "Balzers",
		"district": "",
		"postcode": "9496"
	},
	{
		"lon": "9.5082703",
		"lat": "47.0757465",
		"number": "16",
		"street": "Föhrenweg",
		"city": "Balzers",
		"district": "",
		"postcode": "9496"
	},
	{
		"lon": "9.5078925",
		"lat": "47.0756058",
		"number": "18",
		"street": "Föhrenweg",
		"city": "Balzers",
		"district": "",
		"postcode": "9496"
	},
	{
		"lon": "9.5112737",
		"lat": "47.0737717",
		"number": "11",
		"street": "Stötz",
		"city": "Balzers",
		"district": "",
		"postcode": "9496"
	},
	{
		"lon": "9.5116452",
		"lat": "47.0740955",
		"number": "17",
		"street": "Stötz",
		"city": "Balzers",
		"district": "",
		"postcode": "9496"
	},
	{
		"lon": "9.50958",
		"lat": "47.0769032",
		"number": "5",
		"street": "Föhrenweg",
		"city": "Balzers",
		"district": "",
		"postcode": "9496"
	},
	{
		"lon": "9.5065274",
		"lat": "47.0708816",
		"number": "34",
		"street": "Iratell",
		"city": "Balzers",
		"district": "",
		"postcode": "9496"
	},
	{
		"lon": "9.4969247",
		"lat": "47.0627262",
		"number": "27",
		"street": "Taleze",
		"city": "Balzers",
		"district": "",
		"postcode": "9496"
	},
	{
		"lon": "9.4907363",
		"lat": "47.0631116",
		"number": "24",
		"street": "Gärten",
		"city": "Balzers",
		"district": "",
		"postcode": "9496"
	},
	{
		"lon": "9.5079484",
		"lat": "47.0765762",
		"number": "4",
		"street": "Gewerbestrasse",
		"city": "Balzers",
		"district": "",
		"postcode": "9496"
	},
	{
		"lon": "9.5082575",
		"lat": "47.0765917",
		"number": "2",
		"street": "Gewerbestrasse",
		"city": "Balzers",
		"district": "",
		"postcode": "9496"
	},
	{
		"lon": "9.5070899",
		"lat": "47.0766773",
		"number": "45",
		"street": "Neugrüt",
		"city": "Balzers",
		"district": "",
		"postcode": "9496"
	},
	{
		"lon": "9.5118263",
		"lat": "47.0737877",
		"number": "16",
		"street": "Stötz",
		"city": "Balzers",
		"district": "",
		"postcode": "9496"
	},
	{
		"lon": "9.5118823",
		"lat": "47.0738615",
		"number": "18",
		"street": "Stötz",
		"city": "Balzers",
		"district": "",
		"postcode": "9496"
	},
	{
		"lon": "9.5119374",
		"lat": "47.073939",
		"number": "20",
		"street": "Stötz",
		"city": "Balzers",
		"district": "",
		"postcode": "9496"
	},
	{
		"lon": "9.4985416",
		"lat": "47.0755729",
		"number": "6",
		"street": "Rheinau",
		"city": "Balzers",
		"district": "",
		"postcode": "9496"
	},
	{
		"lon": "9.5072632",
		"lat": "47.07633",
		"number": "8",
		"street": "Gewerbestrasse",
		"city": "Balzers",
		"district": "",
		"postcode": "9496"
	},
	{
		"lon": "9.5064111",
		"lat": "47.0764782",
		"number": "28",
		"street": "Mühlesträssle",
		"city": "Balzers",
		"district": "",
		"postcode": "9496"
	},
	{
		"lon": "9.5077973",
		"lat": "47.0768947",
		"number": "41",
		"street": "Neugrüt",
		"city": "Balzers",
		"district": "",
		"postcode": "9496"
	},
	{
		"lon": "9.5111057",
		"lat": "47.0756424",
		"number": "31",
		"street": "Lehenwies",
		"city": "Balzers",
		"district": "",
		"postcode": "9496"
	},
	{
		"lon": "9.5095359",
		"lat": "47.0757116",
		"number": "2",
		"street": "Kanalstrasse",
		"city": "Balzers",
		"district": "",
		"postcode": "9496"
	},
	{
		"lon": "9.5123298",
		"lat": "47.0782744",
		"number": "1",
		"street": "Neugrüt",
		"city": "Balzers",
		"district": "",
		"postcode": "9496"
	},
	{
		"lon": "9.5119026",
		"lat": "47.0776993",
		"number": "5",
		"street": "Neugrüt",
		"city": "Balzers",
		"district": "",
		"postcode": "9496"
	},
	{
		"lon": "9.5093586",
		"lat": "47.0772777",
		"number": "33",
		"street": "Neugrüt",
		"city": "Balzers",
		"district": "",
		"postcode": "9496"
	},
	{
		"lon": "9.5111015",
		"lat": "47.0750742",
		"number": "6",
		"street": "Lehenwies",
		"city": "Balzers",
		"district": "",
		"postcode": "9496"
	},
	{
		"lon": "9.5115333",
		"lat": "47.0740901",
		"number": "15",
		"street": "Stötz",
		"city": "Balzers",
		"district": "",
		"postcode": "9496"
	},
	{
		"lon": "9.5095212",
		"lat": "47.0760456",
		"number": "1",
		"street": "Kanalstrasse",
		"city": "Balzers",
		"district": "",
		"postcode": "9496"
	},
	{
		"lon": "9.5092508",
		"lat": "47.0763722",
		"number": "9",
		"street": "Föhrenweg",
		"city": "Balzers",
		"district": "",
		"postcode": "9496"
	},
	{
		"lon": "9.5093103",
		"lat": "47.0761129",
		"number": "11",
		"street": "Föhrenweg",
		"city": "Balzers",
		"district": "",
		"postcode": "9496"
	},
	{
		"lon": "9.5114058",
		"lat": "47.0739072",
		"number": "13",
		"street": "Stötz",
		"city": "Balzers",
		"district": "",
		"postcode": "9496"
	},
	{
		"lon": "9.4900565",
		"lat": "47.0617924",
		"number": "42",
		"street": "Finne",
		"city": "Balzers",
		"district": "",
		"postcode": "9496"
	},
	{
		"lon": "9.5086315",
		"lat": "47.076119",
		"number": "8",
		"street": "Föhrenweg",
		"city": "Balzers",
		"district": "",
		"postcode": "9496"
	},
	{
		"lon": "9.5125879",
		"lat": "47.0763404",
		"number": "1",
		"street": "Alte Landstrasse",
		"city": "Balzers",
		"district": "",
		"postcode": "9496"
	},
	{
		"lon": "9.5116926",
		"lat": "47.0804824",
		"number": "4",
		"street": "Vogelsang",
		"city": "Balzers",
		"district": "",
		"postcode": "9496"
	},
	{
		"lon": "9.5137158",
		"lat": "47.0757206",
		"number": "6",
		"street": "Alte Landstrasse",
		"city": "Balzers",
		"district": "",
		"postcode": "9496"
	},
	{
		"lon": "9.5127891",
		"lat": "47.0757354",
		"number": "4a",
		"street": "Alte Landstrasse",
		"city": "Balzers",
		"district": "",
		"postcode": "9496"
	},
	{
		"lon": "9.5131106",
		"lat": "47.0754136",
		"number": "3",
		"street": "Bündtle",
		"city": "Balzers",
		"district": "",
		"postcode": "9496"
	},
	{
		"lon": "9.4918327",
		"lat": "47.0634936",
		"number": "49",
		"street": "Rheinstrasse",
		"city": "Balzers",
		"district": "",
		"postcode": "9496"
	},
	{
		"lon": "9.5148012",
		"lat": "47.075398",
		"number": "12",
		"street": "Bündtle",
		"city": "Balzers",
		"district": "",
		"postcode": "9496"
	},
	{
		"lon": "9.5126731",
		"lat": "47.0758569",
		"number": "4",
		"street": "Alte Landstrasse",
		"city": "Balzers",
		"district": "",
		"postcode": "9496"
	},
	{
		"lon": "9.5128156",
		"lat": "47.0766521",
		"number": "3",
		"street": "Alte Landstrasse",
		"city": "Balzers",
		"district": "",
		"postcode": "9496"
	},
	{
		"lon": "9.4971397",
		"lat": "47.0650563",
		"number": "67",
		"street": "Unterm Schloss",
		"city": "Balzers",
		"district": "",
		"postcode": "9496"
	},
	{
		"lon": "9.4971702",
		"lat": "47.0649982",
		"number": "69",
		"street": "Unterm Schloss",
		"city": "Balzers",
		"district": "",
		"postcode": "9496"
	},
	{
		"lon": "9.5124957",
		"lat": "47.0762126",
		"number": "22",
		"street": "Landstrasse",
		"city": "Balzers",
		"district": "",
		"postcode": "9496"
	},
	{
		"lon": "9.5128292",
		"lat": "47.0790994",
		"number": "4",
		"street": "Neugrüt",
		"city": "Balzers",
		"district": "",
		"postcode": "9496"
	},
	{
		"lon": "9.5118831",
		"lat": "47.0805087",
		"number": "6",
		"street": "Vogelsang",
		"city": "Balzers",
		"district": "",
		"postcode": "9496"
	},
	{
		"lon": "9.5114804",
		"lat": "47.0757458",
		"number": "21",
		"street": "Landstrasse",
		"city": "Balzers",
		"district": "",
		"postcode": "9496"
	},
	{
		"lon": "9.5108368",
		"lat": "47.0755051",
		"number": "29",
		"street": "Lehenwies",
		"city": "Balzers",
		"district": "",
		"postcode": "9496"
	},
	{
		"lon": "9.5109244",
		"lat": "47.075432",
		"number": "27",
		"street": "Lehenwies",
		"city": "Balzers",
		"district": "",
		"postcode": "9496"
	},
	{
		"lon": "9.4958642",
		"lat": "47.0607338",
		"number": "2",
		"street": "Prär",
		"city": "Balzers",
		"district": "",
		"postcode": "9496"
	},
	{
		"lon": "9.5098758",
		"lat": "47.0723617",
		"number": "5",
		"street": "Kreuzstrasse",
		"city": "Balzers",
		"district": "",
		"postcode": "9496"
	},
	{
		"lon": "9.5130106",
		"lat": "47.0770228",
		"number": "24",
		"street": "Landstrasse",
		"city": "Balzers",
		"district": "",
		"postcode": "9496"
	},
	{
		"lon": "9.5122353",
		"lat": "47.0777921",
		"number": "7",
		"street": "Neugrüt",
		"city": "Balzers",
		"district": "",
		"postcode": "9496"
	},
	{
		"lon": "9.5112746",
		"lat": "47.0723284",
		"number": "18",
		"street": "Ramschwagweg",
		"city": "Balzers",
		"district": "",
		"postcode": "9496"
	},
	{
		"lon": "9.5102201",
		"lat": "47.0775313",
		"number": "27",
		"street": "Neugrüt",
		"city": "Balzers",
		"district": "",
		"postcode": "9496"
	},
	{
		"lon": "9.5102926",
		"lat": "47.0617384",
		"number": "27",
		"street": "Neue Churerstrasse",
		"city": "Balzers",
		"district": "",
		"postcode": "9496"
	},
	{
		"lon": "9.5123471",
		"lat": "47.0795771",
		"number": "2",
		"street": "Vogelsang",
		"city": "Balzers",
		"district": "",
		"postcode": "9496"
	},
	{
		"lon": "9.5118796",
		"lat": "47.0763235",
		"number": "23",
		"street": "Landstrasse",
		"city": "Balzers",
		"district": "",
		"postcode": "9496"
	},
	{
		"lon": "9.5120643",
		"lat": "47.0780438",
		"number": "9",
		"street": "Neugrüt",
		"city": "Balzers",
		"district": "",
		"postcode": "9496"
	},
	{
		"lon": "9.5119605",
		"lat": "47.078204",
		"number": "11",
		"street": "Neugrüt",
		"city": "Balzers",
		"district": "",
		"postcode": "9496"
	},
	{
		"lon": "9.5130723",
		"lat": "47.07863",
		"number": "2",
		"street": "Neugrüt",
		"city": "Balzers",
		"district": "",
		"postcode": "9496"
	},
	{
		"lon": "9.510709",
		"lat": "47.0777085",
		"number": "21",
		"street": "Neugrüt",
		"city": "Balzers",
		"district": "",
		"postcode": "9496"
	},
	{
		"lon": "9.5104346",
		"lat": "47.0776005",
		"number": "25",
		"street": "Neugrüt",
		"city": "Balzers",
		"district": "",
		"postcode": "9496"
	},
	{
		"lon": "9.5120182",
		"lat": "47.0773523",
		"number": "13",
		"street": "Kanalstrasse",
		"city": "Balzers",
		"district": "",
		"postcode": "9496"
	},
	{
		"lon": "9.5131083",
		"lat": "47.0771831",
		"number": "26",
		"street": "Landstrasse",
		"city": "Balzers",
		"district": "",
		"postcode": "9496"
	},
	{
		"lon": "9.5106977",
		"lat": "47.0732118",
		"number": "3",
		"street": "Stötz",
		"city": "Balzers",
		"district": "",
		"postcode": "9496"
	},
	{
		"lon": "9.5110534",
		"lat": "47.0731503",
		"number": "6",
		"street": "Stötz",
		"city": "Balzers",
		"district": "",
		"postcode": "9496"
	},
	{
		"lon": "9.5104538",
		"lat": "47.0772116",
		"number": "29",
		"street": "Neugrüt",
		"city": "Balzers",
		"district": "",
		"postcode": "9496"
	},
	{
		"lon": "9.5012619",
		"lat": "47.0676205",
		"number": "14",
		"street": "Insel",
		"city": "Balzers",
		"district": "",
		"postcode": "9496"
	},
	{
		"lon": "9.5013864",
		"lat": "47.0676539",
		"number": "16",
		"street": "Insel",
		"city": "Balzers",
		"district": "",
		"postcode": "9496"
	},
	{
		"lon": "9.5094265",
		"lat": "47.0714211",
		"number": "7",
		"street": "Heiligwies",
		"city": "Balzers",
		"district": "",
		"postcode": "9496"
	},
	{
		"lon": "9.5105341",
		"lat": "47.0730808",
		"number": "1",
		"street": "Stötz",
		"city": "Balzers",
		"district": "",
		"postcode": "9496"
	},
	{
		"lon": "9.5093668",
		"lat": "47.0721116",
		"number": "1",
		"street": "Heiligwies",
		"city": "Balzers",
		"district": "",
		"postcode": "9496"
	},
	{
		"lon": "9.5089607",
		"lat": "47.0721126",
		"number": "2",
		"street": "Heiligwies",
		"city": "Balzers",
		"district": "",
		"postcode": "9496"
	},
	{
		"lon": "9.5111155",
		"lat": "47.0719131",
		"number": "26",
		"street": "Ramschwagweg",
		"city": "Balzers",
		"district": "",
		"postcode": "9496"
	},
	{
		"lon": "9.5119499",
		"lat": "47.0716532",
		"number": "21",
		"street": "Ramschwagweg",
		"city": "Balzers",
		"district": "",
		"postcode": "9496"
	},
	{
		"lon": "9.5078502",
		"lat": "47.0703616",
		"number": "28",
		"street": "Egerta",
		"city": "Balzers",
		"district": "",
		"postcode": "9496"
	},
	{
		"lon": "9.4974254",
		"lat": "47.0676377",
		"number": "3",
		"street": "Iramali",
		"city": "Balzers",
		"district": "",
		"postcode": "9496"
	},
	{
		"lon": "9.5097701",
		"lat": "47.0715755",
		"number": "4",
		"street": "Kreuzstrasse",
		"city": "Balzers",
		"district": "",
		"postcode": "9496"
	},
	{
		"lon": "9.5098883",
		"lat": "47.0717993",
		"number": "6",
		"street": "Kreuzstrasse",
		"city": "Balzers",
		"district": "",
		"postcode": "9496"
	},
	{
		"lon": "9.5106354",
		"lat": "47.0714032",
		"number": "13",
		"street": "Lowal",
		"city": "Balzers",
		"district": "",
		"postcode": "9496"
	},
	{
		"lon": "9.5101373",
		"lat": "47.0714651",
		"number": "12",
		"street": "Lowal",
		"city": "Balzers",
		"district": "",
		"postcode": "9496"
	},
	{
		"lon": "9.511018",
		"lat": "47.0730776",
		"number": "4",
		"street": "Stötz",
		"city": "Balzers",
		"district": "",
		"postcode": "9496"
	},
	{
		"lon": "9.5113548",
		"lat": "47.073402",
		"number": "10",
		"street": "Stötz",
		"city": "Balzers",
		"district": "",
		"postcode": "9496"
	},
	{
		"lon": "9.5082765",
		"lat": "47.0710898",
		"number": "38",
		"street": "Egerta",
		"city": "Balzers",
		"district": "",
		"postcode": "9496"
	},
	{
		"lon": "9.5089676",
		"lat": "47.0714695",
		"number": "8",
		"street": "Heiligwies",
		"city": "Balzers",
		"district": "",
		"postcode": "9496"
	},
	{
		"lon": "9.5093448",
		"lat": "47.0718617",
		"number": "3",
		"street": "Heiligwies",
		"city": "Balzers",
		"district": "",
		"postcode": "9496"
	},
	{
		"lon": "9.5109964",
		"lat": "47.071576",
		"number": "28",
		"street": "Ramschwagweg",
		"city": "Balzers",
		"district": "",
		"postcode": "9496"
	},
	{
		"lon": "9.5059377",
		"lat": "47.0707762",
		"number": "16c",
		"street": "Stadel",
		"city": "Balzers",
		"district": "",
		"postcode": "9496"
	},
	{
		"lon": "9.4882647",
		"lat": "47.0609633",
		"number": "12",
		"street": "Brüelweg",
		"city": "Balzers",
		"district": "",
		"postcode": "9496"
	},
	{
		"lon": "9.5109332",
		"lat": "47.0746797",
		"number": "15",
		"street": "Landstrasse",
		"city": "Balzers",
		"district": "",
		"postcode": "9496"
	},
	{
		"lon": "9.5110296",
		"lat": "47.0748068",
		"number": "17",
		"street": "Landstrasse",
		"city": "Balzers",
		"district": "",
		"postcode": "9496"
	},
	{
		"lon": "9.5098872",
		"lat": "47.070923",
		"number": "20",
		"street": "Lowal",
		"city": "Balzers",
		"district": "",
		"postcode": "9496"
	},
	{
		"lon": "9.5091993",
		"lat": "47.0708693",
		"number": "11",
		"street": "Heiligwies",
		"city": "Balzers",
		"district": "",
		"postcode": "9496"
	},
	{
		"lon": "9.5092227",
		"lat": "47.0708675",
		"number": "11a",
		"street": "Heiligwies",
		"city": "Balzers",
		"district": "",
		"postcode": "9496"
	},
	{
		"lon": "9.5092804",
		"lat": "47.071129",
		"number": "9",
		"street": "Heiligwies",
		"city": "Balzers",
		"district": "",
		"postcode": "9496"
	},
	{
		"lon": "9.5107053",
		"lat": "47.0706485",
		"number": "48",
		"street": "Ramschwagweg",
		"city": "Balzers",
		"district": "",
		"postcode": "9496"
	},
	{
		"lon": "9.5095342",
		"lat": "47.071105",
		"number": "2a",
		"street": "Kreuzstrasse",
		"city": "Balzers",
		"district": "",
		"postcode": "9496"
	},
	{
		"lon": "9.5096143",
		"lat": "47.0713127",
		"number": "2",
		"street": "Kreuzstrasse",
		"city": "Balzers",
		"district": "",
		"postcode": "9496"
	},
	{
		"lon": "9.5097707",
		"lat": "47.0706903",
		"number": "24",
		"street": "Lowal",
		"city": "Balzers",
		"district": "",
		"postcode": "9496"
	},
	{
		"lon": "9.5118232",
		"lat": "47.0712772",
		"number": "39",
		"street": "Ramschwagweg",
		"city": "Balzers",
		"district": "",
		"postcode": "9496"
	},
	{
		"lon": "9.5082645",
		"lat": "47.0710041",
		"number": "36",
		"street": "Egerta",
		"city": "Balzers",
		"district": "",
		"postcode": "9496"
	},
	{
		"lon": "9.5111475",
		"lat": "47.071984",
		"number": "24",
		"street": "Ramschwagweg",
		"city": "Balzers",
		"district": "",
		"postcode": "9496"
	},
	{
		"lon": "9.5102348",
		"lat": "47.0727946",
		"number": "4",
		"street": "Ramschwagweg",
		"city": "Balzers",
		"district": "",
		"postcode": "9496"
	},
	{
		"lon": "9.5105959",
		"lat": "47.0726683",
		"number": "6",
		"street": "Ramschwagweg",
		"city": "Balzers",
		"district": "",
		"postcode": "9496"
	},
	{
		"lon": "9.5102204",
		"lat": "47.0722206",
		"number": "10",
		"street": "Kreuzstrasse",
		"city": "Balzers",
		"district": "",
		"postcode": "9496"
	},
	{
		"lon": "9.4981892",
		"lat": "47.0599788",
		"number": "35",
		"street": "Iradug",
		"city": "Balzers",
		"district": "",
		"postcode": "9496"
	},
	{
		"lon": "9.4983502",
		"lat": "47.0599338",
		"number": "37",
		"street": "Iradug",
		"city": "Balzers",
		"district": "",
		"postcode": "9496"
	},
	{
		"lon": "9.5100594",
		"lat": "47.072582",
		"number": "7",
		"street": "Kreuzstrasse",
		"city": "Balzers",
		"district": "",
		"postcode": "9496"
	},
	{
		"lon": "9.5103937",
		"lat": "47.0724535",
		"number": "12",
		"street": "Kreuzstrasse",
		"city": "Balzers",
		"district": "",
		"postcode": "9496"
	},
	{
		"lon": "9.5094235",
		"lat": "47.0724842",
		"number": "54",
		"street": "Egerta",
		"city": "Balzers",
		"district": "",
		"postcode": "9496"
	},
	{
		"lon": "9.5117182",
		"lat": "47.0750276",
		"number": "16",
		"street": "Landstrasse",
		"city": "Balzers",
		"district": "",
		"postcode": "9496"
	},
	{
		"lon": "9.5121883",
		"lat": "47.0752953",
		"number": "20",
		"street": "Landstrasse",
		"city": "Balzers",
		"district": "",
		"postcode": "9496"
	},
	{
		"lon": "9.5070832",
		"lat": "47.0753224",
		"number": "22",
		"street": "Föhrenweg",
		"city": "Balzers",
		"district": "",
		"postcode": "9496"
	},
	{
		"lon": "9.511512",
		"lat": "47.0712255",
		"number": "35",
		"street": "Ramschwagweg",
		"city": "Balzers",
		"district": "",
		"postcode": "9496"
	},
	{
		"lon": "9.510219",
		"lat": "47.0716456",
		"number": "10",
		"street": "Lowal",
		"city": "Balzers",
		"district": "",
		"postcode": "9496"
	},
	{
		"lon": "9.5111257",
		"lat": "47.0736477",
		"number": "9",
		"street": "Stötz",
		"city": "Balzers",
		"district": "",
		"postcode": "9496"
	},
	{
		"lon": "9.5068641",
		"lat": "47.0753499",
		"number": "18",
		"street": "Mühlesträssle",
		"city": "Balzers",
		"district": "",
		"postcode": "9496"
	},
	{
		"lon": "9.5109957",
		"lat": "47.0735107",
		"number": "7",
		"street": "Stötz",
		"city": "Balzers",
		"district": "",
		"postcode": "9496"
	},
	{
		"lon": "9.510845",
		"lat": "47.0733524",
		"number": "5",
		"street": "Stötz",
		"city": "Balzers",
		"district": "",
		"postcode": "9496"
	},
	{
		"lon": "9.5108299",
		"lat": "47.0729318",
		"number": "2",
		"street": "Stötz",
		"city": "Balzers",
		"district": "",
		"postcode": "9496"
	},
	{
		"lon": "9.5101229",
		"lat": "47.0731799",
		"number": "1",
		"street": "Ramschwagweg",
		"city": "Balzers",
		"district": "",
		"postcode": "9496"
	},
	{
		"lon": "9.5116439",
		"lat": "47.0736702",
		"number": "14",
		"street": "Stötz",
		"city": "Balzers",
		"district": "",
		"postcode": "9496"
	},
	{
		"lon": "9.510307",
		"lat": "47.0718294",
		"number": "8",
		"street": "Lowal",
		"city": "Balzers",
		"district": "",
		"postcode": "9496"
	},
	{
		"lon": "9.5115012",
		"lat": "47.0735409",
		"number": "12",
		"street": "Stötz",
		"city": "Balzers",
		"district": "",
		"postcode": "9496"
	},
	{
		"lon": "9.5104734",
		"lat": "47.0730158",
		"number": "3",
		"street": "Ramschwagweg",
		"city": "Balzers",
		"district": "",
		"postcode": "9496"
	},
	{
		"lon": "9.5088723",
		"lat": "47.0735517",
		"number": "14",
		"street": "Mühlesträssle",
		"city": "Balzers",
		"district": "",
		"postcode": "9496"
	},
	{
		"lon": "9.5077421",
		"lat": "47.0722514",
		"number": "53",
		"street": "Egerta",
		"city": "Balzers",
		"district": "",
		"postcode": "9496"
	},
	{
		"lon": "9.5107096",
		"lat": "47.0736434",
		"number": "6",
		"street": "Landstrasse",
		"city": "Balzers",
		"district": "",
		"postcode": "9496"
	},
	{
		"lon": "9.5102756",
		"lat": "47.0733673",
		"number": "4",
		"street": "Landstrasse",
		"city": "Balzers",
		"district": "",
		"postcode": "9496"
	},
	{
		"lon": "9.5112048",
		"lat": "47.0732802",
		"number": "8",
		"street": "Stötz",
		"city": "Balzers",
		"district": "",
		"postcode": "9496"
	},
	{
		"lon": "9.4986153",
		"lat": "47.065939",
		"number": "4a",
		"street": "Alberweg",
		"city": "Balzers",
		"district": "",
		"postcode": "9496"
	},
	{
		"lon": "9.5117809",
		"lat": "47.0710418",
		"number": "41",
		"street": "Ramschwagweg",
		"city": "Balzers",
		"district": "",
		"postcode": "9496"
	},
	{
		"lon": "9.502861",
		"lat": "47.0724519",
		"number": "39",
		"street": "Stadel",
		"city": "Balzers",
		"district": "",
		"postcode": "9496"
	},
	{
		"lon": "9.5100476",
		"lat": "47.0719993",
		"number": "8",
		"street": "Kreuzstrasse",
		"city": "Balzers",
		"district": "",
		"postcode": "9496"
	},
	{
		"lon": "9.4951461",
		"lat": "47.0608797",
		"number": "6",
		"street": "Gatter",
		"city": "Balzers",
		"district": "",
		"postcode": "9496"
	},
	{
		"lon": "9.5094688",
		"lat": "47.0718385",
		"number": "1",
		"street": "Kreuzstrasse",
		"city": "Balzers",
		"district": "",
		"postcode": "9496"
	},
	{
		"lon": "9.4953278",
		"lat": "47.0733188",
		"number": "1",
		"street": "Rheinau",
		"city": "Balzers",
		"district": "",
		"postcode": "9496"
	},
	{
		"lon": "9.5121356",
		"lat": "47.0719131",
		"number": "17",
		"street": "Ramschwagweg",
		"city": "Balzers",
		"district": "",
		"postcode": "9496"
	},
	{
		"lon": "9.5034056",
		"lat": "47.0714277",
		"number": "37",
		"street": "Stadel",
		"city": "Balzers",
		"district": "",
		"postcode": "9496"
	},
	{
		"lon": "9.504584",
		"lat": "47.0708453",
		"number": "31",
		"street": "Gagoz",
		"city": "Balzers",
		"district": "",
		"postcode": "9496"
	},
	{
		"lon": "9.5097697",
		"lat": "47.0693577",
		"number": "41",
		"street": "Lowal",
		"city": "Balzers",
		"district": "",
		"postcode": "9496"
	},
	{
		"lon": "9.5112405",
		"lat": "47.0705459",
		"number": "53",
		"street": "Ramschwagweg",
		"city": "Balzers",
		"district": "",
		"postcode": "9496"
	},
	{
		"lon": "9.5052678",
		"lat": "47.0708443",
		"number": "25",
		"street": "Gagoz",
		"city": "Balzers",
		"district": "",
		"postcode": "9496"
	},
	{
		"lon": "9.5042589",
		"lat": "47.0707665",
		"number": "33",
		"street": "Gagoz",
		"city": "Balzers",
		"district": "",
		"postcode": "9496"
	},
	{
		"lon": "9.5049999",
		"lat": "47.0707187",
		"number": "27",
		"street": "Gagoz",
		"city": "Balzers",
		"district": "",
		"postcode": "9496"
	},
	{
		"lon": "9.5094805",
		"lat": "47.0701104",
		"number": "30",
		"street": "Lowal",
		"city": "Balzers",
		"district": "",
		"postcode": "9496"
	},
	{
		"lon": "9.509624",
		"lat": "47.0704604",
		"number": "26",
		"street": "Lowal",
		"city": "Balzers",
		"district": "",
		"postcode": "9496"
	},
	{
		"lon": "9.5100629",
		"lat": "47.0704984",
		"number": "25",
		"street": "Lowal",
		"city": "Balzers",
		"district": "",
		"postcode": "9496"
	},
	{
		"lon": "9.5051426",
		"lat": "47.0710452",
		"number": "23",
		"street": "Gagoz",
		"city": "Balzers",
		"district": "",
		"postcode": "9496"
	},
	{
		"lon": "9.5048085",
		"lat": "47.0709392",
		"number": "29",
		"street": "Gagoz",
		"city": "Balzers",
		"district": "",
		"postcode": "9496"
	},
	{
		"lon": "9.5113719",
		"lat": "47.0703739",
		"number": "57",
		"street": "Ramschwagweg",
		"city": "Balzers",
		"district": "",
		"postcode": "9496"
	},
	{
		"lon": "9.5063796",
		"lat": "47.0704678",
		"number": "40a",
		"street": "Iratell",
		"city": "Balzers",
		"district": "",
		"postcode": "9496"
	},
	{
		"lon": "9.5112137",
		"lat": "47.0703832",
		"number": "59",
		"street": "Ramschwagweg",
		"city": "Balzers",
		"district": "",
		"postcode": "9496"
	},
	{
		"lon": "9.4924609",
		"lat": "47.063089",
		"number": "1",
		"street": "Gärten",
		"city": "Balzers",
		"district": "",
		"postcode": "9496"
	},
	{
		"lon": "9.5066987",
		"lat": "47.0710275",
		"number": "32",
		"street": "Iratell",
		"city": "Balzers",
		"district": "",
		"postcode": "9496"
	},
	{
		"lon": "9.5093888",
		"lat": "47.0693608",
		"number": "42",
		"street": "Lowal",
		"city": "Balzers",
		"district": "",
		"postcode": "9496"
	},
	{
		"lon": "9.5074676",
		"lat": "47.0704968",
		"number": "27",
		"street": "Egerta",
		"city": "Balzers",
		"district": "",
		"postcode": "9496"
	},
	{
		"lon": "9.5089433",
		"lat": "47.069953",
		"number": "23",
		"street": "Heiligwies",
		"city": "Balzers",
		"district": "",
		"postcode": "9496"
	},
	{
		"lon": "9.5101052",
		"lat": "47.0703158",
		"number": "27",
		"street": "Lowal",
		"city": "Balzers",
		"district": "",
		"postcode": "9496"
	},
	{
		"lon": "9.5077915",
		"lat": "47.0690608",
		"number": "10",
		"street": "Egerta",
		"city": "Balzers",
		"district": "",
		"postcode": "9496"
	},
	{
		"lon": "9.5064546",
		"lat": "47.0694516",
		"number": "11",
		"street": "Egerta",
		"city": "Balzers",
		"district": "",
		"postcode": "9496"
	},
	{
		"lon": "9.5115856",
		"lat": "47.0705035",
		"number": "49",
		"street": "Ramschwagweg",
		"city": "Balzers",
		"district": "",
		"postcode": "9496"
	},
	{
		"lon": "9.5104379",
		"lat": "47.0711719",
		"number": "17",
		"street": "Lowal",
		"city": "Balzers",
		"district": "",
		"postcode": "9496"
	},
	{
		"lon": "9.5109018",
		"lat": "47.0712363",
		"number": "30",
		"street": "Ramschwagweg",
		"city": "Balzers",
		"district": "",
		"postcode": "9496"
	},
	{
		"lon": "9.511202",
		"lat": "47.0710276",
		"number": "31",
		"street": "Ramschwagweg",
		"city": "Balzers",
		"district": "",
		"postcode": "9496"
	},
	{
		"lon": "9.5104582",
		"lat": "47.0695868",
		"number": "72",
		"street": "Ramschwagweg",
		"city": "Balzers",
		"district": "",
		"postcode": "9496"
	},
	{
		"lon": "9.5005652",
		"lat": "47.0609663",
		"number": "19",
		"street": "Rietle",
		"city": "Balzers",
		"district": "",
		"postcode": "9496"
	},
	{
		"lon": "9.5047924",
		"lat": "47.0692938",
		"number": "3a",
		"street": "Stadel",
		"city": "Balzers",
		"district": "",
		"postcode": "9496"
	},
	{
		"lon": "9.505104",
		"lat": "47.0695158",
		"number": "8",
		"street": "Stadel",
		"city": "Balzers",
		"district": "",
		"postcode": "9496"
	},
	{
		"lon": "9.5037172",
		"lat": "47.0696163",
		"number": "13",
		"street": "Stadel",
		"city": "Balzers",
		"district": "",
		"postcode": "9496"
	},
	{
		"lon": "9.509072",
		"lat": "47.0704279",
		"number": "19",
		"street": "Heiligwies",
		"city": "Balzers",
		"district": "",
		"postcode": "9496"
	},
	{
		"lon": "9.5063271",
		"lat": "47.0705215",
		"number": "40",
		"street": "Iratell",
		"city": "Balzers",
		"district": "",
		"postcode": "9496"
	},
	{
		"lon": "9.5099106",
		"lat": "47.0701159",
		"number": "31",
		"street": "Lowal",
		"city": "Balzers",
		"district": "",
		"postcode": "9496"
	},
	{
		"lon": "9.5099702",
		"lat": "47.0703339",
		"number": "29",
		"street": "Lowal",
		"city": "Balzers",
		"district": "",
		"postcode": "9496"
	},
	{
		"lon": "9.5093423",
		"lat": "47.0698545",
		"number": "34",
		"street": "Lowal",
		"city": "Balzers",
		"district": "",
		"postcode": "9496"
	},
	{
		"lon": "9.506248",
		"lat": "47.0714244",
		"number": "11",
		"street": "Gagoz",
		"city": "Balzers",
		"district": "",
		"postcode": "9496"
	},
	{
		"lon": "9.5113362",
		"lat": "47.0702268",
		"number": "63",
		"street": "Ramschwagweg",
		"city": "Balzers",
		"district": "",
		"postcode": "9496"
	},
	{
		"lon": "9.5115636",
		"lat": "47.0703533",
		"number": "55",
		"street": "Ramschwagweg",
		"city": "Balzers",
		"district": "",
		"postcode": "9496"
	},
	{
		"lon": "9.5113833",
		"lat": "47.0705287",
		"number": "51",
		"street": "Ramschwagweg",
		"city": "Balzers",
		"district": "",
		"postcode": "9496"
	},
	{
		"lon": "9.5099946",
		"lat": "47.069746",
		"number": "37",
		"street": "Lowal",
		"city": "Balzers",
		"district": "",
		"postcode": "9496"
	},
	{
		"lon": "9.5097827",
		"lat": "47.0695517",
		"number": "39",
		"street": "Lowal",
		"city": "Balzers",
		"district": "",
		"postcode": "9496"
	},
	{
		"lon": "9.6124063",
		"lat": "47.0974665",
		"number": "143",
		"street": "Heitastrasse",
		"city": "Triesenberg",
		"district": "",
		"postcode": "9497"
	},
	{
		"lon": "9.6118571",
		"lat": "47.0974166",
		"number": "142",
		"street": "Heitastrasse",
		"city": "Triesenberg",
		"district": "",
		"postcode": "9497"
	},
	{
		"lon": "9.6118377",
		"lat": "47.0973483",
		"number": "144",
		"street": "Heitastrasse",
		"city": "Triesenberg",
		"district": "",
		"postcode": "9497"
	},
	{
		"lon": "9.6123028",
		"lat": "47.0972209",
		"number": "161",
		"street": "Heitastrasse",
		"city": "Triesenberg",
		"district": "",
		"postcode": "9497"
	},
	{
		"lon": "9.6125863",
		"lat": "47.0969536",
		"number": "201",
		"street": "Heitastrasse",
		"city": "Triesenberg",
		"district": "",
		"postcode": "9497"
	},
	{
		"lon": "9.6121606",
		"lat": "47.0969558",
		"number": "205",
		"street": "Heitastrasse",
		"city": "Triesenberg",
		"district": "",
		"postcode": "9497"
	},
	{
		"lon": "9.6123362",
		"lat": "47.0968802",
		"number": "207",
		"street": "Heitastrasse",
		"city": "Triesenberg",
		"district": "",
		"postcode": "9497"
	},
	{
		"lon": "9.6123319",
		"lat": "47.0967342",
		"number": "209",
		"street": "Heitastrasse",
		"city": "Triesenberg",
		"district": "",
		"postcode": "9497"
	},
	{
		"lon": "9.6119109",
		"lat": "47.096961",
		"number": "200",
		"street": "Heitastrasse",
		"city": "Triesenberg",
		"district": "",
		"postcode": "9497"
	},
	{
		"lon": "9.6118592",
		"lat": "47.0967156",
		"number": "208",
		"street": "Heitastrasse",
		"city": "Triesenberg",
		"district": "",
		"postcode": "9497"
	},
	{
		"lon": "9.6129036",
		"lat": "47.0973366",
		"number": "157",
		"street": "Heitastrasse",
		"city": "Triesenberg",
		"district": "",
		"postcode": "9497"
	},
	{
		"lon": "9.6128139",
		"lat": "47.0971379",
		"number": "165",
		"street": "Heitastrasse",
		"city": "Triesenberg",
		"district": "",
		"postcode": "9497"
	},
	{
		"lon": "9.6129512",
		"lat": "47.0969444",
		"number": "169",
		"street": "Heitastrasse",
		"city": "Triesenberg",
		"district": "",
		"postcode": "9497"
	},
	{
		"lon": "9.6131416",
		"lat": "47.0967602",
		"number": "171",
		"street": "Heitastrasse",
		"city": "Triesenberg",
		"district": "",
		"postcode": "9497"
	},
	{
		"lon": "9.6154898",
		"lat": "47.0973032",
		"number": "115",
		"street": "Kurrstrasse",
		"city": "Triesenberg",
		"district": "",
		"postcode": "9497"
	},
	{
		"lon": "9.6153548",
		"lat": "47.0972346",
		"number": "117",
		"street": "Kurrstrasse",
		"city": "Triesenberg",
		"district": "",
		"postcode": "9497"
	},
	{
		"lon": "9.6149767",
		"lat": "47.0971126",
		"number": "116",
		"street": "Kurrstrasse",
		"city": "Triesenberg",
		"district": "",
		"postcode": "9497"
	},
	{
		"lon": "9.6150125",
		"lat": "47.0969099",
		"number": "120",
		"street": "Kurrstrasse",
		"city": "Triesenberg",
		"district": "",
		"postcode": "9497"
	},
	{
		"lon": "9.6157258",
		"lat": "47.0969848",
		"number": "121",
		"street": "Kurrstrasse",
		"city": "Triesenberg",
		"district": "",
		"postcode": "9497"
	},
	{
		"lon": "9.615831",
		"lat": "47.0967752",
		"number": "123",
		"street": "Kurrstrasse",
		"city": "Triesenberg",
		"district": "",
		"postcode": "9497"
	},
	{
		"lon": "9.6156818",
		"lat": "47.0975484",
		"number": "105",
		"street": "Kurrstrasse",
		"city": "Triesenberg",
		"district": "",
		"postcode": "9497"
	},
	{
		"lon": "9.6151221",
		"lat": "47.0976385",
		"number": "97",
		"street": "Kurrstrasse",
		"city": "Triesenberg",
		"district": "",
		"postcode": "9497"
	},
	{
		"lon": "9.6099996",
		"lat": "47.0991038",
		"number": "44",
		"street": "Heitastrasse",
		"city": "Triesenberg",
		"district": "",
		"postcode": "9497"
	},
	{
		"lon": "9.6102257",
		"lat": "47.1003384",
		"number": "21",
		"street": "Heitastrasse",
		"city": "Triesenberg",
		"district": "",
		"postcode": "9497"
	},
	{
		"lon": "9.6103555",
		"lat": "47.100177",
		"number": "31",
		"street": "Heitastrasse",
		"city": "Triesenberg",
		"district": "",
		"postcode": "9497"
	},
	{
		"lon": "9.6104028",
		"lat": "47.1001229",
		"number": "33",
		"street": "Heitastrasse",
		"city": "Triesenberg",
		"district": "",
		"postcode": "9497"
	},
	{
		"lon": "9.6104695",
		"lat": "47.1000418",
		"number": "35",
		"street": "Heitastrasse",
		"city": "Triesenberg",
		"district": "",
		"postcode": "9497"
	},
	{
		"lon": "9.6104792",
		"lat": "47.1007446",
		"number": "1",
		"street": "Kurrstrasse",
		"city": "Triesenberg",
		"district": "",
		"postcode": "9497"
	},
	{
		"lon": "9.6103992",
		"lat": "47.1011278",
		"number": "47",
		"street": "Im Malbun",
		"city": "Triesenberg",
		"district": "",
		"postcode": "9497"
	},
	{
		"lon": "9.61147",
		"lat": "47.099492",
		"number": "59",
		"street": "Heitastrasse",
		"city": "Triesenberg",
		"district": "",
		"postcode": "9497"
	},
	{
		"lon": "9.6108074",
		"lat": "47.0995096",
		"number": "53",
		"street": "Heitastrasse",
		"city": "Triesenberg",
		"district": "",
		"postcode": "9497"
	},
	{
		"lon": "9.6114672",
		"lat": "47.1007561",
		"number": "7",
		"street": "Kurrstrasse",
		"city": "Triesenberg",
		"district": "",
		"postcode": "9497"
	},
	{
		"lon": "9.6096689",
		"lat": "47.1016451",
		"number": "35",
		"street": "Im Malbun",
		"city": "Triesenberg",
		"district": "",
		"postcode": "9497"
	},
	{
		"lon": "9.6072111",
		"lat": "47.1013059",
		"number": "86",
		"street": "Stubistrasse",
		"city": "Triesenberg",
		"district": "",
		"postcode": "9497"
	},
	{
		"lon": "9.6076242",
		"lat": "47.1012667",
		"number": "80",
		"street": "Stubistrasse",
		"city": "Triesenberg",
		"district": "",
		"postcode": "9497"
	},
	{
		"lon": "9.6094308",
		"lat": "47.1012207",
		"number": "4",
		"street": "Stubistrasse",
		"city": "Triesenberg",
		"district": "",
		"postcode": "9497"
	},
	{
		"lon": "9.608526",
		"lat": "47.102475",
		"number": "17",
		"street": "Im Malbun",
		"city": "Triesenberg",
		"district": "",
		"postcode": "9497"
	},
	{
		"lon": "9.6093615",
		"lat": "47.1015167",
		"number": "34",
		"street": "Im Malbun",
		"city": "Triesenberg",
		"district": "",
		"postcode": "9497"
	},
	{
		"lon": "9.6090142",
		"lat": "47.1018406",
		"number": "28",
		"street": "Im Malbun",
		"city": "Triesenberg",
		"district": "",
		"postcode": "9497"
	},
	{
		"lon": "9.6085594",
		"lat": "47.1019549",
		"number": "24",
		"street": "Im Malbun",
		"city": "Triesenberg",
		"district": "",
		"postcode": "9497"
	},
	{
		"lon": "9.6070493",
		"lat": "47.1014584",
		"number": "100",
		"street": "Stubistrasse",
		"city": "Triesenberg",
		"district": "",
		"postcode": "9497"
	},
	{
		"lon": "9.6099319",
		"lat": "47.101486",
		"number": "41",
		"street": "Im Malbun",
		"city": "Triesenberg",
		"district": "",
		"postcode": "9497"
	},
	{
		"lon": "9.6077893",
		"lat": "47.1018512",
		"number": "94",
		"street": "Stubistrasse",
		"city": "Triesenberg",
		"district": "",
		"postcode": "9497"
	},
	{
		"lon": "9.6078906",
		"lat": "47.1017106",
		"number": "92",
		"street": "Stubistrasse",
		"city": "Triesenberg",
		"district": "",
		"postcode": "9497"
	},
	{
		"lon": "9.607641",
		"lat": "47.1016793",
		"number": "90",
		"street": "Stubistrasse",
		"city": "Triesenberg",
		"district": "",
		"postcode": "9497"
	},
	{
		"lon": "9.6074505",
		"lat": "47.1014884",
		"number": "88",
		"street": "Stubistrasse",
		"city": "Triesenberg",
		"district": "",
		"postcode": "9497"
	},
	{
		"lon": "9.6089877",
		"lat": "47.1013342",
		"number": "8",
		"street": "Stubistrasse",
		"city": "Triesenberg",
		"district": "",
		"postcode": "9497"
	},
	{
		"lon": "9.6100767",
		"lat": "47.1022973",
		"number": "26",
		"street": "Turnastrasse",
		"city": "Triesenberg",
		"district": "",
		"postcode": "9497"
	},
	{
		"lon": "9.6101725",
		"lat": "47.1021863",
		"number": "24",
		"street": "Turnastrasse",
		"city": "Triesenberg",
		"district": "",
		"postcode": "9497"
	},
	{
		"lon": "9.6093621",
		"lat": "47.1027871",
		"number": "40",
		"street": "Turnastrasse",
		"city": "Triesenberg",
		"district": "",
		"postcode": "9497"
	},
	{
		"lon": "9.6092656",
		"lat": "47.1022983",
		"number": "14",
		"street": "Turnastrasse",
		"city": "Triesenberg",
		"district": "",
		"postcode": "9497"
	},
	{
		"lon": "9.6089423",
		"lat": "47.1026381",
		"number": "10",
		"street": "Turnastrasse",
		"city": "Triesenberg",
		"district": "",
		"postcode": "9497"
	},
	{
		"lon": "9.6100452",
		"lat": "47.1024281",
		"number": "28",
		"street": "Turnastrasse",
		"city": "Triesenberg",
		"district": "",
		"postcode": "9497"
	},
	{
		"lon": "9.6099295",
		"lat": "47.1025319",
		"number": "30",
		"street": "Turnastrasse",
		"city": "Triesenberg",
		"district": "",
		"postcode": "9497"
	},
	{
		"lon": "9.6096463",
		"lat": "47.1027808",
		"number": "42",
		"street": "Turnastrasse",
		"city": "Triesenberg",
		"district": "",
		"postcode": "9497"
	},
	{
		"lon": "9.6098244",
		"lat": "47.1026572",
		"number": "44",
		"street": "Turnastrasse",
		"city": "Triesenberg",
		"district": "",
		"postcode": "9497"
	},
	{
		"lon": "9.6101597",
		"lat": "47.1025482",
		"number": "46",
		"street": "Turnastrasse",
		"city": "Triesenberg",
		"district": "",
		"postcode": "9497"
	},
	{
		"lon": "9.6081029",
		"lat": "47.1027501",
		"number": "11",
		"street": "Im Malbun",
		"city": "Triesenberg",
		"district": "",
		"postcode": "9497"
	},
	{
		"lon": "9.607641",
		"lat": "47.1027577",
		"number": "12",
		"street": "Im Malbun",
		"city": "Triesenberg",
		"district": "",
		"postcode": "9497"
	},
	{
		"lon": "9.6073627",
		"lat": "47.1026648",
		"number": "8",
		"street": "Im Malbun",
		"city": "Triesenberg",
		"district": "",
		"postcode": "9497"
	},
	{
		"lon": "9.6073346",
		"lat": "47.102365",
		"number": "10",
		"street": "Im Malbun",
		"city": "Triesenberg",
		"district": "",
		"postcode": "9497"
	},
	{
		"lon": "9.6078387",
		"lat": "47.1024066",
		"number": "16",
		"street": "Im Malbun",
		"city": "Triesenberg",
		"district": "",
		"postcode": "9497"
	},
	{
		"lon": "9.6076493",
		"lat": "47.1021623",
		"number": "18",
		"street": "Im Malbun",
		"city": "Triesenberg",
		"district": "",
		"postcode": "9497"
	},
	{
		"lon": "9.6081881",
		"lat": "47.1022414",
		"number": "20",
		"street": "Im Malbun",
		"city": "Triesenberg",
		"district": "",
		"postcode": "9497"
	},
	{
		"lon": "9.6088716",
		"lat": "47.1023553",
		"number": "21",
		"street": "Im Malbun",
		"city": "Triesenberg",
		"district": "",
		"postcode": "9497"
	},
	{
		"lon": "9.6089717",
		"lat": "47.1020824",
		"number": "23",
		"street": "Im Malbun",
		"city": "Triesenberg",
		"district": "",
		"postcode": "9497"
	},
	{
		"lon": "9.6102392",
		"lat": "47.1018762",
		"number": "37",
		"street": "Im Malbun",
		"city": "Triesenberg",
		"district": "",
		"postcode": "9497"
	},
	{
		"lon": "9.6105269",
		"lat": "47.1014976",
		"number": "51",
		"street": "Im Malbun",
		"city": "Triesenberg",
		"district": "",
		"postcode": "9497"
	},
	{
		"lon": "9.6103562",
		"lat": "47.1023302",
		"number": "48",
		"street": "Turnastrasse",
		"city": "Triesenberg",
		"district": "",
		"postcode": "9497"
	},
	{
		"lon": "9.6203084",
		"lat": "47.1026667",
		"number": "120",
		"street": "Turnastrasse",
		"city": "Triesenberg",
		"district": "",
		"postcode": "9497"
	},
	{
		"lon": "9.6102981",
		"lat": "47.1029775",
		"number": "45",
		"street": "Turnastrasse",
		"city": "Triesenberg",
		"district": "",
		"postcode": "9497"
	},
	{
		"lon": "9.6062646",
		"lat": "47.1048099",
		"number": "64",
		"street": "Malbunstrasse",
		"city": "Triesenberg",
		"district": "",
		"postcode": "9497"
	},
	{
		"lon": "9.5461604",
		"lat": "47.1102266",
		"number": "27",
		"street": "Sütigerwisstrasse",
		"city": "Triesenberg",
		"district": "",
		"postcode": "9497"
	},
	{
		"lon": "9.5445493",
		"lat": "47.1167687",
		"number": "10",
		"street": "Hagstrasse",
		"city": "Triesenberg",
		"district": "",
		"postcode": "9497"
	},
	{
		"lon": "9.544553",
		"lat": "47.1167955",
		"number": "12",
		"street": "Hagstrasse",
		"city": "Triesenberg",
		"district": "",
		"postcode": "9497"
	},
	{
		"lon": "9.5418086",
		"lat": "47.1143631",
		"number": "57",
		"street": "Hegastrasse",
		"city": "Triesenberg",
		"district": "",
		"postcode": "9497"
	},
	{
		"lon": "9.5419362",
		"lat": "47.1143145",
		"number": "30",
		"street": "Im Täscherloch",
		"city": "Triesenberg",
		"district": "",
		"postcode": "9497"
	},
	{
		"lon": "9.541858",
		"lat": "47.1144568",
		"number": "28",
		"street": "Im Täscherloch",
		"city": "Triesenberg",
		"district": "",
		"postcode": "9497"
	},
	{
		"lon": "9.5464615",
		"lat": "47.11671",
		"number": "5",
		"street": "Oberguferstrasse",
		"city": "Triesenberg",
		"district": "",
		"postcode": "9497"
	},
	{
		"lon": "9.5432157",
		"lat": "47.117891",
		"number": "4",
		"street": "Landstrasse",
		"city": "Triesenberg",
		"district": "",
		"postcode": "9497"
	},
	{
		"lon": "9.542523",
		"lat": "47.1175588",
		"number": "29",
		"street": "Hofistrasse",
		"city": "Triesenberg",
		"district": "",
		"postcode": "9497"
	},
	{
		"lon": "9.5424466",
		"lat": "47.117243",
		"number": "36",
		"street": "Hofistrasse",
		"city": "Triesenberg",
		"district": "",
		"postcode": "9497"
	},
	{
		"lon": "9.5428024",
		"lat": "47.1172803",
		"number": "35",
		"street": "Hofistrasse",
		"city": "Triesenberg",
		"district": "",
		"postcode": "9497"
	},
	{
		"lon": "9.5426376",
		"lat": "47.116807",
		"number": "42",
		"street": "Hofistrasse",
		"city": "Triesenberg",
		"district": "",
		"postcode": "9497"
	},
	{
		"lon": "9.542414",
		"lat": "47.1168401",
		"number": "44",
		"street": "Hofistrasse",
		"city": "Triesenberg",
		"district": "",
		"postcode": "9497"
	},
	{
		"lon": "9.5431533",
		"lat": "47.1171829",
		"number": "37",
		"street": "Hofistrasse",
		"city": "Triesenberg",
		"district": "",
		"postcode": "9497"
	},
	{
		"lon": "9.5421688",
		"lat": "47.1164958",
		"number": "1",
		"street": "Litzistrasse",
		"city": "Triesenberg",
		"district": "",
		"postcode": "9497"
	},
	{
		"lon": "9.5438875",
		"lat": "47.1172995",
		"number": "1",
		"street": "Hagstrasse",
		"city": "Triesenberg",
		"district": "",
		"postcode": "9497"
	},
	{
		"lon": "9.5439125",
		"lat": "47.1170217",
		"number": "2",
		"street": "Hagstrasse",
		"city": "Triesenberg",
		"district": "",
		"postcode": "9497"
	},
	{
		"lon": "9.5426801",
		"lat": "47.1178115",
		"number": "10",
		"street": "Beim Kreuz",
		"city": "Triesenberg",
		"district": "",
		"postcode": "9497"
	},
	{
		"lon": "9.5427592",
		"lat": "47.1176443",
		"number": "14",
		"street": "Beim Kreuz",
		"city": "Triesenberg",
		"district": "",
		"postcode": "9497"
	},
	{
		"lon": "9.5438208",
		"lat": "47.116373",
		"number": "20",
		"street": "Landstrasse",
		"city": "Triesenberg",
		"district": "",
		"postcode": "9497"
	},
	{
		"lon": "9.5437277",
		"lat": "47.1165139",
		"number": "18",
		"street": "Landstrasse",
		"city": "Triesenberg",
		"district": "",
		"postcode": "9497"
	},
	{
		"lon": "9.543533",
		"lat": "47.1171221",
		"number": "12",
		"street": "Landstrasse",
		"city": "Triesenberg",
		"district": "",
		"postcode": "9497"
	},
	{
		"lon": "9.5435027",
		"lat": "47.1173324",
		"number": "10",
		"street": "Landstrasse",
		"city": "Triesenberg",
		"district": "",
		"postcode": "9497"
	},
	{
		"lon": "9.5434269",
		"lat": "47.1176108",
		"number": "6",
		"street": "Landstrasse",
		"city": "Triesenberg",
		"district": "",
		"postcode": "9497"
	},
	{
		"lon": "9.5438073",
		"lat": "47.1174849",
		"number": "7",
		"street": "Landstrasse",
		"city": "Triesenberg",
		"district": "",
		"postcode": "9497"
	},
	{
		"lon": "9.5422012",
		"lat": "47.1162794",
		"number": "2",
		"street": "Im Täscherloch",
		"city": "Triesenberg",
		"district": "",
		"postcode": "9497"
	},
	{
		"lon": "9.546112",
		"lat": "47.1174267",
		"number": "2",
		"street": "Bodastrasse",
		"city": "Triesenberg",
		"district": "",
		"postcode": "9497"
	},
	{
		"lon": "9.5461382",
		"lat": "47.1176585",
		"number": "8",
		"street": "Bodastrasse",
		"city": "Triesenberg",
		"district": "",
		"postcode": "9497"
	},
	{
		"lon": "9.5457957",
		"lat": "47.1172292",
		"number": "1",
		"street": "Bodastrasse",
		"city": "Triesenberg",
		"district": "",
		"postcode": "9497"
	},
	{
		"lon": "9.5455168",
		"lat": "47.1176411",
		"number": "35",
		"street": "Sennwisstrasse",
		"city": "Triesenberg",
		"district": "",
		"postcode": "9497"
	},
	{
		"lon": "9.5454579",
		"lat": "47.1172785",
		"number": "36",
		"street": "Sennwisstrasse",
		"city": "Triesenberg",
		"district": "",
		"postcode": "9497"
	},
	{
		"lon": "9.544377",
		"lat": "47.1174119",
		"number": "17",
		"street": "Hagstrasse",
		"city": "Triesenberg",
		"district": "",
		"postcode": "9497"
	},
	{
		"lon": "9.5444952",
		"lat": "47.1175893",
		"number": "19",
		"street": "Hagstrasse",
		"city": "Triesenberg",
		"district": "",
		"postcode": "9497"
	},
	{
		"lon": "9.5446622",
		"lat": "47.1178518",
		"number": "23",
		"street": "Hagstrasse",
		"city": "Triesenberg",
		"district": "",
		"postcode": "9497"
	},
	{
		"lon": "9.5442499",
		"lat": "47.11685",
		"number": "6",
		"street": "Hagstrasse",
		"city": "Triesenberg",
		"district": "",
		"postcode": "9497"
	},
	{
		"lon": "9.5443013",
		"lat": "47.1167763",
		"number": "8",
		"street": "Hagstrasse",
		"city": "Triesenberg",
		"district": "",
		"postcode": "9497"
	},
	{
		"lon": "9.5446625",
		"lat": "47.1170443",
		"number": "14",
		"street": "Hagstrasse",
		"city": "Triesenberg",
		"district": "",
		"postcode": "9497"
	},
	{
		"lon": "9.5445098",
		"lat": "47.1172213",
		"number": "16",
		"street": "Hagstrasse",
		"city": "Triesenberg",
		"district": "",
		"postcode": "9497"
	},
	{
		"lon": "9.5446154",
		"lat": "47.117238",
		"number": "18",
		"street": "Hagstrasse",
		"city": "Triesenberg",
		"district": "",
		"postcode": "9497"
	},
	{
		"lon": "9.5444078",
		"lat": "47.1170209",
		"number": "11",
		"street": "Hagstrasse",
		"city": "Triesenberg",
		"district": "",
		"postcode": "9497"
	},
	{
		"lon": "9.5441102",
		"lat": "47.1172827",
		"number": "3",
		"street": "Hagstrasse",
		"city": "Triesenberg",
		"district": "",
		"postcode": "9497"
	},
	{
		"lon": "9.5440594",
		"lat": "47.1169461",
		"number": "4",
		"street": "Hagstrasse",
		"city": "Triesenberg",
		"district": "",
		"postcode": "9497"
	},
	{
		"lon": "9.5450254",
		"lat": "47.1165134",
		"number": "12",
		"street": "Rütistrasse",
		"city": "Triesenberg",
		"district": "",
		"postcode": "9497"
	},
	{
		"lon": "9.5453847",
		"lat": "47.1164211",
		"number": "13",
		"street": "Rütistrasse",
		"city": "Triesenberg",
		"district": "",
		"postcode": "9497"
	},
	{
		"lon": "9.5451976",
		"lat": "47.1175956",
		"number": "25",
		"street": "Bergstrasse",
		"city": "Triesenberg",
		"district": "",
		"postcode": "9497"
	},
	{
		"lon": "9.5458559",
		"lat": "47.1163926",
		"number": "38",
		"street": "Bergstrasse",
		"city": "Triesenberg",
		"district": "",
		"postcode": "9497"
	},
	{
		"lon": "9.5454928",
		"lat": "47.1166757",
		"number": "34",
		"street": "Bergstrasse",
		"city": "Triesenberg",
		"district": "",
		"postcode": "9497"
	},
	{
		"lon": "9.5456535",
		"lat": "47.116495",
		"number": "36",
		"street": "Bergstrasse",
		"city": "Triesenberg",
		"district": "",
		"postcode": "9497"
	},
	{
		"lon": "9.544002",
		"lat": "47.1166933",
		"number": "17",
		"street": "Landstrasse",
		"city": "Triesenberg",
		"district": "",
		"postcode": "9497"
	},
	{
		"lon": "9.5445033",
		"lat": "47.1164281",
		"number": "6",
		"street": "Rossbodastrasse",
		"city": "Triesenberg",
		"district": "",
		"postcode": "9497"
	},
	{
		"lon": "9.5448271",
		"lat": "47.1164345",
		"number": "7",
		"street": "Rossbodastrasse",
		"city": "Triesenberg",
		"district": "",
		"postcode": "9497"
	},
	{
		"lon": "9.5457154",
		"lat": "47.1162965",
		"number": "15",
		"street": "Rütistrasse",
		"city": "Triesenberg",
		"district": "",
		"postcode": "9497"
	},
	{
		"lon": "9.5450853",
		"lat": "47.1163071",
		"number": "9",
		"street": "Rossbodastrasse",
		"city": "Triesenberg",
		"district": "",
		"postcode": "9497"
	},
	{
		"lon": "9.544234",
		"lat": "47.116296",
		"number": "7",
		"street": "Wangerbergstrasse",
		"city": "Triesenberg",
		"district": "",
		"postcode": "9497"
	},
	{
		"lon": "9.5434396",
		"lat": "47.1080618",
		"number": "68",
		"street": "Chalberrütistrasse",
		"city": "Triesenberg",
		"district": "",
		"postcode": "9497"
	},
	{
		"lon": "9.5462605",
		"lat": "47.1169853",
		"number": "58",
		"street": "Bergstrasse",
		"city": "Triesenberg",
		"district": "",
		"postcode": "9497"
	},
	{
		"lon": "9.5426559",
		"lat": "47.1170137",
		"number": "40",
		"street": "Hofistrasse",
		"city": "Triesenberg",
		"district": "",
		"postcode": "9497"
	},
	{
		"lon": "9.5400103",
		"lat": "47.1162606",
		"number": "9",
		"street": "Leitawisstrasse",
		"city": "Triesenberg",
		"district": "",
		"postcode": "9497"
	},
	{
		"lon": "9.5463267",
		"lat": "47.1168875",
		"number": "60",
		"street": "Bergstrasse",
		"city": "Triesenberg",
		"district": "",
		"postcode": "9497"
	},
	{
		"lon": "9.5473198",
		"lat": "47.11634",
		"number": "70",
		"street": "Bergstrasse",
		"city": "Triesenberg",
		"district": "",
		"postcode": "9497"
	},
	{
		"lon": "9.5468319",
		"lat": "47.1163809",
		"number": "15",
		"street": "Oberguferstrasse",
		"city": "Triesenberg",
		"district": "",
		"postcode": "9497"
	},
	{
		"lon": "9.5466695",
		"lat": "47.1166193",
		"number": "7",
		"street": "Oberguferstrasse",
		"city": "Triesenberg",
		"district": "",
		"postcode": "9497"
	},
	{
		"lon": "9.5472695",
		"lat": "47.1171716",
		"number": "2",
		"street": "Schulstrasse",
		"city": "Triesenberg",
		"district": "",
		"postcode": "9497"
	},
	{
		"lon": "9.5466798",
		"lat": "47.1171855",
		"number": "1",
		"street": "Schulstrasse",
		"city": "Triesenberg",
		"district": "",
		"postcode": "9497"
	},
	{
		"lon": "9.5462669",
		"lat": "47.1174679",
		"number": "4",
		"street": "Bodastrasse",
		"city": "Triesenberg",
		"district": "",
		"postcode": "9497"
	},
	{
		"lon": "9.5465194",
		"lat": "47.1163027",
		"number": "48",
		"street": "Bergstrasse",
		"city": "Triesenberg",
		"district": "",
		"postcode": "9497"
	},
	{
		"lon": "9.5476653",
		"lat": "47.1173693",
		"number": "8",
		"street": "Schulstrasse",
		"city": "Triesenberg",
		"district": "",
		"postcode": "9497"
	},
	{
		"lon": "9.5452375",
		"lat": "47.113621",
		"number": "9",
		"street": "Rüteltistrasse",
		"city": "Triesenberg",
		"district": "",
		"postcode": "9497"
	},
	{
		"lon": "9.5465867",
		"lat": "47.1161398",
		"number": "46",
		"street": "Bergstrasse",
		"city": "Triesenberg",
		"district": "",
		"postcode": "9497"
	},
	{
		"lon": "9.547504",
		"lat": "47.116104",
		"number": "74",
		"street": "Bergstrasse",
		"city": "Triesenberg",
		"district": "",
		"postcode": "9497"
	},
	{
		"lon": "9.5396643",
		"lat": "47.1179785",
		"number": "33",
		"street": "Litzistrasse",
		"city": "Triesenberg",
		"district": "",
		"postcode": "9497"
	},
	{
		"lon": "9.5429798",
		"lat": "47.1139729",
		"number": "39",
		"street": "Im Täscherloch",
		"city": "Triesenberg",
		"district": "",
		"postcode": "9497"
	},
	{
		"lon": "9.5453605",
		"lat": "47.1178764",
		"number": "29",
		"street": "Sennwisstrasse",
		"city": "Triesenberg",
		"district": "",
		"postcode": "9497"
	},
	{
		"lon": "9.5454773",
		"lat": "47.114707",
		"number": "41",
		"street": "Landstrasse",
		"city": "Triesenberg",
		"district": "",
		"postcode": "9497"
	},
	{
		"lon": "9.5423925",
		"lat": "47.1178897",
		"number": "19",
		"street": "Hofistrasse",
		"city": "Triesenberg",
		"district": "",
		"postcode": "9497"
	},
	{
		"lon": "9.5419221",
		"lat": "47.1171207",
		"number": "8",
		"street": "Litzistrasse",
		"city": "Triesenberg",
		"district": "",
		"postcode": "9497"
	},
	{
		"lon": "9.5397828",
		"lat": "47.1178057",
		"number": "31",
		"street": "Litzistrasse",
		"city": "Triesenberg",
		"district": "",
		"postcode": "9497"
	},
	{
		"lon": "9.5398549",
		"lat": "47.1167896",
		"number": "4",
		"street": "Leitawisstrasse",
		"city": "Triesenberg",
		"district": "",
		"postcode": "9497"
	},
	{
		"lon": "9.5393287",
		"lat": "47.1175694",
		"number": "9",
		"street": "Grüschaweg",
		"city": "Triesenberg",
		"district": "",
		"postcode": "9497"
	},
	{
		"lon": "9.5390916",
		"lat": "47.1175337",
		"number": "11",
		"street": "Grüschaweg",
		"city": "Triesenberg",
		"district": "",
		"postcode": "9497"
	},
	{
		"lon": "9.539093",
		"lat": "47.117608",
		"number": "13",
		"street": "Grüschaweg",
		"city": "Triesenberg",
		"district": "",
		"postcode": "9497"
	},
	{
		"lon": "9.5391098",
		"lat": "47.1179499",
		"number": "14",
		"street": "Grüschaweg",
		"city": "Triesenberg",
		"district": "",
		"postcode": "9497"
	},
	{
		"lon": "9.5399346",
		"lat": "47.1170464",
		"number": "6",
		"street": "Hegastrasse",
		"city": "Triesenberg",
		"district": "",
		"postcode": "9497"
	},
	{
		"lon": "9.5399388",
		"lat": "47.1172767",
		"number": "4",
		"street": "Hegastrasse",
		"city": "Triesenberg",
		"district": "",
		"postcode": "9497"
	},
	{
		"lon": "9.5420043",
		"lat": "47.116768",
		"number": "3",
		"street": "Litzistrasse",
		"city": "Triesenberg",
		"district": "",
		"postcode": "9497"
	},
	{
		"lon": "9.5420844",
		"lat": "47.116959",
		"number": "4",
		"street": "Litzistrasse",
		"city": "Triesenberg",
		"district": "",
		"postcode": "9497"
	},
	{
		"lon": "9.5405617",
		"lat": "47.1178548",
		"number": "40",
		"street": "Haldastrasse",
		"city": "Triesenberg",
		"district": "",
		"postcode": "9497"
	},
	{
		"lon": "9.5419362",
		"lat": "47.117831",
		"number": "30",
		"street": "Hofistrasse",
		"city": "Triesenberg",
		"district": "",
		"postcode": "9497"
	},
	{
		"lon": "9.5403695",
		"lat": "47.1172271",
		"number": "23",
		"street": "Litzistrasse",
		"city": "Triesenberg",
		"district": "",
		"postcode": "9497"
	},
	{
		"lon": "9.5408952",
		"lat": "47.117318",
		"number": "20",
		"street": "Litzistrasse",
		"city": "Triesenberg",
		"district": "",
		"postcode": "9497"
	},
	{
		"lon": "9.5405923",
		"lat": "47.1171151",
		"number": "19",
		"street": "Litzistrasse",
		"city": "Triesenberg",
		"district": "",
		"postcode": "9497"
	},
	{
		"lon": "9.5413148",
		"lat": "47.117194",
		"number": "14",
		"street": "Litzistrasse",
		"city": "Triesenberg",
		"district": "",
		"postcode": "9497"
	},
	{
		"lon": "9.541611",
		"lat": "47.1173165",
		"number": "10",
		"street": "Litzistrasse",
		"city": "Triesenberg",
		"district": "",
		"postcode": "9497"
	},
	{
		"lon": "9.5414419",
		"lat": "47.1169955",
		"number": "11",
		"street": "Litzistrasse",
		"city": "Triesenberg",
		"district": "",
		"postcode": "9497"
	},
	{
		"lon": "9.5402598",
		"lat": "47.1171749",
		"number": "21",
		"street": "Litzistrasse",
		"city": "Triesenberg",
		"district": "",
		"postcode": "9497"
	},
	{
		"lon": "9.5401213",
		"lat": "47.1175045",
		"number": "27",
		"street": "Litzistrasse",
		"city": "Triesenberg",
		"district": "",
		"postcode": "9497"
	},
	{
		"lon": "9.5413374",
		"lat": "47.1165456",
		"number": "2",
		"street": "Gärbistrasse",
		"city": "Triesenberg",
		"district": "",
		"postcode": "9497"
	},
	{
		"lon": "9.5418927",
		"lat": "47.11649",
		"number": "9",
		"street": "Gärbistrasse",
		"city": "Triesenberg",
		"district": "",
		"postcode": "9497"
	},
	{
		"lon": "9.5410111",
		"lat": "47.1166776",
		"number": "1",
		"street": "Gärbistrasse",
		"city": "Triesenberg",
		"district": "",
		"postcode": "9497"
	},
	{
		"lon": "9.5401294",
		"lat": "47.1164826",
		"number": "5",
		"street": "Leitawisstrasse",
		"city": "Triesenberg",
		"district": "",
		"postcode": "9497"
	},
	{
		"lon": "9.5402268",
		"lat": "47.1174278",
		"number": "2",
		"street": "Hegastrasse",
		"city": "Triesenberg",
		"district": "",
		"postcode": "9497"
	},
	{
		"lon": "9.5403162",
		"lat": "47.1169484",
		"number": "7",
		"street": "Hegastrasse",
		"city": "Triesenberg",
		"district": "",
		"postcode": "9497"
	},
	{
		"lon": "9.5409058",
		"lat": "47.1167533",
		"number": "15",
		"street": "Hegastrasse",
		"city": "Triesenberg",
		"district": "",
		"postcode": "9497"
	},
	{
		"lon": "9.5403197",
		"lat": "47.1166996",
		"number": "12",
		"street": "Hegastrasse",
		"city": "Triesenberg",
		"district": "",
		"postcode": "9497"
	},
	{
		"lon": "9.5407975",
		"lat": "47.1165344",
		"number": "16",
		"street": "Hegastrasse",
		"city": "Triesenberg",
		"district": "",
		"postcode": "9497"
	},
	{
		"lon": "9.5419346",
		"lat": "47.1162794",
		"number": "11",
		"street": "Gärbistrasse",
		"city": "Triesenberg",
		"district": "",
		"postcode": "9497"
	},
	{
		"lon": "9.5409992",
		"lat": "47.1162898",
		"number": "20",
		"street": "Hegastrasse",
		"city": "Triesenberg",
		"district": "",
		"postcode": "9497"
	},
	{
		"lon": "9.5401552",
		"lat": "47.1162942",
		"number": "7",
		"street": "Leitawisstrasse",
		"city": "Triesenberg",
		"district": "",
		"postcode": "9497"
	},
	{
		"lon": "9.5470763",
		"lat": "47.1144297",
		"number": "37",
		"street": "Rossbodastrasse",
		"city": "Triesenberg",
		"district": "",
		"postcode": "9497"
	},
	{
		"lon": "9.5462471",
		"lat": "47.1144174",
		"number": "37",
		"street": "Wangerbergstrasse",
		"city": "Triesenberg",
		"district": "",
		"postcode": "9497"
	},
	{
		"lon": "9.5475432",
		"lat": "47.1159835",
		"number": "76",
		"street": "Bergstrasse",
		"city": "Triesenberg",
		"district": "",
		"postcode": "9497"
	},
	{
		"lon": "9.5464073",
		"lat": "47.1160263",
		"number": "44",
		"street": "Bergstrasse",
		"city": "Triesenberg",
		"district": "",
		"postcode": "9497"
	},
	{
		"lon": "9.5470656",
		"lat": "47.1159492",
		"number": "23",
		"street": "Oberguferstrasse",
		"city": "Triesenberg",
		"district": "",
		"postcode": "9497"
	},
	{
		"lon": "9.5472542",
		"lat": "47.1154537",
		"number": "29",
		"street": "Oberguferstrasse",
		"city": "Triesenberg",
		"district": "",
		"postcode": "9497"
	},
	{
		"lon": "9.5466958",
		"lat": "47.1159",
		"number": "20",
		"street": "Oberguferstrasse",
		"city": "Triesenberg",
		"district": "",
		"postcode": "9497"
	},
	{
		"lon": "9.5467737",
		"lat": "47.1155483",
		"number": "28",
		"street": "Oberguferstrasse",
		"city": "Triesenberg",
		"district": "",
		"postcode": "9497"
	},
	{
		"lon": "9.5473003",
		"lat": "47.1151757",
		"number": "33",
		"street": "Oberguferstrasse",
		"city": "Triesenberg",
		"district": "",
		"postcode": "9497"
	},
	{
		"lon": "9.5461957",
		"lat": "47.1150205",
		"number": "30",
		"street": "Rossbodastrasse",
		"city": "Triesenberg",
		"district": "",
		"postcode": "9497"
	},
	{
		"lon": "9.5464109",
		"lat": "47.1149116",
		"number": "32",
		"street": "Rossbodastrasse",
		"city": "Triesenberg",
		"district": "",
		"postcode": "9497"
	},
	{
		"lon": "9.546824",
		"lat": "47.1149553",
		"number": "31",
		"street": "Rossbodastrasse",
		"city": "Triesenberg",
		"district": "",
		"postcode": "9497"
	},
	{
		"lon": "9.5467618",
		"lat": "47.1150295",
		"number": "29",
		"street": "Rossbodastrasse",
		"city": "Triesenberg",
		"district": "",
		"postcode": "9497"
	},
	{
		"lon": "9.5465028",
		"lat": "47.1152081",
		"number": "27",
		"street": "Rossbodastrasse",
		"city": "Triesenberg",
		"district": "",
		"postcode": "9497"
	},
	{
		"lon": "9.5461081",
		"lat": "47.1153496",
		"number": "23",
		"street": "Rossbodastrasse",
		"city": "Triesenberg",
		"district": "",
		"postcode": "9497"
	},
	{
		"lon": "9.5470289",
		"lat": "47.1145977",
		"number": "35",
		"street": "Rossbodastrasse",
		"city": "Triesenberg",
		"district": "",
		"postcode": "9497"
	},
	{
		"lon": "9.5460975",
		"lat": "47.1146295",
		"number": "33",
		"street": "Wangerbergstrasse",
		"city": "Triesenberg",
		"district": "",
		"postcode": "9497"
	},
	{
		"lon": "9.5483449",
		"lat": "47.1153712",
		"number": "89",
		"street": "Bergstrasse",
		"city": "Triesenberg",
		"district": "",
		"postcode": "9497"
	},
	{
		"lon": "9.5479981",
		"lat": "47.1151865",
		"number": "86",
		"street": "Bergstrasse",
		"city": "Triesenberg",
		"district": "",
		"postcode": "9497"
	},
	{
		"lon": "9.5479883",
		"lat": "47.1151049",
		"number": "88",
		"street": "Bergstrasse",
		"city": "Triesenberg",
		"district": "",
		"postcode": "9497"
	},
	{
		"lon": "9.5480309",
		"lat": "47.1150141",
		"number": "90",
		"street": "Bergstrasse",
		"city": "Triesenberg",
		"district": "",
		"postcode": "9497"
	},
	{
		"lon": "9.5482115",
		"lat": "47.1150174",
		"number": "94",
		"street": "Bergstrasse",
		"city": "Triesenberg",
		"district": "",
		"postcode": "9497"
	},
	{
		"lon": "9.548388",
		"lat": "47.1148678",
		"number": "96",
		"street": "Bergstrasse",
		"city": "Triesenberg",
		"district": "",
		"postcode": "9497"
	},
	{
		"lon": "9.5437921",
		"lat": "47.115481",
		"number": "14",
		"street": "Guferstrasse",
		"city": "Triesenberg",
		"district": "",
		"postcode": "9497"
	},
	{
		"lon": "9.5435775",
		"lat": "47.1155297",
		"number": "12",
		"street": "Guferstrasse",
		"city": "Triesenberg",
		"district": "",
		"postcode": "9497"
	},
	{
		"lon": "9.5435717",
		"lat": "47.1157208",
		"number": "10",
		"street": "Guferstrasse",
		"city": "Triesenberg",
		"district": "",
		"postcode": "9497"
	},
	{
		"lon": "9.5435403",
		"lat": "47.1159019",
		"number": "6",
		"street": "Guferstrasse",
		"city": "Triesenberg",
		"district": "",
		"postcode": "9497"
	},
	{
		"lon": "9.543752",
		"lat": "47.1161004",
		"number": "4",
		"street": "Guferstrasse",
		"city": "Triesenberg",
		"district": "",
		"postcode": "9497"
	},
	{
		"lon": "9.5420973",
		"lat": "47.1146499",
		"number": "26",
		"street": "Im Täscherloch",
		"city": "Triesenberg",
		"district": "",
		"postcode": "9497"
	},
	{
		"lon": "9.542366",
		"lat": "47.1147117",
		"number": "25",
		"street": "Im Täscherloch",
		"city": "Triesenberg",
		"district": "",
		"postcode": "9497"
	},
	{
		"lon": "9.5425308",
		"lat": "47.1145582",
		"number": "27",
		"street": "Im Täscherloch",
		"city": "Triesenberg",
		"district": "",
		"postcode": "9497"
	},
	{
		"lon": "9.5422812",
		"lat": "47.1154498",
		"number": "13",
		"street": "Im Täscherloch",
		"city": "Triesenberg",
		"district": "",
		"postcode": "9497"
	},
	{
		"lon": "9.5422329",
		"lat": "47.1150692",
		"number": "17",
		"street": "Im Täscherloch",
		"city": "Triesenberg",
		"district": "",
		"postcode": "9497"
	},
	{
		"lon": "9.5423023",
		"lat": "47.1147824",
		"number": "23",
		"street": "Im Täscherloch",
		"city": "Triesenberg",
		"district": "",
		"postcode": "9497"
	},
	{
		"lon": "9.5433817",
		"lat": "47.1146402",
		"number": "51",
		"street": "Täscherlochstrasse",
		"city": "Triesenberg",
		"district": "",
		"postcode": "9497"
	},
	{
		"lon": "9.5432315",
		"lat": "47.1153936",
		"number": "26",
		"street": "Täscherlochstrasse",
		"city": "Triesenberg",
		"district": "",
		"postcode": "9497"
	},
	{
		"lon": "9.5429338",
		"lat": "47.1156993",
		"number": "30",
		"street": "Täscherlochstrasse",
		"city": "Triesenberg",
		"district": "",
		"postcode": "9497"
	},
	{
		"lon": "9.5432057",
		"lat": "47.1148359",
		"number": "19",
		"street": "Täscherlochstrasse",
		"city": "Triesenberg",
		"district": "",
		"postcode": "9497"
	},
	{
		"lon": "9.5429936",
		"lat": "47.1147527",
		"number": "43",
		"street": "Täscherlochstrasse",
		"city": "Triesenberg",
		"district": "",
		"postcode": "9497"
	},
	{
		"lon": "9.5425645",
		"lat": "47.1152376",
		"number": "36",
		"street": "Täscherlochstrasse",
		"city": "Triesenberg",
		"district": "",
		"postcode": "9497"
	},
	{
		"lon": "9.5425482",
		"lat": "47.115342",
		"number": "34",
		"street": "Täscherlochstrasse",
		"city": "Triesenberg",
		"district": "",
		"postcode": "9497"
	},
	{
		"lon": "9.5442169",
		"lat": "47.1154058",
		"number": "20",
		"street": "Guferstrasse",
		"city": "Triesenberg",
		"district": "",
		"postcode": "9497"
	},
	{
		"lon": "9.544015",
		"lat": "47.1155538",
		"number": "15",
		"street": "Guferstrasse",
		"city": "Triesenberg",
		"district": "",
		"postcode": "9497"
	},
	{
		"lon": "9.5439819",
		"lat": "47.1160628",
		"number": "2",
		"street": "Guferstrasse",
		"city": "Triesenberg",
		"district": "",
		"postcode": "9497"
	},
	{
		"lon": "9.5460919",
		"lat": "47.1160016",
		"number": "19",
		"street": "Rütistrasse",
		"city": "Triesenberg",
		"district": "",
		"postcode": "9497"
	},
	{
		"lon": "9.5450446",
		"lat": "47.1145442",
		"number": "1",
		"street": "Täscherlochstrasse",
		"city": "Triesenberg",
		"district": "",
		"postcode": "9497"
	},
	{
		"lon": "9.5442448",
		"lat": "47.1145539",
		"number": "59",
		"street": "Täscherlochstrasse",
		"city": "Triesenberg",
		"district": "",
		"postcode": "9497"
	},
	{
		"lon": "9.5445637",
		"lat": "47.1145029",
		"number": "61",
		"street": "Täscherlochstrasse",
		"city": "Triesenberg",
		"district": "",
		"postcode": "9497"
	},
	{
		"lon": "9.5445103",
		"lat": "47.1148036",
		"number": "5",
		"street": "Täscherlochstrasse",
		"city": "Triesenberg",
		"district": "",
		"postcode": "9497"
	},
	{
		"lon": "9.5448787",
		"lat": "47.1148786",
		"number": "4",
		"street": "Täscherlochstrasse",
		"city": "Triesenberg",
		"district": "",
		"postcode": "9497"
	},
	{
		"lon": "9.5444143",
		"lat": "47.1150791",
		"number": "8",
		"street": "Täscherlochstrasse",
		"city": "Triesenberg",
		"district": "",
		"postcode": "9497"
	},
	{
		"lon": "9.5450626",
		"lat": "47.1159827",
		"number": "12",
		"street": "Rossbodastrasse",
		"city": "Triesenberg",
		"district": "",
		"postcode": "9497"
	},
	{
		"lon": "9.5454243",
		"lat": "47.1158387",
		"number": "16",
		"street": "Rossbodastrasse",
		"city": "Triesenberg",
		"district": "",
		"postcode": "9497"
	},
	{
		"lon": "9.5454572",
		"lat": "47.11569",
		"number": "20",
		"street": "Rossbodastrasse",
		"city": "Triesenberg",
		"district": "",
		"postcode": "9497"
	},
	{
		"lon": "9.5453346",
		"lat": "47.1156482",
		"number": "18",
		"street": "Rossbodastrasse",
		"city": "Triesenberg",
		"district": "",
		"postcode": "9497"
	},
	{
		"lon": "9.5455274",
		"lat": "47.1155027",
		"number": "22",
		"street": "Rossbodastrasse",
		"city": "Triesenberg",
		"district": "",
		"postcode": "9497"
	},
	{
		"lon": "9.545669",
		"lat": "47.1158652",
		"number": "15",
		"street": "Rossbodastrasse",
		"city": "Triesenberg",
		"district": "",
		"postcode": "9497"
	},
	{
		"lon": "9.5453757",
		"lat": "47.1160092",
		"number": "13",
		"street": "Rossbodastrasse",
		"city": "Triesenberg",
		"district": "",
		"postcode": "9497"
	},
	{
		"lon": "9.5452188",
		"lat": "47.1161336",
		"number": "11",
		"street": "Rossbodastrasse",
		"city": "Triesenberg",
		"district": "",
		"postcode": "9497"
	},
	{
		"lon": "9.5460375",
		"lat": "47.1148546",
		"number": "25",
		"street": "Wangerbergstrasse",
		"city": "Triesenberg",
		"district": "",
		"postcode": "9497"
	},
	{
		"lon": "9.544849",
		"lat": "47.1158278",
		"number": "15",
		"street": "Wangerbergstrasse",
		"city": "Triesenberg",
		"district": "",
		"postcode": "9497"
	},
	{
		"lon": "9.5455155",
		"lat": "47.1152651",
		"number": "23",
		"street": "Wangerbergstrasse",
		"city": "Triesenberg",
		"district": "",
		"postcode": "9497"
	},
	{
		"lon": "9.5444826",
		"lat": "47.1158707",
		"number": "10",
		"street": "Wangerbergstrasse",
		"city": "Triesenberg",
		"district": "",
		"postcode": "9497"
	},
	{
		"lon": "9.5451093",
		"lat": "47.1153387",
		"number": "20",
		"street": "Wangerbergstrasse",
		"city": "Triesenberg",
		"district": "",
		"postcode": "9497"
	},
	{
		"lon": "9.5453878",
		"lat": "47.1149931",
		"number": "24",
		"street": "Wangerbergstrasse",
		"city": "Triesenberg",
		"district": "",
		"postcode": "9497"
	},
	{
		"lon": "9.5445177",
		"lat": "47.1160778",
		"number": "11",
		"street": "Wangerbergstrasse",
		"city": "Triesenberg",
		"district": "",
		"postcode": "9497"
	},
	{
		"lon": "9.5446197",
		"lat": "47.1155968",
		"number": "27",
		"street": "Landstrasse",
		"city": "Triesenberg",
		"district": "",
		"postcode": "9497"
	},
	{
		"lon": "9.5447875",
		"lat": "47.1154423",
		"number": "29",
		"street": "Landstrasse",
		"city": "Triesenberg",
		"district": "",
		"postcode": "9497"
	},
	{
		"lon": "9.544973",
		"lat": "47.1151767",
		"number": "33",
		"street": "Landstrasse",
		"city": "Triesenberg",
		"district": "",
		"postcode": "9497"
	},
	{
		"lon": "9.5452276",
		"lat": "47.114945",
		"number": "37",
		"street": "Landstrasse",
		"city": "Triesenberg",
		"district": "",
		"postcode": "9497"
	},
	{
		"lon": "9.5436001",
		"lat": "47.114586",
		"number": "55a",
		"street": "Täscherlochstrasse",
		"city": "Triesenberg",
		"district": "",
		"postcode": "9497"
	},
	{
		"lon": "9.5436847",
		"lat": "47.1146652",
		"number": "55b",
		"street": "Täscherlochstrasse",
		"city": "Triesenberg",
		"district": "",
		"postcode": "9497"
	},
	{
		"lon": "9.5392659",
		"lat": "47.1157315",
		"number": "24",
		"street": "Leitawisstrasse",
		"city": "Triesenberg",
		"district": "",
		"postcode": "9497"
	},
	{
		"lon": "9.5390615",
		"lat": "47.1158256",
		"number": "22",
		"street": "Leitawisstrasse",
		"city": "Triesenberg",
		"district": "",
		"postcode": "9497"
	},
	{
		"lon": "9.5388783",
		"lat": "47.1159507",
		"number": "20",
		"street": "Leitawisstrasse",
		"city": "Triesenberg",
		"district": "",
		"postcode": "9497"
	},
	{
		"lon": "9.5394214",
		"lat": "47.1160192",
		"number": "14",
		"street": "Leitawisstrasse",
		"city": "Triesenberg",
		"district": "",
		"postcode": "9497"
	},
	{
		"lon": "9.5390204",
		"lat": "47.1151964",
		"number": "31",
		"street": "Leitawisstrasse",
		"city": "Triesenberg",
		"district": "",
		"postcode": "9497"
	},
	{
		"lon": "9.5393926",
		"lat": "47.1154773",
		"number": "27",
		"street": "Leitawisstrasse",
		"city": "Triesenberg",
		"district": "",
		"postcode": "9497"
	},
	{
		"lon": "9.5396828",
		"lat": "47.1158308",
		"number": "15",
		"street": "Leitawisstrasse",
		"city": "Triesenberg",
		"district": "",
		"postcode": "9497"
	},
	{
		"lon": "9.5398603",
		"lat": "47.1160664",
		"number": "11",
		"street": "Leitawisstrasse",
		"city": "Triesenberg",
		"district": "",
		"postcode": "9497"
	},
	{
		"lon": "9.5386574",
		"lat": "47.115812",
		"number": "30",
		"street": "Leitawisstrasse",
		"city": "Triesenberg",
		"district": "",
		"postcode": "9497"
	},
	{
		"lon": "9.5381625",
		"lat": "47.1154968",
		"number": "38",
		"street": "Leitawisstrasse",
		"city": "Triesenberg",
		"district": "",
		"postcode": "9497"
	},
	{
		"lon": "9.5393684",
		"lat": "47.1149096",
		"number": "5",
		"street": "Sportplatzstrasse",
		"city": "Triesenberg",
		"district": "",
		"postcode": "9497"
	},
	{
		"lon": "9.5419473",
		"lat": "47.1156972",
		"number": "12",
		"street": "Im Täscherloch",
		"city": "Triesenberg",
		"district": "",
		"postcode": "9497"
	},
	{
		"lon": "9.5419256",
		"lat": "47.1156374",
		"number": "14",
		"street": "Im Täscherloch",
		"city": "Triesenberg",
		"district": "",
		"postcode": "9497"
	},
	{
		"lon": "9.5419348",
		"lat": "47.1152803",
		"number": "18",
		"street": "Im Täscherloch",
		"city": "Triesenberg",
		"district": "",
		"postcode": "9497"
	},
	{
		"lon": "9.5420047",
		"lat": "47.1148373",
		"number": "22",
		"street": "Im Täscherloch",
		"city": "Triesenberg",
		"district": "",
		"postcode": "9497"
	},
	{
		"lon": "9.5412786",
		"lat": "47.116116",
		"number": "26",
		"street": "Hegastrasse",
		"city": "Triesenberg",
		"district": "",
		"postcode": "9497"
	},
	{
		"lon": "9.5414867",
		"lat": "47.1157254",
		"number": "29",
		"street": "Hegastrasse",
		"city": "Triesenberg",
		"district": "",
		"postcode": "9497"
	},
	{
		"lon": "9.5415916",
		"lat": "47.115456",
		"number": "35",
		"street": "Hegastrasse",
		"city": "Triesenberg",
		"district": "",
		"postcode": "9497"
	},
	{
		"lon": "9.5417316",
		"lat": "47.115701",
		"number": "37",
		"street": "Hegastrasse",
		"city": "Triesenberg",
		"district": "",
		"postcode": "9497"
	},
	{
		"lon": "9.5417955",
		"lat": "47.1151232",
		"number": "43",
		"street": "Hegastrasse",
		"city": "Triesenberg",
		"district": "",
		"postcode": "9497"
	},
	{
		"lon": "9.5415004",
		"lat": "47.1148964",
		"number": "47",
		"street": "Hegastrasse",
		"city": "Triesenberg",
		"district": "",
		"postcode": "9497"
	},
	{
		"lon": "9.541609",
		"lat": "47.1148166",
		"number": "49",
		"street": "Hegastrasse",
		"city": "Triesenberg",
		"district": "",
		"postcode": "9497"
	},
	{
		"lon": "9.5411142",
		"lat": "47.1156041",
		"number": "32",
		"street": "Hegastrasse",
		"city": "Triesenberg",
		"district": "",
		"postcode": "9497"
	},
	{
		"lon": "9.5409039",
		"lat": "47.1154778",
		"number": "36",
		"street": "Hegastrasse",
		"city": "Triesenberg",
		"district": "",
		"postcode": "9497"
	},
	{
		"lon": "9.541558",
		"lat": "47.1146722",
		"number": "51",
		"street": "Hegastrasse",
		"city": "Triesenberg",
		"district": "",
		"postcode": "9497"
	},
	{
		"lon": "9.5406074",
		"lat": "47.1147462",
		"number": "2",
		"street": "Sportplatzstrasse",
		"city": "Triesenberg",
		"district": "",
		"postcode": "9497"
	},
	{
		"lon": "9.5419129",
		"lat": "47.1154781",
		"number": "16",
		"street": "Im Täscherloch",
		"city": "Triesenberg",
		"district": "",
		"postcode": "9497"
	},
	{
		"lon": "9.5375717",
		"lat": "47.115371",
		"number": "50",
		"street": "Leitawisstrasse",
		"city": "Triesenberg",
		"district": "",
		"postcode": "9497"
	},
	{
		"lon": "9.5375477",
		"lat": "47.1154351",
		"number": "48",
		"street": "Leitawisstrasse",
		"city": "Triesenberg",
		"district": "",
		"postcode": "9497"
	},
	{
		"lon": "9.5374566",
		"lat": "47.1155639",
		"number": "46",
		"street": "Leitawisstrasse",
		"city": "Triesenberg",
		"district": "",
		"postcode": "9497"
	},
	{
		"lon": "9.5483458",
		"lat": "47.1130971",
		"number": "58",
		"street": "Steineststrasse",
		"city": "Triesenberg",
		"district": "",
		"postcode": "9497"
	},
	{
		"lon": "9.5475312",
		"lat": "47.1136095",
		"number": "69",
		"street": "Steineststrasse",
		"city": "Triesenberg",
		"district": "",
		"postcode": "9497"
	},
	{
		"lon": "9.5470431",
		"lat": "47.1133705",
		"number": "33",
		"street": "Matteltiwaldstrasse",
		"city": "Triesenberg",
		"district": "",
		"postcode": "9497"
	},
	{
		"lon": "9.5462775",
		"lat": "47.1136956",
		"number": "52",
		"street": "Rossbodastrasse",
		"city": "Triesenberg",
		"district": "",
		"postcode": "9497"
	},
	{
		"lon": "9.547921",
		"lat": "47.1139591",
		"number": "72",
		"street": "Steineststrasse",
		"city": "Triesenberg",
		"district": "",
		"postcode": "9497"
	},
	{
		"lon": "9.5483123",
		"lat": "47.1134997",
		"number": "11",
		"street": "Im Steinest",
		"city": "Triesenberg",
		"district": "",
		"postcode": "9497"
	},
	{
		"lon": "9.5440875",
		"lat": "47.11347",
		"number": "60",
		"street": "Landstrasse",
		"city": "Triesenberg",
		"district": "",
		"postcode": "9497"
	},
	{
		"lon": "9.5434365",
		"lat": "47.1139054",
		"number": "76a",
		"street": "Täscherlochstrasse",
		"city": "Triesenberg",
		"district": "",
		"postcode": "9497"
	},
	{
		"lon": "9.5433816",
		"lat": "47.1139504",
		"number": "76b",
		"street": "Täscherlochstrasse",
		"city": "Triesenberg",
		"district": "",
		"postcode": "9497"
	},
	{
		"lon": "9.5431721",
		"lat": "47.1137791",
		"number": "47",
		"street": "Im Täscherloch",
		"city": "Triesenberg",
		"district": "",
		"postcode": "9497"
	},
	{
		"lon": "9.5432901",
		"lat": "47.1137789",
		"number": "49",
		"street": "Im Täscherloch",
		"city": "Triesenberg",
		"district": "",
		"postcode": "9497"
	},
	{
		"lon": "9.5421756",
		"lat": "47.1144284",
		"number": "32",
		"street": "Im Täscherloch",
		"city": "Triesenberg",
		"district": "",
		"postcode": "9497"
	},
	{
		"lon": "9.5421392",
		"lat": "47.1139752",
		"number": "38",
		"street": "Im Täscherloch",
		"city": "Triesenberg",
		"district": "",
		"postcode": "9497"
	},
	{
		"lon": "9.5423675",
		"lat": "47.1140165",
		"number": "40",
		"street": "Im Täscherloch",
		"city": "Triesenberg",
		"district": "",
		"postcode": "9497"
	},
	{
		"lon": "9.542172",
		"lat": "47.1141684",
		"number": "36",
		"street": "Im Täscherloch",
		"city": "Triesenberg",
		"district": "",
		"postcode": "9497"
	},
	{
		"lon": "9.5425997",
		"lat": "47.113719",
		"number": "44",
		"street": "Im Täscherloch",
		"city": "Triesenberg",
		"district": "",
		"postcode": "9497"
	},
	{
		"lon": "9.5428409",
		"lat": "47.1134983",
		"number": "80",
		"street": "Täscherlochstrasse",
		"city": "Triesenberg",
		"district": "",
		"postcode": "9497"
	},
	{
		"lon": "9.5433069",
		"lat": "47.1141631",
		"number": "54",
		"street": "Täscherlochstrasse",
		"city": "Triesenberg",
		"district": "",
		"postcode": "9497"
	},
	{
		"lon": "9.5435452",
		"lat": "47.114016",
		"number": "74",
		"street": "Täscherlochstrasse",
		"city": "Triesenberg",
		"district": "",
		"postcode": "9497"
	},
	{
		"lon": "9.5436156",
		"lat": "47.1140597",
		"number": "72",
		"street": "Täscherlochstrasse",
		"city": "Triesenberg",
		"district": "",
		"postcode": "9497"
	},
	{
		"lon": "9.543581",
		"lat": "47.1142845",
		"number": "56",
		"street": "Täscherlochstrasse",
		"city": "Triesenberg",
		"district": "",
		"postcode": "9497"
	},
	{
		"lon": "9.5429065",
		"lat": "47.1143717",
		"number": "50",
		"street": "Täscherlochstrasse",
		"city": "Triesenberg",
		"district": "",
		"postcode": "9497"
	},
	{
		"lon": "9.5434084",
		"lat": "47.1139278",
		"number": "76",
		"street": "Täscherlochstrasse",
		"city": "Triesenberg",
		"district": "",
		"postcode": "9497"
	},
	{
		"lon": "9.5423479",
		"lat": "47.1133224",
		"number": "88",
		"street": "Täscherlochstrasse",
		"city": "Triesenberg",
		"district": "",
		"postcode": "9497"
	},
	{
		"lon": "9.5427444",
		"lat": "47.1135632",
		"number": "82",
		"street": "Täscherlochstrasse",
		"city": "Triesenberg",
		"district": "",
		"postcode": "9497"
	},
	{
		"lon": "9.5426534",
		"lat": "47.1131778",
		"number": "85",
		"street": "Täscherlochstrasse",
		"city": "Triesenberg",
		"district": "",
		"postcode": "9497"
	},
	{
		"lon": "9.5420646",
		"lat": "47.1137214",
		"number": "67",
		"street": "Hegastrasse",
		"city": "Triesenberg",
		"district": "",
		"postcode": "9497"
	},
	{
		"lon": "9.5422104",
		"lat": "47.1133632",
		"number": "73",
		"street": "Hegastrasse",
		"city": "Triesenberg",
		"district": "",
		"postcode": "9497"
	},
	{
		"lon": "9.5421813",
		"lat": "47.1135507",
		"number": "69",
		"street": "Hegastrasse",
		"city": "Triesenberg",
		"district": "",
		"postcode": "9497"
	},
	{
		"lon": "9.5437165",
		"lat": "47.1131453",
		"number": "6",
		"street": "Neudorfstrasse",
		"city": "Triesenberg",
		"district": "",
		"postcode": "9497"
	},
	{
		"lon": "9.5427",
		"lat": "47.1128292",
		"number": "102",
		"street": "Landstrasse",
		"city": "Triesenberg",
		"district": "",
		"postcode": "9497"
	},
	{
		"lon": "9.5432119",
		"lat": "47.1128337",
		"number": "98",
		"street": "Landstrasse",
		"city": "Triesenberg",
		"district": "",
		"postcode": "9497"
	},
	{
		"lon": "9.5432364",
		"lat": "47.1130417",
		"number": "9",
		"street": "Neudorfstrasse",
		"city": "Triesenberg",
		"district": "",
		"postcode": "9497"
	},
	{
		"lon": "9.5428634",
		"lat": "47.1129284",
		"number": "77",
		"street": "Hegastrasse",
		"city": "Triesenberg",
		"district": "",
		"postcode": "9497"
	},
	{
		"lon": "9.543838",
		"lat": "47.1143218",
		"number": "58",
		"street": "Täscherlochstrasse",
		"city": "Triesenberg",
		"district": "",
		"postcode": "9497"
	},
	{
		"lon": "9.5456222",
		"lat": "47.1140782",
		"number": "3",
		"street": "Rüteltistrasse",
		"city": "Triesenberg",
		"district": "",
		"postcode": "9497"
	},
	{
		"lon": "9.5456509",
		"lat": "47.1141603",
		"number": "1",
		"street": "Rüteltistrasse",
		"city": "Triesenberg",
		"district": "",
		"postcode": "9497"
	},
	{
		"lon": "9.545166",
		"lat": "47.1131813",
		"number": "13",
		"street": "Rüteltistrasse",
		"city": "Triesenberg",
		"district": "",
		"postcode": "9497"
	},
	{
		"lon": "9.5451628",
		"lat": "47.1131076",
		"number": "15",
		"street": "Rüteltistrasse",
		"city": "Triesenberg",
		"district": "",
		"postcode": "9497"
	},
	{
		"lon": "9.5448456",
		"lat": "47.1132547",
		"number": "12",
		"street": "Rüteltistrasse",
		"city": "Triesenberg",
		"district": "",
		"postcode": "9497"
	},
	{
		"lon": "9.5448514",
		"lat": "47.113437",
		"number": "10",
		"street": "Rüteltistrasse",
		"city": "Triesenberg",
		"district": "",
		"postcode": "9497"
	},
	{
		"lon": "9.5439399",
		"lat": "47.1132582",
		"number": "4",
		"street": "Neudorfstrasse",
		"city": "Triesenberg",
		"district": "",
		"postcode": "9497"
	},
	{
		"lon": "9.5454641",
		"lat": "47.112932",
		"number": "56",
		"street": "Wangerbergstrasse",
		"city": "Triesenberg",
		"district": "",
		"postcode": "9497"
	},
	{
		"lon": "9.5441654",
		"lat": "47.1127952",
		"number": "68",
		"street": "Landstrasse",
		"city": "Triesenberg",
		"district": "",
		"postcode": "9497"
	},
	{
		"lon": "9.5444345",
		"lat": "47.1129306",
		"number": "65",
		"street": "Landstrasse",
		"city": "Triesenberg",
		"district": "",
		"postcode": "9497"
	},
	{
		"lon": "9.5454816",
		"lat": "47.1134551",
		"number": "50",
		"street": "Wangerbergstrasse",
		"city": "Triesenberg",
		"district": "",
		"postcode": "9497"
	},
	{
		"lon": "9.5454744",
		"lat": "47.1131777",
		"number": "54",
		"street": "Wangerbergstrasse",
		"city": "Triesenberg",
		"district": "",
		"postcode": "9497"
	},
	{
		"lon": "9.5458442",
		"lat": "47.1135202",
		"number": "47",
		"street": "Wangerbergstrasse",
		"city": "Triesenberg",
		"district": "",
		"postcode": "9497"
	},
	{
		"lon": "9.545848",
		"lat": "47.1137125",
		"number": "45",
		"street": "Wangerbergstrasse",
		"city": "Triesenberg",
		"district": "",
		"postcode": "9497"
	},
	{
		"lon": "9.5441277",
		"lat": "47.1130902",
		"number": "64",
		"street": "Landstrasse",
		"city": "Triesenberg",
		"district": "",
		"postcode": "9497"
	},
	{
		"lon": "9.5444553",
		"lat": "47.1137842",
		"number": "52",
		"street": "Landstrasse",
		"city": "Triesenberg",
		"district": "",
		"postcode": "9497"
	},
	{
		"lon": "9.5446581",
		"lat": "47.1139191",
		"number": "50",
		"street": "Landstrasse",
		"city": "Triesenberg",
		"district": "",
		"postcode": "9497"
	},
	{
		"lon": "9.5444566",
		"lat": "47.1131483",
		"number": "63",
		"street": "Landstrasse",
		"city": "Triesenberg",
		"district": "",
		"postcode": "9497"
	},
	{
		"lon": "9.5450795",
		"lat": "47.1138224",
		"number": "51",
		"street": "Landstrasse",
		"city": "Triesenberg",
		"district": "",
		"postcode": "9497"
	},
	{
		"lon": "9.545631",
		"lat": "47.1143974",
		"number": "43",
		"street": "Landstrasse",
		"city": "Triesenberg",
		"district": "",
		"postcode": "9497"
	},
	{
		"lon": "9.5438426",
		"lat": "47.1129195",
		"number": "5",
		"street": "Neudorfstrasse",
		"city": "Triesenberg",
		"district": "",
		"postcode": "9497"
	},
	{
		"lon": "9.5418844",
		"lat": "47.1139114",
		"number": "63",
		"street": "Hegastrasse",
		"city": "Triesenberg",
		"district": "",
		"postcode": "9497"
	},
	{
		"lon": "9.5416923",
		"lat": "47.1140689",
		"number": "61",
		"street": "Hegastrasse",
		"city": "Triesenberg",
		"district": "",
		"postcode": "9497"
	},
	{
		"lon": "9.5410682",
		"lat": "47.114211",
		"number": "58",
		"street": "Hegastrasse",
		"city": "Triesenberg",
		"district": "",
		"postcode": "9497"
	},
	{
		"lon": "9.5452472",
		"lat": "47.1118334",
		"number": "33",
		"street": "Rüteltistrasse",
		"city": "Triesenberg",
		"district": "",
		"postcode": "9497"
	},
	{
		"lon": "9.5438442",
		"lat": "47.1125023",
		"number": "90",
		"street": "Landstrasse",
		"city": "Triesenberg",
		"district": "",
		"postcode": "9497"
	},
	{
		"lon": "9.5454675",
		"lat": "47.1123983",
		"number": "64",
		"street": "Wangerbergstrasse",
		"city": "Triesenberg",
		"district": "",
		"postcode": "9497"
	},
	{
		"lon": "9.5453609",
		"lat": "47.1123952",
		"number": "62",
		"street": "Wangerbergstrasse",
		"city": "Triesenberg",
		"district": "",
		"postcode": "9497"
	},
	{
		"lon": "9.5436762",
		"lat": "47.1127162",
		"number": "92",
		"street": "Landstrasse",
		"city": "Triesenberg",
		"district": "",
		"postcode": "9497"
	},
	{
		"lon": "9.5415182",
		"lat": "47.116725",
		"number": "6",
		"street": "Gärbistrasse",
		"city": "Triesenberg",
		"district": "",
		"postcode": "9497"
	},
	{
		"lon": "9.5454592",
		"lat": "47.1126662",
		"number": "60",
		"street": "Wangerbergstrasse",
		"city": "Triesenberg",
		"district": "",
		"postcode": "9497"
	},
	{
		"lon": "9.5453496",
		"lat": "47.1126649",
		"number": "58",
		"street": "Wangerbergstrasse",
		"city": "Triesenberg",
		"district": "",
		"postcode": "9497"
	},
	{
		"lon": "9.5439224",
		"lat": "47.1112587",
		"number": "4",
		"street": "Sütigerwisstrasse",
		"city": "Triesenberg",
		"district": "",
		"postcode": "9497"
	},
	{
		"lon": "9.5442343",
		"lat": "47.1119278",
		"number": "78",
		"street": "Landstrasse",
		"city": "Triesenberg",
		"district": "",
		"postcode": "9497"
	},
	{
		"lon": "9.5442843",
		"lat": "47.1117515",
		"number": "80",
		"street": "Landstrasse",
		"city": "Triesenberg",
		"district": "",
		"postcode": "9497"
	},
	{
		"lon": "9.5449794",
		"lat": "47.1116821",
		"number": "77",
		"street": "Landstrasse",
		"city": "Triesenberg",
		"district": "",
		"postcode": "9497"
	},
	{
		"lon": "9.5448215",
		"lat": "47.1118985",
		"number": "75",
		"street": "Landstrasse",
		"city": "Triesenberg",
		"district": "",
		"postcode": "9497"
	},
	{
		"lon": "9.5447162",
		"lat": "47.112148",
		"number": "73",
		"street": "Landstrasse",
		"city": "Triesenberg",
		"district": "",
		"postcode": "9497"
	},
	{
		"lon": "9.5454652",
		"lat": "47.1118583",
		"number": "70",
		"street": "Wangerbergstrasse",
		"city": "Triesenberg",
		"district": "",
		"postcode": "9497"
	},
	{
		"lon": "9.5429504",
		"lat": "47.1153436",
		"number": "20",
		"street": "Täscherlochstrasse",
		"city": "Triesenberg",
		"district": "",
		"postcode": "9497"
	},
	{
		"lon": "9.545356",
		"lat": "47.1118455",
		"number": "31",
		"street": "Rüteltistrasse",
		"city": "Triesenberg",
		"district": "",
		"postcode": "9497"
	},
	{
		"lon": "9.5455729",
		"lat": "47.1118696",
		"number": "72",
		"street": "Wangerbergstrasse",
		"city": "Triesenberg",
		"district": "",
		"postcode": "9497"
	},
	{
		"lon": "9.5459325",
		"lat": "47.1093909",
		"number": "32",
		"street": "Sütigerwisstrasse",
		"city": "Triesenberg",
		"district": "",
		"postcode": "9497"
	},
	{
		"lon": "9.5460465",
		"lat": "47.1096219",
		"number": "30",
		"street": "Sütigerwisstrasse",
		"city": "Triesenberg",
		"district": "",
		"postcode": "9497"
	},
	{
		"lon": "9.5469459",
		"lat": "47.1093322",
		"number": "91",
		"street": "Wangerbergstrasse",
		"city": "Triesenberg",
		"district": "",
		"postcode": "9497"
	},
	{
		"lon": "9.5466575",
		"lat": "47.1102926",
		"number": "84",
		"street": "Wangerbergstrasse",
		"city": "Triesenberg",
		"district": "",
		"postcode": "9497"
	},
	{
		"lon": "9.5464803",
		"lat": "47.1102045",
		"number": "29",
		"street": "Sütigerwisstrasse",
		"city": "Triesenberg",
		"district": "",
		"postcode": "9497"
	},
	{
		"lon": "9.5455077",
		"lat": "47.1121408",
		"number": "68",
		"street": "Wangerbergstrasse",
		"city": "Triesenberg",
		"district": "",
		"postcode": "9497"
	},
	{
		"lon": "9.5454024",
		"lat": "47.1121315",
		"number": "66",
		"street": "Wangerbergstrasse",
		"city": "Triesenberg",
		"district": "",
		"postcode": "9497"
	},
	{
		"lon": "9.543668",
		"lat": "47.1114382",
		"number": "91",
		"street": "Landstrasse",
		"city": "Triesenberg",
		"district": "",
		"postcode": "9497"
	},
	{
		"lon": "9.5389827",
		"lat": "47.1155819",
		"number": "26",
		"street": "Leitawisstrasse",
		"city": "Triesenberg",
		"district": "",
		"postcode": "9497"
	},
	{
		"lon": "9.5464683",
		"lat": "47.1092264",
		"number": "35",
		"street": "Sütigerwisstrasse",
		"city": "Triesenberg",
		"district": "",
		"postcode": "9497"
	},
	{
		"lon": "9.5451875",
		"lat": "47.1121112",
		"number": "29",
		"street": "Rüteltistrasse",
		"city": "Triesenberg",
		"district": "",
		"postcode": "9497"
	},
	{
		"lon": "9.545244",
		"lat": "47.112669",
		"number": "19",
		"street": "Rüteltistrasse",
		"city": "Triesenberg",
		"district": "",
		"postcode": "9497"
	},
	{
		"lon": "9.5451371",
		"lat": "47.1126701",
		"number": "21",
		"street": "Rüteltistrasse",
		"city": "Triesenberg",
		"district": "",
		"postcode": "9497"
	},
	{
		"lon": "9.5452514",
		"lat": "47.1123911",
		"number": "23",
		"street": "Rüteltistrasse",
		"city": "Triesenberg",
		"district": "",
		"postcode": "9497"
	},
	{
		"lon": "9.5446155",
		"lat": "47.1124103",
		"number": "71",
		"street": "Landstrasse",
		"city": "Triesenberg",
		"district": "",
		"postcode": "9497"
	},
	{
		"lon": "9.5452923",
		"lat": "47.112124",
		"number": "27",
		"street": "Rüteltistrasse",
		"city": "Triesenberg",
		"district": "",
		"postcode": "9497"
	},
	{
		"lon": "9.5448728",
		"lat": "47.1126209",
		"number": "22",
		"street": "Rüteltistrasse",
		"city": "Triesenberg",
		"district": "",
		"postcode": "9497"
	},
	{
		"lon": "9.5440071",
		"lat": "47.1123165",
		"number": "88",
		"street": "Landstrasse",
		"city": "Triesenberg",
		"district": "",
		"postcode": "9497"
	},
	{
		"lon": "9.5445297",
		"lat": "47.1126455",
		"number": "69",
		"street": "Landstrasse",
		"city": "Triesenberg",
		"district": "",
		"postcode": "9497"
	},
	{
		"lon": "9.5452231",
		"lat": "47.1080798",
		"number": "23b",
		"street": "Chalberrütistrasse",
		"city": "Triesenberg",
		"district": "",
		"postcode": "9497"
	},
	{
		"lon": "9.5452209",
		"lat": "47.1082634",
		"number": "23a",
		"street": "Chalberrütistrasse",
		"city": "Triesenberg",
		"district": "",
		"postcode": "9497"
	},
	{
		"lon": "9.5449993",
		"lat": "47.1081142",
		"number": "25",
		"street": "Chalberrütistrasse",
		"city": "Triesenberg",
		"district": "",
		"postcode": "9497"
	},
	{
		"lon": "9.5456076",
		"lat": "47.1083747",
		"number": "19",
		"street": "Chalberrütistrasse",
		"city": "Triesenberg",
		"district": "",
		"postcode": "9497"
	},
	{
		"lon": "9.5442892",
		"lat": "47.1079315",
		"number": "37",
		"street": "Chalberrütistrasse",
		"city": "Triesenberg",
		"district": "",
		"postcode": "9497"
	},
	{
		"lon": "9.5449399",
		"lat": "47.1079366",
		"number": "29",
		"street": "Chalberrütistrasse",
		"city": "Triesenberg",
		"district": "",
		"postcode": "9497"
	},
	{
		"lon": "9.5447148",
		"lat": "47.1080734",
		"number": "27",
		"street": "Chalberrütistrasse",
		"city": "Triesenberg",
		"district": "",
		"postcode": "9497"
	},
	{
		"lon": "9.5454351",
		"lat": "47.108069",
		"number": "14",
		"street": "Am Wangerberg",
		"city": "Triesenberg",
		"district": "",
		"postcode": "9497"
	},
	{
		"lon": "9.5461318",
		"lat": "47.1081011",
		"number": "7",
		"street": "Am Wangerberg",
		"city": "Triesenberg",
		"district": "",
		"postcode": "9497"
	},
	{
		"lon": "9.5462866",
		"lat": "47.1087433",
		"number": "2",
		"street": "Am Wangerberg",
		"city": "Triesenberg",
		"district": "",
		"postcode": "9497"
	},
	{
		"lon": "9.5470838",
		"lat": "47.1086964",
		"number": "8",
		"street": "Matteltiwaldstrasse",
		"city": "Triesenberg",
		"district": "",
		"postcode": "9497"
	},
	{
		"lon": "9.5471275",
		"lat": "47.1088672",
		"number": "10",
		"street": "Matteltiwaldstrasse",
		"city": "Triesenberg",
		"district": "",
		"postcode": "9497"
	},
	{
		"lon": "9.5472994",
		"lat": "47.1090256",
		"number": "12",
		"street": "Matteltiwaldstrasse",
		"city": "Triesenberg",
		"district": "",
		"postcode": "9497"
	},
	{
		"lon": "9.5474034",
		"lat": "47.1088809",
		"number": "14",
		"street": "Matteltiwaldstrasse",
		"city": "Triesenberg",
		"district": "",
		"postcode": "9497"
	},
	{
		"lon": "9.5467756",
		"lat": "47.1088653",
		"number": "9",
		"street": "Matteltiwaldstrasse",
		"city": "Triesenberg",
		"district": "",
		"postcode": "9497"
	},
	{
		"lon": "9.5467973",
		"lat": "47.1089946",
		"number": "11",
		"street": "Matteltiwaldstrasse",
		"city": "Triesenberg",
		"district": "",
		"postcode": "9497"
	},
	{
		"lon": "9.5460714",
		"lat": "47.1087812",
		"number": "11",
		"street": "Chalberrütistrasse",
		"city": "Triesenberg",
		"district": "",
		"postcode": "9497"
	},
	{
		"lon": "9.5458606",
		"lat": "47.1081892",
		"number": "10",
		"street": "Am Wangerberg",
		"city": "Triesenberg",
		"district": "",
		"postcode": "9497"
	},
	{
		"lon": "9.5459368",
		"lat": "47.1080131",
		"number": "9",
		"street": "Am Wangerberg",
		"city": "Triesenberg",
		"district": "",
		"postcode": "9497"
	},
	{
		"lon": "9.5480343",
		"lat": "47.1087898",
		"number": "22",
		"street": "Matteltiwaldstrasse",
		"city": "Triesenberg",
		"district": "",
		"postcode": "9497"
	},
	{
		"lon": "9.5479228",
		"lat": "47.1087989",
		"number": "20",
		"street": "Matteltiwaldstrasse",
		"city": "Triesenberg",
		"district": "",
		"postcode": "9497"
	},
	{
		"lon": "9.5478316",
		"lat": "47.1089311",
		"number": "24",
		"street": "Matteltiwaldstrasse",
		"city": "Triesenberg",
		"district": "",
		"postcode": "9497"
	},
	{
		"lon": "9.5476865",
		"lat": "47.1089586",
		"number": "26",
		"street": "Matteltiwaldstrasse",
		"city": "Triesenberg",
		"district": "",
		"postcode": "9497"
	},
	{
		"lon": "9.5443178",
		"lat": "47.1103851",
		"number": "8",
		"street": "Sütigerwisstrasse",
		"city": "Triesenberg",
		"district": "",
		"postcode": "9497"
	},
	{
		"lon": "9.5433264",
		"lat": "47.1097897",
		"number": "26",
		"street": "Im Sütigerwis",
		"city": "Triesenberg",
		"district": "",
		"postcode": "9497"
	},
	{
		"lon": "9.5456446",
		"lat": "47.1100148",
		"number": "22",
		"street": "Sütigerwisstrasse",
		"city": "Triesenberg",
		"district": "",
		"postcode": "9497"
	},
	{
		"lon": "9.5453286",
		"lat": "47.1101536",
		"number": "20",
		"street": "Sütigerwisstrasse",
		"city": "Triesenberg",
		"district": "",
		"postcode": "9497"
	},
	{
		"lon": "9.5450356",
		"lat": "47.1102115",
		"number": "16",
		"street": "Sütigerwisstrasse",
		"city": "Triesenberg",
		"district": "",
		"postcode": "9497"
	},
	{
		"lon": "9.5454899",
		"lat": "47.1104198",
		"number": "19",
		"street": "Sütigerwisstrasse",
		"city": "Triesenberg",
		"district": "",
		"postcode": "9497"
	},
	{
		"lon": "9.545152",
		"lat": "47.1105752",
		"number": "15",
		"street": "Sütigerwisstrasse",
		"city": "Triesenberg",
		"district": "",
		"postcode": "9497"
	},
	{
		"lon": "9.5444644",
		"lat": "47.1107178",
		"number": "9",
		"street": "Sütigerwisstrasse",
		"city": "Triesenberg",
		"district": "",
		"postcode": "9497"
	},
	{
		"lon": "9.5457387",
		"lat": "47.1099732",
		"number": "24",
		"street": "Sütigerwisstrasse",
		"city": "Triesenberg",
		"district": "",
		"postcode": "9497"
	},
	{
		"lon": "9.5457743",
		"lat": "47.1103312",
		"number": "23",
		"street": "Sütigerwisstrasse",
		"city": "Triesenberg",
		"district": "",
		"postcode": "9497"
	},
	{
		"lon": "9.5442944",
		"lat": "47.1098186",
		"number": "18",
		"street": "Im Sütigerwis",
		"city": "Triesenberg",
		"district": "",
		"postcode": "9497"
	},
	{
		"lon": "9.544645",
		"lat": "47.1098183",
		"number": "14",
		"street": "Im Sütigerwis",
		"city": "Triesenberg",
		"district": "",
		"postcode": "9497"
	},
	{
		"lon": "9.5443945",
		"lat": "47.1096116",
		"number": "17",
		"street": "Im Sütigerwis",
		"city": "Triesenberg",
		"district": "",
		"postcode": "9497"
	},
	{
		"lon": "9.543886",
		"lat": "47.1097616",
		"number": "22",
		"street": "Im Sütigerwis",
		"city": "Triesenberg",
		"district": "",
		"postcode": "9497"
	},
	{
		"lon": "9.5465262",
		"lat": "47.1094266",
		"number": "92",
		"street": "Wangerbergstrasse",
		"city": "Triesenberg",
		"district": "",
		"postcode": "9497"
	},
	{
		"lon": "9.5463335",
		"lat": "47.110409",
		"number": "80",
		"street": "Wangerbergstrasse",
		"city": "Triesenberg",
		"district": "",
		"postcode": "9497"
	},
	{
		"lon": "9.5456751",
		"lat": "47.1147002",
		"number": "28",
		"street": "Wangerbergstrasse",
		"city": "Triesenberg",
		"district": "",
		"postcode": "9497"
	},
	{
		"lon": "9.5458724",
		"lat": "47.1098484",
		"number": "26",
		"street": "Sütigerwisstrasse",
		"city": "Triesenberg",
		"district": "",
		"postcode": "9497"
	},
	{
		"lon": "9.5455839",
		"lat": "47.1161017",
		"number": "16",
		"street": "Rütistrasse",
		"city": "Triesenberg",
		"district": "",
		"postcode": "9497"
	},
	{
		"lon": "9.5429677",
		"lat": "47.1137246",
		"number": "43",
		"street": "Im Täscherloch",
		"city": "Triesenberg",
		"district": "",
		"postcode": "9497"
	},
	{
		"lon": "9.54306",
		"lat": "47.1137652",
		"number": "45",
		"street": "Im Täscherloch",
		"city": "Triesenberg",
		"district": "",
		"postcode": "9497"
	},
	{
		"lon": "9.5451448",
		"lat": "47.1123891",
		"number": "25",
		"street": "Rüteltistrasse",
		"city": "Triesenberg",
		"district": "",
		"postcode": "9497"
	},
	{
		"lon": "9.5451249",
		"lat": "47.11338",
		"number": "11",
		"street": "Rüteltistrasse",
		"city": "Triesenberg",
		"district": "",
		"postcode": "9497"
	},
	{
		"lon": "9.5469548",
		"lat": "47.1147254",
		"number": "33",
		"street": "Rossbodastrasse",
		"city": "Triesenberg",
		"district": "",
		"postcode": "9497"
	},
	{
		"lon": "9.5505316",
		"lat": "47.1130018",
		"number": "32",
		"street": "Steinortstrasse",
		"city": "Triesenberg",
		"district": "",
		"postcode": "9497"
	},
	{
		"lon": "9.5510312",
		"lat": "47.1099411",
		"number": "32",
		"street": "Burkatstrasse",
		"city": "Triesenberg",
		"district": "",
		"postcode": "9497"
	},
	{
		"lon": "9.5504773",
		"lat": "47.1122498",
		"number": "13",
		"street": "Steineststrasse",
		"city": "Triesenberg",
		"district": "",
		"postcode": "9497"
	},
	{
		"lon": "9.5508095",
		"lat": "47.1134149",
		"number": "27",
		"street": "Steinortstrasse",
		"city": "Triesenberg",
		"district": "",
		"postcode": "9497"
	},
	{
		"lon": "9.549865",
		"lat": "47.1150443",
		"number": "139",
		"street": "Bergstrasse",
		"city": "Triesenberg",
		"district": "",
		"postcode": "9497"
	},
	{
		"lon": "9.5650656",
		"lat": "47.1163012",
		"number": "41",
		"street": "Sückastrasse",
		"city": "Triesenberg",
		"district": "",
		"postcode": "9497"
	},
	{
		"lon": "9.5656378",
		"lat": "47.1159496",
		"number": "43",
		"street": "Sückastrasse",
		"city": "Triesenberg",
		"district": "",
		"postcode": "9497"
	},
	{
		"lon": "9.5548901",
		"lat": "47.1161494",
		"number": "17",
		"street": "Parmezgstrasse",
		"city": "Triesenberg",
		"district": "",
		"postcode": "9497"
	},
	{
		"lon": "9.5535057",
		"lat": "47.1166586",
		"number": "90",
		"street": "Lavadinastrasse",
		"city": "Triesenberg",
		"district": "",
		"postcode": "9497"
	},
	{
		"lon": "9.5512203",
		"lat": "47.11634",
		"number": "25",
		"street": "Spennistrasse",
		"city": "Triesenberg",
		"district": "",
		"postcode": "9497"
	},
	{
		"lon": "9.5513965",
		"lat": "47.1162189",
		"number": "29",
		"street": "Spennistrasse",
		"city": "Triesenberg",
		"district": "",
		"postcode": "9497"
	},
	{
		"lon": "9.5514986",
		"lat": "47.1161705",
		"number": "31",
		"street": "Spennistrasse",
		"city": "Triesenberg",
		"district": "",
		"postcode": "9497"
	},
	{
		"lon": "9.5536688",
		"lat": "47.1163507",
		"number": "86",
		"street": "Lavadinastrasse",
		"city": "Triesenberg",
		"district": "",
		"postcode": "9497"
	},
	{
		"lon": "9.5531277",
		"lat": "47.1162787",
		"number": "85",
		"street": "Lavadinastrasse",
		"city": "Triesenberg",
		"district": "",
		"postcode": "9497"
	},
	{
		"lon": "9.5532665",
		"lat": "47.1170259",
		"number": "96",
		"street": "Lavadinastrasse",
		"city": "Triesenberg",
		"district": "",
		"postcode": "9497"
	},
	{
		"lon": "9.5533399",
		"lat": "47.1160796",
		"number": "83",
		"street": "Lavadinastrasse",
		"city": "Triesenberg",
		"district": "",
		"postcode": "9497"
	},
	{
		"lon": "9.5500294",
		"lat": "47.1167452",
		"number": "3",
		"street": "Guferwaldstrasse",
		"city": "Triesenberg",
		"district": "",
		"postcode": "9497"
	},
	{
		"lon": "9.5496295",
		"lat": "47.117354",
		"number": "2",
		"street": "Spennistrasse",
		"city": "Triesenberg",
		"district": "",
		"postcode": "9497"
	},
	{
		"lon": "9.5543033",
		"lat": "47.1142896",
		"number": "53",
		"street": "Lavadinastrasse",
		"city": "Triesenberg",
		"district": "",
		"postcode": "9497"
	},
	{
		"lon": "9.554938",
		"lat": "47.1148002",
		"number": "64",
		"street": "Lavadinastrasse",
		"city": "Triesenberg",
		"district": "",
		"postcode": "9497"
	},
	{
		"lon": "9.554291",
		"lat": "47.1146933",
		"number": "65",
		"street": "Lavadinastrasse",
		"city": "Triesenberg",
		"district": "",
		"postcode": "9497"
	},
	{
		"lon": "9.5551508",
		"lat": "47.1144906",
		"number": "60",
		"street": "Lavadinastrasse",
		"city": "Triesenberg",
		"district": "",
		"postcode": "9497"
	},
	{
		"lon": "9.5540914",
		"lat": "47.1158685",
		"number": "76",
		"street": "Lavadinastrasse",
		"city": "Triesenberg",
		"district": "",
		"postcode": "9497"
	},
	{
		"lon": "9.5539983",
		"lat": "47.1158233",
		"number": "78",
		"street": "Lavadinastrasse",
		"city": "Triesenberg",
		"district": "",
		"postcode": "9497"
	},
	{
		"lon": "9.5532591",
		"lat": "47.1154627",
		"number": "24",
		"street": "Büdamistrasse",
		"city": "Triesenberg",
		"district": "",
		"postcode": "9497"
	},
	{
		"lon": "9.5531986",
		"lat": "47.114312",
		"number": "68",
		"street": "Spennistrasse",
		"city": "Triesenberg",
		"district": "",
		"postcode": "9497"
	},
	{
		"lon": "9.5502816",
		"lat": "47.1156461",
		"number": "14",
		"street": "Guferwaldstrasse",
		"city": "Triesenberg",
		"district": "",
		"postcode": "9497"
	},
	{
		"lon": "9.5512746",
		"lat": "47.1147786",
		"number": "32",
		"street": "Guferwaldstrasse",
		"city": "Triesenberg",
		"district": "",
		"postcode": "9497"
	},
	{
		"lon": "9.5514777",
		"lat": "47.1150783",
		"number": "31",
		"street": "Guferwaldstrasse",
		"city": "Triesenberg",
		"district": "",
		"postcode": "9497"
	},
	{
		"lon": "9.5511542",
		"lat": "47.1154579",
		"number": "23",
		"street": "Guferwaldstrasse",
		"city": "Triesenberg",
		"district": "",
		"postcode": "9497"
	},
	{
		"lon": "9.5517388",
		"lat": "47.1159316",
		"number": "37",
		"street": "Spennistrasse",
		"city": "Triesenberg",
		"district": "",
		"postcode": "9497"
	},
	{
		"lon": "9.551609",
		"lat": "47.1156938",
		"number": "38",
		"street": "Spennistrasse",
		"city": "Triesenberg",
		"district": "",
		"postcode": "9497"
	},
	{
		"lon": "9.5505064",
		"lat": "47.1146061",
		"number": "132",
		"street": "Bergstrasse",
		"city": "Triesenberg",
		"district": "",
		"postcode": "9497"
	},
	{
		"lon": "9.5531457",
		"lat": "47.1145928",
		"number": "62",
		"street": "Spennistrasse",
		"city": "Triesenberg",
		"district": "",
		"postcode": "9497"
	},
	{
		"lon": "9.5534434",
		"lat": "47.1146494",
		"number": "65",
		"street": "Spennistrasse",
		"city": "Triesenberg",
		"district": "",
		"postcode": "9497"
	},
	{
		"lon": "9.5536078",
		"lat": "47.1143472",
		"number": "69",
		"street": "Spennistrasse",
		"city": "Triesenberg",
		"district": "",
		"postcode": "9497"
	},
	{
		"lon": "9.5535846",
		"lat": "47.1158364",
		"number": "79",
		"street": "Lavadinastrasse",
		"city": "Triesenberg",
		"district": "",
		"postcode": "9497"
	},
	{
		"lon": "9.5535074",
		"lat": "47.1159012",
		"number": "81",
		"street": "Lavadinastrasse",
		"city": "Triesenberg",
		"district": "",
		"postcode": "9497"
	},
	{
		"lon": "9.5541205",
		"lat": "47.114364",
		"number": "51",
		"street": "Lavadinastrasse",
		"city": "Triesenberg",
		"district": "",
		"postcode": "9497"
	},
	{
		"lon": "9.5529992",
		"lat": "47.1153115",
		"number": "23",
		"street": "Büdamistrasse",
		"city": "Triesenberg",
		"district": "",
		"postcode": "9497"
	},
	{
		"lon": "9.5529101",
		"lat": "47.1154213",
		"number": "25",
		"street": "Büdamistrasse",
		"city": "Triesenberg",
		"district": "",
		"postcode": "9497"
	},
	{
		"lon": "9.5521469",
		"lat": "47.1151823",
		"number": "48",
		"street": "Spennistrasse",
		"city": "Triesenberg",
		"district": "",
		"postcode": "9497"
	},
	{
		"lon": "9.5523531",
		"lat": "47.1147679",
		"number": "54",
		"street": "Spennistrasse",
		"city": "Triesenberg",
		"district": "",
		"postcode": "9497"
	},
	{
		"lon": "9.5525552",
		"lat": "47.1147987",
		"number": "56",
		"street": "Spennistrasse",
		"city": "Triesenberg",
		"district": "",
		"postcode": "9497"
	},
	{
		"lon": "9.5528045",
		"lat": "47.1146833",
		"number": "60",
		"street": "Spennistrasse",
		"city": "Triesenberg",
		"district": "",
		"postcode": "9497"
	},
	{
		"lon": "9.5527376",
		"lat": "47.1149969",
		"number": "57",
		"street": "Spennistrasse",
		"city": "Triesenberg",
		"district": "",
		"postcode": "9497"
	},
	{
		"lon": "9.552514",
		"lat": "47.1152496",
		"number": "51",
		"street": "Spennistrasse",
		"city": "Triesenberg",
		"district": "",
		"postcode": "9497"
	},
	{
		"lon": "9.5521744",
		"lat": "47.1155486",
		"number": "43",
		"street": "Spennistrasse",
		"city": "Triesenberg",
		"district": "",
		"postcode": "9497"
	},
	{
		"lon": "9.5520973",
		"lat": "47.1157562",
		"number": "41",
		"street": "Spennistrasse",
		"city": "Triesenberg",
		"district": "",
		"postcode": "9497"
	},
	{
		"lon": "9.5518173",
		"lat": "47.1158575",
		"number": "39",
		"street": "Spennistrasse",
		"city": "Triesenberg",
		"district": "",
		"postcode": "9497"
	},
	{
		"lon": "9.5527049",
		"lat": "47.1157447",
		"number": "31",
		"street": "Büdamistrasse",
		"city": "Triesenberg",
		"district": "",
		"postcode": "9497"
	},
	{
		"lon": "9.5518019",
		"lat": "47.1154626",
		"number": "42",
		"street": "Spennistrasse",
		"city": "Triesenberg",
		"district": "",
		"postcode": "9497"
	},
	{
		"lon": "9.5495162",
		"lat": "47.1144009",
		"number": "6",
		"street": "Haberacherstrasse",
		"city": "Triesenberg",
		"district": "",
		"postcode": "9497"
	},
	{
		"lon": "9.5500556",
		"lat": "47.1158356",
		"number": "10",
		"street": "Guferwaldstrasse",
		"city": "Triesenberg",
		"district": "",
		"postcode": "9497"
	},
	{
		"lon": "9.5496054",
		"lat": "47.1146567",
		"number": "8",
		"street": "Haberacherstrasse",
		"city": "Triesenberg",
		"district": "",
		"postcode": "9497"
	},
	{
		"lon": "9.5490661",
		"lat": "47.1158305",
		"number": "22",
		"street": "Haberacherstrasse",
		"city": "Triesenberg",
		"district": "",
		"postcode": "9497"
	},
	{
		"lon": "9.5492565",
		"lat": "47.1155916",
		"number": "20",
		"street": "Haberacherstrasse",
		"city": "Triesenberg",
		"district": "",
		"postcode": "9497"
	},
	{
		"lon": "9.5491446",
		"lat": "47.1155821",
		"number": "18",
		"street": "Haberacherstrasse",
		"city": "Triesenberg",
		"district": "",
		"postcode": "9497"
	},
	{
		"lon": "9.5491833",
		"lat": "47.114888",
		"number": "9",
		"street": "Haberacherstrasse",
		"city": "Triesenberg",
		"district": "",
		"postcode": "9497"
	},
	{
		"lon": "9.5492129",
		"lat": "47.1146813",
		"number": "7",
		"street": "Haberacherstrasse",
		"city": "Triesenberg",
		"district": "",
		"postcode": "9497"
	},
	{
		"lon": "9.5495296",
		"lat": "47.1149038",
		"number": "10",
		"street": "Haberacherstrasse",
		"city": "Triesenberg",
		"district": "",
		"postcode": "9497"
	},
	{
		"lon": "9.5499471",
		"lat": "47.1148812",
		"number": "137",
		"street": "Bergstrasse",
		"city": "Triesenberg",
		"district": "",
		"postcode": "9497"
	},
	{
		"lon": "9.5500663",
		"lat": "47.114673",
		"number": "135",
		"street": "Bergstrasse",
		"city": "Triesenberg",
		"district": "",
		"postcode": "9497"
	},
	{
		"lon": "9.5490604",
		"lat": "47.1150709",
		"number": "13",
		"street": "Haberacherstrasse",
		"city": "Triesenberg",
		"district": "",
		"postcode": "9497"
	},
	{
		"lon": "9.5490919",
		"lat": "47.1150135",
		"number": "11",
		"street": "Haberacherstrasse",
		"city": "Triesenberg",
		"district": "",
		"postcode": "9497"
	},
	{
		"lon": "9.5487701",
		"lat": "47.1155675",
		"number": "21",
		"street": "Haberacherstrasse",
		"city": "Triesenberg",
		"district": "",
		"postcode": "9497"
	},
	{
		"lon": "9.5543774",
		"lat": "47.1136163",
		"number": "36",
		"street": "Lavadinastrasse",
		"city": "Triesenberg",
		"district": "",
		"postcode": "9497"
	},
	{
		"lon": "9.5542592",
		"lat": "47.1138038",
		"number": "40",
		"street": "Lavadinastrasse",
		"city": "Triesenberg",
		"district": "",
		"postcode": "9497"
	},
	{
		"lon": "9.5544373",
		"lat": "47.113445",
		"number": "34",
		"street": "Lavadinastrasse",
		"city": "Triesenberg",
		"district": "",
		"postcode": "9497"
	},
	{
		"lon": "9.5544684",
		"lat": "47.1132517",
		"number": "30",
		"street": "Lavadinastrasse",
		"city": "Triesenberg",
		"district": "",
		"postcode": "9497"
	},
	{
		"lon": "9.5543784",
		"lat": "47.1132753",
		"number": "32",
		"street": "Lavadinastrasse",
		"city": "Triesenberg",
		"district": "",
		"postcode": "9497"
	},
	{
		"lon": "9.554972",
		"lat": "47.1142076",
		"number": "55",
		"street": "Lavadinastrasse",
		"city": "Triesenberg",
		"district": "",
		"postcode": "9497"
	},
	{
		"lon": "9.5552316",
		"lat": "47.1139393",
		"number": "54",
		"street": "Lavadinastrasse",
		"city": "Triesenberg",
		"district": "",
		"postcode": "9497"
	},
	{
		"lon": "9.5542191",
		"lat": "47.113999",
		"number": "44",
		"street": "Lavadinastrasse",
		"city": "Triesenberg",
		"district": "",
		"postcode": "9497"
	},
	{
		"lon": "9.5546517",
		"lat": "47.1142344",
		"number": "2",
		"street": "Büdamistrasse",
		"city": "Triesenberg",
		"district": "",
		"postcode": "9497"
	},
	{
		"lon": "9.5500806",
		"lat": "47.1128983",
		"number": "23",
		"street": "Im Steinort",
		"city": "Triesenberg",
		"district": "",
		"postcode": "9497"
	},
	{
		"lon": "9.5502521",
		"lat": "47.1138495",
		"number": "118",
		"street": "Bergstrasse",
		"city": "Triesenberg",
		"district": "",
		"postcode": "9497"
	},
	{
		"lon": "9.5504902",
		"lat": "47.1140535",
		"number": "124",
		"street": "Bergstrasse",
		"city": "Triesenberg",
		"district": "",
		"postcode": "9497"
	},
	{
		"lon": "9.5504228",
		"lat": "47.1142615",
		"number": "128",
		"street": "Bergstrasse",
		"city": "Triesenberg",
		"district": "",
		"postcode": "9497"
	},
	{
		"lon": "9.5514279",
		"lat": "47.1140067",
		"number": "48",
		"street": "Guferwaldstrasse",
		"city": "Triesenberg",
		"district": "",
		"postcode": "9497"
	},
	{
		"lon": "9.5501312",
		"lat": "47.1130749",
		"number": "4",
		"street": "Steineststrasse",
		"city": "Triesenberg",
		"district": "",
		"postcode": "9497"
	},
	{
		"lon": "9.5500668",
		"lat": "47.1133763",
		"number": "6",
		"street": "Steinortstrasse",
		"city": "Triesenberg",
		"district": "",
		"postcode": "9497"
	},
	{
		"lon": "9.5509016",
		"lat": "47.1130385",
		"number": "37",
		"street": "Steinortstrasse",
		"city": "Triesenberg",
		"district": "",
		"postcode": "9497"
	},
	{
		"lon": "9.5505875",
		"lat": "47.1133261",
		"number": "31",
		"street": "Steinortstrasse",
		"city": "Triesenberg",
		"district": "",
		"postcode": "9497"
	},
	{
		"lon": "9.5504386",
		"lat": "47.113718",
		"number": "3",
		"street": "Steinortstrasse",
		"city": "Triesenberg",
		"district": "",
		"postcode": "9497"
	},
	{
		"lon": "9.5502902",
		"lat": "47.1136943",
		"number": "5",
		"street": "Steinortstrasse",
		"city": "Triesenberg",
		"district": "",
		"postcode": "9497"
	},
	{
		"lon": "9.5503741",
		"lat": "47.1135346",
		"number": "7",
		"street": "Steinortstrasse",
		"city": "Triesenberg",
		"district": "",
		"postcode": "9497"
	},
	{
		"lon": "9.5509575",
		"lat": "47.113819",
		"number": "13",
		"street": "Steinortstrasse",
		"city": "Triesenberg",
		"district": "",
		"postcode": "9497"
	},
	{
		"lon": "9.5510539",
		"lat": "47.1137749",
		"number": "15",
		"street": "Steinortstrasse",
		"city": "Triesenberg",
		"district": "",
		"postcode": "9497"
	},
	{
		"lon": "9.5510901",
		"lat": "47.1137063",
		"number": "17",
		"street": "Steinortstrasse",
		"city": "Triesenberg",
		"district": "",
		"postcode": "9497"
	},
	{
		"lon": "9.551203",
		"lat": "47.1135352",
		"number": "23",
		"street": "Steinortstrasse",
		"city": "Triesenberg",
		"district": "",
		"postcode": "9497"
	},
	{
		"lon": "9.5510705",
		"lat": "47.1135336",
		"number": "25",
		"street": "Steinortstrasse",
		"city": "Triesenberg",
		"district": "",
		"postcode": "9497"
	},
	{
		"lon": "9.551629",
		"lat": "47.113842",
		"number": "71",
		"street": "Steinortstrasse",
		"city": "Triesenberg",
		"district": "",
		"postcode": "9497"
	},
	{
		"lon": "9.5516587",
		"lat": "47.1136712",
		"number": "67",
		"street": "Steinortstrasse",
		"city": "Triesenberg",
		"district": "",
		"postcode": "9497"
	},
	{
		"lon": "9.5515074",
		"lat": "47.1129149",
		"number": "47",
		"street": "Steinortstrasse",
		"city": "Triesenberg",
		"district": "",
		"postcode": "9497"
	},
	{
		"lon": "9.5511424",
		"lat": "47.1129033",
		"number": "39",
		"street": "Steinortstrasse",
		"city": "Triesenberg",
		"district": "",
		"postcode": "9497"
	},
	{
		"lon": "9.5516454",
		"lat": "47.1127417",
		"number": "43",
		"street": "Steinortstrasse",
		"city": "Triesenberg",
		"district": "",
		"postcode": "9497"
	},
	{
		"lon": "9.5507197",
		"lat": "47.1128566",
		"number": "36",
		"street": "Steinortstrasse",
		"city": "Triesenberg",
		"district": "",
		"postcode": "9497"
	},
	{
		"lon": "9.551027",
		"lat": "47.1127141",
		"number": "40",
		"street": "Steinortstrasse",
		"city": "Triesenberg",
		"district": "",
		"postcode": "9497"
	},
	{
		"lon": "9.5513605",
		"lat": "47.112817",
		"number": "41",
		"street": "Steinortstrasse",
		"city": "Triesenberg",
		"district": "",
		"postcode": "9497"
	},
	{
		"lon": "9.5514299",
		"lat": "47.112865",
		"number": "45",
		"street": "Steinortstrasse",
		"city": "Triesenberg",
		"district": "",
		"postcode": "9497"
	},
	{
		"lon": "9.550436",
		"lat": "47.112754",
		"number": "5",
		"street": "Steineststrasse",
		"city": "Triesenberg",
		"district": "",
		"postcode": "9497"
	},
	{
		"lon": "9.5536977",
		"lat": "47.1135808",
		"number": "27",
		"street": "Lavadinastrasse",
		"city": "Triesenberg",
		"district": "",
		"postcode": "9497"
	},
	{
		"lon": "9.5539231",
		"lat": "47.1134572",
		"number": "29",
		"street": "Lavadinastrasse",
		"city": "Triesenberg",
		"district": "",
		"postcode": "9497"
	},
	{
		"lon": "9.5539683",
		"lat": "47.1137083",
		"number": "33",
		"street": "Lavadinastrasse",
		"city": "Triesenberg",
		"district": "",
		"postcode": "9497"
	},
	{
		"lon": "9.5535166",
		"lat": "47.1137273",
		"number": "15",
		"street": "Lavadinastrasse",
		"city": "Triesenberg",
		"district": "",
		"postcode": "9497"
	},
	{
		"lon": "9.5539388",
		"lat": "47.1139061",
		"number": "45",
		"street": "Lavadinastrasse",
		"city": "Triesenberg",
		"district": "",
		"postcode": "9497"
	},
	{
		"lon": "9.553751",
		"lat": "47.1140072",
		"number": "43",
		"street": "Lavadinastrasse",
		"city": "Triesenberg",
		"district": "",
		"postcode": "9497"
	},
	{
		"lon": "9.553849",
		"lat": "47.114245",
		"number": "49",
		"street": "Lavadinastrasse",
		"city": "Triesenberg",
		"district": "",
		"postcode": "9497"
	},
	{
		"lon": "9.5534415",
		"lat": "47.1135578",
		"number": "13",
		"street": "Lavadinastrasse",
		"city": "Triesenberg",
		"district": "",
		"postcode": "9497"
	},
	{
		"lon": "9.5529961",
		"lat": "47.1137012",
		"number": "11",
		"street": "Lavadinastrasse",
		"city": "Triesenberg",
		"district": "",
		"postcode": "9497"
	},
	{
		"lon": "9.5534894",
		"lat": "47.113987",
		"number": "37",
		"street": "Lavadinastrasse",
		"city": "Triesenberg",
		"district": "",
		"postcode": "9497"
	},
	{
		"lon": "9.5533249",
		"lat": "47.1140815",
		"number": "39",
		"street": "Lavadinastrasse",
		"city": "Triesenberg",
		"district": "",
		"postcode": "9497"
	},
	{
		"lon": "9.5520859",
		"lat": "47.1140294",
		"number": "53",
		"street": "Guferwaldstrasse",
		"city": "Triesenberg",
		"district": "",
		"postcode": "9497"
	},
	{
		"lon": "9.5519251",
		"lat": "47.1142255",
		"number": "43",
		"street": "Guferwaldstrasse",
		"city": "Triesenberg",
		"district": "",
		"postcode": "9497"
	},
	{
		"lon": "9.5522341",
		"lat": "47.1142058",
		"number": "49",
		"street": "Guferwaldstrasse",
		"city": "Triesenberg",
		"district": "",
		"postcode": "9497"
	},
	{
		"lon": "9.5523349",
		"lat": "47.1141539",
		"number": "51",
		"street": "Guferwaldstrasse",
		"city": "Triesenberg",
		"district": "",
		"postcode": "9497"
	},
	{
		"lon": "9.5527172",
		"lat": "47.1137615",
		"number": "9",
		"street": "Lavadinastrasse",
		"city": "Triesenberg",
		"district": "",
		"postcode": "9497"
	},
	{
		"lon": "9.5527479",
		"lat": "47.1134877",
		"number": "10",
		"street": "Lavadinastrasse",
		"city": "Triesenberg",
		"district": "",
		"postcode": "9497"
	},
	{
		"lon": "9.5520181",
		"lat": "47.1137401",
		"number": "2",
		"street": "Lavadinastrasse",
		"city": "Triesenberg",
		"district": "",
		"postcode": "9497"
	},
	{
		"lon": "9.552249",
		"lat": "47.1138789",
		"number": "1",
		"street": "Lavadinastrasse",
		"city": "Triesenberg",
		"district": "",
		"postcode": "9497"
	},
	{
		"lon": "9.5525215",
		"lat": "47.1138894",
		"number": "7",
		"street": "Lavadinastrasse",
		"city": "Triesenberg",
		"district": "",
		"postcode": "9497"
	},
	{
		"lon": "9.5520817",
		"lat": "47.1131147",
		"number": "56",
		"street": "Steinortstrasse",
		"city": "Triesenberg",
		"district": "",
		"postcode": "9497"
	},
	{
		"lon": "9.5517306",
		"lat": "47.113451",
		"number": "63",
		"street": "Steinortstrasse",
		"city": "Triesenberg",
		"district": "",
		"postcode": "9497"
	},
	{
		"lon": "9.5517317",
		"lat": "47.113237",
		"number": "59",
		"street": "Steinortstrasse",
		"city": "Triesenberg",
		"district": "",
		"postcode": "9497"
	},
	{
		"lon": "9.5517044",
		"lat": "47.113003",
		"number": "49",
		"street": "Steinortstrasse",
		"city": "Triesenberg",
		"district": "",
		"postcode": "9497"
	},
	{
		"lon": "9.5519942",
		"lat": "47.1127394",
		"number": "50",
		"street": "Steinortstrasse",
		"city": "Triesenberg",
		"district": "",
		"postcode": "9497"
	},
	{
		"lon": "9.549843",
		"lat": "47.1126325",
		"number": "24",
		"street": "Im Steinort",
		"city": "Triesenberg",
		"district": "",
		"postcode": "9497"
	},
	{
		"lon": "9.5499374",
		"lat": "47.1141517",
		"number": "125",
		"street": "Bergstrasse",
		"city": "Triesenberg",
		"district": "",
		"postcode": "9497"
	},
	{
		"lon": "9.549852",
		"lat": "47.1139489",
		"number": "121",
		"street": "Bergstrasse",
		"city": "Triesenberg",
		"district": "",
		"postcode": "9497"
	},
	{
		"lon": "9.5491088",
		"lat": "47.1136666",
		"number": "110",
		"street": "Bergstrasse",
		"city": "Triesenberg",
		"district": "",
		"postcode": "9497"
	},
	{
		"lon": "9.549594",
		"lat": "47.1141136",
		"number": "123",
		"street": "Bergstrasse",
		"city": "Triesenberg",
		"district": "",
		"postcode": "9497"
	},
	{
		"lon": "9.5496367",
		"lat": "47.1139487",
		"number": "119",
		"street": "Bergstrasse",
		"city": "Triesenberg",
		"district": "",
		"postcode": "9497"
	},
	{
		"lon": "9.549356",
		"lat": "47.1139147",
		"number": "107",
		"street": "Bergstrasse",
		"city": "Triesenberg",
		"district": "",
		"postcode": "9497"
	},
	{
		"lon": "9.5490717",
		"lat": "47.1143402",
		"number": "103",
		"street": "Bergstrasse",
		"city": "Triesenberg",
		"district": "",
		"postcode": "9497"
	},
	{
		"lon": "9.5489707",
		"lat": "47.1139231",
		"number": "106",
		"street": "Bergstrasse",
		"city": "Triesenberg",
		"district": "",
		"postcode": "9497"
	},
	{
		"lon": "9.5499103",
		"lat": "47.1131136",
		"number": "2",
		"street": "Steineststrasse",
		"city": "Triesenberg",
		"district": "",
		"postcode": "9497"
	},
	{
		"lon": "9.5499499",
		"lat": "47.1135807",
		"number": "2",
		"street": "Steinortstrasse",
		"city": "Triesenberg",
		"district": "",
		"postcode": "9497"
	},
	{
		"lon": "9.5486351",
		"lat": "47.1135993",
		"number": "12",
		"street": "Im Steinest",
		"city": "Triesenberg",
		"district": "",
		"postcode": "9497"
	},
	{
		"lon": "9.5486036",
		"lat": "47.113785",
		"number": "14",
		"street": "Im Steinest",
		"city": "Triesenberg",
		"district": "",
		"postcode": "9497"
	},
	{
		"lon": "9.5495717",
		"lat": "47.1134226",
		"number": "1",
		"street": "Im Steinort",
		"city": "Triesenberg",
		"district": "",
		"postcode": "9497"
	},
	{
		"lon": "9.5495958",
		"lat": "47.113067",
		"number": "20",
		"street": "Im Steinort",
		"city": "Triesenberg",
		"district": "",
		"postcode": "9497"
	},
	{
		"lon": "9.5492215",
		"lat": "47.1131918",
		"number": "14",
		"street": "Im Steinort",
		"city": "Triesenberg",
		"district": "",
		"postcode": "9497"
	},
	{
		"lon": "9.5488496",
		"lat": "47.1132226",
		"number": "6",
		"street": "Im Steinort",
		"city": "Triesenberg",
		"district": "",
		"postcode": "9497"
	},
	{
		"lon": "9.5490359",
		"lat": "47.1134343",
		"number": "4",
		"street": "Im Steinort",
		"city": "Triesenberg",
		"district": "",
		"postcode": "9497"
	},
	{
		"lon": "9.5494432",
		"lat": "47.1132266",
		"number": "16",
		"street": "Im Steinort",
		"city": "Triesenberg",
		"district": "",
		"postcode": "9497"
	},
	{
		"lon": "9.5493524",
		"lat": "47.1130509",
		"number": "18",
		"street": "Im Steinort",
		"city": "Triesenberg",
		"district": "",
		"postcode": "9497"
	},
	{
		"lon": "9.5498202",
		"lat": "47.1131336",
		"number": "19",
		"street": "Im Steinort",
		"city": "Triesenberg",
		"district": "",
		"postcode": "9497"
	},
	{
		"lon": "9.5496884",
		"lat": "47.1128627",
		"number": "22",
		"street": "Im Steinort",
		"city": "Triesenberg",
		"district": "",
		"postcode": "9497"
	},
	{
		"lon": "9.5493548",
		"lat": "47.1128162",
		"number": "10",
		"street": "Im Steinort",
		"city": "Triesenberg",
		"district": "",
		"postcode": "9497"
	},
	{
		"lon": "9.5507829",
		"lat": "47.1115614",
		"number": "16",
		"street": "Im Burkat",
		"city": "Triesenberg",
		"district": "",
		"postcode": "9497"
	},
	{
		"lon": "9.5510489",
		"lat": "47.1123419",
		"number": "6",
		"street": "Im Burkat",
		"city": "Triesenberg",
		"district": "",
		"postcode": "9497"
	},
	{
		"lon": "9.5510622",
		"lat": "47.1121935",
		"number": "8",
		"street": "Im Burkat",
		"city": "Triesenberg",
		"district": "",
		"postcode": "9497"
	},
	{
		"lon": "9.5508812",
		"lat": "47.1120381",
		"number": "10",
		"street": "Im Burkat",
		"city": "Triesenberg",
		"district": "",
		"postcode": "9497"
	}
]