[
	{
		"lon": "5.844411",
		"lat": "49.8625812",
		"number": "61",
		"street": "Rue du Lac",
		"city": "Arsdorf",
		"district": "",
		"postcode": "8808"
	},
	{
		"lon": "5.8445718",
		"lat": "49.8628842",
		"number": "50",
		"street": "Rue du Lac",
		"city": "Arsdorf",
		"district": "",
		"postcode": "8808"
	},
	{
		"lon": "5.844777",
		"lat": "49.8627385",
		"number": "48",
		"street": "Rue du Lac",
		"city": "Arsdorf",
		"district": "",
		"postcode": "8808"
	},
	{
		"lon": "5.8443238",
		"lat": "49.8629541",
		"number": "52",
		"street": "Rue du Lac",
		"city": "Arsdorf",
		"district": "",
		"postcode": "8808"
	},
	{
		"lon": "5.8457998",
		"lat": "49.8628312",
		"number": "46",
		"street": "Rue du Lac",
		"city": "Arsdorf",
		"district": "",
		"postcode": "8808"
	},
	{
		"lon": "5.8460337",
		"lat": "49.8616074",
		"number": "44",
		"street": "Rue du Lac",
		"city": "Arsdorf",
		"district": "",
		"postcode": "8808"
	},
	{
		"lon": "5.8461406",
		"lat": "49.8615768",
		"number": "44A",
		"street": "Rue du Lac",
		"city": "Arsdorf",
		"district": "",
		"postcode": "8808"
	},
	{
		"lon": "5.8451814",
		"lat": "49.8617419",
		"number": "42",
		"street": "Rue du Lac",
		"city": "Arsdorf",
		"district": "",
		"postcode": "8808"
	},
	{
		"lon": "5.8452695",
		"lat": "49.8617276",
		"number": "42A",
		"street": "Rue du Lac",
		"city": "Arsdorf",
		"district": "",
		"postcode": "8808"
	},
	{
		"lon": "5.8447079",
		"lat": "49.8611913",
		"number": "10",
		"street": "An der Hiehlt",
		"city": "Arsdorf",
		"district": "",
		"postcode": "8809"
	},
	{
		"lon": "5.8432546",
		"lat": "49.8603661",
		"number": "30",
		"street": "Rue du Lac",
		"city": "Arsdorf",
		"district": "",
		"postcode": "8808"
	},
	{
		"lon": "5.8431916",
		"lat": "49.8608555",
		"number": "2",
		"street": "An der Hiehlt",
		"city": "Arsdorf",
		"district": "",
		"postcode": "8809"
	},
	{
		"lon": "5.8432987",
		"lat": "49.8609562",
		"number": "4",
		"street": "An der Hiehlt",
		"city": "Arsdorf",
		"district": "",
		"postcode": "8809"
	},
	{
		"lon": "5.8434272",
		"lat": "49.8609691",
		"number": "6",
		"street": "An der Hiehlt",
		"city": "Arsdorf",
		"district": "",
		"postcode": "8809"
	},
	{
		"lon": "5.8435572",
		"lat": "49.8609835",
		"number": "8",
		"street": "An der Hiehlt",
		"city": "Arsdorf",
		"district": "",
		"postcode": "8809"
	},
	{
		"lon": "5.8423989",
		"lat": "49.8606668",
		"number": "32",
		"street": "Rue du Lac",
		"city": "Arsdorf",
		"district": "",
		"postcode": "8808"
	},
	{
		"lon": "5.8426729",
		"lat": "49.8608882",
		"number": "1",
		"street": "An der Hiehlt",
		"city": "Arsdorf",
		"district": "",
		"postcode": "8809"
	},
	{
		"lon": "5.84442",
		"lat": "49.8615257",
		"number": "3",
		"street": "An der Hiehlt",
		"city": "Arsdorf",
		"district": "",
		"postcode": "8809"
	},
	{
		"lon": "5.843805",
		"lat": "49.8615784",
		"number": "36",
		"street": "Rue du Lac",
		"city": "Arsdorf",
		"district": "",
		"postcode": "8808"
	},
	{
		"lon": "5.8440028",
		"lat": "49.8614239",
		"number": "5",
		"street": "Place Nicolas Brucher",
		"city": "Arsdorf",
		"district": "",
		"postcode": "8808"
	},
	{
		"lon": "5.8440312",
		"lat": "49.8612613",
		"number": "4",
		"street": "Place Nicolas Brucher",
		"city": "Arsdorf",
		"district": "",
		"postcode": "8808"
	},
	{
		"lon": "5.8437579",
		"lat": "49.8612388",
		"number": "3",
		"street": "Place Nicolas Brucher",
		"city": "Arsdorf",
		"district": "",
		"postcode": "8808"
	},
	{
		"lon": "5.8433191",
		"lat": "49.8612327",
		"number": "2",
		"street": "Place Nicolas Brucher",
		"city": "Arsdorf",
		"district": "",
		"postcode": "8808"
	},
	{
		"lon": "5.8432963",
		"lat": "49.8614201",
		"number": "1",
		"street": "Place Nicolas Brucher",
		"city": "Arsdorf",
		"district": "",
		"postcode": "8808"
	},
	{
		"lon": "5.8434431",
		"lat": "49.8615948",
		"number": "34",
		"street": "Rue du Lac",
		"city": "Arsdorf",
		"district": "",
		"postcode": "8808"
	},
	{
		"lon": "5.844848",
		"lat": "49.8622818",
		"number": "55",
		"street": "Rue du Lac",
		"city": "Arsdorf",
		"district": "",
		"postcode": "8808"
	},
	{
		"lon": "5.845314",
		"lat": "49.862367",
		"number": "53",
		"street": "Rue du Lac",
		"city": "Arsdorf",
		"district": "",
		"postcode": "8808"
	},
	{
		"lon": "5.8446138",
		"lat": "49.8622692",
		"number": "57",
		"street": "Rue du Lac",
		"city": "Arsdorf",
		"district": "",
		"postcode": "8808"
	},
	{
		"lon": "5.8444284",
		"lat": "49.8618218",
		"number": "45",
		"street": "Rue du Lac",
		"city": "Arsdorf",
		"district": "",
		"postcode": "8808"
	},
	{
		"lon": "5.8437763",
		"lat": "49.861842",
		"number": "39",
		"street": "Rue du Lac",
		"city": "Arsdorf",
		"district": "",
		"postcode": "8808"
	},
	{
		"lon": "5.8435218",
		"lat": "49.8619627",
		"number": "37",
		"street": "Rue du Lac",
		"city": "Arsdorf",
		"district": "",
		"postcode": "8808"
	},
	{
		"lon": "5.8416723",
		"lat": "49.8613698",
		"number": "12",
		"street": "Um Knëppchen",
		"city": "Arsdorf",
		"district": "",
		"postcode": "8809"
	},
	{
		"lon": "5.8419666",
		"lat": "49.8614992",
		"number": "6",
		"street": "Um Knëppchen",
		"city": "Arsdorf",
		"district": "",
		"postcode": "8809"
	},
	{
		"lon": "5.8418677",
		"lat": "49.8614636",
		"number": "8",
		"street": "Um Knëppchen",
		"city": "Arsdorf",
		"district": "",
		"postcode": "8809"
	},
	{
		"lon": "5.8417973",
		"lat": "49.8614061",
		"number": "10",
		"street": "Um Knëppchen",
		"city": "Arsdorf",
		"district": "",
		"postcode": "8809"
	},
	{
		"lon": "5.8427136",
		"lat": "49.8620602",
		"number": "33",
		"street": "Rue du Lac",
		"city": "Arsdorf",
		"district": "",
		"postcode": "8808"
	},
	{
		"lon": "5.841497",
		"lat": "49.8613446",
		"number": "14",
		"street": "Um Knëppchen",
		"city": "Arsdorf",
		"district": "",
		"postcode": "8809"
	},
	{
		"lon": "5.8407166",
		"lat": "49.8613252",
		"number": "8",
		"street": "Rue du Cimetière",
		"city": "Arsdorf",
		"district": "",
		"postcode": "8809"
	},
	{
		"lon": "5.8405733",
		"lat": "49.8612569",
		"number": "10",
		"street": "Rue du Cimetière",
		"city": "Arsdorf",
		"district": "",
		"postcode": "8809"
	},
	{
		"lon": "5.8404456",
		"lat": "49.8606733",
		"number": "9",
		"street": "Rue du Cimetière",
		"city": "Arsdorf",
		"district": "",
		"postcode": "8809"
	},
	{
		"lon": "5.8406189",
		"lat": "49.8608667",
		"number": "7",
		"street": "Rue du Cimetière",
		"city": "Arsdorf",
		"district": "",
		"postcode": "8809"
	},
	{
		"lon": "5.8407872",
		"lat": "49.8610463",
		"number": "5",
		"street": "Rue du Cimetière",
		"city": "Arsdorf",
		"district": "",
		"postcode": "8809"
	},
	{
		"lon": "5.8412793",
		"lat": "49.8611826",
		"number": "3",
		"street": "Rue du Cimetière",
		"city": "Arsdorf",
		"district": "",
		"postcode": "8809"
	},
	{
		"lon": "5.8414797",
		"lat": "49.8611499",
		"number": "1",
		"street": "Rue du Cimetière",
		"city": "Arsdorf",
		"district": "",
		"postcode": "8809"
	},
	{
		"lon": "5.8419157",
		"lat": "49.8608011",
		"number": "27",
		"street": "Rue du Lac",
		"city": "Arsdorf",
		"district": "",
		"postcode": "8808"
	},
	{
		"lon": "5.841757",
		"lat": "49.8605658",
		"number": "25",
		"street": "Rue du Lac",
		"city": "Arsdorf",
		"district": "",
		"postcode": "8808"
	},
	{
		"lon": "5.8415995",
		"lat": "49.8600525",
		"number": "11",
		"street": "Rue de la Mairie",
		"city": "Arsdorf",
		"district": "",
		"postcode": "8809"
	},
	{
		"lon": "5.8418758",
		"lat": "49.859831",
		"number": "9A",
		"street": "Rue de la Mairie",
		"city": "Arsdorf",
		"district": "",
		"postcode": "8809"
	},
	{
		"lon": "5.8412606",
		"lat": "49.8595616",
		"number": "9",
		"street": "Rue de la Mairie",
		"city": "Arsdorf",
		"district": "",
		"postcode": "8809"
	},
	{
		"lon": "5.8424507",
		"lat": "49.8602825",
		"number": "2",
		"street": "Rue de la Mairie",
		"city": "Arsdorf",
		"district": "",
		"postcode": "8809"
	},
	{
		"lon": "5.8425195",
		"lat": "49.8603468",
		"number": "21",
		"street": "Rue du Lac",
		"city": "Arsdorf",
		"district": "",
		"postcode": "8808"
	},
	{
		"lon": "5.8424175",
		"lat": "49.8603209",
		"number": "23",
		"street": "Rue du Lac",
		"city": "Arsdorf",
		"district": "",
		"postcode": "8808"
	},
	{
		"lon": "5.8423479",
		"lat": "49.8598975",
		"number": "7",
		"street": "Rue de la Mairie",
		"city": "Arsdorf",
		"district": "",
		"postcode": "8809"
	},
	{
		"lon": "5.8425175",
		"lat": "49.8599372",
		"number": "5",
		"street": "Rue de la Mairie",
		"city": "Arsdorf",
		"district": "",
		"postcode": "8809"
	},
	{
		"lon": "5.8427987",
		"lat": "49.8600235",
		"number": "3",
		"street": "Rue de la Mairie",
		"city": "Arsdorf",
		"district": "",
		"postcode": "8809"
	},
	{
		"lon": "5.8430052",
		"lat": "49.860031",
		"number": "1",
		"street": "Rue de la Mairie",
		"city": "Arsdorf",
		"district": "",
		"postcode": "8809"
	},
	{
		"lon": "5.8432689",
		"lat": "49.8600215",
		"number": "17",
		"street": "Rue du Lac",
		"city": "Arsdorf",
		"district": "",
		"postcode": "8808"
	},
	{
		"lon": "5.8438767",
		"lat": "49.8598923",
		"number": "13",
		"street": "Rue du Lac",
		"city": "Arsdorf",
		"district": "",
		"postcode": "8808"
	},
	{
		"lon": "5.8436384",
		"lat": "49.8599853",
		"number": "15",
		"street": "Rue du Lac",
		"city": "Arsdorf",
		"district": "",
		"postcode": "8808"
	},
	{
		"lon": "5.8437936",
		"lat": "49.859573",
		"number": "11",
		"street": "Rue du Lac",
		"city": "Arsdorf",
		"district": "",
		"postcode": "8808"
	},
	{
		"lon": "5.8439463",
		"lat": "49.8596239",
		"number": "11A",
		"street": "Rue du Lac",
		"city": "Arsdorf",
		"district": "",
		"postcode": "8808"
	},
	{
		"lon": "5.8434629",
		"lat": "49.8594423",
		"number": "7",
		"street": "Rue du Lac",
		"city": "Arsdorf",
		"district": "",
		"postcode": "8808"
	},
	{
		"lon": "5.8431078",
		"lat": "49.8593818",
		"number": "5",
		"street": "Rue du Lac",
		"city": "Arsdorf",
		"district": "",
		"postcode": "8808"
	},
	{
		"lon": "5.841578",
		"lat": "49.8585573",
		"number": "2B",
		"street": "Rue du Lac",
		"city": "Arsdorf",
		"district": "",
		"postcode": "8808"
	},
	{
		"lon": "5.8414558",
		"lat": "49.8585025",
		"number": "2",
		"street": "Rue du Lac",
		"city": "Arsdorf",
		"district": "",
		"postcode": "8808"
	},
	{
		"lon": "5.8412599",
		"lat": "49.8582858",
		"number": "2A",
		"street": "Rue du Lac",
		"city": "Arsdorf",
		"district": "",
		"postcode": "8808"
	},
	{
		"lon": "5.8417329",
		"lat": "49.8586391",
		"number": "4",
		"street": "Rue du Lac",
		"city": "Arsdorf",
		"district": "",
		"postcode": "8808"
	},
	{
		"lon": "5.8420343",
		"lat": "49.8587331",
		"number": "4A",
		"street": "Rue du Lac",
		"city": "Arsdorf",
		"district": "",
		"postcode": "8808"
	},
	{
		"lon": "5.8422861",
		"lat": "49.8587642",
		"number": "6",
		"street": "Rue du Lac",
		"city": "Arsdorf",
		"district": "",
		"postcode": "8808"
	},
	{
		"lon": "5.8427804",
		"lat": "49.8590535",
		"number": "8",
		"street": "Rue du Lac",
		"city": "Arsdorf",
		"district": "",
		"postcode": "8808"
	},
	{
		"lon": "5.8430802",
		"lat": "49.8591148",
		"number": "10",
		"street": "Rue du Lac",
		"city": "Arsdorf",
		"district": "",
		"postcode": "8808"
	},
	{
		"lon": "5.8432944",
		"lat": "49.8591658",
		"number": "12",
		"street": "Rue du Lac",
		"city": "Arsdorf",
		"district": "",
		"postcode": "8808"
	},
	{
		"lon": "5.8435448",
		"lat": "49.8592425",
		"number": "14",
		"street": "Rue du Lac",
		"city": "Arsdorf",
		"district": "",
		"postcode": "8808"
	},
	{
		"lon": "5.8436744",
		"lat": "49.8592992",
		"number": "16",
		"street": "Rue du Lac",
		"city": "Arsdorf",
		"district": "",
		"postcode": "8808"
	},
	{
		"lon": "5.843818",
		"lat": "49.8593103",
		"number": "18",
		"street": "Rue du Lac",
		"city": "Arsdorf",
		"district": "",
		"postcode": "8808"
	},
	{
		"lon": "5.8439696",
		"lat": "49.8593902",
		"number": "22",
		"street": "Rue du Lac",
		"city": "Arsdorf",
		"district": "",
		"postcode": "8808"
	},
	{
		"lon": "5.8440983",
		"lat": "49.8594217",
		"number": "24",
		"street": "Rue du Lac",
		"city": "Arsdorf",
		"district": "",
		"postcode": "8808"
	},
	{
		"lon": "5.8443139",
		"lat": "49.8594847",
		"number": "26",
		"street": "Rue du Lac",
		"city": "Arsdorf",
		"district": "",
		"postcode": "8808"
	},
	{
		"lon": "5.8444703",
		"lat": "49.8593224",
		"number": "2",
		"street": "Rue Jean-Jacques Klein",
		"city": "Arsdorf",
		"district": "",
		"postcode": "8808"
	},
	{
		"lon": "5.8446575",
		"lat": "49.8592106",
		"number": "4",
		"street": "Rue Jean-Jacques Klein",
		"city": "Arsdorf",
		"district": "",
		"postcode": "8808"
	},
	{
		"lon": "5.8446623",
		"lat": "49.859547",
		"number": "3",
		"street": "Rue Jean-Jacques Klein",
		"city": "Arsdorf",
		"district": "",
		"postcode": "8808"
	},
	{
		"lon": "5.8445493",
		"lat": "49.8595881",
		"number": "1",
		"street": "Rue Jean-Jacques Klein",
		"city": "Arsdorf",
		"district": "",
		"postcode": "8808"
	},
	{
		"lon": "5.8442648",
		"lat": "49.8599965",
		"number": "28",
		"street": "Rue du Lac",
		"city": "Arsdorf",
		"district": "",
		"postcode": "8808"
	},
	{
		"lon": "5.8448228",
		"lat": "49.8599203",
		"number": "11",
		"street": "Rue Jean-Jacques Klein",
		"city": "Arsdorf",
		"district": "",
		"postcode": "8808"
	},
	{
		"lon": "5.8447208",
		"lat": "49.859763",
		"number": "7",
		"street": "Rue Jean-Jacques Klein",
		"city": "Arsdorf",
		"district": "",
		"postcode": "8808"
	},
	{
		"lon": "5.8447472",
		"lat": "49.8598527",
		"number": "9",
		"street": "Rue Jean-Jacques Klein",
		"city": "Arsdorf",
		"district": "",
		"postcode": "8808"
	},
	{
		"lon": "5.8448468",
		"lat": "49.8594551",
		"number": "13",
		"street": "Rue Jean-Jacques Klein",
		"city": "Arsdorf",
		"district": "",
		"postcode": "8808"
	},
	{
		"lon": "5.8451601",
		"lat": "49.8593463",
		"number": "17",
		"street": "Rue Jean-Jacques Klein",
		"city": "Arsdorf",
		"district": "",
		"postcode": "8808"
	},
	{
		"lon": "5.8460808",
		"lat": "49.8590433",
		"number": "23",
		"street": "Rue Jean-Jacques Klein",
		"city": "Arsdorf",
		"district": "",
		"postcode": "8808"
	},
	{
		"lon": "5.8463257",
		"lat": "49.8589833",
		"number": "25",
		"street": "Rue Jean-Jacques Klein",
		"city": "Arsdorf",
		"district": "",
		"postcode": "8808"
	},
	{
		"lon": "5.8456767",
		"lat": "49.8591689",
		"number": "21",
		"street": "Rue Jean-Jacques Klein",
		"city": "Arsdorf",
		"district": "",
		"postcode": "8808"
	},
	{
		"lon": "5.8458298",
		"lat": "49.8588839",
		"number": "8",
		"street": "Rue Jean-Jacques Klein",
		"city": "Arsdorf",
		"district": "",
		"postcode": "8808"
	},
	{
		"lon": "5.8453622",
		"lat": "49.8589867",
		"number": "4D",
		"street": "Rue Jean-Jacques Klein",
		"city": "Arsdorf",
		"district": "",
		"postcode": "8808"
	},
	{
		"lon": "5.8452642",
		"lat": "49.8590137",
		"number": "4C",
		"street": "Rue Jean-Jacques Klein",
		"city": "Arsdorf",
		"district": "",
		"postcode": "8808"
	},
	{
		"lon": "5.8450267",
		"lat": "49.8590958",
		"number": "4B",
		"street": "Rue Jean-Jacques Klein",
		"city": "Arsdorf",
		"district": "",
		"postcode": "8808"
	},
	{
		"lon": "5.8449286",
		"lat": "49.8591226",
		"number": "4A",
		"street": "Rue Jean-Jacques Klein",
		"city": "Arsdorf",
		"district": "",
		"postcode": "8808"
	},
	{
		"lon": "5.8455953",
		"lat": "49.8589498",
		"number": "6",
		"street": "Rue Jean-Jacques Klein",
		"city": "Arsdorf",
		"district": "",
		"postcode": "8808"
	},
	{
		"lon": "5.8478647",
		"lat": "49.8584983",
		"number": "4",
		"street": "Op der Lee",
		"city": "Arsdorf",
		"district": "",
		"postcode": "8808"
	},
	{
		"lon": "5.8475185",
		"lat": "49.8586237",
		"number": "2",
		"street": "Op der Lee",
		"city": "Arsdorf",
		"district": "",
		"postcode": "8808"
	},
	{
		"lon": "5.8467605",
		"lat": "49.858986",
		"number": "27A",
		"street": "Rue Jean-Jacques Klein",
		"city": "Arsdorf",
		"district": "",
		"postcode": "8808"
	},
	{
		"lon": "5.8467775",
		"lat": "49.8591155",
		"number": "27",
		"street": "Rue Jean-Jacques Klein",
		"city": "Arsdorf",
		"district": "",
		"postcode": "8808"
	},
	{
		"lon": "5.847124",
		"lat": "49.8590609",
		"number": "29",
		"street": "Rue Jean-Jacques Klein",
		"city": "Arsdorf",
		"district": "",
		"postcode": "8808"
	},
	{
		"lon": "5.8482229",
		"lat": "49.8587539",
		"number": "3",
		"street": "Op der Lee",
		"city": "Arsdorf",
		"district": "",
		"postcode": "8808"
	},
	{
		"lon": "5.848856",
		"lat": "49.8589217",
		"number": "14",
		"street": "Rue Jean-Jacques Klein",
		"city": "Arsdorf",
		"district": "",
		"postcode": "8808"
	},
	{
		"lon": "5.8480896",
		"lat": "49.8585016",
		"number": "7",
		"street": "Op der Lee",
		"city": "Arsdorf",
		"district": "",
		"postcode": "8808"
	},
	{
		"lon": "5.8483406",
		"lat": "49.8586048",
		"number": "5",
		"street": "Op der Lee",
		"city": "Arsdorf",
		"district": "",
		"postcode": "8808"
	},
	{
		"lon": "5.8484884",
		"lat": "49.8578811",
		"number": "2",
		"street": "Op der Baach",
		"city": "Arsdorf",
		"district": "",
		"postcode": "8809"
	},
	{
		"lon": "5.8478447",
		"lat": "49.8582835",
		"number": "6",
		"street": "Op der Lee",
		"city": "Arsdorf",
		"district": "",
		"postcode": "8808"
	},
	{
		"lon": "5.8475164",
		"lat": "49.8583285",
		"number": "12",
		"street": "Op der Lee",
		"city": "Arsdorf",
		"district": "",
		"postcode": "8808"
	},
	{
		"lon": "5.8478797",
		"lat": "49.8580619",
		"number": "8",
		"street": "Op der Lee",
		"city": "Arsdorf",
		"district": "",
		"postcode": "8808"
	},
	{
		"lon": "5.8476562",
		"lat": "49.8579149",
		"number": "10",
		"street": "Op der Lee",
		"city": "Arsdorf",
		"district": "",
		"postcode": "8808"
	},
	{
		"lon": "5.8496121",
		"lat": "49.8588464",
		"number": "1",
		"street": "Op der Baach",
		"city": "Arsdorf",
		"district": "",
		"postcode": "8809"
	},
	{
		"lon": "5.8498074",
		"lat": "49.8589968",
		"number": "16",
		"street": "Rue Jean-Jacques Klein",
		"city": "Arsdorf",
		"district": "",
		"postcode": "8808"
	},
	{
		"lon": "5.8500857",
		"lat": "49.8590942",
		"number": "18",
		"street": "Rue Jean-Jacques Klein",
		"city": "Arsdorf",
		"district": "",
		"postcode": "8808"
	},
	{
		"lon": "5.8524003",
		"lat": "49.859455",
		"number": "34",
		"street": "Rue Jean-Jacques Klein",
		"city": "Arsdorf",
		"district": "",
		"postcode": "8808"
	},
	{
		"lon": "5.8521458",
		"lat": "49.8594484",
		"number": "32",
		"street": "Rue Jean-Jacques Klein",
		"city": "Arsdorf",
		"district": "",
		"postcode": "8808"
	},
	{
		"lon": "5.8517332",
		"lat": "49.8594259",
		"number": "30",
		"street": "Rue Jean-Jacques Klein",
		"city": "Arsdorf",
		"district": "",
		"postcode": "8808"
	},
	{
		"lon": "5.8511226",
		"lat": "49.859362",
		"number": "26",
		"street": "Rue Jean-Jacques Klein",
		"city": "Arsdorf",
		"district": "",
		"postcode": "8808"
	},
	{
		"lon": "5.8507267",
		"lat": "49.8593046",
		"number": "24",
		"street": "Rue Jean-Jacques Klein",
		"city": "Arsdorf",
		"district": "",
		"postcode": "8808"
	},
	{
		"lon": "5.8504877",
		"lat": "49.8592273",
		"number": "22",
		"street": "Rue Jean-Jacques Klein",
		"city": "Arsdorf",
		"district": "",
		"postcode": "8808"
	},
	{
		"lon": "5.8503877",
		"lat": "49.8591759",
		"number": "20",
		"street": "Rue Jean-Jacques Klein",
		"city": "Arsdorf",
		"district": "",
		"postcode": "8808"
	},
	{
		"lon": "5.849052",
		"lat": "49.8579452",
		"number": "7",
		"street": "Op der Baach",
		"city": "Arsdorf",
		"district": "",
		"postcode": "8809"
	},
	{
		"lon": "5.8489681",
		"lat": "49.8574904",
		"number": "13",
		"street": "Op der Baach",
		"city": "Arsdorf",
		"district": "",
		"postcode": "8809"
	},
	{
		"lon": "5.8490332",
		"lat": "49.8577247",
		"number": "9",
		"street": "Op der Baach",
		"city": "Arsdorf",
		"district": "",
		"postcode": "8809"
	},
	{
		"lon": "5.8493288",
		"lat": "49.8571332",
		"number": "15",
		"street": "Op der Baach",
		"city": "Arsdorf",
		"district": "",
		"postcode": "8809"
	},
	{
		"lon": "5.8489065",
		"lat": "49.8569785",
		"number": "17",
		"street": "Op der Baach",
		"city": "Arsdorf",
		"district": "",
		"postcode": "8809"
	},
	{
		"lon": "5.8404426",
		"lat": "49.8610238",
		"number": "12",
		"street": "Rue du Cimetière",
		"city": "Arsdorf",
		"district": "",
		"postcode": "8809"
	},
	{
		"lon": "5.8401157",
		"lat": "49.86088",
		"number": "14A",
		"street": "Rue du Cimetière",
		"city": "Arsdorf",
		"district": "",
		"postcode": "8809"
	},
	{
		"lon": "5.8394618",
		"lat": "49.8602918",
		"number": "16",
		"street": "Rue du Cimetière",
		"city": "Arsdorf",
		"district": "",
		"postcode": "8809"
	},
	{
		"lon": "5.8390146",
		"lat": "49.860061",
		"number": "18",
		"street": "Rue du Cimetière",
		"city": "Arsdorf",
		"district": "",
		"postcode": "8809"
	},
	{
		"lon": "5.8375994",
		"lat": "49.8606324",
		"number": "8",
		"street": "Neimilleschpad",
		"city": "Arsdorf",
		"district": "",
		"postcode": "8809"
	},
	{
		"lon": "5.8377911",
		"lat": "49.8605245",
		"number": "6",
		"street": "Neimilleschpad",
		"city": "Arsdorf",
		"district": "",
		"postcode": "8809"
	},
	{
		"lon": "5.836177",
		"lat": "49.8595036",
		"number": "28",
		"street": "Rue du Cimetière",
		"city": "Arsdorf",
		"district": "",
		"postcode": "8809"
	},
	{
		"lon": "5.8368621",
		"lat": "49.8596984",
		"number": "26",
		"street": "Rue du Cimetière",
		"city": "Arsdorf",
		"district": "",
		"postcode": "8809"
	},
	{
		"lon": "5.8376075",
		"lat": "49.8600085",
		"number": "1",
		"street": "Neimilleschpad",
		"city": "Arsdorf",
		"district": "",
		"postcode": "8809"
	},
	{
		"lon": "5.8372669",
		"lat": "49.8601517",
		"number": "3",
		"street": "Neimilleschpad",
		"city": "Arsdorf",
		"district": "",
		"postcode": "8809"
	},
	{
		"lon": "5.8358864",
		"lat": "49.8593614",
		"number": "30",
		"street": "Rue du Cimetière",
		"city": "Arsdorf",
		"district": "",
		"postcode": "8809"
	},
	{
		"lon": "5.8358806",
		"lat": "49.8591317",
		"number": "63",
		"street": "Rue du Cimetière",
		"city": "Arsdorf",
		"district": "",
		"postcode": "8809"
	},
	{
		"lon": "5.8360151",
		"lat": "49.8592208",
		"number": "61",
		"street": "Rue du Cimetière",
		"city": "Arsdorf",
		"district": "",
		"postcode": "8809"
	},
	{
		"lon": "5.8349393",
		"lat": "49.8398676",
		"number": "7",
		"street": "Route de Martelange",
		"city": "Koetschette",
		"district": "",
		"postcode": "8821"
	},
	{
		"lon": "5.8341002",
		"lat": "49.8398939",
		"number": "11",
		"street": "Route de Martelange",
		"city": "Koetschette",
		"district": "",
		"postcode": "8821"
	},
	{
		"lon": "5.8337879",
		"lat": "49.8399225",
		"number": "13",
		"street": "Route de Martelange",
		"city": "Koetschette",
		"district": "",
		"postcode": "8821"
	},
	{
		"lon": "5.8335709",
		"lat": "49.8399119",
		"number": "15",
		"street": "Route de Martelange",
		"city": "Koetschette",
		"district": "",
		"postcode": "8821"
	},
	{
		"lon": "5.8323413",
		"lat": "49.8397386",
		"number": "23",
		"street": "Route de Martelange",
		"city": "Koetschette",
		"district": "",
		"postcode": "8821"
	},
	{
		"lon": "5.832653",
		"lat": "49.8397849",
		"number": "21",
		"street": "Route de Martelange",
		"city": "Koetschette",
		"district": "",
		"postcode": "8821"
	},
	{
		"lon": "5.8329448",
		"lat": "49.8398135",
		"number": "19",
		"street": "Route de Martelange",
		"city": "Koetschette",
		"district": "",
		"postcode": "8821"
	},
	{
		"lon": "5.8332391",
		"lat": "49.8398604",
		"number": "17",
		"street": "Route de Martelange",
		"city": "Koetschette",
		"district": "",
		"postcode": "8821"
	},
	{
		"lon": "5.8345407",
		"lat": "49.8399207",
		"number": "9",
		"street": "Route de Martelange",
		"city": "Koetschette",
		"district": "",
		"postcode": "8821"
	},
	{
		"lon": "5.8357164",
		"lat": "49.8399062",
		"number": "5",
		"street": "Rue de Martelange",
		"city": "Wolwelange",
		"district": "",
		"postcode": "8833"
	},
	{
		"lon": "5.8365918",
		"lat": "49.8397711",
		"number": "3",
		"street": "Rue de Martelange",
		"city": "Wolwelange",
		"district": "",
		"postcode": "8833"
	},
	{
		"lon": "5.8389809",
		"lat": "49.8403123",
		"number": "1",
		"street": "Rue de la Paix",
		"city": "Koetschette",
		"district": "",
		"postcode": "8821"
	},
	{
		"lon": "5.8376883",
		"lat": "49.8400695",
		"number": "1A",
		"street": "Rue de la Paix",
		"city": "Koetschette",
		"district": "",
		"postcode": "8821"
	},
	{
		"lon": "5.8402691",
		"lat": "49.8399219",
		"number": "6",
		"street": "Rue d'Arsdorf",
		"city": "Koetschette",
		"district": "",
		"postcode": "8821"
	},
	{
		"lon": "5.8401695",
		"lat": "49.8396472",
		"number": "4",
		"street": "Rue d'Arsdorf",
		"city": "Koetschette",
		"district": "",
		"postcode": "8821"
	},
	{
		"lon": "5.8149369",
		"lat": "49.8398849",
		"number": "10",
		"street": "Zone Industrielle",
		"city": "Riesenhof",
		"district": "",
		"postcode": "8821"
	},
	{
		"lon": "5.8137474",
		"lat": "49.8400745",
		"number": "14",
		"street": "Zone Industrielle",
		"city": "Riesenhof",
		"district": "",
		"postcode": "8821"
	},
	{
		"lon": "5.8146552",
		"lat": "49.8390964",
		"number": "9",
		"street": "Zone Industrielle",
		"city": "Riesenhof",
		"district": "",
		"postcode": "8821"
	},
	{
		"lon": "5.8136883",
		"lat": "49.8393361",
		"number": "11",
		"street": "Zone Industrielle",
		"city": "Riesenhof",
		"district": "",
		"postcode": "8821"
	},
	{
		"lon": "5.8143361",
		"lat": "49.8399046",
		"number": "12",
		"street": "Zone Industrielle",
		"city": "Riesenhof",
		"district": "",
		"postcode": "8821"
	},
	{
		"lon": "5.815637",
		"lat": "49.8398281",
		"number": "8",
		"street": "Zone Industrielle",
		"city": "Riesenhof",
		"district": "",
		"postcode": "8821"
	},
	{
		"lon": "5.815637",
		"lat": "49.8398281",
		"number": "8A",
		"street": "Zone Industrielle",
		"city": "Riesenhof",
		"district": "",
		"postcode": "8821"
	},
	{
		"lon": "5.8155648",
		"lat": "49.8389495",
		"number": "7",
		"street": "Zone Industrielle",
		"city": "Riesenhof",
		"district": "",
		"postcode": "8821"
	},
	{
		"lon": "5.8168976",
		"lat": "49.8388572",
		"number": "3",
		"street": "Zone Industrielle",
		"city": "Riesenhof",
		"district": "",
		"postcode": "8821"
	},
	{
		"lon": "5.8163293",
		"lat": "49.8388215",
		"number": "5",
		"street": "Zone Industrielle",
		"city": "Riesenhof",
		"district": "",
		"postcode": "8821"
	},
	{
		"lon": "5.8178964",
		"lat": "49.8393525",
		"number": "2",
		"street": "Zone Industrielle",
		"city": "Riesenhof",
		"district": "",
		"postcode": "8821"
	},
	{
		"lon": "5.8174578",
		"lat": "49.8387776",
		"number": "1",
		"street": "Zone Industrielle",
		"city": "Riesenhof",
		"district": "",
		"postcode": "8821"
	},
	{
		"lon": "5.8267768",
		"lat": "49.8577845",
		"number": "16",
		"street": "Rue Abbé Neuens",
		"city": "Bilsdorf",
		"district": "",
		"postcode": "8811"
	},
	{
		"lon": "5.827194",
		"lat": "49.858046",
		"number": "12A",
		"street": "Rue Abbé Neuens",
		"city": "Bilsdorf",
		"district": "",
		"postcode": "8811"
	},
	{
		"lon": "5.8273766",
		"lat": "49.8580856",
		"number": "12",
		"street": "Rue Abbé Neuens",
		"city": "Bilsdorf",
		"district": "",
		"postcode": "8811"
	},
	{
		"lon": "5.8275778",
		"lat": "49.8581228",
		"number": "10",
		"street": "Rue Abbé Neuens",
		"city": "Bilsdorf",
		"district": "",
		"postcode": "8811"
	},
	{
		"lon": "5.8280438",
		"lat": "49.8582982",
		"number": "8",
		"street": "Rue Abbé Neuens",
		"city": "Bilsdorf",
		"district": "",
		"postcode": "8811"
	},
	{
		"lon": "5.8295714",
		"lat": "49.8579586",
		"number": "1",
		"street": "Rue Abbé Neuens",
		"city": "Bilsdorf",
		"district": "",
		"postcode": "8811"
	},
	{
		"lon": "5.8254121",
		"lat": "49.8562444",
		"number": "3",
		"street": "An der Buch",
		"city": "Bilsdorf",
		"district": "",
		"postcode": "8811"
	},
	{
		"lon": "5.8268763",
		"lat": "49.8569284",
		"number": "6",
		"street": "Riesenhafferwee",
		"city": "Bilsdorf",
		"district": "",
		"postcode": "8811"
	},
	{
		"lon": "5.8270806",
		"lat": "49.8575266",
		"number": "2",
		"street": "Riesenhafferwee",
		"city": "Bilsdorf",
		"district": "",
		"postcode": "8811"
	},
	{
		"lon": "5.8261569",
		"lat": "49.8572774",
		"number": "5",
		"street": "Rue Abbé Neuens",
		"city": "Bilsdorf",
		"district": "",
		"postcode": "8811"
	},
	{
		"lon": "5.8253086",
		"lat": "49.8569413",
		"number": "9",
		"street": "Rue Abbé Neuens",
		"city": "Bilsdorf",
		"district": "",
		"postcode": "8811"
	},
	{
		"lon": "5.8249647",
		"lat": "49.8564662",
		"number": "1",
		"street": "An der Buch",
		"city": "Bilsdorf",
		"district": "",
		"postcode": "8811"
	},
	{
		"lon": "5.825157",
		"lat": "49.8563559",
		"number": "1A",
		"street": "An der Buch",
		"city": "Bilsdorf",
		"district": "",
		"postcode": "8811"
	},
	{
		"lon": "5.8244833",
		"lat": "49.8566007",
		"number": "15",
		"street": "Rue Abbé Neuens",
		"city": "Bilsdorf",
		"district": "",
		"postcode": "8811"
	},
	{
		"lon": "5.8241834",
		"lat": "49.8563102",
		"number": "2",
		"street": "An der Buch",
		"city": "Bilsdorf",
		"district": "",
		"postcode": "8811"
	},
	{
		"lon": "5.8244779",
		"lat": "49.8561854",
		"number": "6",
		"street": "An der Buch",
		"city": "Bilsdorf",
		"district": "",
		"postcode": "8811"
	},
	{
		"lon": "5.8236627",
		"lat": "49.8563118",
		"number": "2",
		"street": "Rue des Passeurs",
		"city": "Bilsdorf",
		"district": "",
		"postcode": "8811"
	},
	{
		"lon": "5.8239603",
		"lat": "49.8565971",
		"number": "17",
		"street": "Rue Abbé Neuens",
		"city": "Bilsdorf",
		"district": "",
		"postcode": "8811"
	},
	{
		"lon": "5.8215528",
		"lat": "49.8565925",
		"number": "31",
		"street": "Rue Abbé Neuens",
		"city": "Bilsdorf",
		"district": "",
		"postcode": "8811"
	},
	{
		"lon": "5.8212501",
		"lat": "49.8565154",
		"number": "33",
		"street": "Rue Abbé Neuens",
		"city": "Bilsdorf",
		"district": "",
		"postcode": "8811"
	},
	{
		"lon": "5.8218863",
		"lat": "49.8565694",
		"number": "29",
		"street": "Rue Abbé Neuens",
		"city": "Bilsdorf",
		"district": "",
		"postcode": "8811"
	},
	{
		"lon": "5.8204147",
		"lat": "49.8558415",
		"number": "37",
		"street": "Rue Abbé Neuens",
		"city": "Bilsdorf",
		"district": "",
		"postcode": "8811"
	},
	{
		"lon": "5.8204147",
		"lat": "49.8558415",
		"number": "43",
		"street": "Rue Abbé Neuens",
		"city": "Bilsdorf",
		"district": "",
		"postcode": "8811"
	},
	{
		"lon": "5.82213",
		"lat": "49.8566026",
		"number": "27",
		"street": "Rue Abbé Neuens",
		"city": "Bilsdorf",
		"district": "",
		"postcode": "8811"
	},
	{
		"lon": "5.8222875",
		"lat": "49.8566412",
		"number": "25",
		"street": "Rue Abbé Neuens",
		"city": "Bilsdorf",
		"district": "",
		"postcode": "8811"
	},
	{
		"lon": "5.8224846",
		"lat": "49.8566573",
		"number": "23",
		"street": "Rue Abbé Neuens",
		"city": "Bilsdorf",
		"district": "",
		"postcode": "8811"
	},
	{
		"lon": "5.8227494",
		"lat": "49.8565842",
		"number": "21",
		"street": "Rue Abbé Neuens",
		"city": "Bilsdorf",
		"district": "",
		"postcode": "8811"
	},
	{
		"lon": "5.8226631",
		"lat": "49.8566995",
		"number": "21",
		"street": "Rue Abbé Neuens",
		"city": "Bilsdorf",
		"district": "",
		"postcode": "8811"
	},
	{
		"lon": "5.8218793",
		"lat": "49.8567896",
		"number": "44",
		"street": "Rue Abbé Neuens",
		"city": "Bilsdorf",
		"district": "",
		"postcode": "8811"
	},
	{
		"lon": "5.8221328",
		"lat": "49.8568125",
		"number": "42",
		"street": "Rue Abbé Neuens",
		"city": "Bilsdorf",
		"district": "",
		"postcode": "8811"
	},
	{
		"lon": "5.8228472",
		"lat": "49.8569791",
		"number": "38",
		"street": "Rue Abbé Neuens",
		"city": "Bilsdorf",
		"district": "",
		"postcode": "8811"
	},
	{
		"lon": "5.8233024",
		"lat": "49.8571997",
		"number": "1",
		"street": "Neimillewee",
		"city": "Bilsdorf",
		"district": "",
		"postcode": "8811"
	},
	{
		"lon": "5.8232251",
		"lat": "49.8573511",
		"number": "3",
		"street": "Neimillewee",
		"city": "Bilsdorf",
		"district": "",
		"postcode": "8811"
	},
	{
		"lon": "5.8231496",
		"lat": "49.8575431",
		"number": "5",
		"street": "Neimillewee",
		"city": "Bilsdorf",
		"district": "",
		"postcode": "8811"
	},
	{
		"lon": "5.822948",
		"lat": "49.8577528",
		"number": "7",
		"street": "Neimillewee",
		"city": "Bilsdorf",
		"district": "",
		"postcode": "8811"
	},
	{
		"lon": "5.8236251",
		"lat": "49.8573354",
		"number": "2",
		"street": "Neimillewee",
		"city": "Bilsdorf",
		"district": "",
		"postcode": "8811"
	},
	{
		"lon": "5.8238028",
		"lat": "49.8569983",
		"number": "30",
		"street": "Rue Abbé Neuens",
		"city": "Bilsdorf",
		"district": "",
		"postcode": "8811"
	},
	{
		"lon": "5.8242295",
		"lat": "49.8571341",
		"number": "36",
		"street": "Rue Abbé Neuens",
		"city": "Bilsdorf",
		"district": "",
		"postcode": "8811"
	},
	{
		"lon": "5.8245689",
		"lat": "49.8570788",
		"number": "26",
		"street": "Rue Abbé Neuens",
		"city": "Bilsdorf",
		"district": "",
		"postcode": "8811"
	},
	{
		"lon": "5.8240293",
		"lat": "49.8570833",
		"number": "32",
		"street": "Rue Abbé Neuens",
		"city": "Bilsdorf",
		"district": "",
		"postcode": "8811"
	},
	{
		"lon": "5.8243052",
		"lat": "49.8567736",
		"number": "28",
		"street": "Rue Abbé Neuens",
		"city": "Bilsdorf",
		"district": "",
		"postcode": "8811"
	},
	{
		"lon": "5.8232028",
		"lat": "49.8578798",
		"number": "6",
		"street": "Neimillewee",
		"city": "Bilsdorf",
		"district": "",
		"postcode": "8811"
	},
	{
		"lon": "5.8212093",
		"lat": "49.8574557",
		"number": "52",
		"street": "Rue Abbé Neuens",
		"city": "Bilsdorf",
		"district": "",
		"postcode": "8811"
	},
	{
		"lon": "5.8208093",
		"lat": "49.8576385",
		"number": "52",
		"street": "Rue Abbé Neuens",
		"city": "Bilsdorf",
		"district": "",
		"postcode": "8811"
	},
	{
		"lon": "5.8206528",
		"lat": "49.8575737",
		"number": "52",
		"street": "Rue Abbé Neuens",
		"city": "Bilsdorf",
		"district": "",
		"postcode": "8811"
	},
	{
		"lon": "5.8205794",
		"lat": "49.8569934",
		"number": "54",
		"street": "Rue Abbé Neuens",
		"city": "Bilsdorf",
		"district": "",
		"postcode": "8811"
	},
	{
		"lon": "5.8207803",
		"lat": "49.8566574",
		"number": "35B",
		"street": "Rue Abbé Neuens",
		"city": "Bilsdorf",
		"district": "",
		"postcode": "8811"
	},
	{
		"lon": "5.8211862",
		"lat": "49.856793",
		"number": "35A",
		"street": "Rue Abbé Neuens",
		"city": "Bilsdorf",
		"district": "",
		"postcode": "8811"
	},
	{
		"lon": "5.8259549",
		"lat": "49.854835",
		"number": "24",
		"street": "Riesenhafferwee",
		"city": "Bilsdorf",
		"district": "",
		"postcode": "8811"
	},
	{
		"lon": "5.8268873",
		"lat": "49.8556724",
		"number": "13",
		"street": "Riesenhafferwee",
		"city": "Bilsdorf",
		"district": "",
		"postcode": "8811"
	},
	{
		"lon": "5.8273359",
		"lat": "49.8564156",
		"number": "7",
		"street": "Riesenhafferwee",
		"city": "Bilsdorf",
		"district": "",
		"postcode": "8811"
	},
	{
		"lon": "5.8270677",
		"lat": "49.8562194",
		"number": "9",
		"street": "Riesenhafferwee",
		"city": "Bilsdorf",
		"district": "",
		"postcode": "8811"
	},
	{
		"lon": "5.8267287",
		"lat": "49.8565547",
		"number": "8",
		"street": "Riesenhafferwee",
		"city": "Bilsdorf",
		"district": "",
		"postcode": "8811"
	},
	{
		"lon": "5.826399",
		"lat": "49.8560079",
		"number": "14",
		"street": "Riesenhafferwee",
		"city": "Bilsdorf",
		"district": "",
		"postcode": "8811"
	},
	{
		"lon": "5.8258379",
		"lat": "49.8549825",
		"number": "22",
		"street": "Riesenhafferwee",
		"city": "Bilsdorf",
		"district": "",
		"postcode": "8811"
	},
	{
		"lon": "5.8258686",
		"lat": "49.8552775",
		"number": "20",
		"street": "Riesenhafferwee",
		"city": "Bilsdorf",
		"district": "",
		"postcode": "8811"
	},
	{
		"lon": "5.8248795",
		"lat": "49.8557795",
		"number": "10",
		"street": "An der Buch",
		"city": "Bilsdorf",
		"district": "",
		"postcode": "8811"
	},
	{
		"lon": "5.8247682",
		"lat": "49.8560084",
		"number": "8",
		"street": "An der Buch",
		"city": "Bilsdorf",
		"district": "",
		"postcode": "8811"
	},
	{
		"lon": "5.8246219",
		"lat": "49.8555934",
		"number": "12",
		"street": "An der Buch",
		"city": "Bilsdorf",
		"district": "",
		"postcode": "8811"
	},
	{
		"lon": "5.8243599",
		"lat": "49.8554005",
		"number": "14",
		"street": "An der Buch",
		"city": "Bilsdorf",
		"district": "",
		"postcode": "8811"
	},
	{
		"lon": "5.8205443",
		"lat": "49.8541188",
		"number": "11",
		"street": "Rue des Passeurs",
		"city": "Bilsdorf",
		"district": "",
		"postcode": "8811"
	},
	{
		"lon": "5.8236422",
		"lat": "49.855598",
		"number": "9",
		"street": "Rue des Passeurs",
		"city": "Bilsdorf",
		"district": "",
		"postcode": "8811"
	},
	{
		"lon": "5.8226267",
		"lat": "49.8554373",
		"number": "7",
		"street": "Rue des Passeurs",
		"city": "Bilsdorf",
		"district": "",
		"postcode": "8811"
	},
	{
		"lon": "5.8219746",
		"lat": "49.8555127",
		"number": "8",
		"street": "Rue des Passeurs",
		"city": "Bilsdorf",
		"district": "",
		"postcode": "8811"
	},
	{
		"lon": "5.8220551",
		"lat": "49.8551936",
		"number": "12",
		"street": "Rue des Passeurs",
		"city": "Bilsdorf",
		"district": "",
		"postcode": "8811"
	},
	{
		"lon": "5.8215765",
		"lat": "49.8554037",
		"number": "10",
		"street": "Rue des Passeurs",
		"city": "Bilsdorf",
		"district": "",
		"postcode": "8811"
	},
	{
		"lon": "5.9722831",
		"lat": "50.0977652",
		"number": "78",
		"street": "Maison",
		"city": "Asselborn",
		"district": "",
		"postcode": "9940"
	},
	{
		"lon": "5.9722831",
		"lat": "50.0977652",
		"number": "78A",
		"street": "Maison",
		"city": "Asselborn",
		"district": "",
		"postcode": "9940"
	},
	{
		"lon": "5.9724823",
		"lat": "50.0974089",
		"number": "80",
		"street": "Maison",
		"city": "Asselborn",
		"district": "",
		"postcode": "9940"
	},
	{
		"lon": "5.9724823",
		"lat": "50.0974089",
		"number": "81",
		"street": "Maison",
		"city": "Asselborn",
		"district": "",
		"postcode": "9940"
	},
	{
		"lon": "5.9727529",
		"lat": "50.0973127",
		"number": "82",
		"street": "Maison",
		"city": "Asselborn",
		"district": "",
		"postcode": "9940"
	},
	{
		"lon": "5.973136",
		"lat": "50.0972067",
		"number": "84",
		"street": "Maison",
		"city": "Asselborn",
		"district": "",
		"postcode": "9940"
	},
	{
		"lon": "5.9731514",
		"lat": "50.0970477",
		"number": "86",
		"street": "Maison",
		"city": "Asselborn",
		"district": "",
		"postcode": "9940"
	},
	{
		"lon": "5.9734775",
		"lat": "50.0968531",
		"number": "88",
		"street": "Maison",
		"city": "Asselborn",
		"district": "",
		"postcode": "9940"
	},
	{
		"lon": "5.9732607",
		"lat": "50.0966734",
		"number": "119",
		"street": "Maison",
		"city": "Asselborn",
		"district": "",
		"postcode": "9940"
	},
	{
		"lon": "5.9732848",
		"lat": "50.0963197",
		"number": "131A",
		"street": "Maison",
		"city": "Asselborn",
		"district": "",
		"postcode": "9940"
	},
	{
		"lon": "5.9733153",
		"lat": "50.0963867",
		"number": "131",
		"street": "Maison",
		"city": "Asselborn",
		"district": "",
		"postcode": "9940"
	},
	{
		"lon": "5.9727998",
		"lat": "50.0968182",
		"number": "121",
		"street": "Maison",
		"city": "Asselborn",
		"district": "",
		"postcode": "9940"
	},
	{
		"lon": "5.9728414",
		"lat": "50.0966543",
		"number": "120",
		"street": "Maison",
		"city": "Asselborn",
		"district": "",
		"postcode": "9940"
	},
	{
		"lon": "5.9713225",
		"lat": "50.0969947",
		"number": "187D",
		"street": "Maison",
		"city": "Asselborn",
		"district": "",
		"postcode": "9940"
	},
	{
		"lon": "5.9715476",
		"lat": "50.0968765",
		"number": "187C",
		"street": "Maison",
		"city": "Asselborn",
		"district": "",
		"postcode": "9940"
	},
	{
		"lon": "5.9714542",
		"lat": "50.097107",
		"number": "187B",
		"street": "Maison",
		"city": "Asselborn",
		"district": "",
		"postcode": "9940"
	},
	{
		"lon": "5.9715441",
		"lat": "50.0971711",
		"number": "187",
		"street": "Maison",
		"city": "Asselborn",
		"district": "",
		"postcode": "9940"
	},
	{
		"lon": "5.9716163",
		"lat": "50.0972444",
		"number": "187A",
		"street": "Maison",
		"city": "Asselborn",
		"district": "",
		"postcode": "9940"
	},
	{
		"lon": "5.9717409",
		"lat": "50.0968192",
		"number": "124",
		"street": "Maison",
		"city": "Asselborn",
		"district": "",
		"postcode": "9940"
	},
	{
		"lon": "5.9722384",
		"lat": "50.0965098",
		"number": "126",
		"street": "Maison",
		"city": "Asselborn",
		"district": "",
		"postcode": "9940"
	},
	{
		"lon": "5.9725878",
		"lat": "50.0963901",
		"number": "129",
		"street": "Maison",
		"city": "Asselborn",
		"district": "",
		"postcode": "9940"
	},
	{
		"lon": "5.9728808",
		"lat": "50.0960603",
		"number": "130",
		"street": "Maison",
		"city": "Asselborn",
		"district": "",
		"postcode": "9940"
	},
	{
		"lon": "5.9731888",
		"lat": "50.0960376",
		"number": "132A",
		"street": "Maison",
		"city": "Asselborn",
		"district": "",
		"postcode": "9940"
	},
	{
		"lon": "5.9732282",
		"lat": "50.0961192",
		"number": "132",
		"street": "Maison",
		"city": "Asselborn",
		"district": "",
		"postcode": "9940"
	},
	{
		"lon": "5.9731558",
		"lat": "50.0959309",
		"number": "133",
		"street": "Maison",
		"city": "Asselborn",
		"district": "",
		"postcode": "9940"
	},
	{
		"lon": "5.972878",
		"lat": "50.0957239",
		"number": "144",
		"street": "Maison",
		"city": "Asselborn",
		"district": "",
		"postcode": "9940"
	},
	{
		"lon": "5.971695",
		"lat": "50.0958164",
		"number": "137",
		"street": "Maison",
		"city": "Asselborn",
		"district": "",
		"postcode": "9940"
	},
	{
		"lon": "5.9720142",
		"lat": "50.0962495",
		"number": "128",
		"street": "Maison",
		"city": "Asselborn",
		"district": "",
		"postcode": "9940"
	},
	{
		"lon": "5.972042",
		"lat": "50.0963598",
		"number": "127",
		"street": "Maison",
		"city": "Asselborn",
		"district": "",
		"postcode": "9940"
	},
	{
		"lon": "5.9711088",
		"lat": "50.0968114",
		"number": "180",
		"street": "Maison",
		"city": "Asselborn",
		"district": "",
		"postcode": "9940"
	},
	{
		"lon": "5.9712949",
		"lat": "50.0959486",
		"number": "136",
		"street": "Maison",
		"city": "Asselborn",
		"district": "",
		"postcode": "9940"
	},
	{
		"lon": "5.9709934",
		"lat": "50.0961865",
		"number": "178",
		"street": "Maison",
		"city": "Asselborn",
		"district": "",
		"postcode": "9940"
	},
	{
		"lon": "5.9708325",
		"lat": "50.0956863",
		"number": "134",
		"street": "Maison",
		"city": "Asselborn",
		"district": "",
		"postcode": "9940"
	},
	{
		"lon": "5.970298",
		"lat": "50.095393",
		"number": "173",
		"street": "Maison",
		"city": "Asselborn",
		"district": "",
		"postcode": "9940"
	},
	{
		"lon": "5.9706671",
		"lat": "50.0951359",
		"number": "166",
		"street": "Maison",
		"city": "Asselborn",
		"district": "",
		"postcode": "9940"
	},
	{
		"lon": "5.9702427",
		"lat": "50.0950355",
		"number": "169",
		"street": "Maison",
		"city": "Asselborn",
		"district": "",
		"postcode": "9940"
	},
	{
		"lon": "5.9704896",
		"lat": "50.0945855",
		"number": "165",
		"street": "Maison",
		"city": "Asselborn",
		"district": "",
		"postcode": "9940"
	},
	{
		"lon": "5.9707463",
		"lat": "50.094511",
		"number": "165A",
		"street": "Maison",
		"city": "Asselborn",
		"district": "",
		"postcode": "9940"
	},
	{
		"lon": "5.969881",
		"lat": "50.0945097",
		"number": "170",
		"street": "Maison",
		"city": "Asselborn",
		"district": "",
		"postcode": "9940"
	},
	{
		"lon": "5.9710775",
		"lat": "50.0944591",
		"number": "161",
		"street": "Maison",
		"city": "Asselborn",
		"district": "",
		"postcode": "9940"
	},
	{
		"lon": "5.9714644",
		"lat": "50.0943176",
		"number": "160",
		"street": "Maison",
		"city": "Asselborn",
		"district": "",
		"postcode": "9940"
	},
	{
		"lon": "5.9717674",
		"lat": "50.0941077",
		"number": "153",
		"street": "Maison",
		"city": "Asselborn",
		"district": "",
		"postcode": "9940"
	},
	{
		"lon": "5.9720134",
		"lat": "50.0946366",
		"number": "151",
		"street": "Maison",
		"city": "Asselborn",
		"district": "",
		"postcode": "9940"
	},
	{
		"lon": "5.9722267",
		"lat": "50.0952804",
		"number": "141",
		"street": "Maison",
		"city": "Asselborn",
		"district": "",
		"postcode": "9940"
	},
	{
		"lon": "5.9722267",
		"lat": "50.0952804",
		"number": "142",
		"street": "Maison",
		"city": "Asselborn",
		"district": "",
		"postcode": "9940"
	},
	{
		"lon": "5.9718878",
		"lat": "50.0953052",
		"number": "140",
		"street": "Maison",
		"city": "Asselborn",
		"district": "",
		"postcode": "9940"
	},
	{
		"lon": "5.971689",
		"lat": "50.0953685",
		"number": "139",
		"street": "Maison",
		"city": "Asselborn",
		"district": "",
		"postcode": "9940"
	},
	{
		"lon": "5.9720076",
		"lat": "50.0950238",
		"number": "149",
		"street": "Maison",
		"city": "Asselborn",
		"district": "",
		"postcode": "9940"
	},
	{
		"lon": "5.9714394",
		"lat": "50.0947729",
		"number": "161A",
		"street": "Maison",
		"city": "Asselborn",
		"district": "",
		"postcode": "9940"
	},
	{
		"lon": "5.9717777",
		"lat": "50.0949599",
		"number": "150",
		"street": "Maison",
		"city": "Asselborn",
		"district": "",
		"postcode": "9940"
	},
	{
		"lon": "5.9710142",
		"lat": "50.0949178",
		"number": "163",
		"street": "Maison",
		"city": "Asselborn",
		"district": "",
		"postcode": "9940"
	},
	{
		"lon": "5.9709122",
		"lat": "50.0947935",
		"number": "164",
		"street": "Maison",
		"city": "Asselborn",
		"district": "",
		"postcode": "9940"
	},
	{
		"lon": "5.9715299",
		"lat": "50.0950752",
		"number": "162A",
		"street": "Maison",
		"city": "Asselborn",
		"district": "",
		"postcode": "9940"
	},
	{
		"lon": "5.9710391",
		"lat": "50.0952923",
		"number": "167",
		"street": "Maison",
		"city": "Asselborn",
		"district": "",
		"postcode": "9940"
	},
	{
		"lon": "5.9711611",
		"lat": "50.0955644",
		"number": "135",
		"street": "Maison",
		"city": "Asselborn",
		"district": "",
		"postcode": "9940"
	},
	{
		"lon": "5.9710959",
		"lat": "50.0950151",
		"number": "162",
		"street": "Maison",
		"city": "Asselborn",
		"district": "",
		"postcode": "9940"
	},
	{
		"lon": "5.9718371",
		"lat": "50.095491",
		"number": "138",
		"street": "Maison",
		"city": "Asselborn",
		"district": "",
		"postcode": "9940"
	},
	{
		"lon": "5.9727888",
		"lat": "50.0954616",
		"number": "143",
		"street": "Maison",
		"city": "Asselborn",
		"district": "",
		"postcode": "9940"
	},
	{
		"lon": "5.9731308",
		"lat": "50.0951659",
		"number": "147",
		"street": "Maison",
		"city": "Asselborn",
		"district": "",
		"postcode": "9940"
	},
	{
		"lon": "5.9730577",
		"lat": "50.0951258",
		"number": "147A",
		"street": "Maison",
		"city": "Asselborn",
		"district": "",
		"postcode": "9940"
	},
	{
		"lon": "5.9730197",
		"lat": "50.0951036",
		"number": "147B",
		"street": "Maison",
		"city": "Asselborn",
		"district": "",
		"postcode": "9940"
	},
	{
		"lon": "5.9735401",
		"lat": "50.0952547",
		"number": "145",
		"street": "Maison",
		"city": "Asselborn",
		"district": "",
		"postcode": "9940"
	},
	{
		"lon": "5.9735401",
		"lat": "50.0952547",
		"number": "145A",
		"street": "Maison",
		"city": "Asselborn",
		"district": "",
		"postcode": "9940"
	},
	{
		"lon": "5.9751479",
		"lat": "50.0950886",
		"number": "117",
		"street": "Maison",
		"city": "Asselborn",
		"district": "",
		"postcode": "9940"
	},
	{
		"lon": "5.975164",
		"lat": "50.0954136",
		"number": "106A",
		"street": "Maison",
		"city": "Asselborn",
		"district": "",
		"postcode": "9940"
	},
	{
		"lon": "5.9750011",
		"lat": "50.095479",
		"number": "106",
		"street": "Maison",
		"city": "Asselborn",
		"district": "",
		"postcode": "9940"
	},
	{
		"lon": "5.9756376",
		"lat": "50.0954319",
		"number": "108",
		"street": "Maison",
		"city": "Asselborn",
		"district": "",
		"postcode": "9940"
	},
	{
		"lon": "5.9757549",
		"lat": "50.0949973",
		"number": "114",
		"street": "Maison",
		"city": "Asselborn",
		"district": "",
		"postcode": "9940"
	},
	{
		"lon": "5.9758294",
		"lat": "50.0950968",
		"number": "113",
		"street": "Maison",
		"city": "Asselborn",
		"district": "",
		"postcode": "9940"
	},
	{
		"lon": "5.9763949",
		"lat": "50.0952837",
		"number": "110",
		"street": "Maison",
		"city": "Asselborn",
		"district": "",
		"postcode": "9940"
	},
	{
		"lon": "5.9760783",
		"lat": "50.0956333",
		"number": "109",
		"street": "Maison",
		"city": "Asselborn",
		"district": "",
		"postcode": "9940"
	},
	{
		"lon": "5.9757153",
		"lat": "50.0956409",
		"number": "107",
		"street": "Maison",
		"city": "Asselborn",
		"district": "",
		"postcode": "9940"
	},
	{
		"lon": "5.9752229",
		"lat": "50.095899",
		"number": "105",
		"street": "Maison",
		"city": "Asselborn",
		"district": "",
		"postcode": "9940"
	},
	{
		"lon": "5.9748206",
		"lat": "50.0961131",
		"number": "103",
		"street": "Maison",
		"city": "Asselborn",
		"district": "",
		"postcode": "9940"
	},
	{
		"lon": "5.9744726",
		"lat": "50.0962355",
		"number": "102",
		"street": "Maison",
		"city": "Asselborn",
		"district": "",
		"postcode": "9940"
	},
	{
		"lon": "5.9747781",
		"lat": "50.0964347",
		"number": "92",
		"street": "Maison",
		"city": "Asselborn",
		"district": "",
		"postcode": "9940"
	},
	{
		"lon": "5.9751079",
		"lat": "50.0965475",
		"number": "93",
		"street": "Maison",
		"city": "Asselborn",
		"district": "",
		"postcode": "9940"
	},
	{
		"lon": "5.9752709",
		"lat": "50.0966535",
		"number": "94",
		"street": "Maison",
		"city": "Asselborn",
		"district": "",
		"postcode": "9940"
	},
	{
		"lon": "5.9754417",
		"lat": "50.0966855",
		"number": "95",
		"street": "Maison",
		"city": "Asselborn",
		"district": "",
		"postcode": "9940"
	},
	{
		"lon": "5.9755934",
		"lat": "50.0968981",
		"number": "97",
		"street": "Maison",
		"city": "Asselborn",
		"district": "",
		"postcode": "9940"
	},
	{
		"lon": "5.9741863",
		"lat": "50.0966335",
		"number": "90",
		"street": "Maison",
		"city": "Asselborn",
		"district": "",
		"postcode": "9940"
	},
	{
		"lon": "5.9738734",
		"lat": "50.0968255",
		"number": "89",
		"street": "Maison",
		"city": "Asselborn",
		"district": "",
		"postcode": "9940"
	},
	{
		"lon": "5.9736984",
		"lat": "50.0971896",
		"number": "87",
		"street": "Maison",
		"city": "Asselborn",
		"district": "",
		"postcode": "9940"
	},
	{
		"lon": "5.9730855",
		"lat": "50.0977978",
		"number": "79",
		"street": "Maison",
		"city": "Asselborn",
		"district": "",
		"postcode": "9940"
	},
	{
		"lon": "5.9725962",
		"lat": "50.097917",
		"number": "77",
		"street": "Maison",
		"city": "Asselborn",
		"district": "",
		"postcode": "9940"
	},
	{
		"lon": "5.9716976",
		"lat": "50.0985988",
		"number": "43",
		"street": "Maison",
		"city": "Asselborn",
		"district": "",
		"postcode": "9940"
	},
	{
		"lon": "5.9721048",
		"lat": "50.0983929",
		"number": "42",
		"street": "Maison",
		"city": "Asselborn",
		"district": "",
		"postcode": "9940"
	},
	{
		"lon": "5.9716007",
		"lat": "50.0988282",
		"number": "44",
		"street": "Maison",
		"city": "Asselborn",
		"district": "",
		"postcode": "9940"
	},
	{
		"lon": "5.9715525",
		"lat": "50.0987896",
		"number": "44A",
		"street": "Maison",
		"city": "Asselborn",
		"district": "",
		"postcode": "9940"
	},
	{
		"lon": "5.9715107",
		"lat": "50.0987311",
		"number": "44B",
		"street": "Maison",
		"city": "Asselborn",
		"district": "",
		"postcode": "9940"
	},
	{
		"lon": "5.9730622",
		"lat": "50.0991643",
		"number": "72",
		"street": "Maison",
		"city": "Asselborn",
		"district": "",
		"postcode": "9940"
	},
	{
		"lon": "5.9728499",
		"lat": "50.0989416",
		"number": "73",
		"street": "Maison",
		"city": "Asselborn",
		"district": "",
		"postcode": "9940"
	},
	{
		"lon": "5.9726018",
		"lat": "50.0986939",
		"number": "75",
		"street": "Maison",
		"city": "Asselborn",
		"district": "",
		"postcode": "9940"
	},
	{
		"lon": "5.9733858",
		"lat": "50.099515",
		"number": "71",
		"street": "Maison",
		"city": "Asselborn",
		"district": "",
		"postcode": "9940"
	},
	{
		"lon": "5.9726132",
		"lat": "50.0982031",
		"number": "76",
		"street": "Maison",
		"city": "Asselborn",
		"district": "",
		"postcode": "9940"
	},
	{
		"lon": "5.9736364",
		"lat": "50.0991571",
		"number": "72A",
		"street": "Maison",
		"city": "Asselborn",
		"district": "",
		"postcode": "9940"
	},
	{
		"lon": "5.9759522",
		"lat": "50.0947136",
		"number": "112",
		"street": "Maison",
		"city": "Asselborn",
		"district": "",
		"postcode": "9940"
	},
	{
		"lon": "5.9754324",
		"lat": "50.0948376",
		"number": "116",
		"street": "Maison",
		"city": "Asselborn",
		"district": "",
		"postcode": "9940"
	},
	{
		"lon": "5.9756474",
		"lat": "50.0949225",
		"number": "115",
		"street": "Maison",
		"city": "Asselborn",
		"district": "",
		"postcode": "9940"
	},
	{
		"lon": "5.964036",
		"lat": "50.0880469",
		"number": "158",
		"street": "Maison",
		"city": "Asselborn",
		"district": "",
		"postcode": "9940"
	},
	{
		"lon": "5.9700199",
		"lat": "50.0918393",
		"number": "157",
		"street": "Maison",
		"city": "Asselborn",
		"district": "",
		"postcode": "9940"
	},
	{
		"lon": "5.9714454",
		"lat": "50.092455",
		"number": "156",
		"street": "Maison",
		"city": "Asselborn",
		"district": "",
		"postcode": "9940"
	},
	{
		"lon": "5.9710569",
		"lat": "50.0926813",
		"number": "155",
		"street": "Maison",
		"city": "Asselborn",
		"district": "",
		"postcode": "9940"
	},
	{
		"lon": "5.9713577",
		"lat": "50.09393",
		"number": "154",
		"street": "Maison",
		"city": "Asselborn",
		"district": "",
		"postcode": "9940"
	},
	{
		"lon": "5.9702885",
		"lat": "50.0946605",
		"number": "168",
		"street": "Maison",
		"city": "Asselborn",
		"district": "",
		"postcode": "9940"
	},
	{
		"lon": "5.9711007",
		"lat": "50.093413",
		"number": "154A",
		"street": "Maison",
		"city": "Asselborn",
		"district": "",
		"postcode": "9940"
	},
	{
		"lon": "5.9711613",
		"lat": "50.0936475",
		"number": "153A",
		"street": "Maison",
		"city": "Asselborn",
		"district": "",
		"postcode": "9940"
	},
	{
		"lon": "5.9709287",
		"lat": "50.0931951",
		"number": "154B",
		"street": "Maison",
		"city": "Asselborn",
		"district": "",
		"postcode": "9940"
	},
	{
		"lon": "5.9696609",
		"lat": "50.0949672",
		"number": "171",
		"street": "Maison",
		"city": "Asselborn",
		"district": "",
		"postcode": "9940"
	},
	{
		"lon": "5.9693916",
		"lat": "50.0962956",
		"number": "178",
		"street": "Maison",
		"city": "Asselborn",
		"district": "",
		"postcode": "9940"
	},
	{
		"lon": "5.9703358",
		"lat": "50.0960925",
		"number": "175",
		"street": "Maison",
		"city": "Asselborn",
		"district": "",
		"postcode": "9940"
	},
	{
		"lon": "5.9704121",
		"lat": "50.0962986",
		"number": "176",
		"street": "Maison",
		"city": "Asselborn",
		"district": "",
		"postcode": "9940"
	},
	{
		"lon": "5.9704975",
		"lat": "50.0965959",
		"number": "179A",
		"street": "Maison",
		"city": "Asselborn",
		"district": "",
		"postcode": "9940"
	},
	{
		"lon": "5.9701401",
		"lat": "50.0966309",
		"number": "179",
		"street": "Maison",
		"city": "Asselborn",
		"district": "",
		"postcode": "9940"
	},
	{
		"lon": "5.97075",
		"lat": "50.0968317",
		"number": "179",
		"street": "Maison",
		"city": "Asselborn",
		"district": "",
		"postcode": "9940"
	},
	{
		"lon": "5.968623",
		"lat": "50.0959191",
		"number": "179B",
		"street": "Maison",
		"city": "Asselborn",
		"district": "",
		"postcode": "9940"
	},
	{
		"lon": "5.9698853",
		"lat": "50.0957202",
		"number": "174",
		"street": "Maison",
		"city": "Asselborn",
		"district": "",
		"postcode": "9940"
	},
	{
		"lon": "5.970656",
		"lat": "50.0971305",
		"number": "185",
		"street": "Maison",
		"city": "Asselborn",
		"district": "",
		"postcode": "9940"
	},
	{
		"lon": "5.9707051",
		"lat": "50.0971865",
		"number": "185A",
		"street": "Maison",
		"city": "Asselborn",
		"district": "",
		"postcode": "9940"
	},
	{
		"lon": "5.9707802",
		"lat": "50.0972485",
		"number": "185B",
		"street": "Maison",
		"city": "Asselborn",
		"district": "",
		"postcode": "9940"
	},
	{
		"lon": "5.9708566",
		"lat": "50.0973037",
		"number": "186",
		"street": "Maison",
		"city": "Asselborn",
		"district": "",
		"postcode": "9940"
	},
	{
		"lon": "5.971219",
		"lat": "50.0974592",
		"number": "186A",
		"street": "Maison",
		"city": "Asselborn",
		"district": "",
		"postcode": "9940"
	},
	{
		"lon": "5.9714593",
		"lat": "50.0976011",
		"number": "188",
		"street": "Maison",
		"city": "Asselborn",
		"district": "",
		"postcode": "9940"
	},
	{
		"lon": "5.9715765",
		"lat": "50.097849",
		"number": "189",
		"street": "Maison",
		"city": "Asselborn",
		"district": "",
		"postcode": "9940"
	},
	{
		"lon": "5.9717216",
		"lat": "50.0977253",
		"number": "189",
		"street": "Maison",
		"city": "Asselborn",
		"district": "",
		"postcode": "9940"
	},
	{
		"lon": "5.9719533",
		"lat": "50.0978923",
		"number": "190",
		"street": "Maison",
		"city": "Asselborn",
		"district": "",
		"postcode": "9940"
	},
	{
		"lon": "5.9692265",
		"lat": "50.0972798",
		"number": "24",
		"street": "Maison",
		"city": "Asselborn",
		"district": "",
		"postcode": "9940"
	},
	{
		"lon": "5.970566",
		"lat": "50.0980193",
		"number": "36A",
		"street": "Maison",
		"city": "Asselborn",
		"district": "",
		"postcode": "9940"
	},
	{
		"lon": "5.970727",
		"lat": "50.0981276",
		"number": "36",
		"street": "Maison",
		"city": "Asselborn",
		"district": "",
		"postcode": "9940"
	},
	{
		"lon": "5.9712196",
		"lat": "50.0984539",
		"number": "40",
		"street": "Maison",
		"city": "Asselborn",
		"district": "",
		"postcode": "9940"
	},
	{
		"lon": "5.9709777",
		"lat": "50.0982809",
		"number": "35A",
		"street": "Maison",
		"city": "Asselborn",
		"district": "",
		"postcode": "9940"
	},
	{
		"lon": "5.9698878",
		"lat": "50.0976003",
		"number": "30",
		"street": "Maison",
		"city": "Asselborn",
		"district": "",
		"postcode": "9940"
	},
	{
		"lon": "5.9700677",
		"lat": "50.0977052",
		"number": "32",
		"street": "Maison",
		"city": "Asselborn",
		"district": "",
		"postcode": "9940"
	},
	{
		"lon": "5.9710052",
		"lat": "50.0979133",
		"number": "33",
		"street": "Maison",
		"city": "Asselborn",
		"district": "",
		"postcode": "9940"
	},
	{
		"lon": "5.9710052",
		"lat": "50.0979133",
		"number": "33A",
		"street": "Maison",
		"city": "Asselborn",
		"district": "",
		"postcode": "9940"
	},
	{
		"lon": "5.9710052",
		"lat": "50.0979133",
		"number": "41",
		"street": "Maison",
		"city": "Asselborn",
		"district": "",
		"postcode": "9940"
	},
	{
		"lon": "5.9710052",
		"lat": "50.0979133",
		"number": "41A",
		"street": "Maison",
		"city": "Asselborn",
		"district": "",
		"postcode": "9940"
	},
	{
		"lon": "5.9710052",
		"lat": "50.0979133",
		"number": "41B",
		"street": "Maison",
		"city": "Asselborn",
		"district": "",
		"postcode": "9940"
	},
	{
		"lon": "5.9696112",
		"lat": "50.0978434",
		"number": "31",
		"street": "Maison",
		"city": "Asselborn",
		"district": "",
		"postcode": "9940"
	},
	{
		"lon": "5.970337",
		"lat": "50.0982011",
		"number": "34",
		"street": "Maison",
		"city": "Asselborn",
		"district": "",
		"postcode": "9940"
	},
	{
		"lon": "5.970507",
		"lat": "50.0983093",
		"number": "35",
		"street": "Maison",
		"city": "Asselborn",
		"district": "",
		"postcode": "9940"
	},
	{
		"lon": "5.9709574",
		"lat": "50.0986415",
		"number": "37",
		"street": "Maison",
		"city": "Asselborn",
		"district": "",
		"postcode": "9940"
	},
	{
		"lon": "5.9701312",
		"lat": "50.0991244",
		"number": "38",
		"street": "Maison",
		"city": "Asselborn",
		"district": "",
		"postcode": "9940"
	},
	{
		"lon": "5.9705519",
		"lat": "50.098884",
		"number": "37A",
		"street": "Maison",
		"city": "Asselborn",
		"district": "",
		"postcode": "9940"
	},
	{
		"lon": "5.9690146",
		"lat": "50.0976723",
		"number": "25",
		"street": "Maison",
		"city": "Asselborn",
		"district": "",
		"postcode": "9940"
	},
	{
		"lon": "5.9698922",
		"lat": "50.0970051",
		"number": "27",
		"street": "Maison",
		"city": "Asselborn",
		"district": "",
		"postcode": "9940"
	},
	{
		"lon": "5.9702799",
		"lat": "50.097336",
		"number": "28",
		"street": "Maison",
		"city": "Asselborn",
		"district": "",
		"postcode": "9940"
	},
	{
		"lon": "5.968241",
		"lat": "50.0969519",
		"number": "19",
		"street": "Maison",
		"city": "Asselborn",
		"district": "",
		"postcode": "9940"
	},
	{
		"lon": "5.9596758",
		"lat": "50.0942045",
		"number": "18",
		"street": "Eemeschbaach",
		"city": "Asselborn",
		"district": "",
		"postcode": "9940"
	},
	{
		"lon": "5.9596758",
		"lat": "50.0942045",
		"number": "18",
		"street": "Maison",
		"city": "Asselborn",
		"district": "",
		"postcode": "9940"
	},
	{
		"lon": "5.9578432",
		"lat": "50.0936089",
		"number": "14",
		"street": "Ehmeschbach",
		"city": "Emeschbach Asselborn",
		"district": "",
		"postcode": "9940"
	},
	{
		"lon": "5.9582409",
		"lat": "50.0937632",
		"number": "16",
		"street": "Eemeschbaach",
		"city": "Asselborn",
		"district": "",
		"postcode": "9940"
	},
	{
		"lon": "5.9582409",
		"lat": "50.0937632",
		"number": "16",
		"street": "Maison",
		"city": "Asselborn",
		"district": "",
		"postcode": "9940"
	},
	{
		"lon": "5.9542926",
		"lat": "50.0946124",
		"number": "4",
		"street": "Maison",
		"city": "Asselborn",
		"district": "",
		"postcode": "9940"
	},
	{
		"lon": "5.954372",
		"lat": "50.0945935",
		"number": "4",
		"street": "Eemeschbaach",
		"city": "Asselborn",
		"district": "",
		"postcode": "9940"
	},
	{
		"lon": "5.9543579",
		"lat": "50.0946441",
		"number": "5",
		"street": "Maison",
		"city": "Asselborn",
		"district": "",
		"postcode": "9940"
	},
	{
		"lon": "5.952534",
		"lat": "50.0953924",
		"number": "6",
		"street": "Maison",
		"city": "Asselborn",
		"district": "",
		"postcode": "9940"
	},
	{
		"lon": "5.9520766",
		"lat": "50.0954229",
		"number": "7",
		"street": "Maison",
		"city": "Asselborn",
		"district": "",
		"postcode": "9940"
	},
	{
		"lon": "5.9520649",
		"lat": "50.0955169",
		"number": "8",
		"street": "Eemeschbaach",
		"city": "Asselborn",
		"district": "",
		"postcode": "9940"
	},
	{
		"lon": "5.9511878",
		"lat": "50.0959941",
		"number": "8",
		"street": "Maison",
		"city": "Asselborn",
		"district": "",
		"postcode": "9940"
	},
	{
		"lon": "5.9513411",
		"lat": "50.0894544",
		"number": "2",
		"street": "Maison",
		"city": "Asselborn",
		"district": "",
		"postcode": "9940"
	},
	{
		"lon": "5.9513411",
		"lat": "50.0894544",
		"number": "2",
		"street": "Ehmeschbach",
		"city": "Emeschbach Asselborn",
		"district": "",
		"postcode": "9940"
	},
	{
		"lon": "5.9546673",
		"lat": "50.0929811",
		"number": "3",
		"street": "Ehmeschbach",
		"city": "Emeschbach Asselborn",
		"district": "",
		"postcode": "9940"
	},
	{
		"lon": "5.9546813",
		"lat": "50.0929072",
		"number": "3",
		"street": "Maison",
		"city": "Asselborn",
		"district": "",
		"postcode": "9940"
	},
	{
		"lon": "5.9558294",
		"lat": "50.092467",
		"number": "12",
		"street": "Eemeschbaach",
		"city": "Asselborn",
		"district": "",
		"postcode": "9940"
	},
	{
		"lon": "5.9570231",
		"lat": "50.0933304",
		"number": "13",
		"street": "Maison",
		"city": "Asselborn",
		"district": "",
		"postcode": "9940"
	},
	{
		"lon": "5.9547219",
		"lat": "50.0920236",
		"number": "11",
		"street": "Maison",
		"city": "Asselborn",
		"district": "",
		"postcode": "9940"
	},
	{
		"lon": "5.9548149",
		"lat": "50.0920951",
		"number": "11",
		"street": "Ehmeschbach",
		"city": "Emeschbach Asselborn",
		"district": "",
		"postcode": "9940"
	},
	{
		"lon": "5.9752589",
		"lat": "50.1026446",
		"number": "61",
		"street": "Maison",
		"city": "Asselborn",
		"district": "",
		"postcode": "9940"
	},
	{
		"lon": "5.9743094",
		"lat": "50.1009398",
		"number": "59",
		"street": "Maison",
		"city": "Asselborn",
		"district": "",
		"postcode": "9940"
	},
	{
		"lon": "5.974348",
		"lat": "50.1014157",
		"number": "60",
		"street": "Maison",
		"city": "Asselborn",
		"district": "",
		"postcode": "9940"
	},
	{
		"lon": "5.9744984",
		"lat": "50.1004212",
		"number": "64",
		"street": "Maison",
		"city": "Asselborn",
		"district": "",
		"postcode": "9940"
	},
	{
		"lon": "5.974235",
		"lat": "50.1001971",
		"number": "67",
		"street": "Maison",
		"city": "Asselborn",
		"district": "",
		"postcode": "9940"
	},
	{
		"lon": "5.9734",
		"lat": "50.1007036",
		"number": "55",
		"street": "Maison",
		"city": "Asselborn",
		"district": "",
		"postcode": "9940"
	},
	{
		"lon": "5.9730825",
		"lat": "50.0999192",
		"number": "53",
		"street": "Maison",
		"city": "Asselborn",
		"district": "",
		"postcode": "9940"
	},
	{
		"lon": "5.9735114",
		"lat": "50.0996493",
		"number": "70",
		"street": "Maison",
		"city": "Asselborn",
		"district": "",
		"postcode": "9940"
	},
	{
		"lon": "5.9739003",
		"lat": "50.1003913",
		"number": "65",
		"street": "Maison",
		"city": "Asselborn",
		"district": "",
		"postcode": "9940"
	},
	{
		"lon": "5.9735728",
		"lat": "50.0999178",
		"number": "66",
		"street": "Maison",
		"city": "Asselborn",
		"district": "",
		"postcode": "9940"
	},
	{
		"lon": "5.9738559",
		"lat": "50.101149",
		"number": "57",
		"street": "Maison",
		"city": "Asselborn",
		"district": "",
		"postcode": "9940"
	},
	{
		"lon": "5.9731227",
		"lat": "50.1003393",
		"number": "54",
		"street": "Maison",
		"city": "Asselborn",
		"district": "",
		"postcode": "9940"
	},
	{
		"lon": "5.9730405",
		"lat": "50.1002714",
		"number": "53A",
		"street": "Maison",
		"city": "Asselborn",
		"district": "",
		"postcode": "9940"
	},
	{
		"lon": "5.9731969",
		"lat": "50.1004352",
		"number": "54A",
		"street": "Maison",
		"city": "Asselborn",
		"district": "",
		"postcode": "9940"
	},
	{
		"lon": "5.971074",
		"lat": "50.0997847",
		"number": "39A",
		"street": "Maison",
		"city": "Asselborn",
		"district": "",
		"postcode": "9940"
	},
	{
		"lon": "5.9711858",
		"lat": "50.0989451",
		"number": "45",
		"street": "Maison",
		"city": "Asselborn",
		"district": "",
		"postcode": "9940"
	},
	{
		"lon": "5.97142",
		"lat": "50.0991142",
		"number": "46",
		"street": "Maison",
		"city": "Asselborn",
		"district": "",
		"postcode": "9940"
	},
	{
		"lon": "5.9716904",
		"lat": "50.0993545",
		"number": "50",
		"street": "Maison",
		"city": "Asselborn",
		"district": "",
		"postcode": "9940"
	},
	{
		"lon": "5.9720809",
		"lat": "50.0997788",
		"number": "51",
		"street": "Maison",
		"city": "Asselborn",
		"district": "",
		"postcode": "9940"
	},
	{
		"lon": "5.9707234",
		"lat": "50.0992822",
		"number": "39",
		"street": "Maison",
		"city": "Asselborn",
		"district": "",
		"postcode": "9940"
	},
	{
		"lon": "5.9829497",
		"lat": "50.1116559",
		"number": "62",
		"street": "Maison",
		"city": "Asselborn",
		"district": "",
		"postcode": "9940"
	},
	{
		"lon": "5.9826843",
		"lat": "50.1112286",
		"number": "62",
		"street": "Maison",
		"city": "Asselborn",
		"district": "",
		"postcode": "9940"
	},
	{
		"lon": "5.9953522",
		"lat": "50.098766",
		"number": "12A",
		"street": "Maison",
		"city": "Sassel",
		"district": "",
		"postcode": "9976"
	},
	{
		"lon": "5.9955085",
		"lat": "50.0991025",
		"number": "11",
		"street": "Maison",
		"city": "Sassel",
		"district": "",
		"postcode": "9976"
	},
	{
		"lon": "5.9956655",
		"lat": "50.0988552",
		"number": "12",
		"street": "Maison",
		"city": "Sassel",
		"district": "",
		"postcode": "9976"
	},
	{
		"lon": "5.995983",
		"lat": "50.0987625",
		"number": "7",
		"street": "Maison",
		"city": "Sassel",
		"district": "",
		"postcode": "9976"
	},
	{
		"lon": "5.9961167",
		"lat": "50.0987281",
		"number": "6",
		"street": "Maison",
		"city": "Sassel",
		"district": "",
		"postcode": "9976"
	},
	{
		"lon": "5.9974338",
		"lat": "50.0987166",
		"number": "3",
		"street": "Maison",
		"city": "Sassel",
		"district": "",
		"postcode": "9976"
	},
	{
		"lon": "5.996364",
		"lat": "50.0985625",
		"number": "4",
		"street": "Maison",
		"city": "Sassel",
		"district": "",
		"postcode": "9976"
	},
	{
		"lon": "5.9963653",
		"lat": "50.0985235",
		"number": "5",
		"street": "Maison",
		"city": "Sassel",
		"district": "",
		"postcode": "9976"
	},
	{
		"lon": "5.9960186",
		"lat": "50.0981223",
		"number": "13",
		"street": "Maison",
		"city": "Sassel",
		"district": "",
		"postcode": "9976"
	},
	{
		"lon": "5.99591",
		"lat": "50.098485",
		"number": "8",
		"street": "Maison",
		"city": "Sassel",
		"district": "",
		"postcode": "9976"
	},
	{
		"lon": "5.9952879",
		"lat": "50.0985098",
		"number": "15A",
		"street": "Maison",
		"city": "Sassel",
		"district": "",
		"postcode": "9976"
	},
	{
		"lon": "5.9935565",
		"lat": "50.0990783",
		"number": "24",
		"street": "Maison",
		"city": "Sassel",
		"district": "",
		"postcode": "9976"
	},
	{
		"lon": "5.9947404",
		"lat": "50.0985059",
		"number": "15",
		"street": "Maison",
		"city": "Sassel",
		"district": "",
		"postcode": "9976"
	},
	{
		"lon": "5.9956775",
		"lat": "50.0979347",
		"number": "14",
		"street": "Maison",
		"city": "Sassel",
		"district": "",
		"postcode": "9976"
	},
	{
		"lon": "5.9945997",
		"lat": "50.1003443",
		"number": "20",
		"street": "Maison",
		"city": "Sassel",
		"district": "",
		"postcode": "9976"
	},
	{
		"lon": "5.9945997",
		"lat": "50.1003443",
		"number": "20A",
		"street": "Maison",
		"city": "Sassel",
		"district": "",
		"postcode": "9976"
	},
	{
		"lon": "5.9934096",
		"lat": "50.1000134",
		"number": "21",
		"street": "Maison",
		"city": "Sassel",
		"district": "",
		"postcode": "9976"
	},
	{
		"lon": "5.992891",
		"lat": "50.0995502",
		"number": "25",
		"street": "Maison",
		"city": "Sassel",
		"district": "",
		"postcode": "9976"
	},
	{
		"lon": "5.9930941",
		"lat": "50.0997313",
		"number": "25A",
		"street": "Maison",
		"city": "Sassel",
		"district": "",
		"postcode": "9976"
	},
	{
		"lon": "5.9935401",
		"lat": "50.0996056",
		"number": "23",
		"street": "Maison",
		"city": "Sassel",
		"district": "",
		"postcode": "9976"
	},
	{
		"lon": "5.9942671",
		"lat": "50.0996759",
		"number": "18",
		"street": "Maison",
		"city": "Sassel",
		"district": "",
		"postcode": "9976"
	},
	{
		"lon": "5.9956417",
		"lat": "50.0997484",
		"number": "9",
		"street": "Maison",
		"city": "Sassel",
		"district": "",
		"postcode": "9976"
	},
	{
		"lon": "5.9997745",
		"lat": "50.0993014",
		"number": "1",
		"street": "Maison",
		"city": "Sassel",
		"district": "",
		"postcode": "9976"
	},
	{
		"lon": "6.0072983",
		"lat": "50.1075858",
		"number": "2",
		"street": "Maison",
		"city": "Cinqfontaines",
		"district": "",
		"postcode": "9902"
	},
	{
		"lon": "6.007581",
		"lat": "50.1070163",
		"number": "4",
		"street": "Maison",
		"city": "Cinqfontaines",
		"district": "",
		"postcode": "9902"
	},
	{
		"lon": "6.0079305",
		"lat": "50.1067615",
		"number": "5",
		"street": "Maison",
		"city": "Cinqfontaines",
		"district": "",
		"postcode": "9902"
	},
	{
		"lon": "6.0072532",
		"lat": "50.1061116",
		"number": "3",
		"street": "Maison",
		"city": "Cinqfontaines",
		"district": "",
		"postcode": "9902"
	},
	{
		"lon": "6.0039504",
		"lat": "50.1052758",
		"number": "1",
		"street": "Maison",
		"city": "Cinqfontaines",
		"district": "",
		"postcode": "9902"
	},
	{
		"lon": "6.0003093",
		"lat": "50.099009",
		"number": "2",
		"street": "Maison",
		"city": "Sassel",
		"district": "",
		"postcode": "9976"
	},
	{
		"lon": "6.0207895",
		"lat": "50.0965544",
		"number": "2",
		"street": "Maison",
		"city": "Maulusmuehle",
		"district": "",
		"postcode": "9974"
	},
	{
		"lon": "6.0190818",
		"lat": "50.0957382",
		"number": "1A",
		"street": "Maison",
		"city": "Maulusmuehle",
		"district": "",
		"postcode": "9974"
	},
	{
		"lon": "6.0225838",
		"lat": "50.0949654",
		"number": "4",
		"street": "Maulesmillen",
		"city": "Maulusmühle",
		"district": "",
		"postcode": "9974"
	},
	{
		"lon": "6.0225062",
		"lat": "50.0945179",
		"number": "5",
		"street": "Maison",
		"city": "Maulusmuehle",
		"district": "",
		"postcode": "9974"
	},
	{
		"lon": "6.0227694",
		"lat": "50.0944257",
		"number": "6",
		"street": "Maison",
		"city": "Maulusmuehle",
		"district": "",
		"postcode": "9974"
	},
	{
		"lon": "5.9906535",
		"lat": "50.0814919",
		"number": "97",
		"street": "Maison",
		"city": "Boxhorn",
		"district": "",
		"postcode": "9742"
	},
	{
		"lon": "5.9882673",
		"lat": "50.0809787",
		"number": "6",
		"street": "Maison",
		"city": "Boxhorn",
		"district": "",
		"postcode": "9741"
	},
	{
		"lon": "5.9902785",
		"lat": "50.0819121",
		"number": "12",
		"street": "Maison",
		"city": "Boxhorn",
		"district": "",
		"postcode": "9741"
	},
	{
		"lon": "5.9892435",
		"lat": "50.0816551",
		"number": "9",
		"street": "Maison",
		"city": "Boxhorn",
		"district": "",
		"postcode": "9741"
	},
	{
		"lon": "5.9906628",
		"lat": "50.0816615",
		"number": "96",
		"street": "Maison",
		"city": "Boxhorn",
		"district": "",
		"postcode": "9742"
	},
	{
		"lon": "5.9887272",
		"lat": "50.0812729",
		"number": "8",
		"street": "Maison",
		"city": "Boxhorn",
		"district": "",
		"postcode": "9741"
	},
	{
		"lon": "5.9898509",
		"lat": "50.0818403",
		"number": "11",
		"street": "Maison",
		"city": "Boxhorn",
		"district": "",
		"postcode": "9741"
	},
	{
		"lon": "5.9906532",
		"lat": "50.0819516",
		"number": "93",
		"street": "Maison",
		"city": "Boxhorn",
		"district": "",
		"postcode": "9742"
	},
	{
		"lon": "5.9934083",
		"lat": "50.0816589",
		"number": "79",
		"street": "Maison",
		"city": "Boxhorn",
		"district": "",
		"postcode": "9742"
	},
	{
		"lon": "5.9930275",
		"lat": "50.0818864",
		"number": "81",
		"street": "Maison",
		"city": "Boxhorn",
		"district": "",
		"postcode": "9742"
	},
	{
		"lon": "5.991858",
		"lat": "50.0817547",
		"number": "95",
		"street": "Maison",
		"city": "Boxhorn",
		"district": "",
		"postcode": "9742"
	},
	{
		"lon": "5.9915261",
		"lat": "50.0814977",
		"number": "95A",
		"street": "Maison",
		"city": "Boxhorn",
		"district": "",
		"postcode": "9742"
	},
	{
		"lon": "5.9937069",
		"lat": "50.0819324",
		"number": "80",
		"street": "Maison",
		"city": "Boxhorn",
		"district": "",
		"postcode": "9742"
	},
	{
		"lon": "5.9931418",
		"lat": "50.0827229",
		"number": "49",
		"street": "Maison",
		"city": "Boxhorn",
		"district": "",
		"postcode": "9742"
	},
	{
		"lon": "5.9931607",
		"lat": "50.0821494",
		"number": "82",
		"street": "Maison",
		"city": "Boxhorn",
		"district": "",
		"postcode": "9742"
	},
	{
		"lon": "5.9931114",
		"lat": "50.082249",
		"number": "84",
		"street": "Maison",
		"city": "Boxhorn",
		"district": "",
		"postcode": "9742"
	},
	{
		"lon": "5.9938479",
		"lat": "50.0824454",
		"number": "51",
		"street": "Maison",
		"city": "Boxhorn",
		"district": "",
		"postcode": "9742"
	},
	{
		"lon": "5.9927749",
		"lat": "50.0820954",
		"number": "83",
		"street": "Maison",
		"city": "Boxhorn",
		"district": "",
		"postcode": "9742"
	},
	{
		"lon": "5.9926859",
		"lat": "50.0822361",
		"number": "86",
		"street": "Maison",
		"city": "Boxhorn",
		"district": "",
		"postcode": "9742"
	},
	{
		"lon": "5.9910601",
		"lat": "50.081958",
		"number": "94",
		"street": "Maison",
		"city": "Boxhorn",
		"district": "",
		"postcode": "9742"
	},
	{
		"lon": "5.9913046",
		"lat": "50.0821396",
		"number": "91",
		"street": "Maison",
		"city": "Boxhorn",
		"district": "",
		"postcode": "9742"
	},
	{
		"lon": "5.9917869",
		"lat": "50.0823239",
		"number": "89",
		"street": "Maison",
		"city": "Boxhorn",
		"district": "",
		"postcode": "9742"
	},
	{
		"lon": "5.9926936",
		"lat": "50.0823382",
		"number": "87",
		"street": "Maison",
		"city": "Boxhorn",
		"district": "",
		"postcode": "9742"
	},
	{
		"lon": "5.9931531",
		"lat": "50.0829591",
		"number": "50",
		"street": "Maison",
		"city": "Boxhorn",
		"district": "",
		"postcode": "9742"
	},
	{
		"lon": "5.9929891",
		"lat": "50.0829389",
		"number": "48",
		"street": "Maison",
		"city": "Boxhorn",
		"district": "",
		"postcode": "9742"
	},
	{
		"lon": "5.992858",
		"lat": "50.0829146",
		"number": "48A",
		"street": "Maison",
		"city": "Boxhorn",
		"district": "",
		"postcode": "9742"
	},
	{
		"lon": "5.9922603",
		"lat": "50.0827647",
		"number": "90A",
		"street": "Maison",
		"city": "Boxhorn",
		"district": "",
		"postcode": "9742"
	},
	{
		"lon": "5.99136",
		"lat": "50.0825391",
		"number": "90",
		"street": "Maison",
		"city": "Boxhorn",
		"district": "",
		"postcode": "9742"
	},
	{
		"lon": "5.9909618",
		"lat": "50.0823076",
		"number": "92",
		"street": "Maison",
		"city": "Boxhorn",
		"district": "",
		"postcode": "9742"
	},
	{
		"lon": "5.990837",
		"lat": "50.0823231",
		"number": "92",
		"street": "Maison",
		"city": "Boxhorn",
		"district": "",
		"postcode": "9742"
	},
	{
		"lon": "5.9910881",
		"lat": "50.0828034",
		"number": "14",
		"street": "Maison",
		"city": "Boxhorn",
		"district": "",
		"postcode": "9741"
	},
	{
		"lon": "5.9914809",
		"lat": "50.083429",
		"number": "27",
		"street": "Maison",
		"city": "Boxhorn",
		"district": "",
		"postcode": "9741"
	},
	{
		"lon": "5.9916066",
		"lat": "50.0834958",
		"number": "28",
		"street": "Maison",
		"city": "Boxhorn",
		"district": "",
		"postcode": "9741"
	},
	{
		"lon": "5.9918101",
		"lat": "50.0832532",
		"number": "47",
		"street": "Maison",
		"city": "Boxhorn",
		"district": "",
		"postcode": "9742"
	},
	{
		"lon": "5.991192",
		"lat": "50.0832897",
		"number": "26",
		"street": "Maison",
		"city": "Boxhorn",
		"district": "",
		"postcode": "9741"
	},
	{
		"lon": "5.9894901",
		"lat": "50.0820942",
		"number": "10",
		"street": "Maison",
		"city": "Boxhorn",
		"district": "",
		"postcode": "9741"
	},
	{
		"lon": "5.9902646",
		"lat": "50.0823978",
		"number": "13",
		"street": "Maison",
		"city": "Boxhorn",
		"district": "",
		"postcode": "9741"
	},
	{
		"lon": "5.9901911",
		"lat": "50.0831964",
		"number": "19",
		"street": "Maison",
		"city": "Boxhorn",
		"district": "",
		"postcode": "9741"
	},
	{
		"lon": "5.9904888",
		"lat": "50.0827091",
		"number": "15",
		"street": "Maison",
		"city": "Boxhorn",
		"district": "",
		"postcode": "9741"
	},
	{
		"lon": "5.990552",
		"lat": "50.0831169",
		"number": "17",
		"street": "Maison",
		"city": "Boxhorn",
		"district": "",
		"postcode": "9741"
	},
	{
		"lon": "5.9905086",
		"lat": "50.0829694",
		"number": "16",
		"street": "Maison",
		"city": "Boxhorn",
		"district": "",
		"postcode": "9741"
	},
	{
		"lon": "5.9906292",
		"lat": "50.0832736",
		"number": "18",
		"street": "Maison",
		"city": "Boxhorn",
		"district": "",
		"postcode": "9741"
	},
	{
		"lon": "5.9913994",
		"lat": "50.0836624",
		"number": "29",
		"street": "Maison",
		"city": "Boxhorn",
		"district": "",
		"postcode": "9741"
	},
	{
		"lon": "5.991106",
		"lat": "50.0841386",
		"number": "30",
		"street": "Maison",
		"city": "Boxhorn",
		"district": "",
		"postcode": "9741"
	},
	{
		"lon": "5.9913642",
		"lat": "50.0844662",
		"number": "31",
		"street": "Maison",
		"city": "Boxhorn",
		"district": "",
		"postcode": "9742"
	},
	{
		"lon": "5.9914981",
		"lat": "50.08502",
		"number": "35",
		"street": "Maison",
		"city": "Boxhorn",
		"district": "",
		"postcode": "9742"
	},
	{
		"lon": "5.9912212",
		"lat": "50.0849014",
		"number": "34",
		"street": "Maison",
		"city": "Boxhorn",
		"district": "",
		"postcode": "9742"
	},
	{
		"lon": "5.991387",
		"lat": "50.084847",
		"number": "34",
		"street": "Maison",
		"city": "Boxhorn",
		"district": "",
		"postcode": "9742"
	},
	{
		"lon": "5.991337",
		"lat": "50.0846975",
		"number": "33",
		"street": "Maison",
		"city": "Boxhorn",
		"district": "",
		"postcode": "9742"
	},
	{
		"lon": "5.9925747",
		"lat": "50.084884",
		"number": "38",
		"street": "Maison",
		"city": "Boxhorn",
		"district": "",
		"postcode": "9742"
	},
	{
		"lon": "5.9930902",
		"lat": "50.0843802",
		"number": "41",
		"street": "Maison",
		"city": "Boxhorn",
		"district": "",
		"postcode": "9742"
	},
	{
		"lon": "5.9925061",
		"lat": "50.0845291",
		"number": "37",
		"street": "Maison",
		"city": "Boxhorn",
		"district": "",
		"postcode": "9742"
	},
	{
		"lon": "5.9918581",
		"lat": "50.0841746",
		"number": "32",
		"street": "Maison",
		"city": "Boxhorn",
		"district": "",
		"postcode": "9742"
	},
	{
		"lon": "5.9924494",
		"lat": "50.0832707",
		"number": "46",
		"street": "Maison",
		"city": "Boxhorn",
		"district": "",
		"postcode": "9742"
	},
	{
		"lon": "5.9924075",
		"lat": "50.0837492",
		"number": "45",
		"street": "Maison",
		"city": "Boxhorn",
		"district": "",
		"postcode": "9742"
	},
	{
		"lon": "5.9919569",
		"lat": "50.083731",
		"number": "45A",
		"street": "Maison",
		"city": "Boxhorn",
		"district": "",
		"postcode": "9742"
	},
	{
		"lon": "5.993649",
		"lat": "50.0831968",
		"number": "52",
		"street": "Maison",
		"city": "Boxhorn",
		"district": "",
		"postcode": "9742"
	},
	{
		"lon": "5.9941463",
		"lat": "50.0835494",
		"number": "55",
		"street": "Maison",
		"city": "Boxhorn",
		"district": "",
		"postcode": "9742"
	},
	{
		"lon": "5.9943343",
		"lat": "50.0837698",
		"number": "55A",
		"street": "Maison",
		"city": "Boxhorn",
		"district": "",
		"postcode": "9742"
	},
	{
		"lon": "5.9945628",
		"lat": "50.0839335",
		"number": "55B",
		"street": "Maison",
		"city": "Boxhorn",
		"district": "",
		"postcode": "9742"
	},
	{
		"lon": "5.9947899",
		"lat": "50.084092",
		"number": "55C",
		"street": "Maison",
		"city": "Boxhorn",
		"district": "",
		"postcode": "9742"
	},
	{
		"lon": "5.995043",
		"lat": "50.0842291",
		"number": "55D",
		"street": "Maison",
		"city": "Boxhorn",
		"district": "",
		"postcode": "9742"
	},
	{
		"lon": "5.9952618",
		"lat": "50.0843311",
		"number": "55E",
		"street": "Maison",
		"city": "Boxhorn",
		"district": "",
		"postcode": "9742"
	},
	{
		"lon": "5.9941017",
		"lat": "50.0831899",
		"number": "53",
		"street": "Maison",
		"city": "Boxhorn",
		"district": "",
		"postcode": "9742"
	},
	{
		"lon": "5.9944299",
		"lat": "50.0833863",
		"number": "54",
		"street": "Maison",
		"city": "Boxhorn",
		"district": "",
		"postcode": "9742"
	},
	{
		"lon": "5.9946169",
		"lat": "50.0835016",
		"number": "54A",
		"street": "Maison",
		"city": "Boxhorn",
		"district": "",
		"postcode": "9742"
	},
	{
		"lon": "5.9949959",
		"lat": "50.0838002",
		"number": "54C",
		"street": "Maison",
		"city": "Boxhorn",
		"district": "",
		"postcode": "9742"
	},
	{
		"lon": "5.9952918",
		"lat": "50.0839158",
		"number": "54D",
		"street": "Maison",
		"city": "Boxhorn",
		"district": "",
		"postcode": "9742"
	},
	{
		"lon": "5.9956614",
		"lat": "50.0842413",
		"number": "54F",
		"street": "Maison",
		"city": "Boxhorn",
		"district": "",
		"postcode": "9742"
	},
	{
		"lon": "5.9950629",
		"lat": "50.0832839",
		"number": "56",
		"street": "Maison",
		"city": "Boxhorn",
		"district": "",
		"postcode": "9742"
	},
	{
		"lon": "5.9956034",
		"lat": "50.0833759",
		"number": "58",
		"street": "Maison",
		"city": "Boxhorn",
		"district": "",
		"postcode": "9742"
	},
	{
		"lon": "5.9965873",
		"lat": "50.0835023",
		"number": "64",
		"street": "Maison",
		"city": "Boxhorn",
		"district": "",
		"postcode": "9742"
	},
	{
		"lon": "5.9963495",
		"lat": "50.0834131",
		"number": "62",
		"street": "Maison",
		"city": "Boxhorn",
		"district": "",
		"postcode": "9742"
	},
	{
		"lon": "5.9959306",
		"lat": "50.0833317",
		"number": "61",
		"street": "Maison",
		"city": "Boxhorn",
		"district": "",
		"postcode": "9742"
	},
	{
		"lon": "5.9991119",
		"lat": "50.0834546",
		"number": "69",
		"street": "Maison",
		"city": "Boxhorn",
		"district": "",
		"postcode": "9742"
	},
	{
		"lon": "5.9999871",
		"lat": "50.0836026",
		"number": "73A",
		"street": "Maison",
		"city": "Boxhorn",
		"district": "",
		"postcode": "9742"
	},
	{
		"lon": "5.9987199",
		"lat": "50.0834894",
		"number": "67A",
		"street": "Maison",
		"city": "Boxhorn",
		"district": "",
		"postcode": "9742"
	},
	{
		"lon": "5.9997399",
		"lat": "50.0835273",
		"number": "73",
		"street": "Maison",
		"city": "Boxhorn",
		"district": "",
		"postcode": "9742"
	},
	{
		"lon": "5.9969426",
		"lat": "50.0834527",
		"number": "64A",
		"street": "Maison",
		"city": "Boxhorn",
		"district": "",
		"postcode": "9742"
	},
	{
		"lon": "5.9974592",
		"lat": "50.0834175",
		"number": "65",
		"street": "Maison",
		"city": "Boxhorn",
		"district": "",
		"postcode": "9742"
	},
	{
		"lon": "5.9980049",
		"lat": "50.0834143",
		"number": "67",
		"street": "Maison",
		"city": "Boxhorn",
		"district": "",
		"postcode": "9742"
	},
	{
		"lon": "5.9982184",
		"lat": "50.0834253",
		"number": "68",
		"street": "Maison",
		"city": "Boxhorn",
		"district": "",
		"postcode": "9742"
	},
	{
		"lon": "5.9998386",
		"lat": "50.083289",
		"number": "70A",
		"street": "Maison",
		"city": "Boxhorn",
		"district": "",
		"postcode": "9742"
	},
	{
		"lon": "6.0004019",
		"lat": "50.0833247",
		"number": "71",
		"street": "Maison",
		"city": "Boxhorn",
		"district": "",
		"postcode": "9742"
	},
	{
		"lon": "5.9994701",
		"lat": "50.0832966",
		"number": "70",
		"street": "Maison",
		"city": "Boxhorn",
		"district": "",
		"postcode": "9742"
	},
	{
		"lon": "5.998974",
		"lat": "50.0831951",
		"number": "66E",
		"street": "Maison",
		"city": "Boxhorn",
		"district": "",
		"postcode": "9742"
	},
	{
		"lon": "5.9993154",
		"lat": "50.0830866",
		"number": "66F",
		"street": "Maison",
		"city": "Boxhorn",
		"district": "",
		"postcode": "9742"
	},
	{
		"lon": "5.998271",
		"lat": "50.0831286",
		"number": "66B",
		"street": "Maison",
		"city": "Boxhorn",
		"district": "",
		"postcode": "9742"
	},
	{
		"lon": "5.998549",
		"lat": "50.0831609",
		"number": "66C",
		"street": "Maison",
		"city": "Boxhorn",
		"district": "",
		"postcode": "9742"
	},
	{
		"lon": "5.9987117",
		"lat": "50.0831705",
		"number": "66D",
		"street": "Maison",
		"city": "Boxhorn",
		"district": "",
		"postcode": "9742"
	},
	{
		"lon": "5.9965532",
		"lat": "50.0831366",
		"number": "60",
		"street": "Maison",
		"city": "Boxhorn",
		"district": "",
		"postcode": "9742"
	},
	{
		"lon": "5.9968251",
		"lat": "50.0832257",
		"number": "63",
		"street": "Maison",
		"city": "Boxhorn",
		"district": "",
		"postcode": "9742"
	},
	{
		"lon": "5.9976013",
		"lat": "50.0832066",
		"number": "66",
		"street": "Maison",
		"city": "Boxhorn",
		"district": "",
		"postcode": "9742"
	},
	{
		"lon": "5.9952261",
		"lat": "50.0829681",
		"number": "56A",
		"street": "Maison",
		"city": "Boxhorn",
		"district": "",
		"postcode": "9742"
	},
	{
		"lon": "5.9955425",
		"lat": "50.0830032",
		"number": "57",
		"street": "Maison",
		"city": "Boxhorn",
		"district": "",
		"postcode": "9742"
	},
	{
		"lon": "5.9959234",
		"lat": "50.083047",
		"number": "57A",
		"street": "Maison",
		"city": "Boxhorn",
		"district": "",
		"postcode": "9742"
	},
	{
		"lon": "5.9962538",
		"lat": "50.0830877",
		"number": "57B",
		"street": "Maison",
		"city": "Boxhorn",
		"district": "",
		"postcode": "9742"
	},
	{
		"lon": "5.9970836",
		"lat": "50.0831419",
		"number": "65A",
		"street": "Maison",
		"city": "Boxhorn",
		"district": "",
		"postcode": "9742"
	},
	{
		"lon": "5.9972284",
		"lat": "50.0831376",
		"number": "65B",
		"street": "Maison",
		"city": "Boxhorn",
		"district": "",
		"postcode": "9742"
	},
	{
		"lon": "6.0008631",
		"lat": "50.0836845",
		"number": "75",
		"street": "Maison",
		"city": "Boxhorn",
		"district": "",
		"postcode": "9742"
	},
	{
		"lon": "6.0007006",
		"lat": "50.0837049",
		"number": "74",
		"street": "Maison",
		"city": "Boxhorn",
		"district": "",
		"postcode": "9742"
	},
	{
		"lon": "6.0013548",
		"lat": "50.0834437",
		"number": "72A",
		"street": "Maison",
		"city": "Boxhorn",
		"district": "",
		"postcode": "9742"
	},
	{
		"lon": "6.001038",
		"lat": "50.0834557",
		"number": "72",
		"street": "Maison",
		"city": "Boxhorn",
		"district": "",
		"postcode": "9742"
	},
	{
		"lon": "6.0007681",
		"lat": "50.0834316",
		"number": "71A",
		"street": "Maison",
		"city": "Boxhorn",
		"district": "",
		"postcode": "9742"
	},
	{
		"lon": "5.9943511",
		"lat": "50.0849718",
		"number": "43",
		"street": "Maison",
		"city": "Boxhorn",
		"district": "",
		"postcode": "9742"
	},
	{
		"lon": "5.9939887",
		"lat": "50.0848639",
		"number": "42",
		"street": "Maison",
		"city": "Boxhorn",
		"district": "",
		"postcode": "9742"
	},
	{
		"lon": "5.9936836",
		"lat": "50.0851393",
		"number": "44",
		"street": "Maison",
		"city": "Boxhorn",
		"district": "",
		"postcode": "9742"
	},
	{
		"lon": "5.9940285",
		"lat": "50.0851884",
		"number": "44A",
		"street": "Maison",
		"city": "Boxhorn",
		"district": "",
		"postcode": "9742"
	},
	{
		"lon": "5.9942758",
		"lat": "50.0852348",
		"number": "44B",
		"street": "Maison",
		"city": "Boxhorn",
		"district": "",
		"postcode": "9742"
	},
	{
		"lon": "5.9892994",
		"lat": "50.0850689",
		"number": "25",
		"street": "Maison",
		"city": "Boxhorn",
		"district": "",
		"postcode": "9741"
	},
	{
		"lon": "5.9891177",
		"lat": "50.0853092",
		"number": "25A",
		"street": "Maison",
		"city": "Boxhorn",
		"district": "",
		"postcode": "9741"
	},
	{
		"lon": "5.9895285",
		"lat": "50.0847294",
		"number": "23",
		"street": "Maison",
		"city": "Boxhorn",
		"district": "",
		"postcode": "9741"
	},
	{
		"lon": "5.9894649",
		"lat": "50.084816",
		"number": "23A",
		"street": "Maison",
		"city": "Boxhorn",
		"district": "",
		"postcode": "9741"
	},
	{
		"lon": "5.9890744",
		"lat": "50.0853705",
		"number": "25B",
		"street": "Maison",
		"city": "Boxhorn",
		"district": "",
		"postcode": "9741"
	},
	{
		"lon": "5.9889762",
		"lat": "50.085581",
		"number": "25C",
		"street": "Maison",
		"city": "Boxhorn",
		"district": "",
		"postcode": "9741"
	},
	{
		"lon": "5.9888654",
		"lat": "50.0856869",
		"number": "25D",
		"street": "Maison",
		"city": "Boxhorn",
		"district": "",
		"postcode": "9741"
	},
	{
		"lon": "5.98869",
		"lat": "50.0852483",
		"number": "24",
		"street": "Maison",
		"city": "Boxhorn",
		"district": "",
		"postcode": "9741"
	},
	{
		"lon": "5.9885906",
		"lat": "50.0853968",
		"number": "24A",
		"street": "Maison",
		"city": "Boxhorn",
		"district": "",
		"postcode": "9741"
	},
	{
		"lon": "5.9883657",
		"lat": "50.0855834",
		"number": "24B",
		"street": "Maison",
		"city": "Boxhorn",
		"district": "",
		"postcode": "9741"
	},
	{
		"lon": "5.9889566",
		"lat": "50.0843767",
		"number": "21",
		"street": "Maison",
		"city": "Boxhorn",
		"district": "",
		"postcode": "9741"
	},
	{
		"lon": "5.9868554",
		"lat": "50.0807633",
		"number": "1A",
		"street": "Maison",
		"city": "Boxhorn",
		"district": "",
		"postcode": "9741"
	},
	{
		"lon": "5.987662",
		"lat": "50.0810613",
		"number": "5",
		"street": "Maison",
		"city": "Boxhorn",
		"district": "",
		"postcode": "9741"
	},
	{
		"lon": "5.9883054",
		"lat": "50.0814052",
		"number": "7",
		"street": "Maison",
		"city": "Boxhorn",
		"district": "",
		"postcode": "9741"
	},
	{
		"lon": "5.9876881",
		"lat": "50.0800187",
		"number": "1",
		"street": "Maison",
		"city": "Boxhorn",
		"district": "",
		"postcode": "9741"
	},
	{
		"lon": "5.987491",
		"lat": "50.0805855",
		"number": "2",
		"street": "Maison",
		"city": "Boxhorn",
		"district": "",
		"postcode": "9741"
	},
	{
		"lon": "5.9901604",
		"lat": "50.0798006",
		"number": "98",
		"street": "Maison",
		"city": "Boxhorn",
		"district": "",
		"postcode": "9742"
	},
	{
		"lon": "5.9964897",
		"lat": "50.0799328",
		"number": "126",
		"street": "Maison",
		"city": "Boxhorn",
		"district": "",
		"postcode": "9742"
	},
	{
		"lon": "5.9918775",
		"lat": "50.0810716",
		"number": "100",
		"street": "Maison",
		"city": "Boxhorn",
		"district": "",
		"postcode": "9742"
	},
	{
		"lon": "5.9952162",
		"lat": "50.0803615",
		"number": "109",
		"street": "Maison",
		"city": "Boxhorn",
		"district": "",
		"postcode": "9742"
	},
	{
		"lon": "5.9949011",
		"lat": "50.0804393",
		"number": "108B",
		"street": "Maison",
		"city": "Boxhorn",
		"district": "",
		"postcode": "9742"
	},
	{
		"lon": "5.9945247",
		"lat": "50.0805372",
		"number": "108A",
		"street": "Maison",
		"city": "Boxhorn",
		"district": "",
		"postcode": "9742"
	},
	{
		"lon": "5.9955445",
		"lat": "50.0803052",
		"number": "111",
		"street": "Maison",
		"city": "Boxhorn",
		"district": "",
		"postcode": "9742"
	},
	{
		"lon": "5.9941611",
		"lat": "50.0806678",
		"number": "108",
		"street": "Maison",
		"city": "Boxhorn",
		"district": "",
		"postcode": "9742"
	},
	{
		"lon": "5.9937924",
		"lat": "50.0807026",
		"number": "106",
		"street": "Maison",
		"city": "Boxhorn",
		"district": "",
		"postcode": "9742"
	},
	{
		"lon": "5.9931887",
		"lat": "50.0809029",
		"number": "103",
		"street": "Maison",
		"city": "Boxhorn",
		"district": "",
		"postcode": "9742"
	},
	{
		"lon": "5.9912247",
		"lat": "50.0812717",
		"number": "99",
		"street": "Maison",
		"city": "Boxhorn",
		"district": "",
		"postcode": "9742"
	},
	{
		"lon": "5.9920366",
		"lat": "50.0813369",
		"number": "101",
		"street": "Maison",
		"city": "Boxhorn",
		"district": "",
		"postcode": "9742"
	},
	{
		"lon": "5.993613",
		"lat": "50.0814206",
		"number": "78",
		"street": "Maison",
		"city": "Boxhorn",
		"district": "",
		"postcode": "9742"
	},
	{
		"lon": "5.994245",
		"lat": "50.0809823",
		"number": "107",
		"street": "Maison",
		"city": "Boxhorn",
		"district": "",
		"postcode": "9742"
	},
	{
		"lon": "5.9930876",
		"lat": "50.0811759",
		"number": "104",
		"street": "Maison",
		"city": "Boxhorn",
		"district": "",
		"postcode": "9742"
	},
	{
		"lon": "5.9934979",
		"lat": "50.081179",
		"number": "104A",
		"street": "Maison",
		"city": "Boxhorn",
		"district": "",
		"postcode": "9742"
	},
	{
		"lon": "5.9937055",
		"lat": "50.081167",
		"number": "104B",
		"street": "Maison",
		"city": "Boxhorn",
		"district": "",
		"postcode": "9742"
	},
	{
		"lon": "5.9938591",
		"lat": "50.0811076",
		"number": "105",
		"street": "Maison",
		"city": "Boxhorn",
		"district": "",
		"postcode": "9742"
	},
	{
		"lon": "5.9939998",
		"lat": "50.0810526",
		"number": "105A",
		"street": "Maison",
		"city": "Boxhorn",
		"district": "",
		"postcode": "9742"
	},
	{
		"lon": "5.9945861",
		"lat": "50.0811701",
		"number": "76",
		"street": "Maison",
		"city": "Boxhorn",
		"district": "",
		"postcode": "9742"
	},
	{
		"lon": "5.9947947",
		"lat": "50.0808758",
		"number": "110",
		"street": "Maison",
		"city": "Boxhorn",
		"district": "",
		"postcode": "9742"
	},
	{
		"lon": "5.9958616",
		"lat": "50.0804568",
		"number": "112",
		"street": "Maison",
		"city": "Boxhorn",
		"district": "",
		"postcode": "9742"
	},
	{
		"lon": "5.9966483",
		"lat": "50.080174",
		"number": "114",
		"street": "Maison",
		"city": "Boxhorn",
		"district": "",
		"postcode": "9742"
	},
	{
		"lon": "5.996863",
		"lat": "50.0803515",
		"number": "115",
		"street": "Maison",
		"city": "Boxhorn",
		"district": "",
		"postcode": "9742"
	},
	{
		"lon": "5.9975138",
		"lat": "50.0800929",
		"number": "117",
		"street": "Maison",
		"city": "Boxhorn",
		"district": "",
		"postcode": "9742"
	},
	{
		"lon": "5.9972472",
		"lat": "50.0801808",
		"number": "116",
		"street": "Maison",
		"city": "Boxhorn",
		"district": "",
		"postcode": "9742"
	},
	{
		"lon": "6.0286643",
		"lat": "50.0921817",
		"number": "11",
		"street": "Maison",
		"city": "Maulusmuehle",
		"district": "",
		"postcode": "9974"
	},
	{
		"lon": "6.0280335",
		"lat": "50.0914425",
		"number": "12",
		"street": "Maison",
		"city": "Maulusmuehle",
		"district": "",
		"postcode": "9974"
	},
	{
		"lon": "6.0285466",
		"lat": "50.0932513",
		"number": "10",
		"street": "Maison",
		"city": "Maulusmuehle",
		"district": "",
		"postcode": "9974"
	},
	{
		"lon": "6.0278769",
		"lat": "50.0936752",
		"number": "9",
		"street": "Maison",
		"city": "Maulusmuehle",
		"district": "",
		"postcode": "9974"
	},
	{
		"lon": "6.0261661",
		"lat": "50.094145",
		"number": "8",
		"street": "Maison",
		"city": "Maulusmuehle",
		"district": "",
		"postcode": "9974"
	},
	{
		"lon": "6.0254566",
		"lat": "50.0942042",
		"number": "7",
		"street": "Maison",
		"city": "Maulusmuehle",
		"district": "",
		"postcode": "9974"
	},
	{
		"lon": "6.0213148",
		"lat": "50.0686549",
		"number": "130",
		"street": "Maison",
		"city": "Boxhorn",
		"district": "",
		"postcode": "9742"
	},
	{
		"lon": "5.9716721",
		"lat": "50.0801651",
		"number": "3",
		"street": "Maison",
		"city": "Rumlange",
		"district": "",
		"postcode": "9770"
	},
	{
		"lon": "5.9719465",
		"lat": "50.0802051",
		"number": "3A",
		"street": "Maison",
		"city": "Rumlange",
		"district": "",
		"postcode": "9770"
	},
	{
		"lon": "5.9722628",
		"lat": "50.0801997",
		"number": "3B",
		"street": "Maison",
		"city": "Rumlange",
		"district": "",
		"postcode": "9770"
	},
	{
		"lon": "5.9725627",
		"lat": "50.0801382",
		"number": "4",
		"street": "Maison",
		"city": "Rumlange",
		"district": "",
		"postcode": "9770"
	},
	{
		"lon": "5.9735517",
		"lat": "50.0800801",
		"number": "7",
		"street": "Maison",
		"city": "Rumlange",
		"district": "",
		"postcode": "9770"
	},
	{
		"lon": "5.9730117",
		"lat": "50.0800667",
		"number": "6",
		"street": "Maison",
		"city": "Rumlange",
		"district": "",
		"postcode": "9770"
	},
	{
		"lon": "5.9726209",
		"lat": "50.0798193",
		"number": "5",
		"street": "Maison",
		"city": "Rumlange",
		"district": "",
		"postcode": "9770"
	},
	{
		"lon": "5.9737004",
		"lat": "50.0798714",
		"number": "16",
		"street": "Maison",
		"city": "Rumlange",
		"district": "",
		"postcode": "9770"
	},
	{
		"lon": "5.9731351",
		"lat": "50.0797546",
		"number": "5B",
		"street": "Maison",
		"city": "Rumlange",
		"district": "",
		"postcode": "9770"
	},
	{
		"lon": "5.9735405",
		"lat": "50.0798196",
		"number": "17",
		"street": "Maison",
		"city": "Rumlange",
		"district": "",
		"postcode": "9770"
	},
	{
		"lon": "5.97346",
		"lat": "50.0795108",
		"number": "20A",
		"street": "Maison",
		"city": "Rumlange",
		"district": "",
		"postcode": "9770"
	},
	{
		"lon": "5.9737032",
		"lat": "50.0794158",
		"number": "20",
		"street": "Maison",
		"city": "Rumlange",
		"district": "",
		"postcode": "9770"
	},
	{
		"lon": "5.9739301",
		"lat": "50.0792345",
		"number": "22",
		"street": "Maison",
		"city": "Rumlange",
		"district": "",
		"postcode": "9770"
	},
	{
		"lon": "5.9734917",
		"lat": "50.0784392",
		"number": "30",
		"street": "Maison",
		"city": "Rumlange",
		"district": "",
		"postcode": "9770"
	},
	{
		"lon": "5.9730244",
		"lat": "50.0781181",
		"number": "31",
		"street": "Maison",
		"city": "Rumlange",
		"district": "",
		"postcode": "9770"
	},
	{
		"lon": "5.9727791",
		"lat": "50.0779937",
		"number": "31A",
		"street": "Maison",
		"city": "Rumlange",
		"district": "",
		"postcode": "9770"
	},
	{
		"lon": "5.9736858",
		"lat": "50.0784973",
		"number": "29",
		"street": "Maison",
		"city": "Rumlange",
		"district": "",
		"postcode": "9770"
	},
	{
		"lon": "5.9739249",
		"lat": "50.0787056",
		"number": "28",
		"street": "Maison",
		"city": "Rumlange",
		"district": "",
		"postcode": "9770"
	},
	{
		"lon": "5.9745631",
		"lat": "50.0780479",
		"number": "24",
		"street": "Maison",
		"city": "Rumlange",
		"district": "",
		"postcode": "9770"
	},
	{
		"lon": "5.9743784",
		"lat": "50.0784928",
		"number": "27",
		"street": "Maison",
		"city": "Rumlange",
		"district": "",
		"postcode": "9770"
	},
	{
		"lon": "5.9738117",
		"lat": "50.0782204",
		"number": "25",
		"street": "Maison",
		"city": "Rumlange",
		"district": "",
		"postcode": "9770"
	},
	{
		"lon": "5.9741904",
		"lat": "50.0783695",
		"number": "25A",
		"street": "Maison",
		"city": "Rumlange",
		"district": "",
		"postcode": "9770"
	},
	{
		"lon": "5.9746256",
		"lat": "50.0785911",
		"number": "26",
		"street": "Maison",
		"city": "Rumlange",
		"district": "",
		"postcode": "9770"
	},
	{
		"lon": "5.9752141",
		"lat": "50.0788968",
		"number": "34",
		"street": "Maison",
		"city": "Rumlange",
		"district": "",
		"postcode": "9770"
	},
	{
		"lon": "5.9751674",
		"lat": "50.0791992",
		"number": "36",
		"street": "Maison",
		"city": "Rumlange",
		"district": "",
		"postcode": "9770"
	},
	{
		"lon": "5.9744665",
		"lat": "50.0790404",
		"number": "23",
		"street": "Maison",
		"city": "Rumlange",
		"district": "",
		"postcode": "9770"
	},
	{
		"lon": "5.974248",
		"lat": "50.0793156",
		"number": "21",
		"street": "Maison",
		"city": "Rumlange",
		"district": "",
		"postcode": "9770"
	},
	{
		"lon": "5.9739124",
		"lat": "50.080176",
		"number": "8",
		"street": "Maison",
		"city": "Rumlange",
		"district": "",
		"postcode": "9770"
	},
	{
		"lon": "5.9735887",
		"lat": "50.0804522",
		"number": "9",
		"street": "Maison",
		"city": "Rumlange",
		"district": "",
		"postcode": "9770"
	},
	{
		"lon": "5.9743097",
		"lat": "50.0806336",
		"number": "10",
		"street": "Maison",
		"city": "Rumlange",
		"district": "",
		"postcode": "9770"
	},
	{
		"lon": "5.9743097",
		"lat": "50.0806336",
		"number": "11",
		"street": "Maison",
		"city": "Rumlange",
		"district": "",
		"postcode": "9770"
	},
	{
		"lon": "5.973556",
		"lat": "50.08089",
		"number": "12",
		"street": "Maison",
		"city": "Rumlange",
		"district": "",
		"postcode": "9770"
	},
	{
		"lon": "5.9767686",
		"lat": "50.0794701",
		"number": "36A",
		"street": "Maison",
		"city": "Rumlange",
		"district": "",
		"postcode": "9770"
	},
	{
		"lon": "5.9772242",
		"lat": "50.0789006",
		"number": "38",
		"street": "Maison",
		"city": "Rumlange",
		"district": "",
		"postcode": "9770"
	},
	{
		"lon": "5.9773235",
		"lat": "50.078824",
		"number": "38A",
		"street": "Maison",
		"city": "Rumlange",
		"district": "",
		"postcode": "9770"
	},
	{
		"lon": "5.9768399",
		"lat": "50.0789893",
		"number": "37",
		"street": "Maison",
		"city": "Rumlange",
		"district": "",
		"postcode": "9770"
	},
	{
		"lon": "5.9730066",
		"lat": "50.0775065",
		"number": "32",
		"street": "Maison",
		"city": "Rumlange",
		"district": "",
		"postcode": "9770"
	},
	{
		"lon": "5.9839828",
		"lat": "50.0718973",
		"number": "1",
		"street": "Maison",
		"city": "Lentzweiler",
		"district": "",
		"postcode": "9761"
	},
	{
		"lon": "5.9760706",
		"lat": "50.0698215",
		"number": "8",
		"street": "Maison",
		"city": "Lentzweiler",
		"district": "",
		"postcode": "9761"
	},
	{
		"lon": "5.9764088",
		"lat": "50.0700234",
		"number": "7",
		"street": "Maison",
		"city": "Lentzweiler",
		"district": "",
		"postcode": "9761"
	},
	{
		"lon": "5.9754153",
		"lat": "50.0700401",
		"number": "9A",
		"street": "Maison",
		"city": "Lentzweiler",
		"district": "",
		"postcode": "9761"
	},
	{
		"lon": "5.9756371",
		"lat": "50.0701158",
		"number": "9",
		"street": "Maison",
		"city": "Lentzweiler",
		"district": "",
		"postcode": "9761"
	},
	{
		"lon": "5.9758235",
		"lat": "50.070192",
		"number": "6B",
		"street": "Maison",
		"city": "Lentzweiler",
		"district": "",
		"postcode": "9761"
	},
	{
		"lon": "5.9760167",
		"lat": "50.0702422",
		"number": "6A",
		"street": "Maison",
		"city": "Lentzweiler",
		"district": "",
		"postcode": "9761"
	},
	{
		"lon": "5.9763328",
		"lat": "50.0704022",
		"number": "6",
		"street": "Maison",
		"city": "Lentzweiler",
		"district": "",
		"postcode": "9761"
	},
	{
		"lon": "5.9725044",
		"lat": "50.0775908",
		"number": "33",
		"street": "Maison",
		"city": "Rumlange",
		"district": "",
		"postcode": "9770"
	},
	{
		"lon": "5.9718034",
		"lat": "50.0798238",
		"number": "2",
		"street": "Maison",
		"city": "Rumlange",
		"district": "",
		"postcode": "9770"
	},
	{
		"lon": "5.9711382",
		"lat": "50.0802078",
		"number": "1",
		"street": "Maison",
		"city": "Rumlange",
		"district": "",
		"postcode": "9770"
	},
	{
		"lon": "5.9558772",
		"lat": "50.0774371",
		"number": "14",
		"street": "Maison",
		"city": "Stockem",
		"district": "",
		"postcode": "9771"
	},
	{
		"lon": "5.9563795",
		"lat": "50.0774101",
		"number": "19",
		"street": "Maison",
		"city": "Stockem",
		"district": "",
		"postcode": "9771"
	},
	{
		"lon": "5.956561",
		"lat": "50.0778732",
		"number": "11",
		"street": "Maison",
		"city": "Stockem",
		"district": "",
		"postcode": "9771"
	},
	{
		"lon": "5.9569533",
		"lat": "50.0779412",
		"number": "9",
		"street": "Maison",
		"city": "Stockem",
		"district": "",
		"postcode": "9771"
	},
	{
		"lon": "5.9567411",
		"lat": "50.0775107",
		"number": "12",
		"street": "Maison",
		"city": "Stockem",
		"district": "",
		"postcode": "9771"
	},
	{
		"lon": "5.9567362",
		"lat": "50.0773087",
		"number": "20",
		"street": "Maison",
		"city": "Stockem",
		"district": "",
		"postcode": "9771"
	},
	{
		"lon": "5.956897",
		"lat": "50.0773657",
		"number": "10",
		"street": "Maison",
		"city": "Stockem",
		"district": "",
		"postcode": "9771"
	},
	{
		"lon": "5.9580804",
		"lat": "50.0774334",
		"number": "4",
		"street": "Maison",
		"city": "Stockem",
		"district": "",
		"postcode": "9771"
	},
	{
		"lon": "5.9575686",
		"lat": "50.0776002",
		"number": "7",
		"street": "Maison",
		"city": "Stockem",
		"district": "",
		"postcode": "9771"
	},
	{
		"lon": "5.9577994",
		"lat": "50.077441",
		"number": "6",
		"street": "Maison",
		"city": "Stockem",
		"district": "",
		"postcode": "9771"
	},
	{
		"lon": "5.9584012",
		"lat": "50.0785694",
		"number": "38",
		"street": "Maison",
		"city": "Stockem",
		"district": "",
		"postcode": "9771"
	},
	{
		"lon": "5.9585761",
		"lat": "50.0787641",
		"number": "39",
		"street": "Maison",
		"city": "Stockem",
		"district": "",
		"postcode": "9771"
	},
	{
		"lon": "5.9586624",
		"lat": "50.0787978",
		"number": "40",
		"street": "Maison",
		"city": "Stockem",
		"district": "",
		"postcode": "9771"
	},
	{
		"lon": "5.9579845",
		"lat": "50.0785887",
		"number": "36",
		"street": "Maison",
		"city": "Stockem",
		"district": "",
		"postcode": "9771"
	},
	{
		"lon": "5.9577025",
		"lat": "50.0784761",
		"number": "37",
		"street": "Maison",
		"city": "Stockem",
		"district": "",
		"postcode": "9771"
	},
	{
		"lon": "5.9568536",
		"lat": "50.0784533",
		"number": "26",
		"street": "Maison",
		"city": "Stockem",
		"district": "",
		"postcode": "9771"
	},
	{
		"lon": "5.9562225",
		"lat": "50.0790515",
		"number": "28A",
		"street": "Maison",
		"city": "Stockem",
		"district": "",
		"postcode": "9771"
	},
	{
		"lon": "5.9565044",
		"lat": "50.0789316",
		"number": "28",
		"street": "Maison",
		"city": "Stockem",
		"district": "",
		"postcode": "9771"
	},
	{
		"lon": "5.9564916",
		"lat": "50.0787902",
		"number": "27",
		"street": "Maison",
		"city": "Stockem",
		"district": "",
		"postcode": "9771"
	},
	{
		"lon": "5.9565258",
		"lat": "50.0797277",
		"number": "30",
		"street": "Maison",
		"city": "Stockem",
		"district": "",
		"postcode": "9771"
	},
	{
		"lon": "5.9565258",
		"lat": "50.0797277",
		"number": "30A",
		"street": "Maison",
		"city": "Stockem",
		"district": "",
		"postcode": "9771"
	},
	{
		"lon": "5.956789",
		"lat": "50.0791394",
		"number": "29",
		"street": "Maison",
		"city": "Stockem",
		"district": "",
		"postcode": "9771"
	},
	{
		"lon": "5.9569897",
		"lat": "50.0788373",
		"number": "26A",
		"street": "Maison",
		"city": "Stockem",
		"district": "",
		"postcode": "9771"
	},
	{
		"lon": "5.9570305",
		"lat": "50.0786814",
		"number": "35A",
		"street": "Maison",
		"city": "Stockem",
		"district": "",
		"postcode": "9771"
	},
	{
		"lon": "5.957103",
		"lat": "50.0785856",
		"number": "35",
		"street": "Maison",
		"city": "Stockem",
		"district": "",
		"postcode": "9771"
	},
	{
		"lon": "5.9672365",
		"lat": "50.0715898",
		"number": "1",
		"street": "Maison",
		"city": "Stockem",
		"district": "",
		"postcode": "9771"
	},
	{
		"lon": "5.958118",
		"lat": "50.0778704",
		"number": "8A",
		"street": "Maison",
		"city": "Stockem",
		"district": "",
		"postcode": "9771"
	},
	{
		"lon": "5.9577336",
		"lat": "50.0779029",
		"number": "8",
		"street": "Maison",
		"city": "Stockem",
		"district": "",
		"postcode": "9771"
	},
	{
		"lon": "5.958604",
		"lat": "50.0774889",
		"number": "5A",
		"street": "Maison",
		"city": "Stockem",
		"district": "",
		"postcode": "9771"
	},
	{
		"lon": "5.958905",
		"lat": "50.077206",
		"number": "3A",
		"street": "Maison",
		"city": "Stockem",
		"district": "",
		"postcode": "9771"
	},
	{
		"lon": "5.9590572",
		"lat": "50.0770924",
		"number": "3",
		"street": "Maison",
		"city": "Stockem",
		"district": "",
		"postcode": "9771"
	},
	{
		"lon": "5.958363",
		"lat": "50.0776765",
		"number": "6A",
		"street": "Maison",
		"city": "Stockem",
		"district": "",
		"postcode": "9771"
	},
	{
		"lon": "5.9582519",
		"lat": "50.0777402",
		"number": "7A",
		"street": "Maison",
		"city": "Stockem",
		"district": "",
		"postcode": "9771"
	},
	{
		"lon": "5.9590973",
		"lat": "50.0770401",
		"number": "2A",
		"street": "Maison",
		"city": "Stockem",
		"district": "",
		"postcode": "9771"
	},
	{
		"lon": "5.9593561",
		"lat": "50.0768998",
		"number": "2",
		"street": "Maison",
		"city": "Stockem",
		"district": "",
		"postcode": "9771"
	},
	{
		"lon": "5.9588071",
		"lat": "50.0773617",
		"number": "5",
		"street": "Maison",
		"city": "Stockem",
		"district": "",
		"postcode": "9771"
	},
	{
		"lon": "5.9572457",
		"lat": "50.0767842",
		"number": "21A",
		"street": "Maison",
		"city": "Stockem",
		"district": "",
		"postcode": "9771"
	},
	{
		"lon": "5.9573429",
		"lat": "50.076649",
		"number": "21B",
		"street": "Maison",
		"city": "Stockem",
		"district": "",
		"postcode": "9771"
	},
	{
		"lon": "5.9574285",
		"lat": "50.0764965",
		"number": "25",
		"street": "Maison",
		"city": "Stockem",
		"district": "",
		"postcode": "9771"
	},
	{
		"lon": "5.9567154",
		"lat": "50.0768216",
		"number": "21",
		"street": "Maison",
		"city": "Stockem",
		"district": "",
		"postcode": "9771"
	},
	{
		"lon": "5.9568711",
		"lat": "50.0766004",
		"number": "22",
		"street": "Maison",
		"city": "Stockem",
		"district": "",
		"postcode": "9771"
	},
	{
		"lon": "5.9554704",
		"lat": "50.0772766",
		"number": "16",
		"street": "Maison",
		"city": "Stockem",
		"district": "",
		"postcode": "9771"
	},
	{
		"lon": "5.9551591",
		"lat": "50.0772211",
		"number": "16A",
		"street": "Maison",
		"city": "Stockem",
		"district": "",
		"postcode": "9771"
	},
	{
		"lon": "5.9547439",
		"lat": "50.0770756",
		"number": "18",
		"street": "Maison",
		"city": "Stockem",
		"district": "",
		"postcode": "9771"
	},
	{
		"lon": "5.9550131",
		"lat": "50.0776083",
		"number": "17",
		"street": "Maison",
		"city": "Stockem",
		"district": "",
		"postcode": "9771"
	},
	{
		"lon": "5.9553904",
		"lat": "50.0776163",
		"number": "15",
		"street": "Maison",
		"city": "Stockem",
		"district": "",
		"postcode": "9771"
	},
	{
		"lon": "5.9562071",
		"lat": "50.0776715",
		"number": "13",
		"street": "Maison",
		"city": "Stockem",
		"district": "",
		"postcode": "9771"
	},
	{
		"lon": "5.9560349",
		"lat": "50.0797263",
		"number": "31",
		"street": "Maison",
		"city": "Stockem",
		"district": "",
		"postcode": "9771"
	},
	{
		"lon": "5.9583515",
		"lat": "50.0794273",
		"number": "38A",
		"street": "Maison",
		"city": "Stockem",
		"district": "",
		"postcode": "9771"
	},
	{
		"lon": "5.9496066",
		"lat": "50.0762093",
		"number": "18A",
		"street": "Maison",
		"city": "Stockem",
		"district": "",
		"postcode": "9771"
	},
	{
		"lon": "5.951464",
		"lat": "50.0869942",
		"number": "1",
		"street": "Maison",
		"city": "Asselborn",
		"district": "",
		"postcode": "9940"
	},
	{
		"lon": "5.8842854",
		"lat": "49.5645856",
		"number": "44",
		"street": "Rue de la Libération",
		"city": "Linger",
		"district": "",
		"postcode": "4797"
	},
	{
		"lon": "5.8839245",
		"lat": "49.564562",
		"number": "46",
		"street": "Rue de la Libération",
		"city": "Linger",
		"district": "",
		"postcode": "4797"
	},
	{
		"lon": "5.8836956",
		"lat": "49.5644967",
		"number": "48",
		"street": "Rue de la Libération",
		"city": "Linger",
		"district": "",
		"postcode": "4797"
	},
	{
		"lon": "5.8834313",
		"lat": "49.5644239",
		"number": "50",
		"street": "Rue de la Libération",
		"city": "Linger",
		"district": "",
		"postcode": "4797"
	},
	{
		"lon": "5.8845843",
		"lat": "49.5653251",
		"number": "40",
		"street": "Rue de la Libération",
		"city": "Linger",
		"district": "",
		"postcode": "4797"
	},
	{
		"lon": "5.884765",
		"lat": "49.5648505",
		"number": "34",
		"street": "Rue de la Libération",
		"city": "Linger",
		"district": "",
		"postcode": "4797"
	},
	{
		"lon": "5.884765",
		"lat": "49.5648505",
		"number": "36",
		"street": "Rue de la Libération",
		"city": "Linger",
		"district": "",
		"postcode": "4797"
	},
	{
		"lon": "5.8849711",
		"lat": "49.5649217",
		"number": "34",
		"street": "Rue de la Libération",
		"city": "Linger",
		"district": "",
		"postcode": "4797"
	},
	{
		"lon": "5.8848857",
		"lat": "49.5648929",
		"number": "34A",
		"street": "Rue de la Libération",
		"city": "Linger",
		"district": "",
		"postcode": "4797"
	},
	{
		"lon": "5.8846414",
		"lat": "49.5651645",
		"number": "36",
		"street": "Rue de la Libération",
		"city": "Linger",
		"district": "",
		"postcode": "4797"
	},
	{
		"lon": "5.8846414",
		"lat": "49.5651645",
		"number": "38",
		"street": "Rue de la Libération",
		"city": "Linger",
		"district": "",
		"postcode": "4797"
	},
	{
		"lon": "5.8850937",
		"lat": "49.5649879",
		"number": "32",
		"street": "Rue de la Libération",
		"city": "Linger",
		"district": "",
		"postcode": "4797"
	},
	{
		"lon": "5.8851988",
		"lat": "49.5650285",
		"number": "30",
		"street": "Rue de la Libération",
		"city": "Linger",
		"district": "",
		"postcode": "4797"
	},
	{
		"lon": "5.8853435",
		"lat": "49.5650849",
		"number": "26",
		"street": "Rue de la Libération",
		"city": "Linger",
		"district": "",
		"postcode": "4797"
	},
	{
		"lon": "5.8856327",
		"lat": "49.5652261",
		"number": "24",
		"street": "Rue de la Libération",
		"city": "Linger",
		"district": "",
		"postcode": "4797"
	},
	{
		"lon": "5.8856557",
		"lat": "49.5653927",
		"number": "22",
		"street": "Rue de la Libération",
		"city": "Linger",
		"district": "",
		"postcode": "4797"
	},
	{
		"lon": "5.8861548",
		"lat": "49.5654734",
		"number": "16",
		"street": "Rue de la Libération",
		"city": "Linger",
		"district": "",
		"postcode": "4797"
	},
	{
		"lon": "5.886053",
		"lat": "49.5654372",
		"number": "18",
		"street": "Rue de la Libération",
		"city": "Linger",
		"district": "",
		"postcode": "4797"
	},
	{
		"lon": "5.8858851",
		"lat": "49.5654183",
		"number": "20",
		"street": "Rue de la Libération",
		"city": "Linger",
		"district": "",
		"postcode": "4797"
	},
	{
		"lon": "5.886371",
		"lat": "49.5656934",
		"number": "1",
		"street": "Rue du Bois",
		"city": "Linger",
		"district": "",
		"postcode": "4795"
	},
	{
		"lon": "5.8863707",
		"lat": "49.5654749",
		"number": "14",
		"street": "Rue de la Libération",
		"city": "Linger",
		"district": "",
		"postcode": "4797"
	},
	{
		"lon": "5.8863067",
		"lat": "49.5660159",
		"number": "5",
		"street": "Rue du Bois",
		"city": "Linger",
		"district": "",
		"postcode": "4795"
	},
	{
		"lon": "5.886587",
		"lat": "49.5664423",
		"number": "2",
		"street": "Rue du Bois",
		"city": "Linger",
		"district": "",
		"postcode": "4795"
	},
	{
		"lon": "5.8867172",
		"lat": "49.5656125",
		"number": "12A",
		"street": "Rue de la Libération",
		"city": "Linger",
		"district": "",
		"postcode": "4797"
	},
	{
		"lon": "5.8871726",
		"lat": "49.565641",
		"number": "12",
		"street": "Rue de la Libération",
		"city": "Linger",
		"district": "",
		"postcode": "4797"
	},
	{
		"lon": "5.8875231",
		"lat": "49.5656188",
		"number": "10",
		"street": "Rue de la Libération",
		"city": "Linger",
		"district": "",
		"postcode": "4797"
	},
	{
		"lon": "5.8877721",
		"lat": "49.5656559",
		"number": "8",
		"street": "Rue de la Libération",
		"city": "Linger",
		"district": "",
		"postcode": "4797"
	},
	{
		"lon": "5.8880266",
		"lat": "49.5657448",
		"number": "1",
		"street": "Rue Nicolas Jacqué",
		"city": "Linger",
		"district": "",
		"postcode": "4797"
	},
	{
		"lon": "5.8878369",
		"lat": "49.5659889",
		"number": "3",
		"street": "Rue Nicolas Jacqué",
		"city": "Linger",
		"district": "",
		"postcode": "4797"
	},
	{
		"lon": "5.8877724",
		"lat": "49.5660525",
		"number": "5",
		"street": "Rue Nicolas Jacqué",
		"city": "Linger",
		"district": "",
		"postcode": "4797"
	},
	{
		"lon": "5.8874129",
		"lat": "49.5663995",
		"number": "11",
		"street": "Rue Nicolas Jacqué",
		"city": "Linger",
		"district": "",
		"postcode": "4797"
	},
	{
		"lon": "5.8887677",
		"lat": "49.5656988",
		"number": "9",
		"street": "Rue de la Libération",
		"city": "Linger",
		"district": "",
		"postcode": "4797"
	},
	{
		"lon": "5.8886271",
		"lat": "49.5656551",
		"number": "11",
		"street": "Rue de la Libération",
		"city": "Linger",
		"district": "",
		"postcode": "4797"
	},
	{
		"lon": "5.888523",
		"lat": "49.5654974",
		"number": "13",
		"street": "Rue de la Libération",
		"city": "Linger",
		"district": "",
		"postcode": "4797"
	},
	{
		"lon": "5.8880989",
		"lat": "49.565278",
		"number": "17",
		"street": "Rue de la Libération",
		"city": "Linger",
		"district": "",
		"postcode": "4797"
	},
	{
		"lon": "5.8884203",
		"lat": "49.5654765",
		"number": "15",
		"street": "Rue de la Libération",
		"city": "Linger",
		"district": "",
		"postcode": "4797"
	},
	{
		"lon": "5.8877063",
		"lat": "49.5653001",
		"number": "19",
		"street": "Rue de la Libération",
		"city": "Linger",
		"district": "",
		"postcode": "4797"
	},
	{
		"lon": "5.887585",
		"lat": "49.565272",
		"number": "21",
		"street": "Rue de la Libération",
		"city": "Linger",
		"district": "",
		"postcode": "4797"
	},
	{
		"lon": "5.8873039",
		"lat": "49.5651958",
		"number": "23",
		"street": "Rue de la Libération",
		"city": "Linger",
		"district": "",
		"postcode": "4797"
	},
	{
		"lon": "5.8868493",
		"lat": "49.5653054",
		"number": "27",
		"street": "Rue de la Libération",
		"city": "Linger",
		"district": "",
		"postcode": "4797"
	},
	{
		"lon": "5.8869617",
		"lat": "49.5653149",
		"number": "25A",
		"street": "Rue de la Libération",
		"city": "Linger",
		"district": "",
		"postcode": "4797"
	},
	{
		"lon": "5.8870491",
		"lat": "49.5653025",
		"number": "25",
		"street": "Rue de la Libération",
		"city": "Linger",
		"district": "",
		"postcode": "4797"
	},
	{
		"lon": "5.8866925",
		"lat": "49.565291",
		"number": "29",
		"street": "Rue de la Libération",
		"city": "Linger",
		"district": "",
		"postcode": "4797"
	},
	{
		"lon": "5.8867192",
		"lat": "49.5651881",
		"number": "31",
		"street": "Rue de la Libération",
		"city": "Linger",
		"district": "",
		"postcode": "4797"
	},
	{
		"lon": "5.8868523",
		"lat": "49.5649729",
		"number": "35",
		"street": "Rue de la Libération",
		"city": "Linger",
		"district": "",
		"postcode": "4797"
	},
	{
		"lon": "5.8868013",
		"lat": "49.5651166",
		"number": "33",
		"street": "Rue de la Libération",
		"city": "Linger",
		"district": "",
		"postcode": "4797"
	},
	{
		"lon": "5.8860519",
		"lat": "49.5650889",
		"number": "39",
		"street": "Rue de la Libération",
		"city": "Linger",
		"district": "",
		"postcode": "4797"
	},
	{
		"lon": "5.8858593",
		"lat": "49.5642908",
		"number": "9",
		"street": "Rue de la Chiers",
		"city": "Linger",
		"district": "",
		"postcode": "4796"
	},
	{
		"lon": "5.8858824",
		"lat": "49.5644402",
		"number": "7",
		"street": "Rue de la Chiers",
		"city": "Linger",
		"district": "",
		"postcode": "4796"
	},
	{
		"lon": "5.8863248",
		"lat": "49.5651886",
		"number": "37",
		"street": "Rue de la Libération",
		"city": "Linger",
		"district": "",
		"postcode": "4797"
	},
	{
		"lon": "5.8863248",
		"lat": "49.5651886",
		"number": "37A",
		"street": "Rue de la Libération",
		"city": "Linger",
		"district": "",
		"postcode": "4797"
	},
	{
		"lon": "5.8859359",
		"lat": "49.5649676",
		"number": "41",
		"street": "Rue de la Libération",
		"city": "Linger",
		"district": "",
		"postcode": "4797"
	},
	{
		"lon": "5.8858259",
		"lat": "49.5647362",
		"number": "1",
		"street": "Rue de la Chiers",
		"city": "Linger",
		"district": "",
		"postcode": "4796"
	},
	{
		"lon": "5.8858556",
		"lat": "49.5646587",
		"number": "3",
		"street": "Rue de la Chiers",
		"city": "Linger",
		"district": "",
		"postcode": "4796"
	},
	{
		"lon": "5.8858762",
		"lat": "49.5646015",
		"number": "5",
		"street": "Rue de la Chiers",
		"city": "Linger",
		"district": "",
		"postcode": "4796"
	},
	{
		"lon": "5.8858992",
		"lat": "49.5645377",
		"number": "5A",
		"street": "Rue de la Chiers",
		"city": "Linger",
		"district": "",
		"postcode": "4796"
	},
	{
		"lon": "5.8852863",
		"lat": "49.5645116",
		"number": "43",
		"street": "Rue de la Libération",
		"city": "Linger",
		"district": "",
		"postcode": "4797"
	},
	{
		"lon": "5.884934",
		"lat": "49.5643954",
		"number": "45",
		"street": "Rue de la Libération",
		"city": "Linger",
		"district": "",
		"postcode": "4797"
	},
	{
		"lon": "5.8845686",
		"lat": "49.5643282",
		"number": "51",
		"street": "Rue de la Libération",
		"city": "Linger",
		"district": "",
		"postcode": "4797"
	},
	{
		"lon": "5.884675",
		"lat": "49.5643425",
		"number": "49",
		"street": "Rue de la Libération",
		"city": "Linger",
		"district": "",
		"postcode": "4797"
	},
	{
		"lon": "5.8843302",
		"lat": "49.5643143",
		"number": "53",
		"street": "Rue de la Libération",
		"city": "Linger",
		"district": "",
		"postcode": "4797"
	},
	{
		"lon": "5.8840723",
		"lat": "49.5642217",
		"number": "57",
		"street": "Rue de la Libération",
		"city": "Linger",
		"district": "",
		"postcode": "4797"
	},
	{
		"lon": "5.8840213",
		"lat": "49.5641393",
		"number": "61",
		"street": "Rue de la Libération",
		"city": "Linger",
		"district": "",
		"postcode": "4797"
	},
	{
		"lon": "5.8839704",
		"lat": "49.5642546",
		"number": "59",
		"street": "Rue de la Libération",
		"city": "Linger",
		"district": "",
		"postcode": "4797"
	},
	{
		"lon": "5.8837123",
		"lat": "49.5641075",
		"number": "63",
		"street": "Rue de la Libération",
		"city": "Linger",
		"district": "",
		"postcode": "4797"
	},
	{
		"lon": "5.8835169",
		"lat": "49.5641579",
		"number": "65",
		"street": "Rue de la Libération",
		"city": "Linger",
		"district": "",
		"postcode": "4797"
	},
	{
		"lon": "5.882985",
		"lat": "49.5639432",
		"number": "71",
		"street": "Rue de la Libération",
		"city": "Linger",
		"district": "",
		"postcode": "4797"
	},
	{
		"lon": "5.8831886",
		"lat": "49.5639733",
		"number": "69",
		"street": "Rue de la Libération",
		"city": "Linger",
		"district": "",
		"postcode": "4797"
	},
	{
		"lon": "5.883374",
		"lat": "49.5640546",
		"number": "67",
		"street": "Rue de la Libération",
		"city": "Linger",
		"district": "",
		"postcode": "4797"
	},
	{
		"lon": "5.8827219",
		"lat": "49.5638728",
		"number": "73",
		"street": "Rue de la Libération",
		"city": "Linger",
		"district": "",
		"postcode": "4797"
	},
	{
		"lon": "5.8825601",
		"lat": "49.5637923",
		"number": "75",
		"street": "Rue de la Libération",
		"city": "Linger",
		"district": "",
		"postcode": "4797"
	},
	{
		"lon": "5.8824705",
		"lat": "49.5637579",
		"number": "77",
		"street": "Rue de la Libération",
		"city": "Linger",
		"district": "",
		"postcode": "4798"
	},
	{
		"lon": "5.8826899",
		"lat": "49.56352",
		"number": "79",
		"street": "Rue de la Libération",
		"city": "Linger",
		"district": "",
		"postcode": "4798"
	},
	{
		"lon": "5.885319",
		"lat": "49.5626735",
		"number": "30",
		"street": "Rue de la Chiers",
		"city": "Linger",
		"district": "",
		"postcode": "4796"
	},
	{
		"lon": "5.8852064",
		"lat": "49.5628173",
		"number": "28",
		"street": "Rue de la Chiers",
		"city": "Linger",
		"district": "",
		"postcode": "4796"
	},
	{
		"lon": "5.8853341",
		"lat": "49.5639845",
		"number": "14",
		"street": "Rue de la Chiers",
		"city": "Linger",
		"district": "",
		"postcode": "4796"
	},
	{
		"lon": "5.8853282",
		"lat": "49.5640848",
		"number": "12",
		"street": "Rue de la Chiers",
		"city": "Linger",
		"district": "",
		"postcode": "4796"
	},
	{
		"lon": "5.8853469",
		"lat": "49.5638727",
		"number": "16",
		"street": "Rue de la Chiers",
		"city": "Linger",
		"district": "",
		"postcode": "4796"
	},
	{
		"lon": "5.8853783",
		"lat": "49.5637538",
		"number": "18",
		"street": "Rue de la Chiers",
		"city": "Linger",
		"district": "",
		"postcode": "4796"
	},
	{
		"lon": "5.8853733",
		"lat": "49.5636275",
		"number": "20",
		"street": "Rue de la Chiers",
		"city": "Linger",
		"district": "",
		"postcode": "4796"
	},
	{
		"lon": "5.8854026",
		"lat": "49.5635136",
		"number": "22",
		"street": "Rue de la Chiers",
		"city": "Linger",
		"district": "",
		"postcode": "4796"
	},
	{
		"lon": "5.8854032",
		"lat": "49.563397",
		"number": "24",
		"street": "Rue de la Chiers",
		"city": "Linger",
		"district": "",
		"postcode": "4796"
	},
	{
		"lon": "5.8850711",
		"lat": "49.5632236",
		"number": "26",
		"street": "Rue de la Chiers",
		"city": "Linger",
		"district": "",
		"postcode": "4796"
	},
	{
		"lon": "5.8857919",
		"lat": "49.5641174",
		"number": "11",
		"street": "Rue de la Chiers",
		"city": "Linger",
		"district": "",
		"postcode": "4796"
	},
	{
		"lon": "5.8858005",
		"lat": "49.5639491",
		"number": "15",
		"street": "Rue de la Chiers",
		"city": "Linger",
		"district": "",
		"postcode": "4796"
	},
	{
		"lon": "5.8857897",
		"lat": "49.5640512",
		"number": "13",
		"street": "Rue de la Chiers",
		"city": "Linger",
		"district": "",
		"postcode": "4796"
	},
	{
		"lon": "5.889439",
		"lat": "49.5650854",
		"number": "7",
		"street": "Rue de la Libération",
		"city": "Linger",
		"district": "",
		"postcode": "4797"
	},
	{
		"lon": "5.8894008",
		"lat": "49.5657613",
		"number": "5",
		"street": "Rue de la Libération",
		"city": "Linger",
		"district": "",
		"postcode": "4797"
	},
	{
		"lon": "5.8895625",
		"lat": "49.5658368",
		"number": "3",
		"street": "Rue de la Libération",
		"city": "Linger",
		"district": "",
		"postcode": "4797"
	},
	{
		"lon": "5.8899403",
		"lat": "49.5659542",
		"number": "1",
		"street": "Rue de la Libération",
		"city": "Linger",
		"district": "",
		"postcode": "4797"
	},
	{
		"lon": "5.8848753",
		"lat": "49.5705444",
		"number": "54",
		"street": "Rue du Bois",
		"city": "Linger",
		"district": "",
		"postcode": "4795"
	},
	{
		"lon": "5.8849231",
		"lat": "49.5703828",
		"number": "52",
		"street": "Rue du Bois",
		"city": "Linger",
		"district": "",
		"postcode": "4795"
	},
	{
		"lon": "5.8849556",
		"lat": "49.5702271",
		"number": "50",
		"street": "Rue du Bois",
		"city": "Linger",
		"district": "",
		"postcode": "4795"
	},
	{
		"lon": "5.8850452",
		"lat": "49.5700925",
		"number": "48",
		"street": "Rue du Bois",
		"city": "Linger",
		"district": "",
		"postcode": "4795"
	},
	{
		"lon": "5.8850966",
		"lat": "49.5699453",
		"number": "46",
		"street": "Rue du Bois",
		"city": "Linger",
		"district": "",
		"postcode": "4795"
	},
	{
		"lon": "5.8851615",
		"lat": "49.5698814",
		"number": "44",
		"street": "Rue du Bois",
		"city": "Linger",
		"district": "",
		"postcode": "4795"
	},
	{
		"lon": "5.8852581",
		"lat": "49.5697524",
		"number": "42",
		"street": "Rue du Bois",
		"city": "Linger",
		"district": "",
		"postcode": "4795"
	},
	{
		"lon": "5.8853232",
		"lat": "49.5695453",
		"number": "40",
		"street": "Rue du Bois",
		"city": "Linger",
		"district": "",
		"postcode": "4795"
	},
	{
		"lon": "5.8853648",
		"lat": "49.5693755",
		"number": "38",
		"street": "Rue du Bois",
		"city": "Linger",
		"district": "",
		"postcode": "4795"
	},
	{
		"lon": "5.8853932",
		"lat": "49.5692091",
		"number": "36",
		"street": "Rue du Bois",
		"city": "Linger",
		"district": "",
		"postcode": "4795"
	},
	{
		"lon": "5.885487",
		"lat": "49.5690307",
		"number": "34",
		"street": "Rue du Bois",
		"city": "Linger",
		"district": "",
		"postcode": "4795"
	},
	{
		"lon": "5.8856319",
		"lat": "49.5686857",
		"number": "30",
		"street": "Rue du Bois",
		"city": "Linger",
		"district": "",
		"postcode": "4795"
	},
	{
		"lon": "5.8855684",
		"lat": "49.5688532",
		"number": "32",
		"street": "Rue du Bois",
		"city": "Linger",
		"district": "",
		"postcode": "4795"
	},
	{
		"lon": "5.8857362",
		"lat": "49.5684261",
		"number": "28",
		"street": "Rue du Bois",
		"city": "Linger",
		"district": "",
		"postcode": "4795"
	},
	{
		"lon": "5.8857826",
		"lat": "49.5682352",
		"number": "26",
		"street": "Rue du Bois",
		"city": "Linger",
		"district": "",
		"postcode": "4795"
	},
	{
		"lon": "5.8857796",
		"lat": "49.5680492",
		"number": "24",
		"street": "Rue du Bois",
		"city": "Linger",
		"district": "",
		"postcode": "4795"
	},
	{
		"lon": "5.8858326",
		"lat": "49.5679145",
		"number": "22",
		"street": "Rue du Bois",
		"city": "Linger",
		"district": "",
		"postcode": "4795"
	},
	{
		"lon": "5.8862291",
		"lat": "49.5674254",
		"number": "14",
		"street": "Rue du Bois",
		"city": "Linger",
		"district": "",
		"postcode": "4795"
	},
	{
		"lon": "5.8861765",
		"lat": "49.5675278",
		"number": "16",
		"street": "Rue du Bois",
		"city": "Linger",
		"district": "",
		"postcode": "4795"
	},
	{
		"lon": "5.8861211",
		"lat": "49.567668",
		"number": "18",
		"street": "Rue du Bois",
		"city": "Linger",
		"district": "",
		"postcode": "4795"
	},
	{
		"lon": "5.8860709",
		"lat": "49.5677874",
		"number": "20",
		"street": "Rue du Bois",
		"city": "Linger",
		"district": "",
		"postcode": "4795"
	},
	{
		"lon": "5.8862861",
		"lat": "49.567297",
		"number": "12",
		"street": "Rue du Bois",
		"city": "Linger",
		"district": "",
		"postcode": "4795"
	},
	{
		"lon": "5.8862252",
		"lat": "49.5671054",
		"number": "10",
		"street": "Rue du Bois",
		"city": "Linger",
		"district": "",
		"postcode": "4795"
	},
	{
		"lon": "5.8862969",
		"lat": "49.5669816",
		"number": "8",
		"street": "Rue du Bois",
		"city": "Linger",
		"district": "",
		"postcode": "4795"
	},
	{
		"lon": "5.8863774",
		"lat": "49.566851",
		"number": "6A",
		"street": "Rue du Bois",
		"city": "Linger",
		"district": "",
		"postcode": "4795"
	},
	{
		"lon": "5.8863774",
		"lat": "49.566851",
		"number": "6B",
		"street": "Rue du Bois",
		"city": "Linger",
		"district": "",
		"postcode": "4795"
	},
	{
		"lon": "5.8866895",
		"lat": "49.566877",
		"number": "6",
		"street": "Rue du Bois",
		"city": "Linger",
		"district": "",
		"postcode": "4795"
	},
	{
		"lon": "5.8872348",
		"lat": "49.566664",
		"number": "15",
		"street": "Rue Nicolas Jacqué",
		"city": "Linger",
		"district": "",
		"postcode": "4797"
	},
	{
		"lon": "5.888016",
		"lat": "49.5668459",
		"number": "12",
		"street": "Rue Nicolas Jacqué",
		"city": "Linger",
		"district": "",
		"postcode": "4797"
	},
	{
		"lon": "5.8879886",
		"lat": "49.5667627",
		"number": "10",
		"street": "Rue Nicolas Jacqué",
		"city": "Linger",
		"district": "",
		"postcode": "4797"
	},
	{
		"lon": "5.8872834",
		"lat": "49.5665725",
		"number": "13",
		"street": "Rue Nicolas Jacqué",
		"city": "Linger",
		"district": "",
		"postcode": "4797"
	},
	{
		"lon": "5.8885979",
		"lat": "49.5660163",
		"number": "6",
		"street": "Rue de la Libération",
		"city": "Linger",
		"district": "",
		"postcode": "4797"
	},
	{
		"lon": "5.888225",
		"lat": "49.5662048",
		"number": "4",
		"street": "Rue Nicolas Jacqué",
		"city": "Linger",
		"district": "",
		"postcode": "4797"
	},
	{
		"lon": "5.8883437",
		"lat": "49.5659452",
		"number": "2",
		"street": "Rue Nicolas Jacqué",
		"city": "Linger",
		"district": "",
		"postcode": "4797"
	},
	{
		"lon": "5.8891066",
		"lat": "49.5661785",
		"number": "2",
		"street": "Rue de la Libération",
		"city": "Linger",
		"district": "",
		"postcode": "4797"
	},
	{
		"lon": "5.8888624",
		"lat": "49.5660977",
		"number": "4",
		"street": "Rue de la Libération",
		"city": "Linger",
		"district": "",
		"postcode": "4797"
	},
	{
		"lon": "5.8881703",
		"lat": "49.5663286",
		"number": "6",
		"street": "Rue Nicolas Jacqué",
		"city": "Linger",
		"district": "",
		"postcode": "4797"
	},
	{
		"lon": "5.8880071",
		"lat": "49.5664996",
		"number": "8",
		"street": "Rue Nicolas Jacqué",
		"city": "Linger",
		"district": "",
		"postcode": "4797"
	},
	{
		"lon": "5.8859367",
		"lat": "49.5668951",
		"number": "21",
		"street": "Rue du Bois",
		"city": "Linger",
		"district": "",
		"postcode": "4795"
	},
	{
		"lon": "5.8861453",
		"lat": "49.5665559",
		"number": "13",
		"street": "Rue du Bois",
		"city": "Linger",
		"district": "",
		"postcode": "4795"
	},
	{
		"lon": "5.8860798",
		"lat": "49.5666685",
		"number": "15",
		"street": "Rue du Bois",
		"city": "Linger",
		"district": "",
		"postcode": "4795"
	},
	{
		"lon": "5.8855264",
		"lat": "49.5673728",
		"number": "27",
		"street": "Rue du Bois",
		"city": "Linger",
		"district": "",
		"postcode": "4795"
	},
	{
		"lon": "5.8855119",
		"lat": "49.5675364",
		"number": "29",
		"street": "Rue du Bois",
		"city": "Linger",
		"district": "",
		"postcode": "4795"
	},
	{
		"lon": "5.8854779",
		"lat": "49.5676731",
		"number": "31",
		"street": "Rue du Bois",
		"city": "Linger",
		"district": "",
		"postcode": "4795"
	},
	{
		"lon": "5.8853887",
		"lat": "49.5678013",
		"number": "33",
		"street": "Rue du Bois",
		"city": "Linger",
		"district": "",
		"postcode": "4795"
	},
	{
		"lon": "5.8853348",
		"lat": "49.5679296",
		"number": "35",
		"street": "Rue du Bois",
		"city": "Linger",
		"district": "",
		"postcode": "4795"
	},
	{
		"lon": "5.8862333",
		"lat": "49.5661908",
		"number": "7",
		"street": "Rue du Bois",
		"city": "Linger",
		"district": "",
		"postcode": "4795"
	},
	{
		"lon": "5.88521",
		"lat": "49.5680425",
		"number": "37",
		"street": "Rue du Bois",
		"city": "Linger",
		"district": "",
		"postcode": "4795"
	},
	{
		"lon": "5.8851487",
		"lat": "49.5681816",
		"number": "39",
		"street": "Rue du Bois",
		"city": "Linger",
		"district": "",
		"postcode": "4795"
	},
	{
		"lon": "5.8856547",
		"lat": "49.5672209",
		"number": "25",
		"street": "Rue du Bois",
		"city": "Linger",
		"district": "",
		"postcode": "4795"
	},
	{
		"lon": "5.8861834",
		"lat": "49.5663787",
		"number": "9",
		"street": "Rue du Bois",
		"city": "Linger",
		"district": "",
		"postcode": "4795"
	},
	{
		"lon": "5.8850914",
		"lat": "49.5684112",
		"number": "41",
		"street": "Rue du Bois",
		"city": "Linger",
		"district": "",
		"postcode": "4795"
	},
	{
		"lon": "5.8858216",
		"lat": "49.5670899",
		"number": "23",
		"street": "Rue du Bois",
		"city": "Linger",
		"district": "",
		"postcode": "4795"
	},
	{
		"lon": "5.8834252",
		"lat": "49.5690876",
		"number": "47",
		"street": "Rue du Bois",
		"city": "Linger",
		"district": "",
		"postcode": "4795"
	},
	{
		"lon": "5.8848375",
		"lat": "49.5692816",
		"number": "49",
		"street": "Rue du Bois",
		"city": "Linger",
		"district": "",
		"postcode": "4795"
	},
	{
		"lon": "5.8847371",
		"lat": "49.569507",
		"number": "51",
		"street": "Rue du Bois",
		"city": "Linger",
		"district": "",
		"postcode": "4795"
	},
	{
		"lon": "5.8845451",
		"lat": "49.5699759",
		"number": "57",
		"street": "Rue du Bois",
		"city": "Linger",
		"district": "",
		"postcode": "4795"
	},
	{
		"lon": "5.8846064",
		"lat": "49.5698411",
		"number": "55",
		"street": "Rue du Bois",
		"city": "Linger",
		"district": "",
		"postcode": "4795"
	},
	{
		"lon": "5.8844063",
		"lat": "49.5701357",
		"number": "57A",
		"street": "Rue du Bois",
		"city": "Linger",
		"district": "",
		"postcode": "4795"
	},
	{
		"lon": "5.8843938",
		"lat": "49.5702282",
		"number": "57B",
		"street": "Rue du Bois",
		"city": "Linger",
		"district": "",
		"postcode": "4795"
	},
	{
		"lon": "5.8842971",
		"lat": "49.5703927",
		"number": "59",
		"street": "Rue du Bois",
		"city": "Linger",
		"district": "",
		"postcode": "4795"
	},
	{
		"lon": "5.8841932",
		"lat": "49.5706368",
		"number": "61A",
		"street": "Rue du Bois",
		"city": "Linger",
		"district": "",
		"postcode": "4795"
	},
	{
		"lon": "5.8842229",
		"lat": "49.5705459",
		"number": "61",
		"street": "Rue du Bois",
		"city": "Linger",
		"district": "",
		"postcode": "4795"
	},
	{
		"lon": "5.8841184",
		"lat": "49.5708056",
		"number": "63",
		"street": "Rue du Bois",
		"city": "Linger",
		"district": "",
		"postcode": "4795"
	},
	{
		"lon": "5.8830402",
		"lat": "49.5642374",
		"number": "54",
		"street": "Rue de la Libération",
		"city": "Linger",
		"district": "",
		"postcode": "4797"
	},
	{
		"lon": "5.8831584",
		"lat": "49.5642738",
		"number": "52",
		"street": "Rue de la Libération",
		"city": "Linger",
		"district": "",
		"postcode": "4797"
	},
	{
		"lon": "5.8827793",
		"lat": "49.5641433",
		"number": "58",
		"street": "Rue de la Libération",
		"city": "Linger",
		"district": "",
		"postcode": "4797"
	},
	{
		"lon": "5.882879",
		"lat": "49.5641741",
		"number": "56",
		"street": "Rue de la Libération",
		"city": "Linger",
		"district": "",
		"postcode": "4797"
	},
	{
		"lon": "5.8826501",
		"lat": "49.5641162",
		"number": "60",
		"street": "Rue de la Libération",
		"city": "Linger",
		"district": "",
		"postcode": "4797"
	},
	{
		"lon": "5.882508",
		"lat": "49.5640719",
		"number": "62",
		"street": "Rue de la Libération",
		"city": "Linger",
		"district": "",
		"postcode": "4797"
	},
	{
		"lon": "5.8818405",
		"lat": "49.5638606",
		"number": "70",
		"street": "Rue de la Libération",
		"city": "Linger",
		"district": "",
		"postcode": "4797"
	},
	{
		"lon": "5.8821036",
		"lat": "49.5639376",
		"number": "68",
		"street": "Rue de la Libération",
		"city": "Linger",
		"district": "",
		"postcode": "4797"
	},
	{
		"lon": "5.8822432",
		"lat": "49.5639715",
		"number": "66",
		"street": "Rue de la Libération",
		"city": "Linger",
		"district": "",
		"postcode": "4797"
	},
	{
		"lon": "5.8823815",
		"lat": "49.5640322",
		"number": "64",
		"street": "Rue de la Libération",
		"city": "Linger",
		"district": "",
		"postcode": "4797"
	},
	{
		"lon": "5.8813997",
		"lat": "49.5635547",
		"number": "78",
		"street": "Rue de la Libération",
		"city": "Linger",
		"district": "",
		"postcode": "4798"
	},
	{
		"lon": "5.8811074",
		"lat": "49.5632693",
		"number": "84",
		"street": "Rue de la Libération",
		"city": "Linger",
		"district": "",
		"postcode": "4798"
	},
	{
		"lon": "5.8811284",
		"lat": "49.5635391",
		"number": "82",
		"street": "Rue de la Libération",
		"city": "Linger",
		"district": "",
		"postcode": "4798"
	},
	{
		"lon": "5.8812481",
		"lat": "49.5635675",
		"number": "80",
		"street": "Rue de la Libération",
		"city": "Linger",
		"district": "",
		"postcode": "4798"
	},
	{
		"lon": "5.8809791",
		"lat": "49.5632415",
		"number": "86",
		"street": "Rue de la Libération",
		"city": "Linger",
		"district": "",
		"postcode": "4798"
	},
	{
		"lon": "5.8815045",
		"lat": "49.5634286",
		"number": "76",
		"street": "Rue de la Libération",
		"city": "Linger",
		"district": "",
		"postcode": "4798"
	},
	{
		"lon": "5.8816193",
		"lat": "49.5634952",
		"number": "74",
		"street": "Rue de la Libération",
		"city": "Linger",
		"district": "",
		"postcode": "4798"
	},
	{
		"lon": "5.8817596",
		"lat": "49.5635919",
		"number": "72",
		"street": "Rue de la Libération",
		"city": "Linger",
		"district": "",
		"postcode": "4798"
	},
	{
		"lon": "5.8822958",
		"lat": "49.5636287",
		"number": "81-83",
		"street": "Rue de la Libération",
		"city": "Linger",
		"district": "",
		"postcode": "4798"
	},
	{
		"lon": "5.8824858",
		"lat": "49.5633132",
		"number": "79A",
		"street": "Rue de la Libération",
		"city": "Linger",
		"district": "",
		"postcode": "4798"
	},
	{
		"lon": "5.8819001",
		"lat": "49.5634202",
		"number": "87",
		"street": "Rue de la Libération",
		"city": "Linger",
		"district": "",
		"postcode": "4798"
	},
	{
		"lon": "5.8820571",
		"lat": "49.5634456",
		"number": "85",
		"street": "Rue de la Libération",
		"city": "Linger",
		"district": "",
		"postcode": "4798"
	},
	{
		"lon": "5.8816597",
		"lat": "49.563216",
		"number": "91",
		"street": "Rue de la Libération",
		"city": "Linger",
		"district": "",
		"postcode": "4798"
	},
	{
		"lon": "5.8815806",
		"lat": "49.5631251",
		"number": "93",
		"street": "Rue de la Libération",
		"city": "Linger",
		"district": "",
		"postcode": "4798"
	},
	{
		"lon": "5.8812126",
		"lat": "49.5629845",
		"number": "101",
		"street": "Rue de la Libération",
		"city": "Linger",
		"district": "",
		"postcode": "4798"
	},
	{
		"lon": "5.8811134",
		"lat": "49.5628936",
		"number": "103",
		"street": "Rue de la Libération",
		"city": "Linger",
		"district": "",
		"postcode": "4798"
	},
	{
		"lon": "5.8814825",
		"lat": "49.5631121",
		"number": "95",
		"street": "Rue de la Libération",
		"city": "Linger",
		"district": "",
		"postcode": "4798"
	},
	{
		"lon": "5.8814134",
		"lat": "49.5630683",
		"number": "97",
		"street": "Rue de la Libération",
		"city": "Linger",
		"district": "",
		"postcode": "4798"
	},
	{
		"lon": "5.8813406",
		"lat": "49.5630523",
		"number": "99",
		"street": "Rue de la Libération",
		"city": "Linger",
		"district": "",
		"postcode": "4798"
	},
	{
		"lon": "5.880404",
		"lat": "49.5624908",
		"number": "107",
		"street": "Rue de la Libération",
		"city": "Linger",
		"district": "",
		"postcode": "4798"
	},
	{
		"lon": "5.8803364",
		"lat": "49.5624457",
		"number": "109",
		"street": "Rue de la Libération",
		"city": "Linger",
		"district": "",
		"postcode": "4798"
	},
	{
		"lon": "5.8802453",
		"lat": "49.5624287",
		"number": "111",
		"street": "Rue de la Libération",
		"city": "Linger",
		"district": "",
		"postcode": "4798"
	},
	{
		"lon": "5.8801808",
		"lat": "49.5623689",
		"number": "113",
		"street": "Rue de la Libération",
		"city": "Linger",
		"district": "",
		"postcode": "4798"
	},
	{
		"lon": "5.8800361",
		"lat": "49.5623257",
		"number": "115",
		"street": "Rue de la Libération",
		"city": "Linger",
		"district": "",
		"postcode": "4798"
	},
	{
		"lon": "5.8799675",
		"lat": "49.5622809",
		"number": "117",
		"street": "Rue de la Libération",
		"city": "Linger",
		"district": "",
		"postcode": "4798"
	},
	{
		"lon": "5.8798991",
		"lat": "49.5622353",
		"number": "119",
		"street": "Rue de la Libération",
		"city": "Linger",
		"district": "",
		"postcode": "4798"
	},
	{
		"lon": "5.879828",
		"lat": "49.5621924",
		"number": "121",
		"street": "Rue de la Libération",
		"city": "Linger",
		"district": "",
		"postcode": "4798"
	},
	{
		"lon": "5.8793316",
		"lat": "49.5619171",
		"number": "125",
		"street": "Rue de la Libération",
		"city": "Linger",
		"district": "",
		"postcode": "4798"
	},
	{
		"lon": "5.8794957",
		"lat": "49.5615811",
		"number": "127",
		"street": "Rue de la Libération",
		"city": "Linger",
		"district": "",
		"postcode": "4798"
	},
	{
		"lon": "5.8758471",
		"lat": "49.5617316",
		"number": "140",
		"street": "Rue de la Libération",
		"city": "Linger",
		"district": "",
		"postcode": "4798"
	},
	{
		"lon": "5.8759522",
		"lat": "49.5617291",
		"number": "138",
		"street": "Rue de la Libération",
		"city": "Linger",
		"district": "",
		"postcode": "4798"
	},
	{
		"lon": "5.8760593",
		"lat": "49.5617502",
		"number": "136",
		"street": "Rue de la Libération",
		"city": "Linger",
		"district": "",
		"postcode": "4798"
	},
	{
		"lon": "5.8761602",
		"lat": "49.5617803",
		"number": "134",
		"street": "Rue de la Libération",
		"city": "Linger",
		"district": "",
		"postcode": "4798"
	},
	{
		"lon": "5.8765509",
		"lat": "49.5618633",
		"number": "132",
		"street": "Rue de la Libération",
		"city": "Linger",
		"district": "",
		"postcode": "4798"
	},
	{
		"lon": "5.8766694",
		"lat": "49.5618789",
		"number": "130",
		"street": "Rue de la Libération",
		"city": "Linger",
		"district": "",
		"postcode": "4798"
	},
	{
		"lon": "5.8767742",
		"lat": "49.5619019",
		"number": "128",
		"street": "Rue de la Libération",
		"city": "Linger",
		"district": "",
		"postcode": "4798"
	},
	{
		"lon": "5.8770557",
		"lat": "49.5619704",
		"number": "126",
		"street": "Rue de la Libération",
		"city": "Linger",
		"district": "",
		"postcode": "4798"
	},
	{
		"lon": "5.8769408",
		"lat": "49.5627146",
		"number": "124",
		"street": "Rue de la Libération",
		"city": "Linger",
		"district": "",
		"postcode": "4798"
	},
	{
		"lon": "5.8775864",
		"lat": "49.5620273",
		"number": "120",
		"street": "Rue de la Libération",
		"city": "Linger",
		"district": "",
		"postcode": "4798"
	},
	{
		"lon": "5.8774387",
		"lat": "49.5620084",
		"number": "122",
		"street": "Rue de la Libération",
		"city": "Linger",
		"district": "",
		"postcode": "4798"
	},
	{
		"lon": "5.8777492",
		"lat": "49.5621151",
		"number": "118",
		"street": "Rue de la Libération",
		"city": "Linger",
		"district": "",
		"postcode": "4798"
	},
	{
		"lon": "5.8779483",
		"lat": "49.5621658",
		"number": "116",
		"street": "Rue de la Libération",
		"city": "Linger",
		"district": "",
		"postcode": "4798"
	},
	{
		"lon": "5.8785145",
		"lat": "49.5622059",
		"number": "112",
		"street": "Rue de la Libération",
		"city": "Linger",
		"district": "",
		"postcode": "4798"
	},
	{
		"lon": "5.8782495",
		"lat": "49.5621974",
		"number": "114",
		"street": "Rue de la Libération",
		"city": "Linger",
		"district": "",
		"postcode": "4798"
	},
	{
		"lon": "5.8787188",
		"lat": "49.562233",
		"number": "110",
		"street": "Rue de la Libération",
		"city": "Linger",
		"district": "",
		"postcode": "4798"
	},
	{
		"lon": "5.878872",
		"lat": "49.5622744",
		"number": "108",
		"street": "Rue de la Libération",
		"city": "Linger",
		"district": "",
		"postcode": "4798"
	},
	{
		"lon": "5.8790241",
		"lat": "49.5622872",
		"number": "106",
		"street": "Rue de la Libération",
		"city": "Linger",
		"district": "",
		"postcode": "4798"
	},
	{
		"lon": "5.8789869",
		"lat": "49.5625654",
		"number": "104",
		"street": "Rue de la Libération",
		"city": "Linger",
		"district": "",
		"postcode": "4798"
	},
	{
		"lon": "5.8793331",
		"lat": "49.5624944",
		"number": "100",
		"street": "Rue de la Libération",
		"city": "Linger",
		"district": "",
		"postcode": "4798"
	},
	{
		"lon": "5.8792137",
		"lat": "49.5624659",
		"number": "102",
		"street": "Rue de la Libération",
		"city": "Linger",
		"district": "",
		"postcode": "4798"
	},
	{
		"lon": "5.8794672",
		"lat": "49.5626064",
		"number": "98",
		"street": "Rue de la Libération",
		"city": "Linger",
		"district": "",
		"postcode": "4798"
	},
	{
		"lon": "5.87969",
		"lat": "49.5627661",
		"number": "96",
		"street": "Rue de la Libération",
		"city": "Linger",
		"district": "",
		"postcode": "4798"
	},
	{
		"lon": "5.879954",
		"lat": "49.5627656",
		"number": "94",
		"street": "Rue de la Libération",
		"city": "Linger",
		"district": "",
		"postcode": "4798"
	},
	{
		"lon": "5.8801119",
		"lat": "49.5628",
		"number": "92",
		"street": "Rue de la Libération",
		"city": "Linger",
		"district": "",
		"postcode": "4798"
	},
	{
		"lon": "5.8801957",
		"lat": "49.5628198",
		"number": "90",
		"street": "Rue de la Libération",
		"city": "Linger",
		"district": "",
		"postcode": "4798"
	},
	{
		"lon": "5.8805445",
		"lat": "49.5634556",
		"number": "88",
		"street": "Rue de la Libération",
		"city": "Linger",
		"district": "",
		"postcode": "4798"
	},
	{
		"lon": "5.9090682",
		"lat": "49.5735224",
		"number": "12",
		"street": "Rue de Bascharage",
		"city": "Hautcharage",
		"district": "",
		"postcode": "4910"
	},
	{
		"lon": "5.9091796",
		"lat": "49.5736085",
		"number": "14",
		"street": "Rue de Bascharage",
		"city": "Hautcharage",
		"district": "",
		"postcode": "4910"
	},
	{
		"lon": "5.9095095",
		"lat": "49.5743164",
		"number": "2A",
		"street": "Rue de Schouweiler",
		"city": "Hautcharage",
		"district": "",
		"postcode": "4945"
	},
	{
		"lon": "5.9089497",
		"lat": "49.5739077",
		"number": "23",
		"street": "Rue de Bascharage",
		"city": "Hautcharage",
		"district": "",
		"postcode": "4910"
	},
	{
		"lon": "5.9087968",
		"lat": "49.5737576",
		"number": "21",
		"street": "Rue de Bascharage",
		"city": "Hautcharage",
		"district": "",
		"postcode": "4910"
	},
	{
		"lon": "5.9088976",
		"lat": "49.5738482",
		"number": "21A",
		"street": "Rue de Bascharage",
		"city": "Hautcharage",
		"district": "",
		"postcode": "4910"
	},
	{
		"lon": "5.9084937",
		"lat": "49.5735055",
		"number": "17A",
		"street": "Rue de Bascharage",
		"city": "Hautcharage",
		"district": "",
		"postcode": "4910"
	},
	{
		"lon": "5.9086138",
		"lat": "49.5736673",
		"number": "19",
		"street": "Rue de Bascharage",
		"city": "Hautcharage",
		"district": "",
		"postcode": "4910"
	},
	{
		"lon": "5.9089001",
		"lat": "49.5741265",
		"number": "25A",
		"street": "Rue de Bascharage",
		"city": "Hautcharage",
		"district": "",
		"postcode": "4910"
	},
	{
		"lon": "5.9090115",
		"lat": "49.5741725",
		"number": "25",
		"street": "Rue de Bascharage",
		"city": "Hautcharage",
		"district": "",
		"postcode": "4910"
	},
	{
		"lon": "5.9090021",
		"lat": "49.5743681",
		"number": "29",
		"street": "Rue de Bascharage",
		"city": "Hautcharage",
		"district": "",
		"postcode": "4910"
	},
	{
		"lon": "5.9091057",
		"lat": "49.574246",
		"number": "27",
		"street": "Rue de Bascharage",
		"city": "Hautcharage",
		"district": "",
		"postcode": "4910"
	},
	{
		"lon": "5.9087849",
		"lat": "49.5744364",
		"number": "31",
		"street": "Rue de Bascharage",
		"city": "Hautcharage",
		"district": "",
		"postcode": "4910"
	},
	{
		"lon": "5.908894",
		"lat": "49.5746051",
		"number": "33",
		"street": "Rue de Bascharage",
		"city": "Hautcharage",
		"district": "",
		"postcode": "4910"
	},
	{
		"lon": "5.9091102",
		"lat": "49.5745826",
		"number": "33A",
		"street": "Rue de Bascharage",
		"city": "Hautcharage",
		"district": "",
		"postcode": "4910"
	},
	{
		"lon": "5.9091302",
		"lat": "49.574648",
		"number": "35",
		"street": "Rue de Bascharage",
		"city": "Hautcharage",
		"district": "",
		"postcode": "4910"
	},
	{
		"lon": "5.9087351",
		"lat": "49.5746448",
		"number": "37",
		"street": "Rue de Bascharage",
		"city": "Hautcharage",
		"district": "",
		"postcode": "4910"
	},
	{
		"lon": "5.9086637",
		"lat": "49.5746981",
		"number": "39",
		"street": "Rue de Bascharage",
		"city": "Hautcharage",
		"district": "",
		"postcode": "4910"
	},
	{
		"lon": "5.9086703",
		"lat": "49.5747762",
		"number": "41",
		"street": "Rue de Bascharage",
		"city": "Hautcharage",
		"district": "",
		"postcode": "4910"
	},
	{
		"lon": "5.9083683",
		"lat": "49.5750236",
		"number": "43A",
		"street": "Rue de Bascharage",
		"city": "Hautcharage",
		"district": "",
		"postcode": "4910"
	},
	{
		"lon": "5.9083435",
		"lat": "49.5748764",
		"number": "43",
		"street": "Rue de Bascharage",
		"city": "Hautcharage",
		"district": "",
		"postcode": "4910"
	},
	{
		"lon": "5.9088061",
		"lat": "49.5749994",
		"number": "45",
		"street": "Rue de Bascharage",
		"city": "Hautcharage",
		"district": "",
		"postcode": "4910"
	},
	{
		"lon": "5.9089722",
		"lat": "49.5750601",
		"number": "49",
		"street": "Rue de Bascharage",
		"city": "Hautcharage",
		"district": "",
		"postcode": "4910"
	},
	{
		"lon": "5.9089098",
		"lat": "49.5750417",
		"number": "47",
		"street": "Rue de Bascharage",
		"city": "Hautcharage",
		"district": "",
		"postcode": "4910"
	},
	{
		"lon": "5.9090681",
		"lat": "49.575104",
		"number": "51",
		"street": "Rue de Bascharage",
		"city": "Hautcharage",
		"district": "",
		"postcode": "4910"
	},
	{
		"lon": "5.9088178",
		"lat": "49.575151",
		"number": "51",
		"street": "Rue de Bascharage",
		"city": "Hautcharage",
		"district": "",
		"postcode": "4910"
	},
	{
		"lon": "5.9089425",
		"lat": "49.575238",
		"number": "1",
		"street": "Rue de la Libération",
		"city": "Hautcharage",
		"district": "",
		"postcode": "4932"
	},
	{
		"lon": "5.9088533",
		"lat": "49.5753405",
		"number": "3",
		"street": "Rue de la Libération",
		"city": "Hautcharage",
		"district": "",
		"postcode": "4932"
	},
	{
		"lon": "5.9088027",
		"lat": "49.5754034",
		"number": "5",
		"street": "Rue de la Libération",
		"city": "Hautcharage",
		"district": "",
		"postcode": "4932"
	},
	{
		"lon": "5.9086413",
		"lat": "49.5754738",
		"number": "7",
		"street": "Rue de la Libération",
		"city": "Hautcharage",
		"district": "",
		"postcode": "4932"
	},
	{
		"lon": "5.9085306",
		"lat": "49.575448",
		"number": "1",
		"street": "Winkel",
		"city": "Hautcharage",
		"district": "",
		"postcode": "4932"
	},
	{
		"lon": "5.908413",
		"lat": "49.5754194",
		"number": "2",
		"street": "Winkel",
		"city": "Hautcharage",
		"district": "",
		"postcode": "4932"
	},
	{
		"lon": "5.9082569",
		"lat": "49.5753649",
		"number": "4",
		"street": "Winkel",
		"city": "Hautcharage",
		"district": "",
		"postcode": "4932"
	},
	{
		"lon": "5.9086091",
		"lat": "49.5756068",
		"number": "9",
		"street": "Rue de la Libération",
		"city": "Hautcharage",
		"district": "",
		"postcode": "4932"
	},
	{
		"lon": "5.9084911",
		"lat": "49.5758928",
		"number": "11",
		"street": "Rue de la Libération",
		"city": "Hautcharage",
		"district": "",
		"postcode": "4932"
	},
	{
		"lon": "5.9084313",
		"lat": "49.5757318",
		"number": "11A",
		"street": "Rue de la Libération",
		"city": "Hautcharage",
		"district": "",
		"postcode": "4932"
	},
	{
		"lon": "5.9075203",
		"lat": "49.5761569",
		"number": "7",
		"street": "Rue du Dix Septembre",
		"city": "Hautcharage",
		"district": "",
		"postcode": "4947"
	},
	{
		"lon": "5.9077936",
		"lat": "49.5763118",
		"number": "5",
		"street": "Rue du Dix Septembre",
		"city": "Hautcharage",
		"district": "",
		"postcode": "4947"
	},
	{
		"lon": "5.9082661",
		"lat": "49.5761337",
		"number": "13",
		"street": "Rue de la Libération",
		"city": "Hautcharage",
		"district": "",
		"postcode": "4932"
	},
	{
		"lon": "5.9087719",
		"lat": "49.5762129",
		"number": "10",
		"street": "Rue Jean-Pierre Origer",
		"city": "Hautcharage",
		"district": "",
		"postcode": "4937"
	},
	{
		"lon": "5.9089415",
		"lat": "49.5762682",
		"number": "10",
		"street": "Rue Jean-Pierre Origer",
		"city": "Hautcharage",
		"district": "",
		"postcode": "4937"
	},
	{
		"lon": "5.9091541",
		"lat": "49.5763058",
		"number": "8",
		"street": "Rue Jean-Pierre Origer",
		"city": "Hautcharage",
		"district": "",
		"postcode": "4937"
	},
	{
		"lon": "5.9095497",
		"lat": "49.5763427",
		"number": "4A",
		"street": "Rue Jean-Pierre Origer",
		"city": "Hautcharage",
		"district": "",
		"postcode": "4937"
	},
	{
		"lon": "5.9093859",
		"lat": "49.5763437",
		"number": "6",
		"street": "Rue Jean-Pierre Origer",
		"city": "Hautcharage",
		"district": "",
		"postcode": "4937"
	},
	{
		"lon": "5.9098173",
		"lat": "49.5762807",
		"number": "4",
		"street": "Rue Jean-Pierre Origer",
		"city": "Hautcharage",
		"district": "",
		"postcode": "4937"
	},
	{
		"lon": "5.9097708",
		"lat": "49.576354",
		"number": "2",
		"street": "Rue Jean-Pierre Origer",
		"city": "Hautcharage",
		"district": "",
		"postcode": "4937"
	},
	{
		"lon": "5.9099879",
		"lat": "49.5764037",
		"number": "63",
		"street": "Rue de Bascharage",
		"city": "Hautcharage",
		"district": "",
		"postcode": "4910"
	},
	{
		"lon": "5.910041",
		"lat": "49.5765868",
		"number": "65",
		"street": "Rue de Bascharage",
		"city": "Hautcharage",
		"district": "",
		"postcode": "4910"
	},
	{
		"lon": "5.9092743",
		"lat": "49.576658",
		"number": "1",
		"street": "Rue du Dix Septembre",
		"city": "Hautcharage",
		"district": "",
		"postcode": "4947"
	},
	{
		"lon": "5.9086664",
		"lat": "49.5764505",
		"number": "3",
		"street": "Rue du Dix Septembre",
		"city": "Hautcharage",
		"district": "",
		"postcode": "4947"
	},
	{
		"lon": "5.9081293",
		"lat": "49.5766427",
		"number": "12",
		"street": "Rue du Dix Septembre",
		"city": "Hautcharage",
		"district": "",
		"postcode": "4947"
	},
	{
		"lon": "5.9061906",
		"lat": "49.5770017",
		"number": "2",
		"street": "Rue Eugène Mouschand",
		"city": "Hautcharage",
		"district": "",
		"postcode": "4935"
	},
	{
		"lon": "5.9076848",
		"lat": "49.5775589",
		"number": "33",
		"street": "Rue Nicolas Roth",
		"city": "Hautcharage",
		"district": "",
		"postcode": "4943"
	},
	{
		"lon": "5.9075002",
		"lat": "49.5774569",
		"number": "35",
		"street": "Rue Nicolas Roth",
		"city": "Hautcharage",
		"district": "",
		"postcode": "4943"
	},
	{
		"lon": "5.9072786",
		"lat": "49.5773808",
		"number": "37",
		"street": "Rue Nicolas Roth",
		"city": "Hautcharage",
		"district": "",
		"postcode": "4943"
	},
	{
		"lon": "5.9071042",
		"lat": "49.5772697",
		"number": "39",
		"street": "Rue Nicolas Roth",
		"city": "Hautcharage",
		"district": "",
		"postcode": "4943"
	},
	{
		"lon": "5.9088342",
		"lat": "49.5771791",
		"number": "2",
		"street": "Rue Jean-Pierre Thiry",
		"city": "Hautcharage",
		"district": "",
		"postcode": "4949"
	},
	{
		"lon": "5.9089751",
		"lat": "49.5768845",
		"number": "10",
		"street": "Rue du Dix Septembre",
		"city": "Hautcharage",
		"district": "",
		"postcode": "4947"
	},
	{
		"lon": "5.909103",
		"lat": "49.5769037",
		"number": "8",
		"street": "Rue du Dix Septembre",
		"city": "Hautcharage",
		"district": "",
		"postcode": "4947"
	},
	{
		"lon": "5.9078879",
		"lat": "49.5776609",
		"number": "31",
		"street": "Rue Nicolas Roth",
		"city": "Hautcharage",
		"district": "",
		"postcode": "4943"
	},
	{
		"lon": "5.9081054",
		"lat": "49.5777606",
		"number": "15",
		"street": "Rue Jean-Pierre Thiry",
		"city": "Hautcharage",
		"district": "",
		"postcode": "4949"
	},
	{
		"lon": "5.9081344",
		"lat": "49.5775448",
		"number": "13",
		"street": "Rue Jean-Pierre Thiry",
		"city": "Hautcharage",
		"district": "",
		"postcode": "4949"
	},
	{
		"lon": "5.90817",
		"lat": "49.5774776",
		"number": "11",
		"street": "Rue Jean-Pierre Thiry",
		"city": "Hautcharage",
		"district": "",
		"postcode": "4949"
	},
	{
		"lon": "5.908195",
		"lat": "49.5773471",
		"number": "9",
		"street": "Rue Jean-Pierre Thiry",
		"city": "Hautcharage",
		"district": "",
		"postcode": "4949"
	},
	{
		"lon": "5.9082296",
		"lat": "49.577279",
		"number": "7",
		"street": "Rue Jean-Pierre Thiry",
		"city": "Hautcharage",
		"district": "",
		"postcode": "4949"
	},
	{
		"lon": "5.9082675",
		"lat": "49.577206",
		"number": "5",
		"street": "Rue Jean-Pierre Thiry",
		"city": "Hautcharage",
		"district": "",
		"postcode": "4949"
	},
	{
		"lon": "5.9082955",
		"lat": "49.5770256",
		"number": "3",
		"street": "Rue Jean-Pierre Thiry",
		"city": "Hautcharage",
		"district": "",
		"postcode": "4949"
	}
]