[
	{
		"lon": "-101.9880964",
		"lat": "22.2708702",
		"number": "212",
		"street": "FRANCISCO VILLA",
		"city": "LORETO",
		"district": "",
		"postcode": "98830"
	},
	{
		"lon": "-103.4589381",
		"lat": "21.4625967",
		"number": "9",
		"street": "GUADALUPE VICTORIA",
		"city": "TEÚL DE GONZÁLEZ ORTEGA",
		"district": "",
		"postcode": "99800"
	},
	{
		"lon": "-103.1422222",
		"lat": "21.1063889",
		"number": "0",
		"street": "JESÚS MARÍA PALMAREJO",
		"city": "MOYAHUA DE ESTRADA",
		"district": "",
		"postcode": "99998"
	},
	{
		"lon": "-102.9788998",
		"lat": "21.645131",
		"number": "1317",
		"street": "DEL PARQUE",
		"city": "JALPA",
		"district": "",
		"postcode": "99601"
	},
	{
		"lon": "-102.8505928",
		"lat": "21.3608374",
		"number": "57",
		"street": "PORFIRIO DÍAZ",
		"city": "NOCHISTLÁN DE MEJÍA",
		"district": "",
		"postcode": "99900"
	},
	{
		"lon": "-102.711756",
		"lat": "22.9465972",
		"number": "702",
		"street": "PROFESOR JOSÉ REYES PONIENTE",
		"city": "CALERA",
		"district": "",
		"postcode": "98500"
	},
	{
		"lon": "-102.5119768",
		"lat": "22.7517093",
		"number": "128",
		"street": "5 DE MAYO",
		"city": "GUADALUPE",
		"district": "",
		"postcode": "98613"
	},
	{
		"lon": "-102.5710487",
		"lat": "22.7881872",
		"number": "502",
		"street": "HORACIO DE LA PEÑA",
		"city": "ZACATECAS",
		"district": "",
		"postcode": "98020"
	},
	{
		"lon": "-102.5710443",
		"lat": "22.7717708",
		"number": "520",
		"street": "VENUSTIANO CARRANZA",
		"city": "ZACATECAS",
		"district": "",
		"postcode": "98000"
	},
	{
		"lon": "-102.5821276",
		"lat": "22.7669184",
		"number": "112",
		"street": "SAN MARCOS",
		"city": "ZACATECAS",
		"district": "",
		"postcode": "98050"
	},
	{
		"lon": "-102.5081739",
		"lat": "22.7275376",
		"number": "1",
		"street": "NINGUNO",
		"city": "GUADALUPE",
		"district": "",
		"postcode": "98600"
	},
	{
		"lon": "-102.9111844",
		"lat": "21.8648459",
		"number": "0",
		"street": "SANTOS DEGOLLADO",
		"city": "TABASCO",
		"district": "",
		"postcode": "99631"
	},
	{
		"lon": "-102.8433439",
		"lat": "21.365961",
		"number": "55",
		"street": "JUÁREZ",
		"city": "NOCHISTLÁN DE MEJÍA",
		"district": "",
		"postcode": "99900"
	},
	{
		"lon": "-103.459057",
		"lat": "21.4621802",
		"number": "9",
		"street": "GUADALUPE VICTORIA",
		"city": "TEÚL DE GONZÁLEZ ORTEGA",
		"district": "",
		"postcode": "99800"
	},
	{
		"lon": "-103.8471417",
		"lat": "22.5711228",
		"number": "0",
		"street": "18 DE MARZO",
		"city": "VALPARAÍSO",
		"district": "",
		"postcode": "99250"
	},
	{
		"lon": "-103.4590598",
		"lat": "21.4621703",
		"number": "9",
		"street": "GUADALUPE VICTORIA",
		"city": "TEÚL DE GONZÁLEZ ORTEGA",
		"district": "",
		"postcode": "99800"
	},
	{
		"lon": "-103.5698962",
		"lat": "22.7763693",
		"number": "66",
		"street": "NINGUNO",
		"city": "VALPARAÍSO",
		"district": "",
		"postcode": "99200"
	},
	{
		"lon": "-103.1186251",
		"lat": "23.6746121",
		"number": "0",
		"street": "DURANGO",
		"city": "SAIN ALTO",
		"district": "",
		"postcode": "98400"
	},
	{
		"lon": "-103.4590569",
		"lat": "21.4621805",
		"number": "9",
		"street": "GUADALUPE VICTORIA",
		"city": "TEÚL DE GONZÁLEZ ORTEGA",
		"district": "",
		"postcode": "99800"
	},
	{
		"lon": "-102.6877712",
		"lat": "22.956302",
		"number": "839",
		"street": "NINGUNO",
		"city": "CALERA",
		"district": "",
		"postcode": "98500"
	},
	{
		"lon": "-102.7009308",
		"lat": "22.9486172",
		"number": "103",
		"street": "NINGUNO",
		"city": "CALERA",
		"district": "",
		"postcode": "98500"
	},
	{
		"lon": "-103.4529884",
		"lat": "24.2865983",
		"number": "2",
		"street": "ALLENDE",
		"city": "MIGUEL AUZA",
		"district": "",
		"postcode": "98330"
	},
	{
		"lon": "-103.3231768",
		"lat": "21.6706854",
		"number": "5",
		"street": "GUADALUPE VICTORIA",
		"city": "TEPECHITLÁN",
		"district": "",
		"postcode": "99750"
	},
	{
		"lon": "-103.0085162",
		"lat": "23.276393",
		"number": "0",
		"street": "IGNACIO ZARAGOZA",
		"city": "FRESNILLO",
		"district": "",
		"postcode": "99189"
	},
	{
		"lon": "-101.914384",
		"lat": "22.5149169",
		"number": "0",
		"street": "HIDALGO",
		"city": "VILLA GONZÁLEZ ORTEGA",
		"district": "",
		"postcode": "98840"
	},
	{
		"lon": "-103.6441664",
		"lat": "23.6395743",
		"number": "5",
		"street": "LAS PLAYAS",
		"city": "SOMBRERETE",
		"district": "",
		"postcode": "99100"
	},
	{
		"lon": "-103.451473",
		"lat": "24.2868386",
		"number": "1",
		"street": "MORELOS",
		"city": "MIGUEL AUZA",
		"district": "",
		"postcode": "98330"
	},
	{
		"lon": "-103.1136111",
		"lat": "22.9277778",
		"number": "5",
		"street": "BARRIO EL MIRADOR",
		"city": "FRESNILLO",
		"district": "",
		"postcode": "99190"
	},
	{
		"lon": "-103.0000704",
		"lat": "22.2589654",
		"number": "63",
		"street": "MELCHOR OCAMPO",
		"city": "VILLANUEVA",
		"district": "",
		"postcode": "99500"
	},
	{
		"lon": "-102.9965891",
		"lat": "22.2592679",
		"number": "65",
		"street": "MECHOR OCAMPO",
		"city": "VILLANUEVA",
		"district": "",
		"postcode": "99500"
	},
	{
		"lon": "-103.4590598",
		"lat": "21.4621703",
		"number": "9",
		"street": "GUADALUPE VICTORIA",
		"city": "TEÚL DE GONZÁLEZ ORTEGA",
		"district": "",
		"postcode": "99800"
	},
	{
		"lon": "-103.4494939",
		"lat": "24.2942682",
		"number": "1",
		"street": "5 DE FEBRERO",
		"city": "MIGUEL AUZA",
		"district": "",
		"postcode": "98330"
	},
	{
		"lon": "-103.4482821",
		"lat": "24.2952964",
		"number": "15",
		"street": "5 DE FEBRERO",
		"city": "MIGUEL AUZA",
		"district": "",
		"postcode": "98330"
	},
	{
		"lon": "-103.4616667",
		"lat": "22.9888889",
		"number": "0",
		"street": "NINGUNO",
		"city": "VALPARAÍSO",
		"district": "",
		"postcode": "99200"
	},
	{
		"lon": "-102.9160078",
		"lat": "22.3734572",
		"number": "0",
		"street": "FELIPE ANGELES",
		"city": "VILLANUEVA",
		"district": "",
		"postcode": "0"
	},
	{
		"lon": "-103.5699035",
		"lat": "22.7763753",
		"number": "66",
		"street": "NINGUNO",
		"city": "VALPARAÍSO",
		"district": "",
		"postcode": "99200"
	},
	{
		"lon": "-103.2192443",
		"lat": "23.1750802",
		"number": "26",
		"street": "PLAYA AZUL",
		"city": "FRESNILLO",
		"district": "",
		"postcode": "99000"
	},
	{
		"lon": "-103.2184055",
		"lat": "23.1761274",
		"number": "16",
		"street": "LOPEZ MATEOS",
		"city": "FRESNILLO",
		"district": "",
		"postcode": "99000"
	},
	{
		"lon": "-103.2171939",
		"lat": "23.1726448",
		"number": "0",
		"street": "1 DE MAYO",
		"city": "FRESNILLO",
		"district": "",
		"postcode": "99000"
	},
	{
		"lon": "-103.2170164",
		"lat": "23.1759358",
		"number": "0",
		"street": "LOPEZ MATEOS",
		"city": "FRESNILLO",
		"district": "",
		"postcode": "99000"
	},
	{
		"lon": "-103.2156651",
		"lat": "23.1776426",
		"number": "440",
		"street": "ALAMO",
		"city": "FRESNILLO",
		"district": "",
		"postcode": "99000"
	},
	{
		"lon": "-103.1334272",
		"lat": "21.0814541",
		"number": "0",
		"street": "NINGUNO",
		"city": "MOYAHUA DE ESTRADA",
		"district": "",
		"postcode": "99998"
	},
	{
		"lon": "-103.1336609",
		"lat": "21.0799425",
		"number": "17",
		"street": "FRANCISCO VILLA",
		"city": "MOYAHUA DE ESTRADA",
		"district": "",
		"postcode": "99998"
	},
	{
		"lon": "-103.1335194",
		"lat": "21.0807179",
		"number": "22",
		"street": "NINGUNO",
		"city": "MOYAHUA DE ESTRADA",
		"district": "",
		"postcode": "99998"
	},
	{
		"lon": "-103.4059966",
		"lat": "21.5104543",
		"number": "21",
		"street": "NINGUNO",
		"city": "SANTA MARÍA DE LA PAZ",
		"district": "",
		"postcode": "99720"
	},
	{
		"lon": "-103.4061275",
		"lat": "21.5101663",
		"number": "25",
		"street": "ABASOLO",
		"city": "SANTA MARÍA DE LA PAZ",
		"district": "",
		"postcode": "99720"
	},
	{
		"lon": "-103.4061988",
		"lat": "21.5100967",
		"number": "29",
		"street": "ABASOLO",
		"city": "SANTA MARÍA DE LA PAZ",
		"district": "",
		"postcode": "99720"
	},
	{
		"lon": "-103.8478982",
		"lat": "22.5731133",
		"number": "0",
		"street": "PRESA SAN ANTONIO DE PADUA",
		"city": "VALPARAÍSO",
		"district": "",
		"postcode": "99250"
	},
	{
		"lon": "-103.4590085",
		"lat": "21.4623499",
		"number": "8",
		"street": "GUADALUPE VICTORIA",
		"city": "TEÚL DE GONZÁLEZ ORTEGA",
		"district": "",
		"postcode": "99800"
	},
	{
		"lon": "-103.4589842",
		"lat": "21.4624351",
		"number": "9",
		"street": "GUADALUPE VICTORIA",
		"city": "TEÚL DE GONZÁLEZ ORTEGA",
		"district": "",
		"postcode": "99800"
	},
	{
		"lon": "-103.458966",
		"lat": "21.4624991",
		"number": "9",
		"street": "GUADALUPE VICTORIA",
		"city": "TEÚL DE GONZÁLEZ ORTEGA",
		"district": "",
		"postcode": "99800"
	},
	{
		"lon": "-103.4590486",
		"lat": "21.4622096",
		"number": "9",
		"street": "GUADALUPE VICTORIA",
		"city": "TEÚL DE GONZÁLEZ ORTEGA",
		"district": "",
		"postcode": "99800"
	},
	{
		"lon": "-103.4059274",
		"lat": "21.5107479",
		"number": "32",
		"street": "ABASOLO",
		"city": "SANTA MARÍA DE LA PAZ",
		"district": "",
		"postcode": "99720"
	},
	{
		"lon": "-103.4060944",
		"lat": "21.510225",
		"number": "34",
		"street": "ABASOLO",
		"city": "SANTA MARÍA DE LA PAZ",
		"district": "",
		"postcode": "99720"
	},
	{
		"lon": "-103.4059629",
		"lat": "21.5106182",
		"number": "36",
		"street": "ABASOLO",
		"city": "SANTA MARÍA DE LA PAZ",
		"district": "",
		"postcode": "99720"
	},
	{
		"lon": "-103.1136111",
		"lat": "22.9277778",
		"number": "5",
		"street": "VENUSTIANO CARRANZA",
		"city": "FRESNILLO",
		"district": "",
		"postcode": "99190"
	},
	{
		"lon": "-103.1132571",
		"lat": "22.9254375",
		"number": "10",
		"street": "EMILIANO ZAPATA",
		"city": "FRESNILLO",
		"district": "",
		"postcode": "99190"
	},
	{
		"lon": "-102.9661111",
		"lat": "22.8225",
		"number": "9",
		"street": "EMILIANO ZAPATA",
		"city": "JEREZ",
		"district": "",
		"postcode": "99000"
	},
	{
		"lon": "-102.9661111",
		"lat": "22.8225",
		"number": "3",
		"street": "NINGUNO",
		"city": "JEREZ",
		"district": "",
		"postcode": "99000"
	},
	{
		"lon": "-103.2117419",
		"lat": "23.1657317",
		"number": "5",
		"street": "LUIS MOYA",
		"city": "FRESNILLO",
		"district": "",
		"postcode": "0"
	},
	{
		"lon": "-103.2106788",
		"lat": "23.1653038",
		"number": "7",
		"street": "LUIS MOYA",
		"city": "FRESNILLO",
		"district": "",
		"postcode": "99000"
	},
	{
		"lon": "-103.2102973",
		"lat": "23.1654147",
		"number": "22",
		"street": "LUIS MOYA",
		"city": "FRESNILLO",
		"district": "",
		"postcode": "99000"
	},
	{
		"lon": "-103.2099269",
		"lat": "23.1655039",
		"number": "16",
		"street": "LUIS MOYA",
		"city": "FRESNILLO",
		"district": "",
		"postcode": "99000"
	},
	{
		"lon": "-103.2106402",
		"lat": "23.1648591",
		"number": "12",
		"street": "LUIS MOYA",
		"city": "FRESNILLO",
		"district": "",
		"postcode": "99000"
	},
	{
		"lon": "-103.2096612",
		"lat": "23.1655679",
		"number": "22",
		"street": "LUIS MOYA",
		"city": "FRESNILLO",
		"district": "",
		"postcode": "99000"
	},
	{
		"lon": "-103.2110179",
		"lat": "23.1651274",
		"number": "0",
		"street": "LUIS MOYA",
		"city": "FRESNILLO",
		"district": "",
		"postcode": "99000"
	},
	{
		"lon": "-102.9495646",
		"lat": "22.8378876",
		"number": "9",
		"street": "FELIPE ANGUELES",
		"city": "JEREZ",
		"district": "",
		"postcode": "99440"
	},
	{
		"lon": "-102.9492077",
		"lat": "22.836119",
		"number": "9",
		"street": "PLAZA PRINCIPAL",
		"city": "JEREZ",
		"district": "",
		"postcode": "99440"
	},
	{
		"lon": "-102.948566",
		"lat": "22.8350981",
		"number": "1",
		"street": "DEL REPOSO",
		"city": "JEREZ",
		"district": "",
		"postcode": "99440"
	},
	{
		"lon": "-102.950193",
		"lat": "22.8378543",
		"number": "2",
		"street": "ENTRADA PRINCIPAL",
		"city": "JEREZ",
		"district": "",
		"postcode": "99440"
	},
	{
		"lon": "-102.9492347",
		"lat": "22.8388574",
		"number": "13",
		"street": "FELIPE ANGELES",
		"city": "JEREZ",
		"district": "",
		"postcode": "99440"
	},
	{
		"lon": "-103.5509924",
		"lat": "22.3044443",
		"number": "12",
		"street": "NINGUNO",
		"city": "MONTE ESCOBEDO",
		"district": "",
		"postcode": "99400"
	},
	{
		"lon": "-102.6576715",
		"lat": "21.5052104",
		"number": "22",
		"street": "LOPEZ VELARDE",
		"city": "APULCO",
		"district": "",
		"postcode": "99930"
	},
	{
		"lon": "-103.3430556",
		"lat": "21.6538889",
		"number": "2",
		"street": "HIDALGO",
		"city": "TEPECHITLÁN",
		"district": "",
		"postcode": "99750"
	},
	{
		"lon": "-103.3430556",
		"lat": "21.6538889",
		"number": "6",
		"street": "REAL",
		"city": "TEPECHITLÁN",
		"district": "",
		"postcode": "99750"
	},
	{
		"lon": "-103.8158333",
		"lat": "22.5794444",
		"number": "0",
		"street": "DOMICILIO NINGUNO SAN ANTONIO DE PADUA",
		"city": "VALPARAÍSO",
		"district": "",
		"postcode": "99250"
	},
	{
		"lon": "-103.8158333",
		"lat": "22.5794444",
		"number": "0",
		"street": "EL TERRERO",
		"city": "VALPARAÍSO",
		"district": "",
		"postcode": "99250"
	},
	{
		"lon": "-103.8158333",
		"lat": "22.5794444",
		"number": "0",
		"street": "EL TERRERO",
		"city": "VALPARAÍSO",
		"district": "",
		"postcode": "99250"
	},
	{
		"lon": "-103.8522133",
		"lat": "22.5752584",
		"number": "7",
		"street": "LOPEZ MATEOS",
		"city": "VALPARAÍSO",
		"district": "",
		"postcode": "99250"
	},
	{
		"lon": "-103.8464707",
		"lat": "22.5708252",
		"number": "0",
		"street": "10 DE MAYO",
		"city": "VALPARAÍSO",
		"district": "",
		"postcode": "99250"
	},
	{
		"lon": "-103.2170437",
		"lat": "23.1748219",
		"number": "940",
		"street": "1 DE MAYO",
		"city": "FRESNILLO",
		"district": "",
		"postcode": "99000"
	},
	{
		"lon": "-103.2165288",
		"lat": "23.1765649",
		"number": "10",
		"street": "ALAMO",
		"city": "FRESNILLO",
		"district": "",
		"postcode": "99000"
	},
	{
		"lon": "-103.2168759",
		"lat": "23.1759323",
		"number": "0",
		"street": "LOPEZ MATEOS",
		"city": "FRESNILLO",
		"district": "",
		"postcode": "99000"
	},
	{
		"lon": "-103.2170427",
		"lat": "23.1758609",
		"number": "1701",
		"street": "LOPEZ MATEOS",
		"city": "FRESNILLO",
		"district": "",
		"postcode": "99000"
	},
	{
		"lon": "-103.2189775",
		"lat": "23.1721449",
		"number": "20",
		"street": "EL COYOTE",
		"city": "FRESNILLO",
		"district": "",
		"postcode": "99000"
	},
	{
		"lon": "-102.9069737",
		"lat": "21.6323466",
		"number": "0",
		"street": "10 DE MARZO",
		"city": "JALPA",
		"district": "",
		"postcode": "000"
	},
	{
		"lon": "-102.9069998",
		"lat": "21.632228",
		"number": "24",
		"street": "10 DE MARZO",
		"city": "JALPA",
		"district": "",
		"postcode": "99600"
	},
	{
		"lon": "-103.4590535",
		"lat": "21.4621924",
		"number": "9",
		"street": "GUADALUPE VICTORIA",
		"city": "TEÚL DE GONZÁLEZ ORTEGA",
		"district": "",
		"postcode": "99800"
	},
	{
		"lon": "-103.4590589",
		"lat": "21.4621735",
		"number": "9",
		"street": "GUADALUPE VICTORIA",
		"city": "TEÚL DE GONZÁLEZ ORTEGA",
		"district": "",
		"postcode": "99800"
	},
	{
		"lon": "-103.4560491",
		"lat": "21.4679095",
		"number": "23",
		"street": "LOPEZ MATEOS",
		"city": "TEÚL DE GONZÁLEZ ORTEGA",
		"district": "",
		"postcode": "99800"
	},
	{
		"lon": "-103.4590495",
		"lat": "21.4622065",
		"number": "9",
		"street": "GUADALUPE VICTORIA",
		"city": "TEÚL DE GONZÁLEZ ORTEGA",
		"district": "",
		"postcode": "99800"
	},
	{
		"lon": "-103.4591186",
		"lat": "21.4619642",
		"number": "9",
		"street": "GUADALUPE VICTORIA",
		"city": "TEÚL DE GONZÁLEZ ORTEGA",
		"district": "",
		"postcode": "99800"
	},
	{
		"lon": "-103.4590494",
		"lat": "21.4622067",
		"number": "9",
		"street": "GUADALUPE VICTORIA",
		"city": "TEÚL DE GONZÁLEZ ORTEGA",
		"district": "",
		"postcode": "99800"
	},
	{
		"lon": "-103.3239345",
		"lat": "21.6647698",
		"number": "1",
		"street": "PROFESORA MARÍA BAUTISTA LARA",
		"city": "TEPECHITLÁN",
		"district": "",
		"postcode": "99750"
	},
	{
		"lon": "-103.3323284",
		"lat": "21.6521165",
		"number": "35",
		"street": "BENJAMÍN CARLOS",
		"city": "TEPECHITLÁN",
		"district": "",
		"postcode": "99750"
	},
	{
		"lon": "-103.3430556",
		"lat": "21.6538889",
		"number": "2",
		"street": "REFORMA",
		"city": "TEPECHITLÁN",
		"district": "",
		"postcode": "99750"
	},
	{
		"lon": "-103.3430556",
		"lat": "21.6538889",
		"number": "3",
		"street": "REAL",
		"city": "TEPECHITLÁN",
		"district": "",
		"postcode": "99750"
	},
	{
		"lon": "-103.3430556",
		"lat": "21.6538889",
		"number": "1",
		"street": "EXCAME",
		"city": "TEPECHITLÁN",
		"district": "",
		"postcode": "99750"
	},
	{
		"lon": "-103.3430556",
		"lat": "21.6538889",
		"number": "3",
		"street": "MORELOS",
		"city": "TEPECHITLÁN",
		"district": "",
		"postcode": "99750"
	},
	{
		"lon": "-103.3430556",
		"lat": "21.6538889",
		"number": "5",
		"street": "NACIONAL",
		"city": "TEPECHITLÁN",
		"district": "",
		"postcode": "99750"
	},
	{
		"lon": "-103.3430556",
		"lat": "21.6538889",
		"number": "2",
		"street": "LA LOMA",
		"city": "TEPECHITLÁN",
		"district": "",
		"postcode": "99750"
	},
	{
		"lon": "-103.3430556",
		"lat": "21.6538889",
		"number": "30",
		"street": "VICENTE GUERRERO",
		"city": "TEPECHITLÁN",
		"district": "",
		"postcode": "99750"
	},
	{
		"lon": "-103.3430556",
		"lat": "21.6538889",
		"number": "29",
		"street": "REAL",
		"city": "TEPECHITLÁN",
		"district": "",
		"postcode": "99750"
	},
	{
		"lon": "-103.3430556",
		"lat": "21.6538889",
		"number": "9",
		"street": "JUAREZ PONIENTE",
		"city": "TEPECHITLÁN",
		"district": "",
		"postcode": "99750"
	},
	{
		"lon": "-103.845689",
		"lat": "22.5689712",
		"number": "0",
		"street": "10 DE MAYO",
		"city": "VALPARAÍSO",
		"district": "",
		"postcode": "99250"
	},
	{
		"lon": "-103.846648",
		"lat": "22.5713071",
		"number": "0",
		"street": "BENITO JUAREZ",
		"city": "VALPARAÍSO",
		"district": "",
		"postcode": "99250"
	},
	{
		"lon": "-103.459054",
		"lat": "21.4621905",
		"number": "9",
		"street": "GUADALUPE VICTORIA",
		"city": "TEÚL DE GONZÁLEZ ORTEGA",
		"district": "",
		"postcode": "99800"
	},
	{
		"lon": "-103.459054",
		"lat": "21.4621905",
		"number": "9",
		"street": "GUADALUPE VICTORIA",
		"city": "TEÚL DE GONZÁLEZ ORTEGA",
		"district": "",
		"postcode": "99800"
	},
	{
		"lon": "-103.4590547",
		"lat": "21.4621883",
		"number": "9",
		"street": "GUADALUPE VICTORIA",
		"city": "TEÚL DE GONZÁLEZ ORTEGA",
		"district": "",
		"postcode": "99800"
	},
	{
		"lon": "-103.4590555",
		"lat": "21.4621854",
		"number": "9",
		"street": "GUADALUPE VICTORIA",
		"city": "TEÚL DE GONZÁLEZ ORTEGA",
		"district": "",
		"postcode": "99800"
	},
	{
		"lon": "-101.8324741",
		"lat": "22.060102",
		"number": "3",
		"street": "ALAMEDA",
		"city": "VILLA GARCÍA",
		"district": "",
		"postcode": "98918"
	},
	{
		"lon": "-102.8772762",
		"lat": "22.3550378",
		"number": "1",
		"street": "DEL TRÁNSITO 2",
		"city": "VILLANUEVA",
		"district": "",
		"postcode": "99500"
	},
	{
		"lon": "-103.0000088",
		"lat": "22.258892",
		"number": "7",
		"street": "BENITO JUARES",
		"city": "VILLANUEVA",
		"district": "",
		"postcode": "99500"
	},
	{
		"lon": "-103.8492366",
		"lat": "22.5744012",
		"number": "0",
		"street": "5 DE MAYO",
		"city": "VALPARAÍSO",
		"district": "",
		"postcode": "99250"
	},
	{
		"lon": "-103.847128",
		"lat": "22.5713719",
		"number": "247",
		"street": "18 DE MARZO",
		"city": "VALPARAÍSO",
		"district": "",
		"postcode": "99250"
	},
	{
		"lon": "-103.8414387",
		"lat": "22.570513",
		"number": "0",
		"street": "BENITO JUAREZ",
		"city": "VALPARAÍSO",
		"district": "",
		"postcode": "99250"
	},
	{
		"lon": "-103.5700725",
		"lat": "22.7765128",
		"number": "71",
		"street": "NINGUNO",
		"city": "VALPARAÍSO",
		"district": "",
		"postcode": "99254"
	},
	{
		"lon": "-103.4219444",
		"lat": "22.7913889",
		"number": "22",
		"street": "MORELOS",
		"city": "VALPARAÍSO",
		"district": "",
		"postcode": "99254"
	},
	{
		"lon": "-103.4219444",
		"lat": "22.7913889",
		"number": "29",
		"street": "MORELOS",
		"city": "VALPARAÍSO",
		"district": "",
		"postcode": "99200"
	},
	{
		"lon": "-103.5701843",
		"lat": "22.7766038",
		"number": "0",
		"street": "NINGUNO",
		"city": "VALPARAÍSO",
		"district": "",
		"postcode": "99253"
	},
	{
		"lon": "-103.090187",
		"lat": "21.5047216",
		"number": "32",
		"street": "SANTA ELENA",
		"city": "APOZOL",
		"district": "",
		"postcode": "99949"
	},
	{
		"lon": "-103.0902509",
		"lat": "21.5048234",
		"number": "32",
		"street": "BENITO JUAREZ",
		"city": "APOZOL",
		"district": "",
		"postcode": "99949"
	},
	{
		"lon": "-102.8666944",
		"lat": "22.0971485",
		"number": "53",
		"street": "5 DE FEBRERO",
		"city": "VILLANUEVA",
		"district": "",
		"postcode": "99560"
	},
	{
		"lon": "-102.8676484",
		"lat": "22.098372",
		"number": "34",
		"street": "MATAMOROS",
		"city": "VILLANUEVA",
		"district": "",
		"postcode": "99560"
	},
	{
		"lon": "-102.870324",
		"lat": "22.0971527",
		"number": "22",
		"street": "CAZADORES",
		"city": "VILLANUEVA",
		"district": "",
		"postcode": "99560"
	},
	{
		"lon": "-102.8684231",
		"lat": "22.0939951",
		"number": "21",
		"street": "LAGO CHAPALA",
		"city": "VILLANUEVA",
		"district": "",
		"postcode": "99560"
	},
	{
		"lon": "-102.8664567",
		"lat": "22.0976533",
		"number": "0",
		"street": "5 DE FEBRERO",
		"city": "VILLANUEVA",
		"district": "",
		"postcode": "99560"
	},
	{
		"lon": "-103.4060773",
		"lat": "21.5102553",
		"number": "15",
		"street": "ABASOLO",
		"city": "SANTA MARÍA DE LA PAZ",
		"district": "",
		"postcode": "99720"
	},
	{
		"lon": "-103.1271228",
		"lat": "23.6723518",
		"number": "35",
		"street": "MIIGUEL HIDALGO",
		"city": "SAIN ALTO",
		"district": "",
		"postcode": "99132"
	},
	{
		"lon": "-103.1185756",
		"lat": "23.672573",
		"number": "0",
		"street": "ZACATECAS",
		"city": "SAIN ALTO",
		"district": "",
		"postcode": "99132"
	},
	{
		"lon": "-103.1186711",
		"lat": "23.6725873",
		"number": "0",
		"street": "ZACATECAS",
		"city": "SAIN ALTO",
		"district": "",
		"postcode": "99132"
	},
	{
		"lon": "-102.8772847",
		"lat": "22.355099",
		"number": "33",
		"street": "DEL TRÁNSITO 2",
		"city": "VILLANUEVA",
		"district": "",
		"postcode": "99500"
	},
	{
		"lon": "-102.8754155",
		"lat": "22.3572848",
		"number": "8",
		"street": "LINDA VISTA",
		"city": "VILLANUEVA",
		"district": "",
		"postcode": "99500"
	},
	{
		"lon": "-102.7908627",
		"lat": "22.5453392",
		"number": "10",
		"street": "ALDAMA",
		"city": "VILLANUEVA",
		"district": "",
		"postcode": "99520"
	},
	{
		"lon": "-102.7923531",
		"lat": "22.547152",
		"number": "0",
		"street": "18 DE MARZO",
		"city": "VILLANUEVA",
		"district": "",
		"postcode": "99520"
	},
	{
		"lon": "-103.0902726",
		"lat": "21.504858",
		"number": "32",
		"street": "BENITO JUAREZ",
		"city": "APOZOL",
		"district": "",
		"postcode": "99949"
	},
	{
		"lon": "-103.0904147",
		"lat": "21.5050841",
		"number": "28",
		"street": "BENITO JUAREZ",
		"city": "APOZOL",
		"district": "",
		"postcode": "99949"
	},
	{
		"lon": "-103.0901723",
		"lat": "21.5046982",
		"number": "34",
		"street": "BENITO JUAREZ",
		"city": "APOZOL",
		"district": "",
		"postcode": "99949"
	},
	{
		"lon": "-103.1270208",
		"lat": "23.6702883",
		"number": "0",
		"street": "LUIS DONALDO COLOSIO",
		"city": "SAIN ALTO",
		"district": "",
		"postcode": "99033"
	},
	{
		"lon": "-103.1236465",
		"lat": "23.6738203",
		"number": "0",
		"street": "NUEVO LEON",
		"city": "SAIN ALTO",
		"district": "",
		"postcode": "98400"
	},
	{
		"lon": "-103.1272038",
		"lat": "23.6719191",
		"number": "0",
		"street": "GUANAJUATO",
		"city": "SAIN ALTO",
		"district": "",
		"postcode": "98400"
	},
	{
		"lon": "-103.1271618",
		"lat": "23.6721436",
		"number": "3",
		"street": "MIGUEL HIDALGO",
		"city": "SAIN ALTO",
		"district": "",
		"postcode": "98400"
	},
	{
		"lon": "-103.1241561",
		"lat": "23.6745672",
		"number": "9",
		"street": "DURANGO",
		"city": "SAIN ALTO",
		"district": "",
		"postcode": "99140"
	},
	{
		"lon": "-103.1184508",
		"lat": "23.6725542",
		"number": "0",
		"street": "ZACATECAS",
		"city": "SAIN ALTO",
		"district": "",
		"postcode": "98400"
	},
	{
		"lon": "-103.118408",
		"lat": "23.6725478",
		"number": "130",
		"street": "ZACATECAS",
		"city": "SAIN ALTO",
		"district": "",
		"postcode": "98400"
	},
	{
		"lon": "-103.1222746",
		"lat": "23.6745022",
		"number": "17",
		"street": "DURANGO",
		"city": "SAIN ALTO",
		"district": "",
		"postcode": "99140"
	},
	{
		"lon": "-103.1184849",
		"lat": "23.6732348",
		"number": "214",
		"street": "ZACATECAS",
		"city": "SAIN ALTO",
		"district": "",
		"postcode": "98400"
	},
	{
		"lon": "-103.1212594",
		"lat": "23.6747663",
		"number": "3",
		"street": "COAHUILA",
		"city": "SAIN ALTO",
		"district": "",
		"postcode": "98400"
	},
	{
		"lon": "-103.1237278",
		"lat": "23.672707",
		"number": "0",
		"street": "NUEVO LEON",
		"city": "SAIN ALTO",
		"district": "",
		"postcode": "99140"
	},
	{
		"lon": "-103.1207533",
		"lat": "23.6713283",
		"number": "45",
		"street": "NAYARIT",
		"city": "SAIN ALTO",
		"district": "",
		"postcode": "98400"
	},
	{
		"lon": "-102.8723753",
		"lat": "22.3530833",
		"number": "11",
		"street": "SOR JUANA INÉS DE LA CRUZ",
		"city": "VILLANUEVA",
		"district": "",
		"postcode": "99545"
	},
	{
		"lon": "-102.8821886",
		"lat": "22.3545144",
		"number": "0",
		"street": "PORVENIR",
		"city": "VILLANUEVA",
		"district": "",
		"postcode": "99500"
	},
	{
		"lon": "-102.884501",
		"lat": "22.3474834",
		"number": "13",
		"street": "MORELOS",
		"city": "VILLANUEVA",
		"district": "",
		"postcode": "99500"
	},
	{
		"lon": "-102.8861354",
		"lat": "22.3588696",
		"number": "5",
		"street": "MIGUEL HIDALGO",
		"city": "VILLANUEVA",
		"district": "",
		"postcode": "99500"
	},
	{
		"lon": "-102.8861335",
		"lat": "22.3588722",
		"number": "5",
		"street": "MIGUEL HIDALGO",
		"city": "VILLANUEVA",
		"district": "",
		"postcode": "99500"
	},
	{
		"lon": "-102.874563",
		"lat": "22.3538886",
		"number": "0",
		"street": "NINGUNO",
		"city": "VILLANUEVA",
		"district": "",
		"postcode": "99500"
	},
	{
		"lon": "-102.8664557",
		"lat": "22.0975666",
		"number": "52",
		"street": "ARROYO DE LAS ÁNIMAS",
		"city": "VILLANUEVA",
		"district": "",
		"postcode": "99560"
	},
	{
		"lon": "-102.9708333",
		"lat": "22.1944444",
		"number": "54",
		"street": "MELCHOR OCAMPO",
		"city": "VILLANUEVA",
		"district": "",
		"postcode": "99500"
	},
	{
		"lon": "-103.4059647",
		"lat": "21.5106117",
		"number": "36",
		"street": "ABASOLO",
		"city": "SANTA MARÍA DE LA PAZ",
		"district": "",
		"postcode": "99720"
	},
	{
		"lon": "-102.8086111",
		"lat": "22.3455556",
		"number": "0",
		"street": "NINGUNO",
		"city": "VILLANUEVA",
		"district": "",
		"postcode": "99500"
	},
	{
		"lon": "-102.8086111",
		"lat": "22.3455556",
		"number": "101",
		"street": "RAFAEL RAMÍREZ CASTAÑEDA",
		"city": "VILLANUEVA",
		"district": "",
		"postcode": "99500"
	},
	{
		"lon": "-102.8086111",
		"lat": "22.3455556",
		"number": "105",
		"street": "JOSE SANTOS VALDEZ",
		"city": "VILLANUEVA",
		"district": "",
		"postcode": "99595"
	},
	{
		"lon": "-103.9997222",
		"lat": "22.8472222",
		"number": "98",
		"street": "FRESNILLO",
		"city": "VALPARAÍSO",
		"district": "",
		"postcode": "99254"
	},
	{
		"lon": "-103.9997222",
		"lat": "22.8472222",
		"number": "100",
		"street": "FRESNILLO",
		"city": "VALPARAÍSO",
		"district": "",
		"postcode": "99254"
	},
	{
		"lon": "-102.8419473",
		"lat": "21.3773231",
		"number": "4",
		"street": "CORONEL JESÚS MEJÍA JÁUREGUI",
		"city": "NOCHISTLÁN DE MEJÍA",
		"district": "",
		"postcode": "99900"
	},
	{
		"lon": "-103.1261222",
		"lat": "23.0273211",
		"number": "10",
		"street": "20 DE NOVIEMBRE",
		"city": "FRESNILLO",
		"district": "",
		"postcode": "99000"
	},
	{
		"lon": "-102.7739895",
		"lat": "22.4876837",
		"number": "0",
		"street": "LAS FLORES",
		"city": "VILLANUEVA",
		"district": "",
		"postcode": "00000"
	},
	{
		"lon": "-102.8086111",
		"lat": "22.3455556",
		"number": "103",
		"street": "MARÍA R MURILLO",
		"city": "VILLANUEVA",
		"district": "",
		"postcode": "99000"
	},
	{
		"lon": "-103.2113889",
		"lat": "21.2336111",
		"number": "12",
		"street": "MOYAHUA-HUEJOTITLAN",
		"city": "MOYAHUA DE ESTRADA",
		"district": "",
		"postcode": "99980"
	},
	{
		"lon": "-103.1269015",
		"lat": "23.0272181",
		"number": "18",
		"street": "20 DE NOVIEMBRE",
		"city": "FRESNILLO",
		"district": "",
		"postcode": "99200"
	},
	{
		"lon": "-103.5542175",
		"lat": "22.3009543",
		"number": "3",
		"street": "SAFIRO",
		"city": "MONTE ESCOBEDO",
		"district": "",
		"postcode": "99400"
	},
	{
		"lon": "-103.0921325",
		"lat": "21.502744",
		"number": "4",
		"street": "BENITO JUAREZ",
		"city": "APOZOL",
		"district": "",
		"postcode": "99949"
	},
	{
		"lon": "-103.4059614",
		"lat": "21.5106239",
		"number": "36",
		"street": "ABASOLO",
		"city": "SANTA MARÍA DE LA PAZ",
		"district": "",
		"postcode": "99720"
	},
	{
		"lon": "-103.6316436",
		"lat": "23.6402461",
		"number": "12",
		"street": "FUNDIDORA",
		"city": "SOMBRERETE",
		"district": "",
		"postcode": "99100"
	},
	{
		"lon": "-103.0000432",
		"lat": "22.2589329",
		"number": "54",
		"street": "VICENTE GERRERO",
		"city": "VILLANUEVA",
		"district": "",
		"postcode": "99506"
	},
	{
		"lon": "-102.8746341",
		"lat": "22.3586164",
		"number": "0",
		"street": "ZARAGOZA",
		"city": "VILLANUEVA",
		"district": "",
		"postcode": "99500"
	},
	{
		"lon": "-102.7750766",
		"lat": "22.487078",
		"number": "38",
		"street": "LAS FLORES",
		"city": "VILLANUEVA",
		"district": "",
		"postcode": "99599"
	},
	{
		"lon": "-103.8914402",
		"lat": "23.4631228",
		"number": "47",
		"street": "NINGUNO",
		"city": "CHALCHIHUITES",
		"district": "",
		"postcode": "99260"
	},
	{
		"lon": "-103.8919083",
		"lat": "23.4631895",
		"number": "65",
		"street": "NINGUNO",
		"city": "CHALCHIHUITES",
		"district": "",
		"postcode": "99260"
	},
	{
		"lon": "-103.3330556",
		"lat": "21.6122222",
		"number": "101",
		"street": "PLAN LÁZARO CÁRDENAS",
		"city": "TEPECHITLÁN",
		"district": "",
		"postcode": "99750"
	},
	{
		"lon": "-103.0901131",
		"lat": "21.5046041",
		"number": "26",
		"street": "BENITO JUAREZ",
		"city": "APOZOL",
		"district": "",
		"postcode": "99949"
	},
	{
		"lon": "-102.8745596",
		"lat": "22.3584511",
		"number": "38",
		"street": "ZARAGOZA",
		"city": "VILLANUEVA",
		"district": "",
		"postcode": "99500"
	},
	{
		"lon": "-103.3705729",
		"lat": "22.8861282",
		"number": "0",
		"street": "LAZARO CARDENAS",
		"city": "VALPARAÍSO",
		"district": "",
		"postcode": "99230"
	},
	{
		"lon": "-103.5814087",
		"lat": "23.4698028",
		"number": "2",
		"street": "VICENTE GERRER0",
		"city": "SOMBRERETE",
		"district": "",
		"postcode": "99121"
	},
	{
		"lon": "-103.5805556",
		"lat": "23.4697222",
		"number": "6",
		"street": "SEGUNDA DE TEPEYAC",
		"city": "SOMBRERETE",
		"district": "",
		"postcode": "99100"
	},
	{
		"lon": "-102.8694274",
		"lat": "22.096663",
		"number": "25",
		"street": "19 DE MARZO",
		"city": "VILLANUEVA",
		"district": "",
		"postcode": "99560"
	},
	{
		"lon": "-103.1269939",
		"lat": "23.6698107",
		"number": "39",
		"street": "CHIAPAS",
		"city": "SAIN ALTO",
		"district": "",
		"postcode": "99140"
	},
	{
		"lon": "-102.8670686",
		"lat": "22.0976208",
		"number": "25",
		"street": "HÉROES NACOZARI",
		"city": "VILLANUEVA",
		"district": "",
		"postcode": "99560"
	},
	{
		"lon": "-102.9461131",
		"lat": "21.8951311",
		"number": "0",
		"street": "HUISCOLCO",
		"city": "TABASCO",
		"district": "",
		"postcode": "99630"
	},
	{
		"lon": "-103.3042393",
		"lat": "21.7696832",
		"number": "6",
		"street": "PÁNFILO NATERA",
		"city": "TLALTENANGO DE SÁNCHEZ ROMÁN",
		"district": "",
		"postcode": "99700"
	},
	{
		"lon": "-103.2189858",
		"lat": "23.172064",
		"number": "18",
		"street": "DEL COYOTE",
		"city": "FRESNILLO",
		"district": "",
		"postcode": "99000"
	},
	{
		"lon": "-103.4590488",
		"lat": "21.4622088",
		"number": "9",
		"street": "GUADALUPE VICTORIA",
		"city": "TEÚL DE GONZÁLEZ ORTEGA",
		"district": "",
		"postcode": "99800"
	},
	{
		"lon": "-102.8581588",
		"lat": "23.1971209",
		"number": "0",
		"street": "PLATEROS",
		"city": "FRESNILLO",
		"district": "",
		"postcode": "99059"
	},
	{
		"lon": "-103.4557964",
		"lat": "21.4633089",
		"number": "0",
		"street": "LIBRAMIENTO ORIENTE",
		"city": "TEÚL DE GONZÁLEZ ORTEGA",
		"district": "",
		"postcode": "99800"
	},
	{
		"lon": "-103.3110141",
		"lat": "21.7809473",
		"number": "201",
		"street": "NINGUNO",
		"city": "TLALTENANGO DE SÁNCHEZ ROMÁN",
		"district": "",
		"postcode": "99700"
	},
	{
		"lon": "-102.5757846",
		"lat": "22.7535887",
		"number": "100",
		"street": "NINGUNO",
		"city": "ZACATECAS",
		"district": "",
		"postcode": "98090"
	},
	{
		"lon": "-101.4284679",
		"lat": "24.6078536",
		"number": "0",
		"street": "A LAS HUERTAS",
		"city": "CONCEPCIÓN DEL ORO",
		"district": "",
		"postcode": "98200"
	},
	{
		"lon": "-103.1578529",
		"lat": "21.2637205",
		"number": "0",
		"street": "NINGUNO",
		"city": "MOYAHUA DE ESTRADA",
		"district": "",
		"postcode": "99980"
	},
	{
		"lon": "-102.8814851",
		"lat": "22.370941",
		"number": "0",
		"street": "SUAVE PATRIA",
		"city": "VILLANUEVA",
		"district": "",
		"postcode": "99542"
	},
	{
		"lon": "-102.47",
		"lat": "22.7525",
		"number": "59",
		"street": "PASEO DE BERNARDEZ",
		"city": "GUADALUPE",
		"district": "",
		"postcode": "98610"
	},
	{
		"lon": "-102.5254537",
		"lat": "22.7606104",
		"number": "128",
		"street": "MINA EL EDÉN",
		"city": "GUADALUPE",
		"district": "",
		"postcode": "98600"
	},
	{
		"lon": "-103.1011887",
		"lat": "22.615743",
		"number": "29",
		"street": "NINGUNO",
		"city": "SUSTICACÁN",
		"district": "",
		"postcode": "00000"
	},
	{
		"lon": "-102.5756697",
		"lat": "22.7818072",
		"number": "0",
		"street": "CERRO DEL GRILLO",
		"city": "ZACATECAS",
		"district": "",
		"postcode": "98050"
	},
	{
		"lon": "-102.5859467",
		"lat": "22.8377307",
		"number": "0",
		"street": "CERRO DE SAN ROBERTO",
		"city": "MORELOS",
		"district": "",
		"postcode": "98100"
	},
	{
		"lon": "-102.9745176",
		"lat": "21.6500693",
		"number": "0",
		"street": "NINGUNO",
		"city": "JALPA",
		"district": "",
		"postcode": "99601"
	},
	{
		"lon": "-102.675005",
		"lat": "22.919444",
		"number": "0",
		"street": "PANAMERICANA",
		"city": "CALERA",
		"district": "",
		"postcode": "98501"
	},
	{
		"lon": "-103.7505556",
		"lat": "23.6538889",
		"number": "0",
		"street": "SAN MARTÍN AL MINERAL DE SABINAS",
		"city": "SOMBRERETE",
		"district": "",
		"postcode": "99100"
	},
	{
		"lon": "-102.555081",
		"lat": "22.83034",
		"number": "2",
		"street": "TIRO GENERAL",
		"city": "VETAGRANDE",
		"district": "",
		"postcode": "98140"
	},
	{
		"lon": "-103.2981939",
		"lat": "21.7755809",
		"number": "0",
		"street": "DE LAS MORITAS",
		"city": "TLALTENANGO DE SÁNCHEZ ROMÁN",
		"district": "",
		"postcode": "99700"
	},
	{
		"lon": "-103.3152149",
		"lat": "21.7767673",
		"number": "0",
		"street": "JALAPA",
		"city": "TLALTENANGO DE SÁNCHEZ ROMÁN",
		"district": "",
		"postcode": "99700"
	},
	{
		"lon": "-103.8735746",
		"lat": "23.4845857",
		"number": "117",
		"street": "ARISTA",
		"city": "CHALCHIHUITES",
		"district": "",
		"postcode": "99260"
	},
	{
		"lon": "-102.5615037",
		"lat": "22.7707475",
		"number": "115",
		"street": "HERMANOS ESCOBAR",
		"city": "ZACATECAS",
		"district": "",
		"postcode": "98066"
	},
	{
		"lon": "-102.5858074",
		"lat": "22.7497267",
		"number": "905",
		"street": "CERRO DEL PADRE",
		"city": "ZACATECAS",
		"district": "",
		"postcode": "98085"
	},
	{
		"lon": "-102.4998063",
		"lat": "22.7533792",
		"number": "0",
		"street": "FUENTE DE LA MINERVA",
		"city": "GUADALUPE",
		"district": "",
		"postcode": "98740"
	},
	{
		"lon": "-102.4222222",
		"lat": "22.8505556",
		"number": "0",
		"street": "SANTA MÓNICA A POZO DE GAMBOA KILÓMETRO 16.5",
		"city": "VETAGRANDE",
		"district": "",
		"postcode": "98600"
	},
	{
		"lon": "-102.889211",
		"lat": "22.3497387",
		"number": "0",
		"street": "NINGUNO",
		"city": "VILLANUEVA",
		"district": "",
		"postcode": "99500"
	},
	{
		"lon": "-102.5810182",
		"lat": "22.7657324",
		"number": "103",
		"street": "ADOLFO LÓPEZ MATEOS",
		"city": "ZACATECAS",
		"district": "",
		"postcode": "98050"
	},
	{
		"lon": "-102.3267852",
		"lat": "22.6158127",
		"number": "5",
		"street": "GONZALEZ ORTEGA",
		"city": "OJOCALIENTE",
		"district": "",
		"postcode": "98700"
	},
	{
		"lon": "-103.7580556",
		"lat": "23.3822222",
		"number": "0",
		"street": "LA COLORADA",
		"city": "CHALCHIHUITES",
		"district": "",
		"postcode": "99260"
	},
	{
		"lon": "-101.4405986",
		"lat": "24.4783612",
		"number": "0",
		"street": "A MINA LA TINAJA",
		"city": "MAZAPIL",
		"district": "",
		"postcode": "98237"
	},
	{
		"lon": "-101.4436111",
		"lat": "21.9469444",
		"number": "0",
		"street": "EL MACHUCADO",
		"city": "PINOS",
		"district": "",
		"postcode": "98920"
	},
	{
		"lon": "-102.5990229",
		"lat": "22.7525501",
		"number": "108",
		"street": "DEL COBRE",
		"city": "ZACATECAS",
		"district": "",
		"postcode": "98087"
	},
	{
		"lon": "-102.9052975",
		"lat": "23.1084047",
		"number": "0",
		"street": "NINGUNO",
		"city": "FRESNILLO",
		"district": "",
		"postcode": "99000"
	},
	{
		"lon": "-102.7177778",
		"lat": "22.8480556",
		"number": "0",
		"street": "A FRANCISCO I MADERO",
		"city": "MORELOS",
		"district": "",
		"postcode": "98170"
	},
	{
		"lon": "-102.1558333",
		"lat": "22.4330556",
		"number": "0",
		"street": "CAMINO A LA MINA",
		"city": "OJOCALIENTE",
		"district": "",
		"postcode": "98725"
	},
	{
		"lon": "-101.5745134",
		"lat": "22.2997101",
		"number": "5",
		"street": "PARQUE JUÁREZ",
		"city": "PINOS",
		"district": "",
		"postcode": "98920"
	},
	{
		"lon": "-101.4628504",
		"lat": "24.6931477",
		"number": "0",
		"street": "NINGUNO",
		"city": "MAZAPIL",
		"district": "",
		"postcode": "98238"
	},
	{
		"lon": "-103.3297732",
		"lat": "21.6676685",
		"number": "44",
		"street": "SIMON BOLIVAR",
		"city": "TEPECHITLÁN",
		"district": "",
		"postcode": "99750"
	},
	{
		"lon": "-102.6344444",
		"lat": "22.7338889",
		"number": "0",
		"street": "SANJUANERO",
		"city": "ZACATECAS",
		"district": "",
		"postcode": "00000"
	},
	{
		"lon": "-102.6344444",
		"lat": "22.7338889",
		"number": "0",
		"street": "SANJUANERO",
		"city": "ZACATECAS",
		"district": "",
		"postcode": "00000"
	},
	{
		"lon": "-102.6344444",
		"lat": "22.7338889",
		"number": "0",
		"street": "SANJUANERO",
		"city": "ZACATECAS",
		"district": "",
		"postcode": "00000"
	},
	{
		"lon": "-102.5936111",
		"lat": "22.7352778",
		"number": "0",
		"street": "DOMICILIO NINGUNO DE LAS HIGUERAS",
		"city": "ZACATECAS",
		"district": "",
		"postcode": "98070"
	},
	{
		"lon": "-102.3270748",
		"lat": "22.6160578",
		"number": "0",
		"street": "CERRO EL PANDITO",
		"city": "OJOCALIENTE",
		"district": "",
		"postcode": "98700"
	},
	{
		"lon": "-103.6303077",
		"lat": "23.637835",
		"number": "541",
		"street": "SAN PEDRO",
		"city": "SOMBRERETE",
		"district": "",
		"postcode": "99100"
	},
	{
		"lon": "-103.638919",
		"lat": "23.6341611",
		"number": "0",
		"street": "INDEPENDENCIA",
		"city": "SOMBRERETE",
		"district": "",
		"postcode": "99100"
	},
	{
		"lon": "-103.888618",
		"lat": "23.475736",
		"number": "117",
		"street": "ARISTA",
		"city": "CHALCHIHUITES",
		"district": "",
		"postcode": "99260"
	},
	{
		"lon": "-102.598943",
		"lat": "22.752564",
		"number": "108",
		"street": "DEL COBRE",
		"city": "ZACATECAS",
		"district": "",
		"postcode": "98087"
	},
	{
		"lon": "-102.5669444",
		"lat": "22.6691667",
		"number": "0",
		"street": "DOMICILIO NINGUNO CERRO DEL CAÑÓN",
		"city": "GUADALUPE",
		"district": "",
		"postcode": "98600"
	},
	{
		"lon": "-102.8840539",
		"lat": "23.0807789",
		"number": "102",
		"street": "DEL MAGUEY",
		"city": "FRESNILLO",
		"district": "",
		"postcode": "99001"
	},
	{
		"lon": "-102.8875872",
		"lat": "23.0847016",
		"number": "62",
		"street": "CALLE FRANCISCO VILLA",
		"city": "FRESNILLO",
		"district": "",
		"postcode": "99150"
	},
	{
		"lon": "-102.6344444",
		"lat": "22.7338889",
		"number": "4",
		"street": "PICONES ZACATECAS",
		"city": "ZACATECAS",
		"district": "",
		"postcode": "98170"
	},
	{
		"lon": "-102.5971003",
		"lat": "22.7522315",
		"number": "5",
		"street": "PINO SUÁREZ",
		"city": "ZACATECAS",
		"district": "",
		"postcode": "98170"
	},
	{
		"lon": "-102.6344444",
		"lat": "22.7338889",
		"number": "0",
		"street": "DOMICILIO CONODICO CERRO EL SANJUANERO",
		"city": "ZACATECAS",
		"district": "",
		"postcode": "98087"
	},
	{
		"lon": "-102.5936111",
		"lat": "22.7352778",
		"number": "0",
		"street": "DOMICILIO NINGUNO LA HIGUERA",
		"city": "ZACATECAS",
		"district": "",
		"postcode": "98000"
	},
	{
		"lon": "-102.5936111",
		"lat": "22.7352778",
		"number": "0",
		"street": "DOMICILIO NINGUNO LA HIGUERA",
		"city": "ZACATECAS",
		"district": "",
		"postcode": "98161"
	},
	{
		"lon": "-102.5936111",
		"lat": "22.7352778",
		"number": "0",
		"street": "DOMICILIO NINGUNO ZACATECAS",
		"city": "ZACATECAS",
		"district": "",
		"postcode": "98090"
	},
	{
		"lon": "-102.5936111",
		"lat": "22.7352778",
		"number": "0",
		"street": "DOMICILIO NINGUNO PIEDRERA LA HIGUERA",
		"city": "ZACATECAS",
		"district": "",
		"postcode": "98000"
	},
	{
		"lon": "-102.5936111",
		"lat": "22.7352778",
		"number": "0",
		"street": "DOMICILIO NINGUNO PIEDRERA LA HIGUERA",
		"city": "ZACATECAS",
		"district": "",
		"postcode": "98160"
	},
	{
		"lon": "-102.5936111",
		"lat": "22.7352778",
		"number": "0",
		"street": "DOM. NINGUNO LA HIGUERA",
		"city": "ZACATECAS",
		"district": "",
		"postcode": "98170"
	},
	{
		"lon": "-102.6344444",
		"lat": "22.7338889",
		"number": "0",
		"street": "DOMICILIO NINGUNO CERRO LA HIGUERA",
		"city": "ZACATECAS",
		"district": "",
		"postcode": "98160"
	},
	{
		"lon": "-102.6344444",
		"lat": "22.7338889",
		"number": "0",
		"street": "DOMICILIO NINGUNO CERRO SAN JUANERO",
		"city": "ZACATECAS",
		"district": "",
		"postcode": "98160"
	},
	{
		"lon": "-102.6340314",
		"lat": "22.7340933",
		"number": "0",
		"street": "CERRO LA BONITA",
		"city": "ZACATECAS",
		"district": "",
		"postcode": "98160"
	},
	{
		"lon": "-103.4588436",
		"lat": "24.2922499",
		"number": "55",
		"street": "A SAN MARCOS",
		"city": "MIGUEL AUZA",
		"district": "",
		"postcode": "98330"
	},
	{
		"lon": "-101.3751133",
		"lat": "24.4772366",
		"number": "0",
		"street": "SALTILLO - ZACATECAS KILÓMETRO 223",
		"city": "CONCEPCIÓN DEL ORO",
		"district": "",
		"postcode": "98200"
	},
	{
		"lon": "-103.7461111",
		"lat": "23.6655556",
		"number": "0",
		"street": "INSURGENTES",
		"city": "SOMBRERETE",
		"district": "",
		"postcode": "99109"
	},
	{
		"lon": "-102.2636688",
		"lat": "22.5807391",
		"number": "0",
		"street": "LÁZARO CÁRDENAS",
		"city": "OJOCALIENTE",
		"district": "",
		"postcode": "98716"
	},
	{
		"lon": "-102.3267518",
		"lat": "22.6158241",
		"number": "0",
		"street": "DOMICILIO NINGUNO EL REFUGIO",
		"city": "OJOCALIENTE",
		"district": "",
		"postcode": "98700"
	},
	{
		"lon": "-102.5643144",
		"lat": "22.7643583",
		"number": "0",
		"street": "TIRO S. BARTOLO",
		"city": "ZACATECAS",
		"district": "",
		"postcode": "98070"
	},
	{
		"lon": "-102.5021959",
		"lat": "22.7443223",
		"number": "3",
		"street": "VIALIDAD ARROYO DE LA PLATA",
		"city": "GUADALUPE",
		"district": "",
		"postcode": "98604"
	},
	{
		"lon": "-102.8481354",
		"lat": "21.3633696",
		"number": "6",
		"street": "RAMÓN CORONA",
		"city": "NOCHISTLÁN DE MEJÍA",
		"district": "",
		"postcode": "99900"
	},
	{
		"lon": "-102.8776037",
		"lat": "23.1755068",
		"number": "0",
		"street": "LAGUNILLA",
		"city": "FRESNILLO",
		"district": "",
		"postcode": "99000"
	},
	{
		"lon": "-102.5317561",
		"lat": "22.753875",
		"number": "0",
		"street": "PASEO GARCÍA SALINAS",
		"city": "GUADALUPE",
		"district": "",
		"postcode": "98600"
	},
	{
		"lon": "-102.5148573",
		"lat": "22.7481825",
		"number": "0",
		"street": "1910",
		"city": "GUADALUPE",
		"district": "",
		"postcode": "98600"
	},
	{
		"lon": "-102.9720598",
		"lat": "21.6566952",
		"number": "0",
		"street": "CAMINO A SAN BERNARDO",
		"city": "JALPA",
		"district": "",
		"postcode": "99601"
	},
	{
		"lon": "-103.4641778",
		"lat": "21.4641702",
		"number": "0",
		"street": "INDEPENDENCIA",
		"city": "TEÚL DE GONZÁLEZ ORTEGA",
		"district": "",
		"postcode": "99800"
	},
	{
		"lon": "-101.573514",
		"lat": "22.2991866",
		"number": "21",
		"street": "IGNACIO ZARAGOZA",
		"city": "PINOS",
		"district": "",
		"postcode": "98920"
	},
	{
		"lon": "-102.247846",
		"lat": "22.5696014",
		"number": "0",
		"street": "CARTERO",
		"city": "OJOCALIENTE",
		"district": "",
		"postcode": "98700"
	},
	{
		"lon": "-102.9810417",
		"lat": "22.647395",
		"number": "0",
		"street": "SUAVE PATRIA",
		"city": "JEREZ",
		"district": "",
		"postcode": "99340"
	},
	{
		"lon": "-102.2495635",
		"lat": "22.4319489",
		"number": "29",
		"street": "MORELOS",
		"city": "LUIS MOYA",
		"district": "",
		"postcode": "98772"
	},
	{
		"lon": "-102.8699161",
		"lat": "23.1689854",
		"number": "410",
		"street": "HIDALGO",
		"city": "FRESNILLO",
		"district": "",
		"postcode": "99090"
	},
	{
		"lon": "-102.8507299",
		"lat": "21.3676362",
		"number": "66",
		"street": "LICENCIADO JOSÉ MINERO ROQUE PONIENTE",
		"city": "NOCHISTLÁN DE MEJÍA",
		"district": "",
		"postcode": "99900"
	},
	{
		"lon": "-103.1172397",
		"lat": "21.4117747",
		"number": "0",
		"street": "NICOLÁS BRAVO",
		"city": "JUCHIPILA",
		"district": "",
		"postcode": "99960"
	},
	{
		"lon": "-103.6449962",
		"lat": "23.6406185",
		"number": "0",
		"street": "LAS PLAYAS",
		"city": "SOMBRERETE",
		"district": "",
		"postcode": "99100"
	},
	{
		"lon": "-102.8844551",
		"lat": "22.3526549",
		"number": "2",
		"street": "LÓPEZ RAYÓN",
		"city": "VILLANUEVA",
		"district": "",
		"postcode": "99500"
	},
	{
		"lon": "-103.5678613",
		"lat": "22.7708165",
		"number": "112",
		"street": "FRANCISCO I. MADERO",
		"city": "VALPARAÍSO",
		"district": "",
		"postcode": "99200"
	},
	{
		"lon": "-102.7085542",
		"lat": "22.9555482",
		"number": "0",
		"street": "5 DE MAYO NORTE",
		"city": "CALERA",
		"district": "",
		"postcode": "98500"
	},
	{
		"lon": "-103.3083682",
		"lat": "21.7738928",
		"number": "94",
		"street": "EMILIO CARRANZA",
		"city": "TLALTENANGO DE SÁNCHEZ ROMÁN",
		"district": "",
		"postcode": "99700"
	},
	{
		"lon": "-102.5821988",
		"lat": "22.7696185",
		"number": "210",
		"street": "HÉROES DE CHAPULTEPEC",
		"city": "ZACATECAS",
		"district": "",
		"postcode": "98050"
	},
	{
		"lon": "-103.4471166",
		"lat": "24.2973448",
		"number": "38",
		"street": "EDMUNDO SÁNCHEZ",
		"city": "MIGUEL AUZA",
		"district": "",
		"postcode": "98330"
	},
	{
		"lon": "-103.0419924",
		"lat": "23.8199771",
		"number": "0",
		"street": "MANUEL M. PONCE",
		"city": "RÍO GRANDE",
		"district": "",
		"postcode": "98409"
	},
	{
		"lon": "-102.8543502",
		"lat": "23.1683567",
		"number": "42",
		"street": "VENUSTIANO CARRANZA",
		"city": "FRESNILLO",
		"district": "",
		"postcode": "99099"
	},
	{
		"lon": "-103.2475759",
		"lat": "23.5770814",
		"number": "0",
		"street": "GENERAL IGNACIO ZARAGOZA",
		"city": "SAIN ALTO",
		"district": "",
		"postcode": "99130"
	},
	{
		"lon": "-103.8836835",
		"lat": "23.4772514",
		"number": "101",
		"street": "5 DE MAYO",
		"city": "CHALCHIHUITES",
		"district": "",
		"postcode": "99260"
	},
	{
		"lon": "-103.3025787",
		"lat": "21.7824546",
		"number": "26",
		"street": "SÁNCHEZ ROMÁN",
		"city": "TLALTENANGO DE SÁNCHEZ ROMÁN",
		"district": "",
		"postcode": "99700"
	},
	{
		"lon": "-102.7642206",
		"lat": "22.6186982",
		"number": "2",
		"street": "EMILIANO ZAPATA",
		"city": "VILLANUEVA",
		"district": "",
		"postcode": "99510"
	},
	{
		"lon": "-103.0906289",
		"lat": "21.4684655",
		"number": "18",
		"street": "GARCÍA DE LA CADENA",
		"city": "APOZOL",
		"district": "",
		"postcode": "99940"
	},
	{
		"lon": "-103.881173",
		"lat": "23.4772506",
		"number": "0",
		"street": "ALLENDE",
		"city": "CHALCHIHUITES",
		"district": "",
		"postcode": "99260"
	},
	{
		"lon": "-103.455447",
		"lat": "23.9589147",
		"number": "0",
		"street": "20 DE NOVIEMBRE",
		"city": "SOMBRERETE",
		"district": "",
		"postcode": "99110"
	},
	{
		"lon": "-103.3632126",
		"lat": "21.2135331",
		"number": "63",
		"street": "MORELOS",
		"city": "MEZQUITAL DEL ORO",
		"district": "",
		"postcode": "99860"
	},
	{
		"lon": "-102.7236878",
		"lat": "23.076851",
		"number": "0",
		"street": "BENITO JUÁREZ",
		"city": "FRESNILLO",
		"district": "",
		"postcode": "99150"
	},
	{
		"lon": "-102.5700326",
		"lat": "22.9461216",
		"number": "27",
		"street": "HIDALGO",
		"city": "PÁNUCO",
		"district": "",
		"postcode": "98548"
	},
	{
		"lon": "-102.9147545",
		"lat": "21.8633377",
		"number": "119",
		"street": "FRANCISCO I. MADERO",
		"city": "TABASCO",
		"district": "",
		"postcode": "99630"
	},
	{
		"lon": "-102.5025047",
		"lat": "22.8331093",
		"number": "0",
		"street": "POPOCATÉPETL",
		"city": "VETAGRANDE",
		"district": "",
		"postcode": "98140"
	},
	{
		"lon": "-102.8716908",
		"lat": "23.1815122",
		"number": "408",
		"street": "18 DE MARZO",
		"city": "FRESNILLO",
		"district": "",
		"postcode": "99000"
	},
	{
		"lon": "-102.976757",
		"lat": "21.7748983",
		"number": "0",
		"street": "GARCÍA DE LA CADENA",
		"city": "HUANUSCO",
		"district": "",
		"postcode": "99671"
	},
	{
		"lon": "-101.9514748",
		"lat": "22.1611969",
		"number": "0",
		"street": "RAMÓN LÓPEZ VELARDE",
		"city": "VILLA GARCÍA",
		"district": "",
		"postcode": "98900"
	},
	{
		"lon": "-102.8819914",
		"lat": "22.3452306",
		"number": "0",
		"street": "NINGUNO",
		"city": "VILLANUEVA",
		"district": "",
		"postcode": "99545"
	},
	{
		"lon": "-102.8704496",
		"lat": "22.3537101",
		"number": "0",
		"street": "DEL ÁLAMO",
		"city": "VILLANUEVA",
		"district": "",
		"postcode": "99545"
	},
	{
		"lon": "-102.0944593",
		"lat": "22.7300397",
		"number": "5",
		"street": "HERMENEGILDO GALEANA",
		"city": "GENERAL PÁNFILO NATERA",
		"district": "",
		"postcode": "98740"
	},
	{
		"lon": "-101.9865448",
		"lat": "22.490127",
		"number": "0",
		"street": "FRANCISCO I. MADERO",
		"city": "VILLA GONZÁLEZ ORTEGA",
		"district": "",
		"postcode": "98870"
	},
	{
		"lon": "-102.8759002",
		"lat": "23.1882926",
		"number": "0",
		"street": "NINGUNO",
		"city": "FRESNILLO",
		"district": "",
		"postcode": "99020"
	},
	{
		"lon": "-102.8691363",
		"lat": "23.175668",
		"number": "0",
		"street": "REFORMA",
		"city": "FRESNILLO",
		"district": "",
		"postcode": "99000"
	},
	{
		"lon": "-102.8691373",
		"lat": "23.175668",
		"number": "0",
		"street": "REFORMA",
		"city": "FRESNILLO",
		"district": "",
		"postcode": "99000"
	},
	{
		"lon": "-102.97677",
		"lat": "21.6292094",
		"number": "405",
		"street": "MORELOS",
		"city": "JALPA",
		"district": "",
		"postcode": "99601"
	},
	{
		"lon": "-103.4629916",
		"lat": "21.4644803",
		"number": "0",
		"street": "REVOLUCIÓN",
		"city": "TEÚL DE GONZÁLEZ ORTEGA",
		"district": "",
		"postcode": "99800"
	},
	{
		"lon": "-102.6082231",
		"lat": "22.8671308",
		"number": "0",
		"street": "NINGUNO",
		"city": "MORELOS",
		"district": "",
		"postcode": "98100"
	},
	{
		"lon": "-102.3672081",
		"lat": "22.7338138",
		"number": "0",
		"street": "CAMINO REAL",
		"city": "TRANCOSO",
		"district": "",
		"postcode": "98640"
	},
	{
		"lon": "-102.8423097",
		"lat": "23.2282523",
		"number": "6",
		"street": "DEL ARROYO",
		"city": "FRESNILLO",
		"district": "",
		"postcode": "99158"
	},
	{
		"lon": "-102.616475",
		"lat": "22.8225679",
		"number": "0",
		"street": "NINGUNO",
		"city": "MORELOS",
		"district": "",
		"postcode": "98100"
	},
	{
		"lon": "-103.3070415",
		"lat": "21.7832371",
		"number": "73",
		"street": "LIBERTAD PONIENTE",
		"city": "TLALTENANGO DE SÁNCHEZ ROMÁN",
		"district": "",
		"postcode": "99700"
	},
	{
		"lon": "-102.4963185",
		"lat": "22.7380938",
		"number": "0",
		"street": "SAHOP",
		"city": "GUADALUPE",
		"district": "",
		"postcode": "98600"
	},
	{
		"lon": "-102.5973467",
		"lat": "22.7571849",
		"number": "440",
		"street": "HÉROES DE LA REFORMA",
		"city": "ZACATECAS",
		"district": "",
		"postcode": "98087"
	},
	{
		"lon": "-102.5811438",
		"lat": "22.7712863",
		"number": "105",
		"street": "IGNACIO RAMÍREZ",
		"city": "ZACATECAS",
		"district": "",
		"postcode": "98040"
	},
	{
		"lon": "-102.5004902",
		"lat": "22.7519351",
		"number": "0",
		"street": "REVOLUCIÓN MEXICANA",
		"city": "GUADALUPE",
		"district": "",
		"postcode": "98613"
	},
	{
		"lon": "-102.4828859",
		"lat": "22.7613327",
		"number": "29",
		"street": "CUARTA PRIVADA CIRCUITO NORIAS",
		"city": "GUADALUPE",
		"district": "",
		"postcode": "98600"
	},
	{
		"lon": "-102.588873",
		"lat": "22.7627575",
		"number": "0",
		"street": "FELIPE BERRIOZÁBAL",
		"city": "ZACATECAS",
		"district": "",
		"postcode": "98080"
	},
	{
		"lon": "-102.5952647",
		"lat": "22.7465322",
		"number": "0",
		"street": "LAS CUMBRES",
		"city": "ZACATECAS",
		"district": "",
		"postcode": "98085"
	},
	{
		"lon": "-102.8770339",
		"lat": "23.1686528",
		"number": "777",
		"street": "TIRO GENERAL",
		"city": "FRESNILLO",
		"district": "",
		"postcode": "99080"
	},
	{
		"lon": "-103.6291124",
		"lat": "23.6414041",
		"number": "0",
		"street": "PANAMERICANA KILÓMETRO 161+500",
		"city": "SOMBRERETE",
		"district": "",
		"postcode": "99100"
	},
	{
		"lon": "-103.0042156",
		"lat": "22.6490142",
		"number": "17",
		"street": "LERDO DE TEJADA",
		"city": "JEREZ",
		"district": "",
		"postcode": "99370"
	},
	{
		"lon": "-102.8676359",
		"lat": "23.1733862",
		"number": "8",
		"street": "BELISARIO DOMÍNGUEZ",
		"city": "FRESNILLO",
		"district": "",
		"postcode": "99000"
	},
	{
		"lon": "-102.5553377",
		"lat": "22.7644152",
		"number": "116",
		"street": "UNIVERSIDAD",
		"city": "ZACATECAS",
		"district": "",
		"postcode": "98068"
	},
	{
		"lon": "-102.5537413",
		"lat": "22.7656768",
		"number": "119",
		"street": "FAROLES",
		"city": "ZACATECAS",
		"district": "",
		"postcode": "98068"
	},
	{
		"lon": "-102.5407417",
		"lat": "22.7563161",
		"number": "376",
		"street": "PASEO GARCÍA SALINAS",
		"city": "GUADALUPE",
		"district": "",
		"postcode": "98609"
	},
	{
		"lon": "-102.5728588",
		"lat": "22.7743532",
		"number": "152",
		"street": "TACUBA",
		"city": "ZACATECAS",
		"district": "",
		"postcode": "98090"
	},
	{
		"lon": "-102.5404723",
		"lat": "22.7564856",
		"number": "323",
		"street": "PASEO GARCÍA SALINAS",
		"city": "GUADALUPE",
		"district": "",
		"postcode": "98000"
	},
	{
		"lon": "-102.5745151",
		"lat": "22.7550207",
		"number": "0",
		"street": "NINGUNO",
		"city": "ZACATECAS",
		"district": "",
		"postcode": "98085"
	},
	{
		"lon": "-102.5908894",
		"lat": "22.7473944",
		"number": "205",
		"street": "SIERRA MADRE",
		"city": "ZACATECAS",
		"district": "",
		"postcode": "98085"
	},
	{
		"lon": "-102.5924775",
		"lat": "22.773791",
		"number": "1402",
		"street": "NINGUNO",
		"city": "ZACATECAS",
		"district": "",
		"postcode": "98046"
	},
	{
		"lon": "-103.0034919",
		"lat": "22.6314374",
		"number": "26",
		"street": "CIÉNEGA",
		"city": "JEREZ",
		"district": "",
		"postcode": "99390"
	},
	{
		"lon": "-102.9790438",
		"lat": "21.6334655",
		"number": "313",
		"street": "FRANCISCO I. MADERO N.",
		"city": "JALPA",
		"district": "",
		"postcode": "99600"
	},
	{
		"lon": "-102.5433872",
		"lat": "22.7642667",
		"number": "74",
		"street": "MATERIALISTAS",
		"city": "ZACATECAS",
		"district": "",
		"postcode": "98070"
	},
	{
		"lon": "-102.5549476",
		"lat": "22.7676512",
		"number": "209",
		"street": "RÍO AGUANAVAL",
		"city": "ZACATECAS",
		"district": "",
		"postcode": "98060"
	},
	{
		"lon": "-102.5922699",
		"lat": "22.7693745",
		"number": "518",
		"street": "FRANCISCO GARCÍA SALINAS",
		"city": "ZACATECAS",
		"district": "",
		"postcode": "98053"
	},
	{
		"lon": "-102.59802",
		"lat": "22.7658583",
		"number": "21",
		"street": "GLADIOLAS",
		"city": "ZACATECAS",
		"district": "",
		"postcode": "98054"
	},
	{
		"lon": "-102.5530873",
		"lat": "22.7693081",
		"number": "0",
		"street": "DEL MEMBRILLO",
		"city": "ZACATECAS",
		"district": "",
		"postcode": "98060"
	},
	{
		"lon": "-102.5047281",
		"lat": "22.74427",
		"number": "0",
		"street": "VIALIDAD ARROYO DE LA PLATA",
		"city": "GUADALUPE",
		"district": "",
		"postcode": "98613"
	},
	{
		"lon": "-102.532568",
		"lat": "22.7628278",
		"number": "1",
		"street": "MINA SAUCEDA DE LA BORDA",
		"city": "GUADALUPE",
		"district": "",
		"postcode": "98600"
	},
	{
		"lon": "-102.5428688",
		"lat": "22.7694888",
		"number": "112",
		"street": "NÚMERO 5",
		"city": "ZACATECAS",
		"district": "",
		"postcode": "98067"
	},
	{
		"lon": "-102.5804768",
		"lat": "22.7682975",
		"number": "321",
		"street": "FRANCISCO AGUILAR Y URIZAR",
		"city": "ZACATECAS",
		"district": "",
		"postcode": "98050"
	},
	{
		"lon": "-103.0342297",
		"lat": "23.826681",
		"number": "49",
		"street": "CONSTITUCIÓN",
		"city": "RÍO GRANDE",
		"district": "",
		"postcode": "98400"
	},
	{
		"lon": "-102.5543457",
		"lat": "22.760162",
		"number": "102",
		"street": "DEL TULE",
		"city": "ZACATECAS",
		"district": "",
		"postcode": "98060"
	},
	{
		"lon": "-102.5331919",
		"lat": "22.7589128",
		"number": "12",
		"street": "MÉXICO",
		"city": "GUADALUPE",
		"district": "",
		"postcode": "98610"
	},
	{
		"lon": "-103.647545",
		"lat": "23.64501",
		"number": "0",
		"street": "NIÑOS HÉROES",
		"city": "SOMBRERETE",
		"district": "",
		"postcode": "99102"
	},
	{
		"lon": "-102.9870168",
		"lat": "22.6532539",
		"number": "6",
		"street": "DEL REFUGIO",
		"city": "JEREZ",
		"district": "",
		"postcode": "99300"
	},
	{
		"lon": "-102.5164742",
		"lat": "22.7308022",
		"number": "10",
		"street": "CERRO DE LA VIRGEN",
		"city": "GUADALUPE",
		"district": "",
		"postcode": "98605"
	},
	{
		"lon": "-102.5542144",
		"lat": "22.7670494",
		"number": "603",
		"street": "RÍO BALSAS",
		"city": "ZACATECAS",
		"district": "",
		"postcode": "98610"
	},
	{
		"lon": "-102.9877473",
		"lat": "22.6499697",
		"number": "12",
		"street": "GARCÍA SALINAS",
		"city": "JEREZ",
		"district": "",
		"postcode": "99300"
	},
	{
		"lon": "-102.57219",
		"lat": "22.7708818",
		"number": "267",
		"street": "ARROYO DE LA PLATA",
		"city": "ZACATECAS",
		"district": "",
		"postcode": "98000"
	},
	{
		"lon": "-102.5035487",
		"lat": "22.7405211",
		"number": "0",
		"street": "SECRETARIA DE TURISMO",
		"city": "GUADALUPE",
		"district": "",
		"postcode": "98608"
	},
	{
		"lon": "-102.4990535",
		"lat": "22.748983",
		"number": "4",
		"street": "SECRETERIA DE LA MARINA NACIONAL",
		"city": "GUADALUPE",
		"district": "",
		"postcode": "98604"
	},
	{
		"lon": "-102.6140723",
		"lat": "22.7685678",
		"number": "0",
		"street": "NINGUNO",
		"city": "ZACATECAS",
		"district": "",
		"postcode": "98160"
	},
	{
		"lon": "-103.5672931",
		"lat": "22.7715157",
		"number": "101",
		"street": "FRANCISCO I. MADERO",
		"city": "VALPARAÍSO",
		"district": "",
		"postcode": "99250"
	},
	{
		"lon": "-102.5090699",
		"lat": "22.7558545",
		"number": "108",
		"street": "REVOLUCIÓN MEXICANA",
		"city": "GUADALUPE",
		"district": "",
		"postcode": "98613"
	},
	{
		"lon": "-102.8733071",
		"lat": "23.1838906",
		"number": "54",
		"street": "HUICOT",
		"city": "FRESNILLO",
		"district": "",
		"postcode": "99040"
	},
	{
		"lon": "-102.5454046",
		"lat": "22.7635652",
		"number": "24",
		"street": "MÉXICO",
		"city": "ZACATECAS",
		"district": "",
		"postcode": "98064"
	},
	{
		"lon": "-103.0409289",
		"lat": "23.8286933",
		"number": "30",
		"street": "DE LOS MAESTROS",
		"city": "RÍO GRANDE",
		"district": "",
		"postcode": "98400"
	},
	{
		"lon": "-102.6234596",
		"lat": "22.8587656",
		"number": "0",
		"street": "PANAMERICANA",
		"city": "MORELOS",
		"district": "",
		"postcode": "98100"
	},
	{
		"lon": "-102.5905223",
		"lat": "22.768993",
		"number": "512",
		"street": "MIGUEL RAMOS ARIZPE",
		"city": "ZACATECAS",
		"district": "",
		"postcode": "98053"
	},
	{
		"lon": "-102.6016569",
		"lat": "22.773993",
		"number": "0",
		"street": "HÉROES DE CHAPULTEPEC",
		"city": "ZACATECAS",
		"district": "",
		"postcode": "98070"
	},
	{
		"lon": "-103.5861675",
		"lat": "22.777535",
		"number": "0",
		"street": "ATOTONILCO",
		"city": "VALPARAÍSO",
		"district": "",
		"postcode": "99200"
	},
	{
		"lon": "-103.648615",
		"lat": "23.645203",
		"number": "11",
		"street": "LUIS MOYA",
		"city": "SOMBRERETE",
		"district": "",
		"postcode": "99100"
	},
	{
		"lon": "-102.5660405",
		"lat": "22.7737304",
		"number": "208",
		"street": "DEL TEPOZÁN",
		"city": "ZACATECAS",
		"district": "",
		"postcode": "98060"
	},
	{
		"lon": "-102.6095399",
		"lat": "22.770518",
		"number": "0",
		"street": "NEZAHUALCÓYOTL",
		"city": "ZACATECAS",
		"district": "",
		"postcode": "98000"
	},
	{
		"lon": "-103.6304179",
		"lat": "23.6412091",
		"number": "826300",
		"street": "LÁZARO CÁRDENAS",
		"city": "SOMBRERETE",
		"district": "",
		"postcode": "99100"
	},
	{
		"lon": "-102.2648933",
		"lat": "22.5783178",
		"number": "15",
		"street": "SANTOS ORTIZ",
		"city": "OJOCALIENTE",
		"district": "",
		"postcode": "98700"
	},
	{
		"lon": "-103.637525",
		"lat": "23.6420945",
		"number": "4",
		"street": "TABASCO",
		"city": "SOMBRERETE",
		"district": "",
		"postcode": "99100"
	},
	{
		"lon": "-102.5753844",
		"lat": "22.7623931",
		"number": "111",
		"street": "LIBERTAD",
		"city": "ZACATECAS",
		"district": "",
		"postcode": "98070"
	},
	{
		"lon": "-102.2596644",
		"lat": "22.5803582",
		"number": "2",
		"street": "ÁGUILA REAL",
		"city": "OJOCALIENTE",
		"district": "",
		"postcode": "98700"
	},
	{
		"lon": "-102.8631679",
		"lat": "23.1733449",
		"number": "7",
		"street": "ENCINO",
		"city": "FRESNILLO",
		"district": "",
		"postcode": "99000"
	},
	{
		"lon": "-102.5277953",
		"lat": "22.7512965",
		"number": "100",
		"street": "AZAFRÁN",
		"city": "GUADALUPE",
		"district": "",
		"postcode": "98615"
	},
	{
		"lon": "-102.5094386",
		"lat": "22.7546734",
		"number": "8",
		"street": "LÁZARO CÁRDENAS",
		"city": "GUADALUPE",
		"district": "",
		"postcode": "98000"
	},
	{
		"lon": "-102.5403292",
		"lat": "22.7563365",
		"number": "376",
		"street": "PASEO GARCÍA SALINAS",
		"city": "GUADALUPE",
		"district": "",
		"postcode": "98609"
	},
	{
		"lon": "-102.575915",
		"lat": "22.7598936",
		"number": "104",
		"street": "GENERAL FRANCISCO MUJICA",
		"city": "ZACATECAS",
		"district": "",
		"postcode": "98090"
	},
	{
		"lon": "-102.5864116",
		"lat": "22.7485131",
		"number": "204",
		"street": "CERRO DE LA VIRGEN",
		"city": "ZACATECAS",
		"district": "",
		"postcode": "98085"
	},
	{
		"lon": "-102.5131538",
		"lat": "22.7478875",
		"number": "62",
		"street": "1910",
		"city": "GUADALUPE",
		"district": "",
		"postcode": "98600"
	},
	{
		"lon": "-102.5161957",
		"lat": "22.7294767",
		"number": "105",
		"street": "A SAN RAMÓN",
		"city": "GUADALUPE",
		"district": "",
		"postcode": "98605"
	},
	{
		"lon": "-102.8669761",
		"lat": "23.1828024",
		"number": "117",
		"street": "HOMBRES ILUSTRES",
		"city": "FRESNILLO",
		"district": "",
		"postcode": "99040"
	},
	{
		"lon": "-102.5245139",
		"lat": "22.7530645",
		"number": "40",
		"street": "BEGONIA",
		"city": "GUADALUPE",
		"district": "",
		"postcode": "98600"
	},
	{
		"lon": "-102.545756",
		"lat": "22.7570469",
		"number": "201",
		"street": "SEVILLA",
		"city": "ZACATECAS",
		"district": "",
		"postcode": "98600"
	},
	{
		"lon": "-103.0278449",
		"lat": "23.8304279",
		"number": "23",
		"street": "5 DE FEBRERO",
		"city": "RÍO GRANDE",
		"district": "",
		"postcode": "98422"
	},
	{
		"lon": "-103.0221727",
		"lat": "23.807998",
		"number": "0",
		"street": "NINGUNO",
		"city": "RÍO GRANDE",
		"district": "",
		"postcode": "98400"
	},
	{
		"lon": "-102.5945793",
		"lat": "22.7648228",
		"number": "14",
		"street": "FLOR DE LOTO",
		"city": "ZACATECAS",
		"district": "",
		"postcode": "98054"
	},
	{
		"lon": "-102.5424074",
		"lat": "22.7643111",
		"number": "213",
		"street": "COBRE CUARZO",
		"city": "ZACATECAS",
		"district": "",
		"postcode": "98064"
	},
	{
		"lon": "-102.5206906",
		"lat": "22.7504151",
		"number": "6",
		"street": "DE LA CRUZ",
		"city": "GUADALUPE",
		"district": "",
		"postcode": "98600"
	},
	{
		"lon": "-102.5535113",
		"lat": "22.7638221",
		"number": "262",
		"street": "UNIVERSIDAD",
		"city": "ZACATECAS",
		"district": "",
		"postcode": "98068"
	},
	{
		"lon": "-102.8737244",
		"lat": "23.1688214",
		"number": "0",
		"street": "CERRO PROAÑO",
		"city": "FRESNILLO",
		"district": "",
		"postcode": "99089"
	},
	{
		"lon": "-102.6029365",
		"lat": "22.7707551",
		"number": "601",
		"street": "DOROTEO ARANGO",
		"city": "ZACATECAS",
		"district": "",
		"postcode": "98057"
	},
	{
		"lon": "-102.5209296",
		"lat": "22.7603346",
		"number": "67",
		"street": "CALIFORNIA",
		"city": "GUADALUPE",
		"district": "",
		"postcode": "98614"
	},
	{
		"lon": "-102.5383997",
		"lat": "22.75609",
		"number": "362",
		"street": "PASEO GARCÍA SALINAS",
		"city": "GUADALUPE",
		"district": "",
		"postcode": "98610"
	},
	{
		"lon": "-102.9753189",
		"lat": "21.6460238",
		"number": "1608",
		"street": "PALMA",
		"city": "JALPA",
		"district": "",
		"postcode": "99601"
	},
	{
		"lon": "-102.5778328",
		"lat": "22.7635715",
		"number": "102",
		"street": "PROGRESO",
		"city": "ZACATECAS",
		"district": "",
		"postcode": "98000"
	},
	{
		"lon": "-102.5789969",
		"lat": "22.7661855",
		"number": "113",
		"street": "INGENIERO PEDRO RUIZ GONZÁLEZ",
		"city": "ZACATECAS",
		"district": "",
		"postcode": "98050"
	},
	{
		"lon": "-102.5326207",
		"lat": "22.7586995",
		"number": "2",
		"street": "MÉXICO",
		"city": "GUADALUPE",
		"district": "",
		"postcode": "98610"
	},
	{
		"lon": "-102.4969363",
		"lat": "22.7668249",
		"number": "0",
		"street": "NINGUNO",
		"city": "GUADALUPE",
		"district": "",
		"postcode": "98615"
	},
	{
		"lon": "-102.9912806",
		"lat": "22.651775",
		"number": "33",
		"street": "REFORMA",
		"city": "JEREZ",
		"district": "",
		"postcode": "99300"
	},
	{
		"lon": "-102.503215",
		"lat": "22.7726529",
		"number": "0",
		"street": "NINGUNO",
		"city": "GUADALUPE",
		"district": "",
		"postcode": "98615"
	},
	{
		"lon": "-102.502599",
		"lat": "22.741577",
		"number": "0",
		"street": "LIBRAMIENTO TRÁNSITO PESADO",
		"city": "GUADALUPE",
		"district": "",
		"postcode": "98600"
	},
	{
		"lon": "-102.5021472",
		"lat": "22.7417171",
		"number": "1",
		"street": "LIBRAMIENTO TRÁNSITO PESADO",
		"city": "GUADALUPE",
		"district": "",
		"postcode": "98604"
	},
	{
		"lon": "-102.9775329",
		"lat": "22.6411228",
		"number": "6",
		"street": "DEMOCRACIA",
		"city": "JEREZ",
		"district": "",
		"postcode": "99340"
	},
	{
		"lon": "-102.7000047",
		"lat": "22.958249",
		"number": "439",
		"street": "CIRUELO",
		"city": "CALERA",
		"district": "",
		"postcode": "98504"
	},
	{
		"lon": "-102.7182377",
		"lat": "22.9529427",
		"number": "42",
		"street": "VALPARAÍSO",
		"city": "CALERA",
		"district": "",
		"postcode": "98500"
	},
	{
		"lon": "-102.5532602",
		"lat": "22.7612977",
		"number": "103",
		"street": "PIRINEOS",
		"city": "ZACATECAS",
		"district": "",
		"postcode": "98098"
	},
	{
		"lon": "-103.4521479",
		"lat": "24.2960768",
		"number": "30",
		"street": "GONZALO VILLASEÑOR",
		"city": "MIGUEL AUZA",
		"district": "",
		"postcode": "98330"
	},
	{
		"lon": "-102.89282",
		"lat": "23.176343",
		"number": "302",
		"street": "DOCTOR J. JESÚS VARELA RICO",
		"city": "FRESNILLO",
		"district": "",
		"postcode": "99000"
	},
	{
		"lon": "-102.5007882",
		"lat": "22.7525897",
		"number": "40",
		"street": "REVOLUCIÓN MEXICANA",
		"city": "GUADALUPE",
		"district": "",
		"postcode": "98612"
	},
	{
		"lon": "-102.502047",
		"lat": "22.7642068",
		"number": "0",
		"street": "CARRETERA A SAUCEDA DE LA BORDA",
		"city": "GUADALUPE",
		"district": "",
		"postcode": "98612"
	},
	{
		"lon": "-103.3032861",
		"lat": "21.7810207",
		"number": "35",
		"street": "HEROICO COLEGIO MILITAR",
		"city": "TLALTENANGO DE SÁNCHEZ ROMÁN",
		"district": "",
		"postcode": "99700"
	},
	{
		"lon": "-103.305237",
		"lat": "21.7826466",
		"number": "31",
		"street": "LIBERTAD",
		"city": "TLALTENANGO DE SÁNCHEZ ROMÁN",
		"district": "",
		"postcode": "99700"
	},
	{
		"lon": "-103.328736",
		"lat": "21.6714884",
		"number": "5",
		"street": "LEONA VICARIO",
		"city": "TEPECHITLÁN",
		"district": "",
		"postcode": "99750"
	},
	{
		"lon": "-102.5745555",
		"lat": "22.7552182",
		"number": "1102",
		"street": "NINGUNO",
		"city": "ZACATECAS",
		"district": "",
		"postcode": "98001"
	},
	{
		"lon": "-103.0143101",
		"lat": "23.9952154",
		"number": "0",
		"street": "SÁNCHEZ ROMÁN",
		"city": "GENERAL FRANCISCO R. MURGUÍA",
		"district": "",
		"postcode": "98350"
	},
	{
		"lon": "-102.4955137",
		"lat": "22.7113332",
		"number": "129",
		"street": "DE LA PILA",
		"city": "GUADALUPE",
		"district": "",
		"postcode": "98658"
	},
	{
		"lon": "-102.8867217",
		"lat": "23.163958",
		"number": "830",
		"street": "DOCTOR J. JESÚS VARELA RICO",
		"city": "FRESNILLO",
		"district": "",
		"postcode": "99080"
	},
	{
		"lon": "-102.5402116",
		"lat": "22.7518342",
		"number": "9",
		"street": "NINGUNO",
		"city": "GUADALUPE",
		"district": "",
		"postcode": "98609"
	},
	{
		"lon": "-102.5710781",
		"lat": "22.7725598",
		"number": "213",
		"street": "LEDESMA",
		"city": "ZACATECAS",
		"district": "",
		"postcode": "98000"
	},
	{
		"lon": "-102.5207727",
		"lat": "22.7545092",
		"number": "0",
		"street": "5 DE MAYO",
		"city": "GUADALUPE",
		"district": "",
		"postcode": "98601"
	},
	{
		"lon": "-103.6263759",
		"lat": "23.6440967",
		"number": "0",
		"street": "ADOLFO LÓPEZ MATEOS",
		"city": "SOMBRERETE",
		"district": "",
		"postcode": "99100"
	},
	{
		"lon": "-102.4904471",
		"lat": "22.7553207",
		"number": "2",
		"street": "DE LA AVENIDA CONDESA",
		"city": "GUADALUPE",
		"district": "",
		"postcode": "98613"
	},
	{
		"lon": "-102.6969418",
		"lat": "22.948014",
		"number": "507",
		"street": "JUAN ALDAMA SUR",
		"city": "CALERA",
		"district": "",
		"postcode": "98500"
	},
	{
		"lon": "-102.578654",
		"lat": "22.7538906",
		"number": "601",
		"street": "TRÁNSITO PESADO",
		"city": "ZACATECAS",
		"district": "",
		"postcode": "98083"
	},
	{
		"lon": "-102.871085",
		"lat": "23.1810837",
		"number": "99",
		"street": "FRANCISCO JAVIER MINA",
		"city": "FRESNILLO",
		"district": "",
		"postcode": "99000"
	},
	{
		"lon": "-102.5375525",
		"lat": "22.7688961",
		"number": "3",
		"street": "GARDENIAS",
		"city": "GUADALUPE",
		"district": "",
		"postcode": "98619"
	},
	{
		"lon": "-102.366336",
		"lat": "22.7324634",
		"number": "3",
		"street": "EMILIANO ZAPATA",
		"city": "TRANCOSO",
		"district": "",
		"postcode": "98640"
	},
	{
		"lon": "-102.591267",
		"lat": "22.7720045",
		"number": "212",
		"street": "QUETZALCÓATL",
		"city": "ZACATECAS",
		"district": "",
		"postcode": "98056"
	},
	{
		"lon": "-102.5653648",
		"lat": "22.78392",
		"number": "135",
		"street": "BARRIO DE LOS OLIVOS",
		"city": "ZACATECAS",
		"district": "",
		"postcode": "98000"
	},
	{
		"lon": "-102.8674374",
		"lat": "23.1767205",
		"number": "136",
		"street": "DOCTOR IGNACIO HIERRO",
		"city": "FRESNILLO",
		"district": "",
		"postcode": "99000"
	},
	{
		"lon": "-102.696798",
		"lat": "22.9460135",
		"number": "707",
		"street": "JUÁREZ SUR",
		"city": "CALERA",
		"district": "",
		"postcode": "98500"
	},
	{
		"lon": "-102.6280472",
		"lat": "22.7813655",
		"number": "0",
		"street": "HÉROES DE CHAPULTEPEC",
		"city": "ZACATECAS",
		"district": "",
		"postcode": "98117"
	},
	{
		"lon": "-102.4979374",
		"lat": "22.7537776",
		"number": "18",
		"street": "FUENTES PERSAS",
		"city": "GUADALUPE",
		"district": "",
		"postcode": "98615"
	},
	{
		"lon": "-102.6287445",
		"lat": "22.7783906",
		"number": "1",
		"street": "TECNOLÓGICO",
		"city": "ZACATECAS",
		"district": "",
		"postcode": "98160"
	},
	{
		"lon": "-102.5788854",
		"lat": "22.7762391",
		"number": "141",
		"street": "DE LA LOMA",
		"city": "ZACATECAS",
		"district": "",
		"postcode": "98040"
	},
	{
		"lon": "-102.5881034",
		"lat": "22.7491698",
		"number": "601",
		"street": "SIERRA CAMPANA",
		"city": "ZACATECAS",
		"district": "",
		"postcode": "98085"
	},
	{
		"lon": "-102.5041837",
		"lat": "22.7380643",
		"number": "11",
		"street": "CANTERA",
		"city": "GUADALUPE",
		"district": "",
		"postcode": "98604"
	},
	{
		"lon": "-102.6200941",
		"lat": "22.8638669",
		"number": "381",
		"street": "PROVIDENCIA",
		"city": "MORELOS",
		"district": "",
		"postcode": "98100"
	},
	{
		"lon": "-102.5273125",
		"lat": "22.7661386",
		"number": "0",
		"street": "NINGUNO",
		"city": "GUADALUPE",
		"district": "",
		"postcode": "98610"
	},
	{
		"lon": "-102.5012271",
		"lat": "22.7671498",
		"number": "1",
		"street": "CARRETERA A SAUCEDA DE LA BORDA",
		"city": "GUADALUPE",
		"district": "",
		"postcode": "98600"
	},
	{
		"lon": "-102.572725",
		"lat": "22.766723",
		"number": "502",
		"street": "MANUEL ÁVILA CAMACHO",
		"city": "ZACATECAS",
		"district": "",
		"postcode": "98070"
	},
	{
		"lon": "-102.4223617",
		"lat": "22.7840528",
		"number": "3",
		"street": "PÁNFILO NATERA",
		"city": "GUADALUPE",
		"district": "",
		"postcode": "98600"
	},
	{
		"lon": "-103.0106865",
		"lat": "23.8508095",
		"number": "10",
		"street": "INSURGENTES",
		"city": "RÍO GRANDE",
		"district": "",
		"postcode": "98406"
	},
	{
		"lon": "-102.4219444",
		"lat": "22.755",
		"number": "4",
		"street": "CALLE 12 DE ENERO",
		"city": "GUADALUPE",
		"district": "",
		"postcode": "98630"
	},
	{
		"lon": "-102.5877513",
		"lat": "22.7554765",
		"number": "107",
		"street": "LAGO CATEMACO",
		"city": "ZACATECAS",
		"district": "",
		"postcode": "98085"
	},
	{
		"lon": "-102.5783023",
		"lat": "22.7745749",
		"number": "412",
		"street": "ALAMEDA TRINIDAD GARCÍA DE LA CADENA",
		"city": "ZACATECAS",
		"district": "",
		"postcode": "98000"
	},
	{
		"lon": "-103.5676771",
		"lat": "22.7718737",
		"number": "104",
		"street": "VENUSTIANO CARRANZA",
		"city": "VALPARAÍSO",
		"district": "",
		"postcode": "99200"
	},
	{
		"lon": "-102.5841924",
		"lat": "22.7469064",
		"number": "327",
		"street": "CERRO DE LAS VENTANAS",
		"city": "ZACATECAS",
		"district": "",
		"postcode": "98086"
	},
	{
		"lon": "-102.2515567",
		"lat": "22.4421242",
		"number": "0",
		"street": "DE LA ALFALFA",
		"city": "LUIS MOYA",
		"district": "",
		"postcode": "98770"
	},
	{
		"lon": "-102.5240141",
		"lat": "22.7456246",
		"number": "55",
		"street": "IGNACIO ALLENDE",
		"city": "GUADALUPE",
		"district": "",
		"postcode": "98600"
	},
	{
		"lon": "-102.4215286",
		"lat": "22.7829321",
		"number": "17",
		"street": "REBOTE",
		"city": "GUADALUPE",
		"district": "",
		"postcode": "98631"
	},
	{
		"lon": "-102.9871898",
		"lat": "22.6486609",
		"number": "1",
		"street": "MORELOS",
		"city": "JEREZ",
		"district": "",
		"postcode": "99300"
	},
	{
		"lon": "-102.5429819",
		"lat": "22.765962",
		"number": "221",
		"street": "DE LOS ÁLAMOS",
		"city": "GUADALUPE",
		"district": "",
		"postcode": "98064"
	},
	{
		"lon": "-102.538556",
		"lat": "22.7533898",
		"number": "9",
		"street": "LAS TORRES",
		"city": "GUADALUPE",
		"district": "",
		"postcode": "98608"
	},
	{
		"lon": "-102.6177552",
		"lat": "22.7727858",
		"number": "0",
		"street": "FEDERAL ZACATECAS-FRESNILLO",
		"city": "ZACATECAS",
		"district": "",
		"postcode": "98160"
	},
	{
		"lon": "-103.030509",
		"lat": "23.825814",
		"number": "30",
		"street": "JUÁREZ",
		"city": "RÍO GRANDE",
		"district": "",
		"postcode": "98041"
	},
	{
		"lon": "-103.0293864",
		"lat": "23.8181689",
		"number": "0",
		"street": "EVA SÁMANO DE LÓPEZ MATEOS",
		"city": "RÍO GRANDE",
		"district": "",
		"postcode": "98425"
	},
	{
		"lon": "-102.583503",
		"lat": "22.7683007",
		"number": "115",
		"street": "DE LA CHIRIMOYA",
		"city": "ZACATECAS",
		"district": "",
		"postcode": "98050"
	},
	{
		"lon": "-102.6329912",
		"lat": "22.765527",
		"number": "504",
		"street": "FRANCISCO GARCÍA SALINAS",
		"city": "ZACATECAS",
		"district": "",
		"postcode": "98058"
	},
	{
		"lon": "-102.5718154",
		"lat": "22.7835451",
		"number": "301",
		"street": "FRANCISCO GOYTIA",
		"city": "ZACATECAS",
		"district": "",
		"postcode": "98000"
	},
	{
		"lon": "-103.0140985",
		"lat": "23.995019",
		"number": "0",
		"street": "SÁNCHEZ ROMÁN",
		"city": "GENERAL FRANCISCO R. MURGUÍA",
		"district": "",
		"postcode": "98350"
	},
	{
		"lon": "-102.4995946",
		"lat": "22.7424834",
		"number": "100",
		"street": "LIBRAMIENTO TRÁNSITO PESADO",
		"city": "GUADALUPE",
		"district": "",
		"postcode": "98604"
	},
	{
		"lon": "-102.8748564",
		"lat": "23.186504",
		"number": "231",
		"street": "HUICOT",
		"city": "FRESNILLO",
		"district": "",
		"postcode": "99020"
	},
	{
		"lon": "-102.5014505",
		"lat": "22.7570253",
		"number": "60",
		"street": "ESCUELA DE PREPARATORIA",
		"city": "GUADALUPE",
		"district": "",
		"postcode": "98612"
	},
	{
		"lon": "-102.5371566",
		"lat": "22.7550546",
		"number": "0",
		"street": "SICÓMORO",
		"city": "GUADALUPE",
		"district": "",
		"postcode": "98608"
	},
	{
		"lon": "-102.5422172",
		"lat": "22.7561083",
		"number": "4",
		"street": "BONATERRA",
		"city": "GUADALUPE",
		"district": "",
		"postcode": "98609"
	},
	{
		"lon": "-102.5678564",
		"lat": "22.758939",
		"number": "204",
		"street": "J. TRINIDAD ORTIZ",
		"city": "ZACATECAS",
		"district": "",
		"postcode": "98090"
	},
	{
		"lon": "-102.4240583",
		"lat": "22.7792157",
		"number": "30",
		"street": "LUIS ECHEVERRÍA",
		"city": "GUADALUPE",
		"district": "",
		"postcode": "98631"
	},
	{
		"lon": "-102.586927",
		"lat": "22.7653815",
		"number": "302",
		"street": "CERRO ENCINILLO",
		"city": "ZACATECAS",
		"district": "",
		"postcode": "98000"
	},
	{
		"lon": "-102.5252502",
		"lat": "22.7554164",
		"number": "22",
		"street": "HACIENDA DE BERNARDEZ",
		"city": "GUADALUPE",
		"district": "",
		"postcode": "98600"
	},
	{
		"lon": "-102.4243893",
		"lat": "22.7560945",
		"number": "21",
		"street": "CALLE LAZARO CARDENAS",
		"city": "GUADALUPE",
		"district": "",
		"postcode": "98631"
	},
	{
		"lon": "-102.6968046",
		"lat": "22.9460205",
		"number": "707",
		"street": "JUÁREZ SUR",
		"city": "CALERA",
		"district": "",
		"postcode": "98500"
	},
	{
		"lon": "-102.5498694",
		"lat": "22.7637282",
		"number": "746",
		"street": "JOSÉ LÓPEZ PORTILLO",
		"city": "ZACATECAS",
		"district": "",
		"postcode": "98065"
	},
	{
		"lon": "-103.0178894",
		"lat": "23.8094211",
		"number": "0",
		"street": "LOMA DEL TORO",
		"city": "RÍO GRANDE",
		"district": "",
		"postcode": "98400"
	},
	{
		"lon": "-102.5722979",
		"lat": "22.7725341",
		"number": "106",
		"street": "GUERRERO",
		"city": "ZACATECAS",
		"district": "",
		"postcode": "98000"
	},
	{
		"lon": "-102.5597856",
		"lat": "22.7665534",
		"number": "153",
		"street": "UNIVERSIDAD",
		"city": "ZACATECAS",
		"district": "",
		"postcode": "98060"
	},
	{
		"lon": "-102.5341708",
		"lat": "22.766047",
		"number": "123",
		"street": "PEDRO CORONEL",
		"city": "GUADALUPE",
		"district": "",
		"postcode": "98610"
	},
	{
		"lon": "-102.9791378",
		"lat": "21.6343285",
		"number": "420",
		"street": "FRANCISCO I. MADERO N.",
		"city": "JALPA",
		"district": "",
		"postcode": "99960"
	},
	{
		"lon": "-102.5241081",
		"lat": "22.755989",
		"number": "13",
		"street": "JOSÉ LÓPEZ PORTILLO",
		"city": "GUADALUPE",
		"district": "",
		"postcode": "98614"
	},
	{
		"lon": "-102.6030638",
		"lat": "22.7728413",
		"number": "204",
		"street": "CADETE VICENTE SUÁREZ",
		"city": "ZACATECAS",
		"district": "",
		"postcode": "98057"
	},
	{
		"lon": "-102.496253",
		"lat": "22.757365",
		"number": "13",
		"street": "FEDERACIÓN DE SINDICATOS",
		"city": "GUADALUPE",
		"district": "",
		"postcode": "98612"
	},
	{
		"lon": "-102.5007937",
		"lat": "22.7467008",
		"number": "0",
		"street": "SECRETARIA DE LA REFORMA AGRARIA",
		"city": "GUADALUPE",
		"district": "",
		"postcode": "98613"
	},
	{
		"lon": "-102.5151943",
		"lat": "22.7492603",
		"number": "74",
		"street": "HEROICO COLEGIO MILITAR",
		"city": "GUADALUPE",
		"district": "",
		"postcode": "98600"
	},
	{
		"lon": "-102.543771",
		"lat": "22.7566441",
		"number": "208",
		"street": "CARLOS LINNEO",
		"city": "GUADALUPE",
		"district": "",
		"postcode": "98609"
	},
	{
		"lon": "-102.9858768",
		"lat": "22.6580082",
		"number": "49",
		"street": "VALENTÍN GÓMEZ FARÍAS (ALAMEDA) CAMINO AL DURAZNO",
		"city": "JEREZ",
		"district": "",
		"postcode": "99313"
	},
	{
		"lon": "-102.5565689",
		"lat": "22.7667246",
		"number": "104",
		"street": "RÍO YAQUI",
		"city": "ZACATECAS",
		"district": "",
		"postcode": "98068"
	},
	{
		"lon": "-102.5239746",
		"lat": "22.7560845",
		"number": "13",
		"street": "FRONTERA",
		"city": "GUADALUPE",
		"district": "",
		"postcode": "98614"
	},
	{
		"lon": "-102.8742458",
		"lat": "23.1737646",
		"number": "5",
		"street": "ENRIQUE ESTRADA",
		"city": "FRESNILLO",
		"district": "",
		"postcode": "99000"
	},
	{
		"lon": "-102.5153825",
		"lat": "22.7553382",
		"number": "21",
		"street": "INDEPENDENCIA",
		"city": "GUADALUPE",
		"district": "",
		"postcode": "98613"
	},
	{
		"lon": "-102.5414517",
		"lat": "22.7542566",
		"number": "28",
		"street": "NIÑOS HÉROES",
		"city": "GUADALUPE",
		"district": "",
		"postcode": "98609"
	},
	{
		"lon": "-102.8661613",
		"lat": "23.1730523",
		"number": "314",
		"street": "GARCÍA SALINAS",
		"city": "FRESNILLO",
		"district": "",
		"postcode": "99000"
	},
	{
		"lon": "-102.5440847",
		"lat": "22.7582839",
		"number": "206",
		"street": "PASEO FRANCISCO GARCÍA SALINAS",
		"city": "ZACATECAS",
		"district": "",
		"postcode": "98908"
	},
	{
		"lon": "-102.5733518",
		"lat": "22.759842",
		"number": "201",
		"street": "JESÚS REYES HEROLES",
		"city": "ZACATECAS",
		"district": "",
		"postcode": "98090"
	},
	{
		"lon": "-102.5822175",
		"lat": "22.775361",
		"number": "120",
		"street": "TERRAPLÉN",
		"city": "ZACATECAS",
		"district": "",
		"postcode": "98045"
	},
	{
		"lon": "-102.8827248",
		"lat": "23.1828099",
		"number": "38",
		"street": "INSURGENTES",
		"city": "FRESNILLO",
		"district": "",
		"postcode": "99030"
	},
	{
		"lon": "-102.8820974",
		"lat": "23.187571",
		"number": "412",
		"street": "LÓPEZ MATEOS (CARRETERA PANAMERICANA)",
		"city": "FRESNILLO",
		"district": "",
		"postcode": "99039"
	},
	{
		"lon": "-102.678091",
		"lat": "22.92901",
		"number": "23",
		"street": "KILÓMETRO 23CARR ZAC-CALERA",
		"city": "CALERA",
		"district": "",
		"postcode": "98500"
	},
	{
		"lon": "-102.5364494",
		"lat": "22.7528377",
		"number": "304",
		"street": "CIPRESES",
		"city": "GUADALUPE",
		"district": "",
		"postcode": "98608"
	},
	{
		"lon": "-102.594238",
		"lat": "22.7578435",
		"number": "208",
		"street": "JOSÉ MARÍA VÁZQUEZ",
		"city": "ZACATECAS",
		"district": "",
		"postcode": "98087"
	},
	{
		"lon": "-102.5034904",
		"lat": "22.7405399",
		"number": "0",
		"street": "SECRETARIA DE TURISMO",
		"city": "GUADALUPE",
		"district": "",
		"postcode": "98608"
	},
	{
		"lon": "-102.9772642",
		"lat": "21.6318461",
		"number": "411",
		"street": "20 DE NOVIEMBRE",
		"city": "JALPA",
		"district": "",
		"postcode": "99601"
	},
	{
		"lon": "-102.5808422",
		"lat": "22.7651196",
		"number": "101",
		"street": "DE LA UNIÓN",
		"city": "ZACATECAS",
		"district": "",
		"postcode": "98000"
	},
	{
		"lon": "-102.5822131",
		"lat": "22.7653713",
		"number": "108",
		"street": "FERROCARRIL",
		"city": "ZACATECAS",
		"district": "",
		"postcode": "98090"
	},
	{
		"lon": "-102.5680857",
		"lat": "22.758885",
		"number": "204",
		"street": "FERNANDO AMILPA",
		"city": "ZACATECAS",
		"district": "",
		"postcode": "98090"
	},
	{
		"lon": "-102.5600456",
		"lat": "22.7662452",
		"number": "101",
		"street": "NINGUNO",
		"city": "ZACATECAS",
		"district": "",
		"postcode": "98060"
	},
	{
		"lon": "-102.5035551",
		"lat": "22.740519",
		"number": "0",
		"street": "SECRETARIA DE TURISMO",
		"city": "GUADALUPE",
		"district": "",
		"postcode": "98608"
	},
	{
		"lon": "-102.5829956",
		"lat": "22.7664615",
		"number": "103",
		"street": "NINGUNO",
		"city": "ZACATECAS",
		"district": "",
		"postcode": "98000"
	},
	{
		"lon": "-102.898034",
		"lat": "23.1707212",
		"number": "212",
		"street": "RÍO CHAPALA",
		"city": "FRESNILLO",
		"district": "",
		"postcode": "99084"
	},
	{
		"lon": "-102.4193252",
		"lat": "22.7832955",
		"number": "10",
		"street": "PÁNFILO NATERA",
		"city": "GUADALUPE",
		"district": "",
		"postcode": "98631"
	},
	{
		"lon": "-102.5729485",
		"lat": "22.7755848",
		"number": "110",
		"street": "DE GÓMEZ FARÍAS",
		"city": "ZACATECAS",
		"district": "",
		"postcode": "98000"
	},
	{
		"lon": "-102.5810182",
		"lat": "22.7657324",
		"number": "103",
		"street": "ADOLFO LÓPEZ MATEOS",
		"city": "ZACATECAS",
		"district": "",
		"postcode": "98050"
	},
	{
		"lon": "-102.8835672",
		"lat": "23.1760724",
		"number": "12",
		"street": "JEREZ",
		"city": "FRESNILLO",
		"district": "",
		"postcode": "99030"
	},
	{
		"lon": "-102.58547",
		"lat": "22.7524704",
		"number": "912",
		"street": "SIERRA DE MAPIMI",
		"city": "ZACATECAS",
		"district": "",
		"postcode": "98085"
	},
	{
		"lon": "-102.6015053",
		"lat": "22.7717061",
		"number": "295",
		"street": "BRIGADA SERVÍN",
		"city": "ZACATECAS",
		"district": "",
		"postcode": "98000"
	},
	{
		"lon": "-102.5786852",
		"lat": "22.7768359",
		"number": "405",
		"street": "DEL AUXILIO",
		"city": "ZACATECAS",
		"district": "",
		"postcode": "98040"
	},
	{
		"lon": "-102.7066545",
		"lat": "22.9554565",
		"number": "201",
		"street": "MONTERREY",
		"city": "CALERA",
		"district": "",
		"postcode": "98500"
	},
	{
		"lon": "-102.5853747",
		"lat": "22.7755781",
		"number": "202",
		"street": "SALAMANCA",
		"city": "ZACATECAS",
		"district": "",
		"postcode": "98040"
	},
	{
		"lon": "-102.5397475",
		"lat": "22.7691343",
		"number": "92",
		"street": "GARDENIAS",
		"city": "GUADALUPE",
		"district": "",
		"postcode": "98619"
	},
	{
		"lon": "-102.51887",
		"lat": "22.7568205",
		"number": "85",
		"street": "FRANCISCANOS",
		"city": "GUADALUPE",
		"district": "",
		"postcode": "98600"
	},
	{
		"lon": "-102.5431373",
		"lat": "22.7563902",
		"number": "20",
		"street": "B. LAMARCK",
		"city": "GUADALUPE",
		"district": "",
		"postcode": "98609"
	},
	{
		"lon": "-102.6030638",
		"lat": "22.7728413",
		"number": "204",
		"street": "CADETE VICENTE SUÁREZ",
		"city": "ZACATECAS",
		"district": "",
		"postcode": "98057"
	},
	{
		"lon": "-102.5392529",
		"lat": "22.7605351",
		"number": "10",
		"street": "MÉXICO",
		"city": "GUADALUPE",
		"district": "",
		"postcode": "98619"
	},
	{
		"lon": "-102.5866323",
		"lat": "22.7551003",
		"number": "3",
		"street": "LAGO DE CHAPALA",
		"city": "ZACATECAS",
		"district": "",
		"postcode": "98085"
	},
	{
		"lon": "-102.5534416",
		"lat": "22.7638209",
		"number": "262",
		"street": "UNIVERSIDAD",
		"city": "ZACATECAS",
		"district": "",
		"postcode": "98068"
	},
	{
		"lon": "-102.5801207",
		"lat": "22.7658685",
		"number": "102",
		"street": "LOMAS DE LA ESTACIÓN",
		"city": "ZACATECAS",
		"district": "",
		"postcode": "98050"
	},
	{
		"lon": "-102.5742128",
		"lat": "22.7685797",
		"number": "712",
		"street": "MORELOS",
		"city": "ZACATECAS",
		"district": "",
		"postcode": "98000"
	},
	{
		"lon": "-102.5533855",
		"lat": "22.7602089",
		"number": "207",
		"street": "PIRINEOS",
		"city": "ZACATECAS",
		"district": "",
		"postcode": "98098"
	},
	{
		"lon": "-102.5476217",
		"lat": "22.7644976",
		"number": "112",
		"street": "2",
		"city": "ZACATECAS",
		"district": "",
		"postcode": "98068"
	},
	{
		"lon": "-102.5011908",
		"lat": "22.7561145",
		"number": "92",
		"street": "CAMINO REAL",
		"city": "GUADALUPE",
		"district": "",
		"postcode": "98617"
	},
	{
		"lon": "-103.1183892",
		"lat": "21.3981594",
		"number": "0",
		"street": "NINGUNO",
		"city": "JUCHIPILA",
		"district": "",
		"postcode": "99960"
	},
	{
		"lon": "-102.5764599",
		"lat": "22.7616602",
		"number": "108",
		"street": "ELECTRICISTAS",
		"city": "ZACATECAS",
		"district": "",
		"postcode": "98070"
	},
	{
		"lon": "-103.3198868",
		"lat": "21.6680638",
		"number": "16",
		"street": "JOSÉ DOLORES",
		"city": "TEPECHITLÁN",
		"district": "",
		"postcode": "99750"
	},
	{
		"lon": "-102.5622523",
		"lat": "22.7508581",
		"number": "123",
		"street": "NINGUNO",
		"city": "ZACATECAS",
		"district": "",
		"postcode": "98099"
	},
	{
		"lon": "-103.5614319",
		"lat": "22.3048619",
		"number": "5",
		"street": "INSURGENTES",
		"city": "MONTE ESCOBEDO",
		"district": "",
		"postcode": "99420"
	},
	{
		"lon": "-102.5570155",
		"lat": "22.7650749",
		"number": "214",
		"street": "UNIVERSIDAD",
		"city": "ZACATECAS",
		"district": "",
		"postcode": "98068"
	},
	{
		"lon": "-102.4211203",
		"lat": "22.7890657",
		"number": "10",
		"street": "LUIS ECHEVERRÍA",
		"city": "GUADALUPE",
		"district": "",
		"postcode": "98631"
	},
	{
		"lon": "-102.8624777",
		"lat": "23.1731837",
		"number": "9",
		"street": "DURANGO",
		"city": "FRESNILLO",
		"district": "",
		"postcode": "99000"
	},
	{
		"lon": "-102.8638296",
		"lat": "23.1988362",
		"number": "17",
		"street": "MINA",
		"city": "FRESNILLO",
		"district": "",
		"postcode": "99010"
	},
	{
		"lon": "-102.5245386",
		"lat": "22.7574951",
		"number": "26",
		"street": "HACIENDA DE BERNARDEZ",
		"city": "GUADALUPE",
		"district": "",
		"postcode": "98610"
	},
	{
		"lon": "-102.5404394",
		"lat": "22.756331",
		"number": "376",
		"street": "PASEO GARCÍA SALINAS",
		"city": "GUADALUPE",
		"district": "",
		"postcode": "98609"
	},
	{
		"lon": "-103.568601",
		"lat": "22.768583",
		"number": "147",
		"street": "JOSÉ MARÍA MORELOS",
		"city": "VALPARAÍSO",
		"district": "",
		"postcode": "99200"
	},
	{
		"lon": "-102.4997747",
		"lat": "22.7687041",
		"number": "6",
		"street": "LA FE",
		"city": "GUADALUPE",
		"district": "",
		"postcode": "98600"
	},
	{
		"lon": "-102.5245118",
		"lat": "22.7619776",
		"number": "424",
		"street": "HACIENDA DE TRANCOSO",
		"city": "GUADALUPE",
		"district": "",
		"postcode": "98617"
	},
	{
		"lon": "-102.5226344",
		"lat": "22.7516264",
		"number": "30",
		"street": "HEROICO COLEGIO MILITAR",
		"city": "GUADALUPE",
		"district": "",
		"postcode": "98608"
	},
	{
		"lon": "-102.5173767",
		"lat": "22.7497928",
		"number": "50",
		"street": "HEROICO COLEGIO MILITAR",
		"city": "GUADALUPE",
		"district": "",
		"postcode": "98600"
	},
	{
		"lon": "-102.5339517",
		"lat": "22.7719277",
		"number": "1",
		"street": "SAN GIULIANO",
		"city": "GUADALUPE",
		"district": "",
		"postcode": "98610"
	},
	{
		"lon": "-103.8796397",
		"lat": "23.4791605",
		"number": "0",
		"street": "NINGUNO",
		"city": "CHALCHIHUITES",
		"district": "",
		"postcode": "99260"
	},
	{
		"lon": "-102.5805966",
		"lat": "22.7671022",
		"number": "231",
		"street": "REGENERACIÓN",
		"city": "ZACATECAS",
		"district": "",
		"postcode": "98050"
	},
	{
		"lon": "-102.5895377",
		"lat": "22.7683722",
		"number": "107",
		"street": "CERRO DEL PADRE",
		"city": "ZACATECAS",
		"district": "",
		"postcode": "98056"
	},
	{
		"lon": "-102.6988697",
		"lat": "22.9535911",
		"number": "610",
		"street": "ADOLFO LÓPEZ MATEOS",
		"city": "CALERA",
		"district": "",
		"postcode": "98500"
	},
	{
		"lon": "-102.8834877",
		"lat": "23.1897363",
		"number": "0",
		"street": "LÓPEZ MATEOS (CARRETERA PANAMERICANA)",
		"city": "FRESNILLO",
		"district": "",
		"postcode": "99039"
	},
	{
		"lon": "-102.9024381",
		"lat": "23.1731628",
		"number": "1",
		"street": "JOSÉ MARÍA MORELOS",
		"city": "FRESNILLO",
		"district": "",
		"postcode": "99000"
	},
	{
		"lon": "-102.622287",
		"lat": "22.7674892",
		"number": "1",
		"street": "ROBERTO ROBLES",
		"city": "ZACATECAS",
		"district": "",
		"postcode": "98000"
	},
	{
		"lon": "-103.030502",
		"lat": "23.8353559",
		"number": "119",
		"street": "ALDAMA",
		"city": "RÍO GRANDE",
		"district": "",
		"postcode": "98400"
	},
	{
		"lon": "-102.4213196",
		"lat": "22.7835743",
		"number": "15",
		"street": "DEPORTIVA",
		"city": "GUADALUPE",
		"district": "",
		"postcode": "98600"
	},
	{
		"lon": "-102.5890393",
		"lat": "22.7448451",
		"number": "617",
		"street": "SIERRA MADRE",
		"city": "ZACATECAS",
		"district": "",
		"postcode": "98085"
	},
	{
		"lon": "-102.5970257",
		"lat": "22.7658053",
		"number": "48",
		"street": "GIRASOLES",
		"city": "ZACATECAS",
		"district": "",
		"postcode": "98054"
	},
	{
		"lon": "-102.5282171",
		"lat": "22.7551281",
		"number": "19",
		"street": "HACIENDA DE SANTA CRUZ",
		"city": "GUADALUPE",
		"district": "",
		"postcode": "98610"
	},
	{
		"lon": "-102.5899403",
		"lat": "22.7623284",
		"number": "501",
		"street": "RAMÓN CORONA",
		"city": "ZACATECAS",
		"district": "",
		"postcode": "98080"
	},
	{
		"lon": "-102.5890333",
		"lat": "22.7689934",
		"number": "1116",
		"street": "SAN MARCOS",
		"city": "ZACATECAS",
		"district": "",
		"postcode": "98049"
	},
	{
		"lon": "-102.5826507",
		"lat": "22.7713599",
		"number": "135",
		"street": "IGNACIO RAMÍREZ",
		"city": "ZACATECAS",
		"district": "",
		"postcode": "98040"
	},
	{
		"lon": "-102.8500078",
		"lat": "23.1941395",
		"number": "126",
		"street": "MERCURIO",
		"city": "FRESNILLO",
		"district": "",
		"postcode": "99059"
	},
	{
		"lon": "-102.5713375",
		"lat": "22.7721162",
		"number": "504",
		"street": "VENUSTIANO CARRANZA",
		"city": "ZACATECAS",
		"district": "",
		"postcode": "98000"
	},
	{
		"lon": "-102.8726391",
		"lat": "23.1879911",
		"number": "0",
		"street": "IGNACIO RAMÍREZ",
		"city": "FRESNILLO",
		"district": "",
		"postcode": "99020"
	},
	{
		"lon": "-103.297374",
		"lat": "21.7853168",
		"number": "0",
		"street": "MARIANO MATAMOROS",
		"city": "TLALTENANGO DE SÁNCHEZ ROMÁN",
		"district": "",
		"postcode": "99700"
	},
	{
		"lon": "-103.633216",
		"lat": "23.6448639",
		"number": "8",
		"street": "NUEVO LEÓN",
		"city": "SOMBRERETE",
		"district": "",
		"postcode": "99100"
	},
	{
		"lon": "-102.5097708",
		"lat": "22.756148",
		"number": "55",
		"street": "REVOLUCIÓN MEXICANA",
		"city": "GUADALUPE",
		"district": "",
		"postcode": "98613"
	},
	{
		"lon": "-102.5647734",
		"lat": "22.7560738",
		"number": "1",
		"street": "DOCTOR JUAN IGNACIO N.",
		"city": "ZACATECAS",
		"district": "",
		"postcode": "98057"
	},
	{
		"lon": "-102.5841273",
		"lat": "22.7494386",
		"number": "201",
		"street": "CERRO CRESTÓN CHINO",
		"city": "ZACATECAS",
		"district": "",
		"postcode": "98085"
	},
	{
		"lon": "-102.8660232",
		"lat": "23.1798749",
		"number": "3",
		"street": "ANDRÉS A. FRÍAS",
		"city": "FRESNILLO",
		"district": "",
		"postcode": "99070"
	},
	{
		"lon": "-103.0024392",
		"lat": "22.6305757",
		"number": "3",
		"street": "TEPOZÁN",
		"city": "JEREZ",
		"district": "",
		"postcode": "99390"
	},
	{
		"lon": "-102.5404758",
		"lat": "22.7540776",
		"number": "0",
		"street": "FERNANDO MONTES DE OCA",
		"city": "GUADALUPE",
		"district": "",
		"postcode": "98609"
	},
	{
		"lon": "-102.8621222",
		"lat": "23.1732266",
		"number": "102",
		"street": "DURANGO",
		"city": "FRESNILLO",
		"district": "",
		"postcode": "99000"
	},
	{
		"lon": "-102.8680439",
		"lat": "23.1764357",
		"number": "27",
		"street": "JUAN DE TOLOSA",
		"city": "FRESNILLO",
		"district": "",
		"postcode": "99000"
	},
	{
		"lon": "-102.8712049",
		"lat": "23.17273",
		"number": "134",
		"street": "MORELOS SUR",
		"city": "FRESNILLO",
		"district": "",
		"postcode": "99000"
	},
	{
		"lon": "-102.8751705",
		"lat": "23.1761375",
		"number": "601",
		"street": "REFORMA",
		"city": "FRESNILLO",
		"district": "",
		"postcode": "99000"
	},
	{
		"lon": "-102.571662",
		"lat": "22.774543",
		"number": "301",
		"street": "PRIMERO DE MAYO",
		"city": "ZACATECAS",
		"district": "",
		"postcode": "98000"
	},
	{
		"lon": "-102.5735385",
		"lat": "22.7634173",
		"number": "105",
		"street": "13 DE JUNIO",
		"city": "ZACATECAS",
		"district": "",
		"postcode": "98070"
	},
	{
		"lon": "-102.5915769",
		"lat": "22.772567",
		"number": "302",
		"street": "CAXCANES",
		"city": "ZACATECAS",
		"district": "",
		"postcode": "98056"
	},
	{
		"lon": "-103.6491751",
		"lat": "23.6215344",
		"number": "48",
		"street": "LÁZARO CÁRDENAS",
		"city": "SOMBRERETE",
		"district": "",
		"postcode": "99100"
	},
	{
		"lon": "-102.5874514",
		"lat": "22.7705062",
		"number": "100",
		"street": "ANTONIO R. ORTIZ",
		"city": "ZACATECAS",
		"district": "",
		"postcode": "98049"
	},
	{
		"lon": "-102.8397528",
		"lat": "23.1728328",
		"number": "0",
		"street": "BIÓSFERA",
		"city": "FRESNILLO",
		"district": "",
		"postcode": "99054"
	},
	{
		"lon": "-102.5734805",
		"lat": "22.7632445",
		"number": "601",
		"street": "PROGRESO",
		"city": "ZACATECAS",
		"district": "",
		"postcode": "98070"
	},
	{
		"lon": "-103.04212",
		"lat": "23.8170526",
		"number": "0",
		"street": "RÍO BRAVO",
		"city": "RÍO GRANDE",
		"district": "",
		"postcode": "98400"
	},
	{
		"lon": "-102.5144662",
		"lat": "22.7378695",
		"number": "50",
		"street": "LIBRAMIENTO TRÁNSITO PESADO",
		"city": "GUADALUPE",
		"district": "",
		"postcode": "98605"
	},
	{
		"lon": "-102.8555617",
		"lat": "23.2100018",
		"number": "0",
		"street": "NINGUNO",
		"city": "FRESNILLO",
		"district": "",
		"postcode": "99000"
	},
	{
		"lon": "-102.8653851",
		"lat": "23.1721212",
		"number": "303",
		"street": "ARTEAGA",
		"city": "FRESNILLO",
		"district": "",
		"postcode": "99000"
	},
	{
		"lon": "-103.6247151",
		"lat": "23.6468059",
		"number": "0",
		"street": "NINGUNO",
		"city": "SOMBRERETE",
		"district": "",
		"postcode": "99100"
	},
	{
		"lon": "-102.5235011",
		"lat": "22.7459066",
		"number": "48",
		"street": "SAN JOSÉ DE GRACIA",
		"city": "GUADALUPE",
		"district": "",
		"postcode": "98600"
	},
	{
		"lon": "-102.97986",
		"lat": "21.6387536",
		"number": "907",
		"street": "REVOLUCIÓN NORTE",
		"city": "JALPA",
		"district": "",
		"postcode": "99601"
	},
	{
		"lon": "-103.6346946",
		"lat": "23.6404628",
		"number": "80",
		"street": "NUEVA",
		"city": "SOMBRERETE",
		"district": "",
		"postcode": "99100"
	},
	{
		"lon": "-102.5244443",
		"lat": "22.7555699",
		"number": "5",
		"street": "5 DE MAYO",
		"city": "GUADALUPE",
		"district": "",
		"postcode": "98610"
	},
	{
		"lon": "-102.4183965",
		"lat": "22.7839385",
		"number": "7",
		"street": "DEL DIF",
		"city": "GUADALUPE",
		"district": "",
		"postcode": "98631"
	},
	{
		"lon": "-102.5712023",
		"lat": "22.7593741",
		"number": "108",
		"street": "5",
		"city": "ZACATECAS",
		"district": "",
		"postcode": "98090"
	},
	{
		"lon": "-102.5510515",
		"lat": "22.7614054",
		"number": "23",
		"street": "PASEO FRANCISCO GARCÍA SALINAS",
		"city": "ZACATECAS",
		"district": "",
		"postcode": "98600"
	},
	{
		"lon": "-102.4800396",
		"lat": "22.7596675",
		"number": "150",
		"street": "VILLA DE NUESTRA SEÑORA DE LA ASUNCIÓN",
		"city": "GUADALUPE",
		"district": "",
		"postcode": "98600"
	},
	{
		"lon": "-102.5205838",
		"lat": "22.758649",
		"number": "1",
		"street": "CERRO DE LA VIRGEN",
		"city": "GUADALUPE",
		"district": "",
		"postcode": "98610"
	},
	{
		"lon": "-102.5059234",
		"lat": "22.7586408",
		"number": "38",
		"street": "PEDRO RUÍZ GONZÁLEZ",
		"city": "GUADALUPE",
		"district": "",
		"postcode": "98600"
	},
	{
		"lon": "-102.5236698",
		"lat": "22.7525995",
		"number": "0",
		"street": "HEROICO COLEGIO MILITAR",
		"city": "GUADALUPE",
		"district": "",
		"postcode": "98614"
	},
	{
		"lon": "-102.9924391",
		"lat": "22.6501112",
		"number": "19",
		"street": "ROSALES",
		"city": "JEREZ",
		"district": "",
		"postcode": "99300"
	},
	{
		"lon": "-101.5827668",
		"lat": "22.2870717",
		"number": "0",
		"street": "NINGUNO",
		"city": "PINOS",
		"district": "",
		"postcode": "98920"
	},
	{
		"lon": "-103.6069444",
		"lat": "21.2244444",
		"number": "6",
		"street": "J. RUIZ",
		"city": "TEÚL DE GONZÁLEZ ORTEGA",
		"district": "",
		"postcode": "99814"
	},
	{
		"lon": "-103.0277786",
		"lat": "23.8303579",
		"number": "0",
		"street": "5 DE FEBRERO",
		"city": "RÍO GRANDE",
		"district": "",
		"postcode": "98422"
	},
	{
		"lon": "-102.8697257",
		"lat": "23.1826517",
		"number": "27",
		"street": "HOMBRES ILUSTRES",
		"city": "FRESNILLO",
		"district": "",
		"postcode": "99020"
	},
	{
		"lon": "-102.6883008",
		"lat": "21.3907119",
		"number": "0",
		"street": "PINO SUÁREZ",
		"city": "APULCO",
		"district": "",
		"postcode": "99920"
	},
	{
		"lon": "-102.8659355",
		"lat": "23.1752327",
		"number": "39",
		"street": "NARCISO MENDOZA",
		"city": "FRESNILLO",
		"district": "",
		"postcode": "99000"
	},
	{
		"lon": "-102.9629814",
		"lat": "23.4517169",
		"number": "18",
		"street": "NINGUNO",
		"city": "FRESNILLO",
		"district": "",
		"postcode": "99188"
	},
	{
		"lon": "-102.5877459",
		"lat": "22.7649604",
		"number": "0",
		"street": "CERRO PAPANTÓN",
		"city": "ZACATECAS",
		"district": "",
		"postcode": "98053"
	},
	{
		"lon": "-102.983077",
		"lat": "22.6529303",
		"number": "40",
		"street": "GALEANA",
		"city": "JEREZ",
		"district": "",
		"postcode": "99300"
	},
	{
		"lon": "-102.9778823",
		"lat": "22.6492341",
		"number": "0",
		"street": "GUILLERMO PRIETO",
		"city": "JEREZ",
		"district": "",
		"postcode": "99340"
	},
	{
		"lon": "-102.985213",
		"lat": "22.6553893",
		"number": "11",
		"street": "GUADALUPE",
		"city": "JEREZ",
		"district": "",
		"postcode": "99310"
	},
	{
		"lon": "-102.5889059",
		"lat": "22.7446602",
		"number": "621",
		"street": "SIERRA MADRE",
		"city": "ZACATECAS",
		"district": "",
		"postcode": "98085"
	},
	{
		"lon": "-103.3916143",
		"lat": "24.2941171",
		"number": "83",
		"street": "CENTENARIO SUR",
		"city": "JUAN ALDAMA",
		"district": "",
		"postcode": "98300"
	},
	{
		"lon": "-102.8604387",
		"lat": "23.1919984",
		"number": "713",
		"street": "PLATEROS",
		"city": "FRESNILLO",
		"district": "",
		"postcode": "99059"
	},
	{
		"lon": "-102.862268",
		"lat": "23.1718486",
		"number": "0",
		"street": "OLIVO",
		"city": "FRESNILLO",
		"district": "",
		"postcode": "99000"
	},
	{
		"lon": "-102.8486375",
		"lat": "23.188537",
		"number": "0",
		"street": "DEL SOL",
		"city": "FRESNILLO",
		"district": "",
		"postcode": "99059"
	},
	{
		"lon": "-102.8499035",
		"lat": "23.1720131",
		"number": "620",
		"street": "FRANCISCO VILLA",
		"city": "FRESNILLO",
		"district": "",
		"postcode": "99054"
	},
	{
		"lon": "-102.8782698",
		"lat": "23.1730769",
		"number": "410",
		"street": "ENRIQUE ESTRADA",
		"city": "FRESNILLO",
		"district": "",
		"postcode": "99060"
	},
	{
		"lon": "-102.8861928",
		"lat": "23.171242",
		"number": "34",
		"street": "VID",
		"city": "FRESNILLO",
		"district": "",
		"postcode": "99086"
	},
	{
		"lon": "-102.508961",
		"lat": "22.751868",
		"number": "66",
		"street": "FELIPE ÁNGELES",
		"city": "GUADALUPE",
		"district": "",
		"postcode": "98613"
	},
	{
		"lon": "-102.5270975",
		"lat": "22.7504442",
		"number": "0",
		"street": "EL SALERO",
		"city": "GUADALUPE",
		"district": "",
		"postcode": "98600"
	},
	{
		"lon": "-102.4790371",
		"lat": "22.7609863",
		"number": "85",
		"street": "VILLA DE GUADALUPE",
		"city": "GUADALUPE",
		"district": "",
		"postcode": "98600"
	},
	{
		"lon": "-102.6014303",
		"lat": "22.7512831",
		"number": "106",
		"street": "SEGUNDA DE MATAMOROS",
		"city": "ZACATECAS",
		"district": "",
		"postcode": "98160"
	},
	{
		"lon": "-102.6998766",
		"lat": "22.952678",
		"number": "186",
		"street": "ABASOLO NORTE",
		"city": "CALERA",
		"district": "",
		"postcode": "98500"
	},
	{
		"lon": "-102.4986755",
		"lat": "22.7343152",
		"number": "23",
		"street": "MINA DE LA VALENCIANA",
		"city": "GUADALUPE",
		"district": "",
		"postcode": "98604"
	},
	{
		"lon": "-103.0375256",
		"lat": "23.8179105",
		"number": "0",
		"street": "LOS 7 MARES",
		"city": "RÍO GRANDE",
		"district": "",
		"postcode": "98400"
	},
	{
		"lon": "-102.9640112",
		"lat": "23.4524517",
		"number": "0",
		"street": "20 DE NOVIEMBRE",
		"city": "FRESNILLO",
		"district": "",
		"postcode": "99188"
	},
	{
		"lon": "-102.9965352",
		"lat": "22.6478515",
		"number": "35",
		"street": "ALAMEDA PONIENTE",
		"city": "JEREZ",
		"district": "",
		"postcode": "99300"
	},
	{
		"lon": "-102.6993462",
		"lat": "22.9421582",
		"number": "0",
		"street": "URUGUAY",
		"city": "CALERA",
		"district": "",
		"postcode": "98500"
	},
	{
		"lon": "-102.4985966",
		"lat": "22.7549028",
		"number": "0",
		"street": "DE DERECHO",
		"city": "GUADALUPE",
		"district": "",
		"postcode": "98617"
	},
	{
		"lon": "-102.8565132",
		"lat": "23.1889948",
		"number": "406",
		"street": "EBANOS",
		"city": "FRESNILLO",
		"district": "",
		"postcode": "99059"
	},
	{
		"lon": "-102.9766027",
		"lat": "21.6419915",
		"number": "1136",
		"street": "JUÁREZ",
		"city": "JALPA",
		"district": "",
		"postcode": "99601"
	},
	{
		"lon": "-103.6422522",
		"lat": "23.6376084",
		"number": "51",
		"street": "JESÚS ARECHIGA",
		"city": "SOMBRERETE",
		"district": "",
		"postcode": "99100"
	},
	{
		"lon": "-102.4910526",
		"lat": "22.768229",
		"number": "234",
		"street": "SEGUNDA LOS BARONES",
		"city": "GUADALUPE",
		"district": "",
		"postcode": "98612"
	},
	{
		"lon": "-103.445661",
		"lat": "24.2902999",
		"number": "5",
		"street": "PRIMERA DE CONSTITUCIÓN",
		"city": "MIGUEL AUZA",
		"district": "",
		"postcode": "98330"
	},
	{
		"lon": "-102.5951899",
		"lat": "22.7698879",
		"number": "215",
		"street": "ALEJANDRO VOLTA",
		"city": "ZACATECAS",
		"district": "",
		"postcode": "98057"
	},
	{
		"lon": "-103.5618026",
		"lat": "22.3012429",
		"number": "12",
		"street": "REVERIANO REYES",
		"city": "MONTE ESCOBEDO",
		"district": "",
		"postcode": "99400"
	},
	{
		"lon": "-102.8680263",
		"lat": "23.1866621",
		"number": "5",
		"street": "MARGARITA MAZA DE JUÁREZ",
		"city": "FRESNILLO",
		"district": "",
		"postcode": "99020"
	},
	{
		"lon": "-102.522272",
		"lat": "22.7475562",
		"number": "19",
		"street": "BUENAVISTA",
		"city": "GUADALUPE",
		"district": "",
		"postcode": "98600"
	},
	{
		"lon": "-102.4927078",
		"lat": "22.7556866",
		"number": "135",
		"street": "JORGE NEGRETE",
		"city": "GUADALUPE",
		"district": "",
		"postcode": "98613"
	},
	{
		"lon": "-102.8544364",
		"lat": "23.1725137",
		"number": "318",
		"street": "FRANCISCO VILLA",
		"city": "FRESNILLO",
		"district": "",
		"postcode": "99054"
	},
	{
		"lon": "-102.8577465",
		"lat": "23.183816",
		"number": "312",
		"street": "DE LAS CAMELIAS",
		"city": "FRESNILLO",
		"district": "",
		"postcode": "99050"
	},
	{
		"lon": "-102.5150881",
		"lat": "22.751662",
		"number": "192",
		"street": "TELÉGRAFOS",
		"city": "GUADALUPE",
		"district": "",
		"postcode": "98600"
	},
	{
		"lon": "-102.8824117",
		"lat": "22.3553894",
		"number": "0",
		"street": "GONZÁLEZ ORTEGA",
		"city": "VILLANUEVA",
		"district": "",
		"postcode": "99540"
	},
	{
		"lon": "-102.5138447",
		"lat": "22.7420066",
		"number": "0",
		"street": "SAN ISIDRO",
		"city": "GUADALUPE",
		"district": "",
		"postcode": "98600"
	},
	{
		"lon": "-101.9900473",
		"lat": "22.2727128",
		"number": "306",
		"street": "J. JOAQUÍN FERNÁNDEZ DE LIZARDI",
		"city": "LORETO",
		"district": "",
		"postcode": "98830"
	},
	{
		"lon": "-102.3477513",
		"lat": "23.2933726",
		"number": "4",
		"street": "JOAQUÍN COSÍO",
		"city": "VILLA DE COS",
		"district": "",
		"postcode": "98430"
	},
	{
		"lon": "-102.6156812",
		"lat": "22.8630637",
		"number": "125",
		"street": "DEL VOLCÁN",
		"city": "MORELOS",
		"district": "",
		"postcode": "98100"
	},
	{
		"lon": "-102.8683414",
		"lat": "23.1967074",
		"number": "0",
		"street": "EXPROPIACIÓN",
		"city": "FRESNILLO",
		"district": "",
		"postcode": "99010"
	},
	{
		"lon": "-102.5164761",
		"lat": "22.7439623",
		"number": "0",
		"street": "PLAZUELA SANTA RITA",
		"city": "GUADALUPE",
		"district": "",
		"postcode": "98600"
	},
	{
		"lon": "-102.7096925",
		"lat": "22.952722",
		"number": "106",
		"street": "SAN VICENTE",
		"city": "CALERA",
		"district": "",
		"postcode": "98500"
	},
	{
		"lon": "-103.1454345",
		"lat": "22.4631293",
		"number": "6",
		"street": "ITURBIDE",
		"city": "TEPETONGO",
		"district": "",
		"postcode": "99570"
	},
	{
		"lon": "-103.4620965",
		"lat": "21.4613401",
		"number": "8",
		"street": "MATAMOROS",
		"city": "TEÚL DE GONZÁLEZ ORTEGA",
		"district": "",
		"postcode": "99800"
	},
	{
		"lon": "-102.8731051",
		"lat": "23.1766238",
		"number": "20",
		"street": "TABASCO",
		"city": "FRESNILLO",
		"district": "",
		"postcode": "99000"
	},
	{
		"lon": "-103.4505892",
		"lat": "24.2918556",
		"number": "5",
		"street": "COLOTLÁN",
		"city": "MIGUEL AUZA",
		"district": "",
		"postcode": "98330"
	},
	{
		"lon": "-102.517809",
		"lat": "22.7397139",
		"number": "0",
		"street": "DEL OLVIDO",
		"city": "GUADALUPE",
		"district": "",
		"postcode": "98600"
	},
	{
		"lon": "-103.3023257",
		"lat": "21.7818471",
		"number": "222",
		"street": "MIGUEL HIDALGO",
		"city": "TLALTENANGO DE SÁNCHEZ ROMÁN",
		"district": "",
		"postcode": "99700"
	},
	{
		"lon": "-103.3023175",
		"lat": "21.7814111",
		"number": "234",
		"street": "MORELOS",
		"city": "TLALTENANGO DE SÁNCHEZ ROMÁN",
		"district": "",
		"postcode": "99700"
	},
	{
		"lon": "-102.6077098",
		"lat": "22.8607382",
		"number": "28",
		"street": "SAN ANTONIO",
		"city": "MORELOS",
		"district": "",
		"postcode": "98100"
	},
	{
		"lon": "-102.8852135",
		"lat": "23.1669565",
		"number": "517",
		"street": "IGNACIO ZARAGOZA",
		"city": "FRESNILLO",
		"district": "",
		"postcode": "99080"
	},
	{
		"lon": "-102.5580416",
		"lat": "22.7664048",
		"number": "111",
		"street": "UNIVERSIDAD",
		"city": "ZACATECAS",
		"district": "",
		"postcode": "98066"
	},
	{
		"lon": "-102.4745689",
		"lat": "22.7305401",
		"number": "15",
		"street": "HIDALGO",
		"city": "GUADALUPE",
		"district": "",
		"postcode": "98659"
	},
	{
		"lon": "-102.474712",
		"lat": "22.7299353",
		"number": "13",
		"street": "HIDALGO",
		"city": "GUADALUPE",
		"district": "",
		"postcode": "98659"
	},
	{
		"lon": "-102.987823",
		"lat": "22.6388642",
		"number": "10",
		"street": "JAIME NUNÓ",
		"city": "JEREZ",
		"district": "",
		"postcode": "99390"
	},
	{
		"lon": "-103.3908468",
		"lat": "24.2900987",
		"number": "72",
		"street": "LUIS MOYA",
		"city": "JUAN ALDAMA",
		"district": "",
		"postcode": "98300"
	},
	{
		"lon": "-102.5011698",
		"lat": "22.7591325",
		"number": "46",
		"street": "CONDESA",
		"city": "GUADALUPE",
		"district": "",
		"postcode": "98615"
	},
	{
		"lon": "-102.5085682",
		"lat": "22.7675985",
		"number": "0",
		"street": "SIGLO XXI",
		"city": "GUADALUPE",
		"district": "",
		"postcode": "98615"
	},
	{
		"lon": "-102.2469833",
		"lat": "22.4347994",
		"number": "2",
		"street": "ABEL LÓPEZ",
		"city": "LUIS MOYA",
		"district": "",
		"postcode": "98772"
	},
	{
		"lon": "-102.7895046",
		"lat": "23.1886956",
		"number": "2",
		"street": "JUAN ALDAMA",
		"city": "FRESNILLO",
		"district": "",
		"postcode": "99150"
	},
	{
		"lon": "-102.542184",
		"lat": "22.7648056",
		"number": "208",
		"street": "LA PLATA",
		"city": "GUADALUPE",
		"district": "",
		"postcode": "98064"
	},
	{
		"lon": "-102.9769551",
		"lat": "21.6414375",
		"number": "508",
		"street": "J. MOTA PADILLA",
		"city": "JALPA",
		"district": "",
		"postcode": "99601"
	},
	{
		"lon": "-103.0182612",
		"lat": "23.9988551",
		"number": "7",
		"street": "INDEPENDENCIA",
		"city": "GENERAL FRANCISCO R. MURGUÍA",
		"district": "",
		"postcode": "98350"
	},
	{
		"lon": "-102.5187298",
		"lat": "22.7539121",
		"number": "46",
		"street": "5 DE MAYO",
		"city": "GUADALUPE",
		"district": "",
		"postcode": "98600"
	},
	{
		"lon": "-102.5389225",
		"lat": "22.7563631",
		"number": "358",
		"street": "PASEO GARCÍA SALINAS",
		"city": "GUADALUPE",
		"district": "",
		"postcode": "98608"
	},
	{
		"lon": "-102.8930829",
		"lat": "23.1745301",
		"number": "12",
		"street": "REPÚBLICA DEL SALVADOR",
		"city": "FRESNILLO",
		"district": "",
		"postcode": "99030"
	},
	{
		"lon": "-102.8689362",
		"lat": "23.1782568",
		"number": "16",
		"street": "ESTRELLA",
		"city": "FRESNILLO",
		"district": "",
		"postcode": "99000"
	},
	{
		"lon": "-102.610763",
		"lat": "22.7513778",
		"number": "0",
		"street": "MAGISTERIAL",
		"city": "ZACATECAS",
		"district": "",
		"postcode": "98087"
	},
	{
		"lon": "-102.5668972",
		"lat": "22.951286",
		"number": "20",
		"street": "GUADALUPE VICTORIA",
		"city": "PÁNUCO",
		"district": "",
		"postcode": "98548"
	},
	{
		"lon": "-101.7563484",
		"lat": "22.2545439",
		"number": "4",
		"street": "JAVIER MINA",
		"city": "PINOS",
		"district": "",
		"postcode": "98950"
	},
	{
		"lon": "-103.4046623",
		"lat": "24.2879477",
		"number": "0",
		"street": "CERVANTES CORONA",
		"city": "JUAN ALDAMA",
		"district": "",
		"postcode": "98300"
	},
	{
		"lon": "-102.9751978",
		"lat": "21.6395985",
		"number": "1001",
		"street": "SOR JUANA INÉS DE LA CRUZ",
		"city": "JALPA",
		"district": "",
		"postcode": "99601"
	},
	{
		"lon": "-102.5731058",
		"lat": "22.7533519",
		"number": "129",
		"street": "VIRREYES",
		"city": "ZACATECAS",
		"district": "",
		"postcode": "98099"
	},
	{
		"lon": "-103.0543615",
		"lat": "23.8129553",
		"number": "3",
		"street": "AQUILES SERDÁN",
		"city": "RÍO GRANDE",
		"district": "",
		"postcode": "98409"
	},
	{
		"lon": "-102.5401622",
		"lat": "22.7609602",
		"number": "147",
		"street": "MÉXICO",
		"city": "GUADALUPE",
		"district": "",
		"postcode": "98600"
	},
	{
		"lon": "-103.030916",
		"lat": "23.8352964",
		"number": "60",
		"street": "LIBERTAD",
		"city": "RÍO GRANDE",
		"district": "",
		"postcode": "98420"
	},
	{
		"lon": "-103.3028945",
		"lat": "21.784523",
		"number": "22",
		"street": "MOCTEZUMA",
		"city": "TLALTENANGO DE SÁNCHEZ ROMÁN",
		"district": "",
		"postcode": "99700"
	},
	{
		"lon": "-102.8992426",
		"lat": "23.1694007",
		"number": "418",
		"street": "RÍO PÁNUCO",
		"city": "FRESNILLO",
		"district": "",
		"postcode": "99088"
	},
	{
		"lon": "-102.9902635",
		"lat": "22.6395811",
		"number": "10",
		"street": "JAIME NUNÓ",
		"city": "JEREZ",
		"district": "",
		"postcode": "99380"
	},
	{
		"lon": "-103.0356141",
		"lat": "23.8342692",
		"number": "12",
		"street": "HILARIO ALEMÁN",
		"city": "RÍO GRANDE",
		"district": "",
		"postcode": "98429"
	},
	{
		"lon": "-103.5550225",
		"lat": "21.5032265",
		"number": "0",
		"street": "MORELOS",
		"city": "BENITO JUÁREZ",
		"district": "",
		"postcode": "99780"
	},
	{
		"lon": "-102.9780397",
		"lat": "22.6622786",
		"number": "54",
		"street": "LUIS DONALDO COLOSIO",
		"city": "JEREZ",
		"district": "",
		"postcode": "99340"
	},
	{
		"lon": "-102.9961986",
		"lat": "22.6473398",
		"number": "54",
		"street": "HEROICO COLEGIO MILITAR",
		"city": "JEREZ",
		"district": "",
		"postcode": "99300"
	},
	{
		"lon": "-102.2431019",
		"lat": "22.5775054",
		"number": "1",
		"street": "SEGUNDA DEL PRADO",
		"city": "OJOCALIENTE",
		"district": "",
		"postcode": "98713"
	},
	{
		"lon": "-103.324811",
		"lat": "21.6606219",
		"number": "46",
		"street": "ÁLVARO OBREGÓN",
		"city": "TEPECHITLÁN",
		"district": "",
		"postcode": "99750"
	},
	{
		"lon": "-103.0037792",
		"lat": "22.6461801",
		"number": "0",
		"street": "PEDRO MORENO",
		"city": "JEREZ",
		"district": "",
		"postcode": "99360"
	},
	{
		"lon": "-102.8832302",
		"lat": "23.1773947",
		"number": "108",
		"street": "JALPA",
		"city": "FRESNILLO",
		"district": "",
		"postcode": "99030"
	},
	{
		"lon": "-101.5762629",
		"lat": "22.2973188",
		"number": "7",
		"street": "EMILIO CARRANZA",
		"city": "PINOS",
		"district": "",
		"postcode": "98920"
	},
	{
		"lon": "-102.2502394",
		"lat": "22.438894",
		"number": "0",
		"street": "CASTORENA",
		"city": "LUIS MOYA",
		"district": "",
		"postcode": "98872"
	},
	{
		"lon": "-102.2472115",
		"lat": "22.4329329",
		"number": "8",
		"street": "ABEL LÓPEZ",
		"city": "LUIS MOYA",
		"district": "",
		"postcode": "98772"
	},
	{
		"lon": "-103.1200334",
		"lat": "21.4135826",
		"number": "87",
		"street": "DEL DOCTOR COSS",
		"city": "JUCHIPILA",
		"district": "",
		"postcode": "99960"
	},
	{
		"lon": "-103.0001074",
		"lat": "22.6638538",
		"number": "71",
		"street": "SAN ISIDRO",
		"city": "JEREZ",
		"district": "",
		"postcode": "99323"
	},
	{
		"lon": "-102.5214841",
		"lat": "22.75213",
		"number": "0",
		"street": "SANTA ROSA",
		"city": "GUADALUPE",
		"district": "",
		"postcode": "98612"
	},
	{
		"lon": "-101.9848842",
		"lat": "22.2739892",
		"number": "307",
		"street": "INDEPENDENCIA NORTE",
		"city": "LORETO",
		"district": "",
		"postcode": "98832"
	},
	{
		"lon": "-103.0383863",
		"lat": "23.8228447",
		"number": "0",
		"street": "INDEPENDENCIA",
		"city": "RÍO GRANDE",
		"district": "",
		"postcode": "98400"
	},
	{
		"lon": "-103.392405",
		"lat": "24.2893536",
		"number": "18",
		"street": "MORELOS",
		"city": "JUAN ALDAMA",
		"district": "",
		"postcode": "98300"
	},
	{
		"lon": "-102.615623",
		"lat": "22.8621473",
		"number": "0",
		"street": "PROVIDENCIA",
		"city": "MORELOS",
		"district": "",
		"postcode": "98100"
	},
	{
		"lon": "-103.0205775",
		"lat": "23.9943064",
		"number": "2",
		"street": "CONCEPCIÓN",
		"city": "GENERAL FRANCISCO R. MURGUÍA",
		"district": "",
		"postcode": "98350"
	},
	{
		"lon": "-103.459239",
		"lat": "21.2109154",
		"number": "12",
		"street": "A TEÚL DE GONZÁLEZ ORTEGA",
		"city": "TRINIDAD GARCÍA DE LA CADENA",
		"district": "",
		"postcode": "99830"
	},
	{
		"lon": "-102.8854063",
		"lat": "23.1845334",
		"number": "0",
		"street": "DOCTOR J. JESÚS VARELA RICO",
		"city": "FRESNILLO",
		"district": "",
		"postcode": "99039"
	},
	{
		"lon": "-102.5829903",
		"lat": "22.7746743",
		"number": "218",
		"street": "QUEBRADILLA",
		"city": "ZACATECAS",
		"district": "",
		"postcode": "98045"
	},
	{
		"lon": "-102.7613297",
		"lat": "22.6268596",
		"number": "0",
		"street": "BENITO JUÁREZ",
		"city": "VILLANUEVA",
		"district": "",
		"postcode": "99510"
	},
	{
		"lon": "-102.8793314",
		"lat": "22.3550944",
		"number": "19",
		"street": "DEL ROCÍO",
		"city": "VILLANUEVA",
		"district": "",
		"postcode": "99544"
	},
	{
		"lon": "-102.5388427",
		"lat": "22.7655024",
		"number": "261",
		"street": "LAS ÁGUILAS",
		"city": "GUADALUPE",
		"district": "",
		"postcode": "98619"
	},
	{
		"lon": "-102.5183181",
		"lat": "22.7522962",
		"number": "0",
		"street": "TELÉGRAFOS",
		"city": "GUADALUPE",
		"district": "",
		"postcode": "98600"
	},
	{
		"lon": "-101.9946482",
		"lat": "22.2665908",
		"number": "0",
		"street": "SILVESTRE REVUELTAS",
		"city": "LORETO",
		"district": "",
		"postcode": "98830"
	},
	{
		"lon": "-103.0305746",
		"lat": "23.8323108",
		"number": "12",
		"street": "SALVADOR GÓMEZ MOLINA",
		"city": "RÍO GRANDE",
		"district": "",
		"postcode": "98422"
	},
	{
		"lon": "-103.3993562",
		"lat": "24.2833664",
		"number": "83",
		"street": "CENTENARIO SUR",
		"city": "JUAN ALDAMA",
		"district": "",
		"postcode": "98300"
	},
	{
		"lon": "-102.7418771",
		"lat": "22.9979048",
		"number": "101",
		"street": "FRANCISCO I. MADERO",
		"city": "GENERAL ENRIQUE ESTRADA",
		"district": "",
		"postcode": "98560"
	},
	{
		"lon": "-102.5854087",
		"lat": "22.7761549",
		"number": "208",
		"street": "EXPROPIACIÓN PETROLERA",
		"city": "ZACATECAS",
		"district": "",
		"postcode": "98040"
	},
	{
		"lon": "-103.030572",
		"lat": "23.8285591",
		"number": "0",
		"street": "INSURGENTES",
		"city": "RÍO GRANDE",
		"district": "",
		"postcode": "98400"
	},
	{
		"lon": "-102.9840086",
		"lat": "22.6529617",
		"number": "32",
		"street": "GALEANA",
		"city": "JEREZ",
		"district": "",
		"postcode": "99300"
	},
	{
		"lon": "-102.5969025",
		"lat": "22.7701195",
		"number": "206",
		"street": "SAMUEL MORSE",
		"city": "ZACATECAS",
		"district": "",
		"postcode": "98057"
	},
	{
		"lon": "-102.985853",
		"lat": "22.6530754",
		"number": "24",
		"street": "GALEANA",
		"city": "JEREZ",
		"district": "",
		"postcode": "99300"
	},
	{
		"lon": "-103.0330967",
		"lat": "23.8193968",
		"number": "0",
		"street": "J. SANTOS BAÑUELOS",
		"city": "RÍO GRANDE",
		"district": "",
		"postcode": "98400"
	},
	{
		"lon": "-102.8401856",
		"lat": "21.3587736",
		"number": "2",
		"street": "LOS SAUCES",
		"city": "NOCHISTLÁN DE MEJÍA",
		"district": "",
		"postcode": "99900"
	},
	{
		"lon": "-102.5137163",
		"lat": "22.7420951",
		"number": "0",
		"street": "JACARANDAS",
		"city": "GUADALUPE",
		"district": "",
		"postcode": "98600"
	},
	{
		"lon": "-101.9549312",
		"lat": "22.161806",
		"number": "115",
		"street": "MIGUEL HIDALGO",
		"city": "VILLA GARCÍA",
		"district": "",
		"postcode": "98900"
	},
	{
		"lon": "-102.8601965",
		"lat": "23.1862026",
		"number": "223",
		"street": "DE LAS AZUCENAS",
		"city": "FRESNILLO",
		"district": "",
		"postcode": "99050"
	},
	{
		"lon": "-102.5837426",
		"lat": "22.7613392",
		"number": "112",
		"street": "DE SINALOA",
		"city": "ZACATECAS",
		"district": "",
		"postcode": "98089"
	},
	{
		"lon": "-102.5417031",
		"lat": "22.7650632",
		"number": "213",
		"street": "LA PLATA",
		"city": "GUADALUPE",
		"district": "",
		"postcode": "98064"
	},
	{
		"lon": "-102.4738468",
		"lat": "23.1807968",
		"number": "0",
		"street": "REBOTE",
		"city": "VILLA DE COS",
		"district": "",
		"postcode": "98741"
	},
	{
		"lon": "-102.4104332",
		"lat": "22.8229414",
		"number": "11",
		"street": "FRANCISCO I. MADERO",
		"city": "GUADALUPE",
		"district": "",
		"postcode": "98630"
	},
	{
		"lon": "-102.9079674",
		"lat": "21.8605104",
		"number": "101",
		"street": "CIPRÉS",
		"city": "TABASCO",
		"district": "",
		"postcode": "99631"
	},
	{
		"lon": "-102.8481004",
		"lat": "21.3628256",
		"number": "11",
		"street": "MIGUEL HIDALGO",
		"city": "NOCHISTLÁN DE MEJÍA",
		"district": "",
		"postcode": "99900"
	},
	{
		"lon": "-102.5171509",
		"lat": "22.753198",
		"number": "63",
		"street": "5 DE MAYO",
		"city": "GUADALUPE",
		"district": "",
		"postcode": "98600"
	},
	{
		"lon": "-102.5313934",
		"lat": "22.7501464",
		"number": "102",
		"street": "MENTA",
		"city": "GUADALUPE",
		"district": "",
		"postcode": "98607"
	},
	{
		"lon": "-102.581588",
		"lat": "22.768467",
		"number": "208",
		"street": "20 DE NOVIEMBRE",
		"city": "ZACATECAS",
		"district": "",
		"postcode": "98000"
	},
	{
		"lon": "-103.0231888",
		"lat": "23.8131785",
		"number": "0",
		"street": "EVA SÁMANO DE LÓPEZ MATEOS",
		"city": "RÍO GRANDE",
		"district": "",
		"postcode": "98425"
	},
	{
		"lon": "-103.4577616",
		"lat": "21.4663592",
		"number": "0",
		"street": "JOSÉ MARÍA MERCADO",
		"city": "TEÚL DE GONZÁLEZ ORTEGA",
		"district": "",
		"postcode": "99800"
	},
	{
		"lon": "-102.9092697",
		"lat": "21.8622806",
		"number": "348",
		"street": "MANUEL DOBLADO",
		"city": "TABASCO",
		"district": "",
		"postcode": "99631"
	},
	{
		"lon": "-102.5733563",
		"lat": "22.7714925",
		"number": "255",
		"street": "INDEPENDENCIA",
		"city": "ZACATECAS",
		"district": "",
		"postcode": "98000"
	},
	{
		"lon": "-103.4524896",
		"lat": "24.295566",
		"number": "0",
		"street": "NIÑOS HÉROES",
		"city": "MIGUEL AUZA",
		"district": "",
		"postcode": "98330"
	},
	{
		"lon": "-102.5902683",
		"lat": "22.7585055",
		"number": "301",
		"street": "A. LÓPEZ DE NAVA",
		"city": "ZACATECAS",
		"district": "",
		"postcode": "98087"
	},
	{
		"lon": "-103.0290536",
		"lat": "23.8283983",
		"number": "62",
		"street": "ZARAGOZA",
		"city": "RÍO GRANDE",
		"district": "",
		"postcode": "98400"
	},
	{
		"lon": "-102.8528912",
		"lat": "23.1705038",
		"number": "110",
		"street": "TOMÁS URBINA",
		"city": "FRESNILLO",
		"district": "",
		"postcode": "99054"
	},
	{
		"lon": "-102.5824501",
		"lat": "22.7641705",
		"number": "128",
		"street": "5 SEÑORES",
		"city": "ZACATECAS",
		"district": "",
		"postcode": "98053"
	},
	{
		"lon": "-103.6580852",
		"lat": "23.8642596",
		"number": "493",
		"street": "5 DE MAYO",
		"city": "SOMBRERETE",
		"district": "",
		"postcode": "99110"
	},
	{
		"lon": "-102.8739066",
		"lat": "23.1791564",
		"number": "302",
		"street": "NUEVO LEÓN",
		"city": "FRESNILLO",
		"district": "",
		"postcode": "99000"
	},
	{
		"lon": "-103.3934497",
		"lat": "24.2898069",
		"number": "4",
		"street": "ALLENDE",
		"city": "JUAN ALDAMA",
		"district": "",
		"postcode": "98300"
	},
	{
		"lon": "-103.6433756",
		"lat": "23.6376949",
		"number": "174",
		"street": "IGNACIO ÁLVAREZ",
		"city": "SOMBRERETE",
		"district": "",
		"postcode": "99100"
	},
	{
		"lon": "-102.582422",
		"lat": "22.775487",
		"number": "22",
		"street": "DEL CORTE",
		"city": "ZACATECAS",
		"district": "",
		"postcode": "98045"
	},
	{
		"lon": "-102.9900135",
		"lat": "22.6483089",
		"number": "3",
		"street": "COMERCIO",
		"city": "JEREZ",
		"district": "",
		"postcode": "99300"
	},
	{
		"lon": "-102.8829758",
		"lat": "22.3563487",
		"number": "41",
		"street": "LIBERTAD",
		"city": "VILLANUEVA",
		"district": "",
		"postcode": "99540"
	},
	{
		"lon": "-102.5148051",
		"lat": "22.7515837",
		"number": "0",
		"street": "TELÉGRAFOS",
		"city": "GUADALUPE",
		"district": "",
		"postcode": "98600"
	},
	{
		"lon": "-102.8756304",
		"lat": "23.1860468",
		"number": "117",
		"street": "LABORATORISTAS",
		"city": "FRESNILLO",
		"district": "",
		"postcode": "99020"
	},
	{
		"lon": "-102.5215016",
		"lat": "22.7494265",
		"number": "0",
		"street": "BUENAVISTA",
		"city": "GUADALUPE",
		"district": "",
		"postcode": "98600"
	},
	{
		"lon": "-102.5835815",
		"lat": "22.7742177",
		"number": "349",
		"street": "QUEBRADILLA",
		"city": "ZACATECAS",
		"district": "",
		"postcode": "98040"
	},
	{
		"lon": "-102.9875125",
		"lat": "22.6481322",
		"number": "9",
		"street": "DOLORES",
		"city": "JEREZ",
		"district": "",
		"postcode": "99300"
	},
	{
		"lon": "-102.5842269",
		"lat": "22.7745956",
		"number": "118",
		"street": "PASEO DÍAZ ORDAZ",
		"city": "ZACATECAS",
		"district": "",
		"postcode": "98045"
	},
	{
		"lon": "-102.5069697",
		"lat": "22.7568385",
		"number": "1",
		"street": "CARRETERA A SAUCEDA DE LA BORDA",
		"city": "GUADALUPE",
		"district": "",
		"postcode": "98600"
	},
	{
		"lon": "-102.8598713",
		"lat": "23.1727039",
		"number": "1",
		"street": "ÉBANO",
		"city": "FRESNILLO",
		"district": "",
		"postcode": "99000"
	},
	{
		"lon": "-102.9768136",
		"lat": "21.6343997",
		"number": "447",
		"street": "ITURBIDE",
		"city": "JALPA",
		"district": "",
		"postcode": "99600"
	},
	{
		"lon": "-102.849001",
		"lat": "21.3721239",
		"number": "18",
		"street": "NINGUNO",
		"city": "NOCHISTLÁN DE MEJÍA",
		"district": "",
		"postcode": "99900"
	},
	{
		"lon": "-102.8800994",
		"lat": "22.3443244",
		"number": "0",
		"street": "PASCUAL SANTOYO",
		"city": "VILLANUEVA",
		"district": "",
		"postcode": "99545"
	},
	{
		"lon": "-102.9927358",
		"lat": "22.6541913",
		"number": "68",
		"street": "TRES CRUCES",
		"city": "JEREZ",
		"district": "",
		"postcode": "99300"
	},
	{
		"lon": "-103.0003526",
		"lat": "22.6447354",
		"number": "1",
		"street": "PASEO ALAMEDA",
		"city": "JEREZ",
		"district": "",
		"postcode": "99379"
	},
	{
		"lon": "-103.1194747",
		"lat": "21.4082639",
		"number": "0",
		"street": "TENOCHTITLAN",
		"city": "JUCHIPILA",
		"district": "",
		"postcode": "99960"
	},
	{
		"lon": "-103.5802745",
		"lat": "22.7745315",
		"number": "0",
		"street": "DE LA JUVENTUD",
		"city": "VALPARAÍSO",
		"district": "",
		"postcode": "99250"
	},
	{
		"lon": "-103.5800201",
		"lat": "22.7744095",
		"number": "0",
		"street": "DE LA JUVENTUD",
		"city": "VALPARAÍSO",
		"district": "",
		"postcode": "99250"
	},
	{
		"lon": "-103.5803535",
		"lat": "22.7745693",
		"number": "0",
		"street": "DE LA JUVENTUD",
		"city": "VALPARAÍSO",
		"district": "",
		"postcode": "99250"
	},
	{
		"lon": "-103.58006",
		"lat": "22.7744286",
		"number": "0",
		"street": "DE LA JUVENTUD",
		"city": "VALPARAÍSO",
		"district": "",
		"postcode": "99250"
	},
	{
		"lon": "-103.5800916",
		"lat": "22.7744437",
		"number": "0",
		"street": "DE LA JUVENTUD",
		"city": "VALPARAÍSO",
		"district": "",
		"postcode": "99250"
	},
	{
		"lon": "-102.9059435",
		"lat": "21.86488",
		"number": "215",
		"street": "ABEDUL",
		"city": "TABASCO",
		"district": "",
		"postcode": "99631"
	},
	{
		"lon": "-103.151503",
		"lat": "22.4535341",
		"number": "0",
		"street": "DEL SEGURO",
		"city": "TEPETONGO",
		"district": "",
		"postcode": "99570"
	},
	{
		"lon": "-103.0000623",
		"lat": "22.6336329",
		"number": "0",
		"street": "HACIENDA DE LA NORIA",
		"city": "JEREZ",
		"district": "",
		"postcode": "99380"
	},
	{
		"lon": "-103.0346431",
		"lat": "23.8254534",
		"number": "76",
		"street": "CONSTITUCIÓN",
		"city": "RÍO GRANDE",
		"district": "",
		"postcode": "98400"
	},
	{
		"lon": "-102.3648708",
		"lat": "22.7349758",
		"number": "6",
		"street": "CAMINO REAL",
		"city": "TRANCOSO",
		"district": "",
		"postcode": "98640"
	},
	{
		"lon": "-102.5720616",
		"lat": "22.771517",
		"number": "145",
		"street": "VÍCTOR ROSALES",
		"city": "ZACATECAS",
		"district": "",
		"postcode": "98000"
	},
	{
		"lon": "-101.9547744",
		"lat": "22.161927",
		"number": "120",
		"street": "MIGUEL HIDALGO",
		"city": "VILLA GARCÍA",
		"district": "",
		"postcode": "98900"
	},
	{
		"lon": "-103.2912738",
		"lat": "21.7736745",
		"number": "21",
		"street": "SIERRA MADRE DEL SUR",
		"city": "TLALTENANGO DE SÁNCHEZ ROMÁN",
		"district": "",
		"postcode": "99700"
	},
	{
		"lon": "-103.6473799",
		"lat": "23.6323997",
		"number": "0",
		"street": "1",
		"city": "SOMBRERETE",
		"district": "",
		"postcode": "99100"
	},
	{
		"lon": "-102.6647222",
		"lat": "22.7563889",
		"number": "0",
		"street": "NINGUNO",
		"city": "ZACATECAS",
		"district": "",
		"postcode": ""
	},
	{
		"lon": "-102.5746758",
		"lat": "22.767111",
		"number": "322",
		"street": "INSURGENTES",
		"city": "ZACATECAS",
		"district": "",
		"postcode": "98000"
	},
	{
		"lon": "-102.5206141",
		"lat": "22.7459624",
		"number": "25",
		"street": "BELÉN",
		"city": "GUADALUPE",
		"district": "",
		"postcode": "98600"
	},
	{
		"lon": "-102.9885048",
		"lat": "22.650177",
		"number": "15",
		"street": "DEL REFUGIO",
		"city": "JEREZ",
		"district": "",
		"postcode": "99300"
	},
	{
		"lon": "-102.7493993",
		"lat": "23.0080055",
		"number": "0",
		"street": "PANAMERICANA ENRIQUE ESTRADA FRESNILLO KILÓMETRO 36 + 500",
		"city": "GENERAL ENRIQUE ESTRADA",
		"district": "",
		"postcode": "98560"
	},
	{
		"lon": "-102.8463552",
		"lat": "21.3649188",
		"number": "2",
		"street": "CORONEL JESÚS MEJÍA JÁUREGUI",
		"city": "NOCHISTLÁN DE MEJÍA",
		"district": "",
		"postcode": "99900"
	},
	{
		"lon": "-102.6141508",
		"lat": "22.858996",
		"number": "101",
		"street": "LAS PILAS",
		"city": "MORELOS",
		"district": "",
		"postcode": "98100"
	},
	{
		"lon": "-102.9846348",
		"lat": "22.6518434",
		"number": "61",
		"street": "16 DE SEPTIEMBRE",
		"city": "JEREZ",
		"district": "",
		"postcode": "99300"
	},
	{
		"lon": "-103.0006635",
		"lat": "22.6693953",
		"number": "41",
		"street": "AGUASCALIENTES",
		"city": "JEREZ",
		"district": "",
		"postcode": "99323"
	},
	{
		"lon": "-103.4513655",
		"lat": "24.2879913",
		"number": "29",
		"street": "JUÁREZ",
		"city": "MIGUEL AUZA",
		"district": "",
		"postcode": "98330"
	},
	{
		"lon": "-102.8440756",
		"lat": "23.2268259",
		"number": "3",
		"street": "GUADALUPE VICTORIA",
		"city": "FRESNILLO",
		"district": "",
		"postcode": "99158"
	},
	{
		"lon": "-102.5217",
		"lat": "22.7581936",
		"number": "21",
		"street": "RINCONADA HIGUERA",
		"city": "GUADALUPE",
		"district": "",
		"postcode": "98616"
	},
	{
		"lon": "-102.5483591",
		"lat": "22.7653241",
		"number": "125",
		"street": "4",
		"city": "ZACATECAS",
		"district": "",
		"postcode": "98065"
	},
	{
		"lon": "-102.7055556",
		"lat": "22.9722222",
		"number": "100",
		"street": "ANTONINO FERNÁNDEZ RODRÍGUEZ",
		"city": "CALERA",
		"district": "",
		"postcode": "98500"
	},
	{
		"lon": "-102.7055556",
		"lat": "22.9722222",
		"number": "100",
		"street": "ANTONINO FERNÁNDEZ RODRÍGUEZ",
		"city": "CALERA",
		"district": "",
		"postcode": "98500"
	},
	{
		"lon": "-102.5808133",
		"lat": "22.7749605",
		"number": "128",
		"street": "DE LA CONSTITUCIÓN",
		"city": "ZACATECAS",
		"district": "",
		"postcode": "98040"
	},
	{
		"lon": "-102.8817203",
		"lat": "23.1707441",
		"number": "110",
		"street": "DEL PARQUE SUR",
		"city": "FRESNILLO",
		"district": "",
		"postcode": "99080"
	},
	{
		"lon": "-102.8407949",
		"lat": "21.3608377",
		"number": "86",
		"street": "ESPERANZA QUEZADA RUIZ",
		"city": "NOCHISTLÁN DE MEJÍA",
		"district": "",
		"postcode": "99900"
	},
	{
		"lon": "-102.8414941",
		"lat": "21.3734744",
		"number": "14",
		"street": "CUAUHTÉMOC",
		"city": "NOCHISTLÁN DE MEJÍA",
		"district": "",
		"postcode": "99900"
	},
	{
		"lon": "-102.7020308",
		"lat": "22.9559717",
		"number": "514",
		"street": "PUEBLA",
		"city": "CALERA",
		"district": "",
		"postcode": "98500"
	},
	{
		"lon": "-102.8457939",
		"lat": "21.3685748",
		"number": "10",
		"street": "SANTOS OROPEZA",
		"city": "NOCHISTLÁN DE MEJÍA",
		"district": "",
		"postcode": "99900"
	},
	{
		"lon": "-102.8596797",
		"lat": "23.1761235",
		"number": "40",
		"street": "GONZÁLEZ ECHEVERRÍA",
		"city": "FRESNILLO",
		"district": "",
		"postcode": "99070"
	},
	{
		"lon": "-102.7072508",
		"lat": "22.9585518",
		"number": "0",
		"street": "PANAMÁ",
		"city": "CALERA",
		"district": "",
		"postcode": "98500"
	},
	{
		"lon": "-102.9973141",
		"lat": "22.6386464",
		"number": "19",
		"street": "HACIENDA DE LA NORIA",
		"city": "JEREZ",
		"district": "",
		"postcode": "99390"
	},
	{
		"lon": "-102.8458905",
		"lat": "21.3689299",
		"number": "74",
		"street": "VICTORIA",
		"city": "NOCHISTLÁN DE MEJÍA",
		"district": "",
		"postcode": "99900"
	},
	{
		"lon": "-102.2539959",
		"lat": "22.4296552",
		"number": "14",
		"street": "SAN JUAN BAUTISTA",
		"city": "LUIS MOYA",
		"district": "",
		"postcode": "98772"
	},
	{
		"lon": "-102.3648762",
		"lat": "22.7349616",
		"number": "7",
		"street": "CAMINO REAL",
		"city": "TRANCOSO",
		"district": "",
		"postcode": "98640"
	},
	{
		"lon": "-102.9731576",
		"lat": "21.7733461",
		"number": "0",
		"street": "RUÍZ",
		"city": "HUANUSCO",
		"district": "",
		"postcode": "99671"
	},
	{
		"lon": "-101.9888634",
		"lat": "22.2752384",
		"number": "314",
		"street": "GENERAL EMILIANO ZAPATA",
		"city": "LORETO",
		"district": "",
		"postcode": "98830"
	},
	{
		"lon": "-102.9195649",
		"lat": "21.8650575",
		"number": "6",
		"street": "NOGALES",
		"city": "TABASCO",
		"district": "",
		"postcode": "99630"
	},
	{
		"lon": "-102.409932",
		"lat": "22.8237828",
		"number": "3",
		"street": "BENITO JUÁREZ",
		"city": "GUADALUPE",
		"district": "",
		"postcode": "98630"
	},
	{
		"lon": "-102.84878",
		"lat": "21.3717354",
		"number": "8",
		"street": "DE TORIBIO QUEZADA",
		"city": "NOCHISTLÁN DE MEJÍA",
		"district": "",
		"postcode": "99900"
	},
	{
		"lon": "-102.8632642",
		"lat": "23.1766485",
		"number": "307",
		"street": "NINGUNO",
		"city": "FRESNILLO",
		"district": "",
		"postcode": "99070"
	},
	{
		"lon": "-102.9809846",
		"lat": "21.6361849",
		"number": "817",
		"street": "GUERRERO",
		"city": "JALPA",
		"district": "",
		"postcode": "99601"
	},
	{
		"lon": "-101.5735151",
		"lat": "22.2969172",
		"number": "55",
		"street": "IGNACIO ZARAGOZA",
		"city": "PINOS",
		"district": "",
		"postcode": "98920"
	},
	{
		"lon": "-102.974229",
		"lat": "21.7716757",
		"number": "43",
		"street": "ALLENDE",
		"city": "HUANUSCO",
		"district": "",
		"postcode": "99671"
	},
	{
		"lon": "-102.6083744",
		"lat": "22.8608848",
		"number": "0",
		"street": "SAN ANTONIO",
		"city": "MORELOS",
		"district": "",
		"postcode": "98100"
	},
	{
		"lon": "-101.575409",
		"lat": "22.3017799",
		"number": "10",
		"street": "GONZÁLEZ ORTEGA",
		"city": "PINOS",
		"district": "",
		"postcode": "98920"
	},
	{
		"lon": "-102.4816034",
		"lat": "22.7167324",
		"number": "21",
		"street": "VALLE DE ACATLÁN",
		"city": "GUADALUPE",
		"district": "",
		"postcode": "98658"
	},
	{
		"lon": "-102.873195",
		"lat": "23.174126",
		"number": "434",
		"street": "JUÁREZ",
		"city": "FRESNILLO",
		"district": "",
		"postcode": "99000"
	},
	{
		"lon": "-102.9885999",
		"lat": "22.6472979",
		"number": "105",
		"street": "FRANCISCO VILLA",
		"city": "JEREZ",
		"district": "",
		"postcode": "99300"
	},
	{
		"lon": "-102.2554054",
		"lat": "22.4289052",
		"number": "49",
		"street": "SAN IGNACIO LOYOLA",
		"city": "LUIS MOYA",
		"district": "",
		"postcode": "98772"
	},
	{
		"lon": "-102.87914",
		"lat": "23.1710978",
		"number": "35",
		"street": "NEZAHUALCÓYOTL",
		"city": "FRESNILLO",
		"district": "",
		"postcode": "99080"
	},
	{
		"lon": "-102.4901101",
		"lat": "22.7609125",
		"number": "2",
		"street": "CAMINO REAL",
		"city": "GUADALUPE",
		"district": "",
		"postcode": "98615"
	},
	{
		"lon": "-102.5968787",
		"lat": "22.7616625",
		"number": "0",
		"street": "BEGONIAS",
		"city": "ZACATECAS",
		"district": "",
		"postcode": "98054"
	},
	{
		"lon": "-103.0281884",
		"lat": "23.830859",
		"number": "17",
		"street": "5 DE FEBRERO",
		"city": "RÍO GRANDE",
		"district": "",
		"postcode": "98422"
	},
	{
		"lon": "-102.250952",
		"lat": "22.4335495",
		"number": "33",
		"street": "JOSÉ GONZÁLEZ",
		"city": "LUIS MOYA",
		"district": "",
		"postcode": "98772"
	},
	{
		"lon": "-102.9852324",
		"lat": "22.6490438",
		"number": "34",
		"street": "GARCÍA SALINAS",
		"city": "JEREZ",
		"district": "",
		"postcode": "99300"
	},
	{
		"lon": "-102.2488997",
		"lat": "22.5713576",
		"number": "0",
		"street": "CERVANTES CORONA",
		"city": "OJOCALIENTE",
		"district": "",
		"postcode": "98715"
	},
	{
		"lon": "-103.6326997",
		"lat": "23.6444987",
		"number": "44",
		"street": "JULIA TAPIA",
		"city": "SOMBRERETE",
		"district": "",
		"postcode": "99100"
	},
	{
		"lon": "-103.3141761",
		"lat": "21.92236",
		"number": "0",
		"street": "MORELOS",
		"city": "MOMAX",
		"district": "",
		"postcode": "99720"
	},
	{
		"lon": "-103.5571111",
		"lat": "21.5050426",
		"number": "24",
		"street": "BAJA CALIFORNIA",
		"city": "BENITO JUÁREZ",
		"district": "",
		"postcode": "99780"
	},
	{
		"lon": "-102.8853307",
		"lat": "23.1721225",
		"number": "737",
		"street": "FELIPE CARRILLO PUERTO",
		"city": "FRESNILLO",
		"district": "",
		"postcode": "99090"
	},
	{
		"lon": "-102.5733263",
		"lat": "22.7720454",
		"number": "239",
		"street": "ALDAMA",
		"city": "ZACATECAS",
		"district": "",
		"postcode": "98000"
	},
	{
		"lon": "-102.5204271",
		"lat": "22.7542186",
		"number": "35",
		"street": "5 DE MAYO",
		"city": "GUADALUPE",
		"district": "",
		"postcode": "98600"
	},
	{
		"lon": "-103.0204969",
		"lat": "23.8310358",
		"number": "8",
		"street": "IGNACIO ZARAGOZA",
		"city": "RÍO GRANDE",
		"district": "",
		"postcode": "98422"
	},
	{
		"lon": "-102.8394316",
		"lat": "21.3597814",
		"number": "11",
		"street": "SAN JUAN",
		"city": "NOCHISTLÁN DE MEJÍA",
		"district": "",
		"postcode": "99900"
	},
	{
		"lon": "-102.841552",
		"lat": "21.360958",
		"number": "11",
		"street": "ROBLE",
		"city": "NOCHISTLÁN DE MEJÍA",
		"district": "",
		"postcode": "99900"
	},
	{
		"lon": "-102.8463234",
		"lat": "21.3699385",
		"number": "41",
		"street": "JUAN DE OÑATE",
		"city": "NOCHISTLÁN DE MEJÍA",
		"district": "",
		"postcode": "99900"
	},
	{
		"lon": "-102.8451553",
		"lat": "21.3687092",
		"number": "84",
		"street": "VICENTE GUERRERO",
		"city": "NOCHISTLÁN DE MEJÍA",
		"district": "",
		"postcode": "99900"
	},
	{
		"lon": "-103.3928216",
		"lat": "24.2937284",
		"number": "15",
		"street": "JUAN JOSÉ RÍOS",
		"city": "JUAN ALDAMA",
		"district": "",
		"postcode": "98300"
	},
	{
		"lon": "-102.8499099",
		"lat": "21.3815493",
		"number": "24",
		"street": "PIRUL",
		"city": "NOCHISTLÁN DE MEJÍA",
		"district": "",
		"postcode": "99900"
	},
	{
		"lon": "-102.4960394",
		"lat": "22.7567684",
		"number": "224",
		"street": "CONDESA",
		"city": "GUADALUPE",
		"district": "",
		"postcode": "98617"
	},
	{
		"lon": "-102.8704989",
		"lat": "23.1762089",
		"number": "214",
		"street": "CONSTITUCIÓN",
		"city": "FRESNILLO",
		"district": "",
		"postcode": "99000"
	},
	{
		"lon": "-102.5298155",
		"lat": "22.7571332",
		"number": "25",
		"street": "ARROYO DE CHICOMOSTOC",
		"city": "GUADALUPE",
		"district": "",
		"postcode": "98600"
	},
	{
		"lon": "-102.5342575",
		"lat": "22.7529833",
		"number": "21",
		"street": "ROSAS",
		"city": "GUADALUPE",
		"district": "",
		"postcode": "98608"
	},
	{
		"lon": "-103.5685976",
		"lat": "22.7741308",
		"number": "115",
		"street": "ÁLVARO OBREGÓN",
		"city": "VALPARAÍSO",
		"district": "",
		"postcode": "99252"
	},
	{
		"lon": "-102.7225948",
		"lat": "23.0773873",
		"number": "8",
		"street": "MORELOS",
		"city": "FRESNILLO",
		"district": "",
		"postcode": "99150"
	},
	{
		"lon": "-102.5131012",
		"lat": "22.7516091",
		"number": "56",
		"street": "FRONTERA",
		"city": "GUADALUPE",
		"district": "",
		"postcode": "98613"
	},
	{
		"lon": "-103.6339255",
		"lat": "23.6428226",
		"number": "9",
		"street": "YUCATÁN",
		"city": "SOMBRERETE",
		"district": "",
		"postcode": "99100"
	},
	{
		"lon": "-100.8692432",
		"lat": "24.5260607",
		"number": "0",
		"street": "GONZÁLEZ ORTEGA",
		"city": "EL SALVADOR",
		"district": "",
		"postcode": "98290"
	},
	{
		"lon": "-102.3690965",
		"lat": "22.7346684",
		"number": "0",
		"street": "INSURGENTES",
		"city": "TRANCOSO",
		"district": "",
		"postcode": "98640"
	},
	{
		"lon": "-102.873513",
		"lat": "23.1777538",
		"number": "319",
		"street": "JUSTO SIERRA",
		"city": "FRESNILLO",
		"district": "",
		"postcode": "99000"
	},
	{
		"lon": "-102.9135272",
		"lat": "21.8636599",
		"number": "23",
		"street": "JUÁREZ",
		"city": "TABASCO",
		"district": "",
		"postcode": "99630"
	},
	{
		"lon": "-102.5213045",
		"lat": "22.7535835",
		"number": "36",
		"street": "DEL CONSUELO",
		"city": "GUADALUPE",
		"district": "",
		"postcode": "98602"
	},
	{
		"lon": "-102.5998356",
		"lat": "22.7715316",
		"number": "116",
		"street": "GENERAL JOAQUÍN ARRIETA",
		"city": "ZACATECAS",
		"district": "",
		"postcode": "98057"
	},
	{
		"lon": "-103.0330329",
		"lat": "23.8293402",
		"number": "6",
		"street": "MORELOS",
		"city": "RÍO GRANDE",
		"district": "",
		"postcode": "98400"
	},
	{
		"lon": "-101.995328",
		"lat": "22.2658602",
		"number": "0",
		"street": "PLAN DE AYUTLA",
		"city": "LORETO",
		"district": "",
		"postcode": "98830"
	},
	{
		"lon": "-102.7627937",
		"lat": "22.6211021",
		"number": "0",
		"street": "SANTA ROSA",
		"city": "VILLANUEVA",
		"district": "",
		"postcode": "99510"
	},
	{
		"lon": "-102.8715911",
		"lat": "23.1899235",
		"number": "37",
		"street": "SIERRA DE VALDECAÑAS",
		"city": "FRESNILLO",
		"district": "",
		"postcode": "99011"
	},
	{
		"lon": "-102.6881039",
		"lat": "22.9489833",
		"number": "1",
		"street": "ESTACIÓN",
		"city": "CALERA",
		"district": "",
		"postcode": "98500"
	},
	{
		"lon": "-102.8455546",
		"lat": "21.369093",
		"number": "34",
		"street": "LEOCADIO GONZÁLEZ",
		"city": "NOCHISTLÁN DE MEJÍA",
		"district": "",
		"postcode": "99900"
	},
	{
		"lon": "-102.528294",
		"lat": "22.7562104",
		"number": "26",
		"street": "HACIENDA DE SANTA CRUZ",
		"city": "GUADALUPE",
		"district": "",
		"postcode": "98600"
	},
	{
		"lon": "-102.8455654",
		"lat": "21.370949",
		"number": "25",
		"street": "LIMÓN",
		"city": "NOCHISTLÁN DE MEJÍA",
		"district": "",
		"postcode": "99900"
	},
	{
		"lon": "-102.5244593",
		"lat": "22.7582106",
		"number": "0",
		"street": "HACIENDA DE BERNARDEZ",
		"city": "GUADALUPE",
		"district": "",
		"postcode": "98617"
	},
	{
		"lon": "-103.570226",
		"lat": "22.7717605",
		"number": "106",
		"street": "ABASOLO",
		"city": "VALPARAÍSO",
		"district": "",
		"postcode": "99200"
	},
	{
		"lon": "-103.0331776",
		"lat": "23.827188",
		"number": "13",
		"street": "ALLENDE",
		"city": "RÍO GRANDE",
		"district": "",
		"postcode": "98400"
	},
	{
		"lon": "-102.1102194",
		"lat": "22.664992",
		"number": "8",
		"street": "ALFONSO MEDINA",
		"city": "GENERAL PÁNFILO NATERA",
		"district": "",
		"postcode": "98730"
	},
	{
		"lon": "-102.8796939",
		"lat": "22.3516799",
		"number": "38",
		"street": "PASCUAL SANTOYO",
		"city": "VILLANUEVA",
		"district": "",
		"postcode": "99560"
	},
	{
		"lon": "-102.8978924",
		"lat": "23.1692966",
		"number": "205",
		"street": "RÍO PÁNUCO",
		"city": "FRESNILLO",
		"district": "",
		"postcode": "99088"
	},
	{
		"lon": "-102.5831138",
		"lat": "22.7730787",
		"number": "114",
		"street": "JULIÁN AGUIRRE",
		"city": "ZACATECAS",
		"district": "",
		"postcode": "98040"
	},
	{
		"lon": "-102.7009308",
		"lat": "22.9486172",
		"number": "103",
		"street": "NINGUNO",
		"city": "CALERA",
		"district": "",
		"postcode": "98500"
	},
	{
		"lon": "-102.8721615",
		"lat": "23.1699027",
		"number": "235",
		"street": "GÓMEZ FARÍAS",
		"city": "FRESNILLO",
		"district": "",
		"postcode": "99000"
	},
	{
		"lon": "-102.405118",
		"lat": "22.8219348",
		"number": "0",
		"street": "ZACATECAS",
		"city": "GUADALUPE",
		"district": "",
		"postcode": "98630"
	},
	{
		"lon": "-102.8391706",
		"lat": "23.1691364",
		"number": "0",
		"street": "JOSÉ VASCONCELOS",
		"city": "FRESNILLO",
		"district": "",
		"postcode": "99094"
	},
	{
		"lon": "-102.8723697",
		"lat": "23.181545",
		"number": "298",
		"street": "ZACATECAS",
		"city": "FRESNILLO",
		"district": "",
		"postcode": "99020"
	},
	{
		"lon": "-102.8766304",
		"lat": "23.1782777",
		"number": "117",
		"street": "SEGUNDA DE SONORA",
		"city": "FRESNILLO",
		"district": "",
		"postcode": "99030"
	},
	{
		"lon": "-102.5175483",
		"lat": "22.737065",
		"number": "11",
		"street": "FRAY MARGIL DE JESÚS",
		"city": "GUADALUPE",
		"district": "",
		"postcode": "98605"
	},
	{
		"lon": "-103.5665867",
		"lat": "22.7714533",
		"number": "0",
		"street": "AMADO NERVO",
		"city": "VALPARAÍSO",
		"district": "",
		"postcode": "99200"
	},
	{
		"lon": "-102.9897268",
		"lat": "22.6490893",
		"number": "22",
		"street": "BENITO JUÁREZ",
		"city": "JEREZ",
		"district": "",
		"postcode": "99300"
	},
	{
		"lon": "-103.3023206",
		"lat": "21.7841185",
		"number": "4",
		"street": "SÁNCHEZ ROMÁN",
		"city": "TLALTENANGO DE SÁNCHEZ ROMÁN",
		"district": "",
		"postcode": "99700"
	},
	{
		"lon": "-102.7003988",
		"lat": "22.9494697",
		"number": "0",
		"street": "NINGUNO",
		"city": "CALERA",
		"district": "",
		"postcode": "98500"
	},
	{
		"lon": "-102.9126177",
		"lat": "21.8647183",
		"number": "34",
		"street": "GÓMEZ FARÍAS",
		"city": "TABASCO",
		"district": "",
		"postcode": "99631"
	},
	{
		"lon": "-103.4286111",
		"lat": "24.0991667",
		"number": "0",
		"street": "NINGUNO",
		"city": "MIGUEL AUZA",
		"district": "",
		"postcode": "98330"
	},
	{
		"lon": "-102.5757653",
		"lat": "22.7562313",
		"number": "5",
		"street": "LAGO LA ENCANTADA",
		"city": "ZACATECAS",
		"district": "",
		"postcode": "98091"
	},
	{
		"lon": "-103.1071167",
		"lat": "23.3383999",
		"number": "1",
		"street": "PABLO RAMOS ZAMORA",
		"city": "FRESNILLO",
		"district": "",
		"postcode": "99170"
	},
	{
		"lon": "-103.1092461",
		"lat": "23.3177811",
		"number": "0",
		"street": "A PLENITUD",
		"city": "FRESNILLO",
		"district": "",
		"postcode": "99170"
	},
	{
		"lon": "-103.01067",
		"lat": "23.280895",
		"number": "0",
		"street": "PEATONAL",
		"city": "FRESNILLO",
		"district": "",
		"postcode": "99189"
	},
	{
		"lon": "-101.978052",
		"lat": "22.2773464",
		"number": "0",
		"street": "NINGUNO",
		"city": "LORETO",
		"district": "",
		"postcode": "98832"
	},
	{
		"lon": "-102.895308",
		"lat": "23.206785",
		"number": "0",
		"street": "PANAMERICANA",
		"city": "FRESNILLO",
		"district": "",
		"postcode": "99150"
	},
	{
		"lon": "-103.3230556",
		"lat": "23.3266667",
		"number": "1762",
		"street": "NINGUNO",
		"city": "FRESNILLO",
		"district": "",
		"postcode": "99000"
	},
	{
		"lon": "-103.1558333",
		"lat": "23.1447222",
		"number": "0",
		"street": "NINGUNO",
		"city": "FRESNILLO",
		"district": "",
		"postcode": "99000"
	},
	{
		"lon": "-102.2824697",
		"lat": "23.0878118",
		"number": "15",
		"street": "NINGUNO",
		"city": "VILLA DE COS",
		"district": "",
		"postcode": "98471"
	},
	{
		"lon": "-102.6922022",
		"lat": "22.9373837",
		"number": "0",
		"street": "5 DE MAYO SUR",
		"city": "CALERA",
		"district": "",
		"postcode": "98500"
	},
	{
		"lon": "-102.9612187",
		"lat": "23.4472607",
		"number": "0",
		"street": "NINGUNO",
		"city": "FRESNILLO",
		"district": "",
		"postcode": "99188"
	},
	{
		"lon": "-102.9589369",
		"lat": "23.4397019",
		"number": "0",
		"street": "NINGUNO",
		"city": "FRESNILLO",
		"district": "",
		"postcode": "99188"
	},
	{
		"lon": "-102.865059",
		"lat": "23.1693499",
		"number": "8",
		"street": "PRIMERA DE NARCISO MENDOZA",
		"city": "FRESNILLO",
		"district": "",
		"postcode": "99090"
	},
	{
		"lon": "-102.4665183",
		"lat": "23.1762021",
		"number": "0",
		"street": "LUIS DONALDO COLOSIO",
		"city": "VILLA DE COS",
		"district": "",
		"postcode": "98471"
	},
	{
		"lon": "-102.8368024",
		"lat": "23.1732882",
		"number": "1023",
		"street": "SAN JOSÉ",
		"city": "FRESNILLO",
		"district": "",
		"postcode": "99094"
	},
	{
		"lon": "-103.6069444",
		"lat": "21.2244444",
		"number": "5",
		"street": "J. RUIZ",
		"city": "TEÚL DE GONZÁLEZ ORTEGA",
		"district": "",
		"postcode": "99829"
	},
	{
		"lon": "-102.9890424",
		"lat": "22.6476291",
		"number": "12",
		"street": "ANGOSTO",
		"city": "JEREZ",
		"district": "",
		"postcode": "99300"
	},
	{
		"lon": "-102.9124271",
		"lat": "21.8653478",
		"number": "0",
		"street": "SANTOS DEGOLLADO",
		"city": "TABASCO",
		"district": "",
		"postcode": "99631"
	},
	{
		"lon": "-102.9785963",
		"lat": "21.6367047",
		"number": "634",
		"street": "OCAMPO",
		"city": "JALPA",
		"district": "",
		"postcode": "99601"
	},
	{
		"lon": "-102.8716355",
		"lat": "23.1734756",
		"number": "22",
		"street": "FRANCISCO SARABIA",
		"city": "FRESNILLO",
		"district": "",
		"postcode": "99000"
	},
	{
		"lon": "-102.8713726",
		"lat": "23.1714467",
		"number": "310",
		"street": "MORELOS SUR",
		"city": "FRESNILLO",
		"district": "",
		"postcode": "99000"
	},
	{
		"lon": "-103.1187314",
		"lat": "21.411112",
		"number": "24",
		"street": "ZARAGOZA",
		"city": "JUCHIPILA",
		"district": "",
		"postcode": "99960"
	},
	{
		"lon": "-101.9853237",
		"lat": "22.2662989",
		"number": "500",
		"street": "ZACATECAS",
		"city": "LORETO",
		"district": "",
		"postcode": "98800"
	},
	{
		"lon": "-102.4929347",
		"lat": "22.7562499",
		"number": "27",
		"street": "CRUZ LIZÁRRAGA",
		"city": "GUADALUPE",
		"district": "",
		"postcode": "98615"
	},
	{
		"lon": "-102.5748147",
		"lat": "22.7721206",
		"number": "0",
		"street": "JUÁREZ",
		"city": "ZACATECAS",
		"district": "",
		"postcode": "98000"
	},
	{
		"lon": "-102.9850754",
		"lat": "22.6568591",
		"number": "38",
		"street": "DEL ROSARIO",
		"city": "JEREZ",
		"district": "",
		"postcode": "99310"
	},
	{
		"lon": "-102.6819453",
		"lat": "21.388104",
		"number": "6",
		"street": "MINERO ROQUE",
		"city": "APULCO",
		"district": "",
		"postcode": "99920"
	},
	{
		"lon": "-102.8479335",
		"lat": "21.3684544",
		"number": "33",
		"street": "RAMÓN LÓPEZ VELARDE",
		"city": "NOCHISTLÁN DE MEJÍA",
		"district": "",
		"postcode": "99900"
	},
	{
		"lon": "-102.5768903",
		"lat": "22.7680524",
		"number": "0",
		"street": "GONZÁLEZ ORTEGA",
		"city": "ZACATECAS",
		"district": "",
		"postcode": "98000"
	},
	{
		"lon": "-103.0143521",
		"lat": "23.2733096",
		"number": "13",
		"street": "GONZÁLEZ ORTEGA SUR",
		"city": "FRESNILLO",
		"district": "",
		"postcode": "99189"
	},
	{
		"lon": "-102.9960979",
		"lat": "22.6515319",
		"number": "21",
		"street": "ALAMEDA PONIENTE",
		"city": "JEREZ",
		"district": "",
		"postcode": "99300"
	},
	{
		"lon": "-102.5182669",
		"lat": "22.7455892",
		"number": "6",
		"street": "NINGUNO",
		"city": "GUADALUPE",
		"district": "",
		"postcode": "98600"
	},
	{
		"lon": "-102.5719258",
		"lat": "22.7774798",
		"number": "759",
		"street": "HIDALGO",
		"city": "ZACATECAS",
		"district": "",
		"postcode": "98000"
	},
	{
		"lon": "-102.8716544",
		"lat": "23.1898438",
		"number": "34",
		"street": "SIERRA DE VALDECAÑAS",
		"city": "FRESNILLO",
		"district": "",
		"postcode": "99011"
	},
	{
		"lon": "-102.9839855",
		"lat": "22.6455663",
		"number": "109",
		"street": "ALLENDE",
		"city": "JEREZ",
		"district": "",
		"postcode": "99300"
	},
	{
		"lon": "-102.7251169",
		"lat": "23.6058212",
		"number": "9",
		"street": "16 DE SEPTIEMBRE",
		"city": "CAÑITAS DE FELIPE PESCADOR",
		"district": "",
		"postcode": "98480"
	},
	{
		"lon": "-102.981812",
		"lat": "21.6479189",
		"number": "7",
		"street": "GARDENIA",
		"city": "JALPA",
		"district": "",
		"postcode": "99601"
	},
	{
		"lon": "-103.307142",
		"lat": "21.7745212",
		"number": "55",
		"street": "AMADO NERVO",
		"city": "TLALTENANGO DE SÁNCHEZ ROMÁN",
		"district": "",
		"postcode": "99700"
	},
	{
		"lon": "-102.5850659",
		"lat": "22.7784135",
		"number": "301",
		"street": "2 DE MAYO",
		"city": "ZACATECAS",
		"district": "",
		"postcode": "98040"
	},
	{
		"lon": "-103.5685092",
		"lat": "22.7732889",
		"number": "122",
		"street": "INDEPENDENCIA",
		"city": "VALPARAÍSO",
		"district": "",
		"postcode": "99200"
	},
	{
		"lon": "-103.5610177",
		"lat": "22.3014823",
		"number": "11",
		"street": "CELSO RUIZ CORTEZ",
		"city": "MONTE ESCOBEDO",
		"district": "",
		"postcode": "99400"
	},
	{
		"lon": "-103.0311351",
		"lat": "23.8285414",
		"number": "60",
		"street": "HIDALGO",
		"city": "RÍO GRANDE",
		"district": "",
		"postcode": "98400"
	},
	{
		"lon": "-103.0293577",
		"lat": "23.8299082",
		"number": "7",
		"street": "ABASOLO",
		"city": "RÍO GRANDE",
		"district": "",
		"postcode": "98420"
	},
	{
		"lon": "-102.7236197",
		"lat": "23.6068365",
		"number": "21",
		"street": "LUIS MOYA",
		"city": "CAÑITAS DE FELIPE PESCADOR",
		"district": "",
		"postcode": "98480"
	},
	{
		"lon": "-101.9880382",
		"lat": "22.2676502",
		"number": "606",
		"street": "INDEPENDENCIA NORTE",
		"city": "LORETO",
		"district": "",
		"postcode": "98800"
	},
	{
		"lon": "-102.844642",
		"lat": "21.3540829",
		"number": "8",
		"street": "GABRIELA MISTRAL",
		"city": "NOCHISTLÁN DE MEJÍA",
		"district": "",
		"postcode": "99900"
	},
	{
		"lon": "-102.8859935",
		"lat": "22.3541288",
		"number": "0",
		"street": "LOMAS DEL DIEZMO",
		"city": "VILLANUEVA",
		"district": "",
		"postcode": "99547"
	},
	{
		"lon": "-102.9885858",
		"lat": "22.6486192",
		"number": "1",
		"street": "DE LOS LIBRES",
		"city": "JEREZ",
		"district": "",
		"postcode": "99300"
	},
	{
		"lon": "-103.0018962",
		"lat": "22.663156",
		"number": "8",
		"street": "VALLE DEL RÍO",
		"city": "JEREZ",
		"district": "",
		"postcode": "99323"
	},
	{
		"lon": "-102.503613",
		"lat": "22.7616482",
		"number": "6",
		"street": "LAS ÁGUILAS",
		"city": "GUADALUPE",
		"district": "",
		"postcode": "98615"
	},
	{
		"lon": "-102.5741414",
		"lat": "22.7603114",
		"number": "302",
		"street": "17 DE OCTUBRE",
		"city": "ZACATECAS",
		"district": "",
		"postcode": "98090"
	},
	{
		"lon": "-102.9721578",
		"lat": "21.7798966",
		"number": "23",
		"street": "SAN FELIPE",
		"city": "HUANUSCO",
		"district": "",
		"postcode": "99671"
	},
	{
		"lon": "-102.9883663",
		"lat": "22.6475361",
		"number": "7",
		"street": "FRANCISCO VILLA",
		"city": "JEREZ",
		"district": "",
		"postcode": "99300"
	},
	{
		"lon": "-102.3666023",
		"lat": "22.7348854",
		"number": "0",
		"street": "GENERAL BARRAGÁN",
		"city": "TRANCOSO",
		"district": "",
		"postcode": "98640"
	},
	{
		"lon": "-103.0214781",
		"lat": "23.8123863",
		"number": "0",
		"street": "LÓPEZ MATEOS",
		"city": "RÍO GRANDE",
		"district": "",
		"postcode": "98400"
	},
	{
		"lon": "-103.2444997",
		"lat": "23.5795827",
		"number": "47",
		"street": "JUÁREZ",
		"city": "SAIN ALTO",
		"district": "",
		"postcode": "99130"
	},
	{
		"lon": "-103.0416291",
		"lat": "23.8288099",
		"number": "71",
		"street": "DE LOS MAESTROS",
		"city": "RÍO GRANDE",
		"district": "",
		"postcode": "98400"
	},
	{
		"lon": "-103.4027301",
		"lat": "24.2837617",
		"number": "0",
		"street": "PEDRO RUÍZ GONZÁLEZ",
		"city": "JUAN ALDAMA",
		"district": "",
		"postcode": "98300"
	},
	{
		"lon": "-102.8665663",
		"lat": "23.1741898",
		"number": "13",
		"street": "HEROICO COLEGIO MILITAR",
		"city": "FRESNILLO",
		"district": "",
		"postcode": "99000"
	},
	{
		"lon": "-103.0995077",
		"lat": "22.6107702",
		"number": "0",
		"street": "BENITO JUÁREZ",
		"city": "SUSTICACÁN",
		"district": "",
		"postcode": "99480"
	},
	{
		"lon": "-101.4194538",
		"lat": "24.609588",
		"number": "31",
		"street": "MOCTEZUMA",
		"city": "CONCEPCIÓN DEL ORO",
		"district": "",
		"postcode": "98200"
	},
	{
		"lon": "-102.4957098",
		"lat": "22.7113515",
		"number": "3",
		"street": "DE LA PILA",
		"city": "GUADALUPE",
		"district": "",
		"postcode": "98658"
	},
	{
		"lon": "-102.5012276",
		"lat": "22.7561306",
		"number": "88",
		"street": "CAMINO REAL",
		"city": "GUADALUPE",
		"district": "",
		"postcode": "98617"
	},
	{
		"lon": "-102.5386718",
		"lat": "22.7663791",
		"number": "52",
		"street": "FLAMINGO",
		"city": "GUADALUPE",
		"district": "",
		"postcode": "98610"
	},
	{
		"lon": "-102.1114369",
		"lat": "22.6639464",
		"number": "103",
		"street": "GARCÍA SALINAS",
		"city": "GENERAL PÁNFILO NATERA",
		"district": "",
		"postcode": "98730"
	},
	{
		"lon": "-102.993753",
		"lat": "22.6362117",
		"number": "1",
		"street": "PÍPILA",
		"city": "JEREZ",
		"district": "",
		"postcode": "99390"
	},
	{
		"lon": "-102.585986",
		"lat": "22.7642358",
		"number": "213",
		"street": "LÁZARO CÁRDENAS",
		"city": "ZACATECAS",
		"district": "",
		"postcode": "98080"
	},
	{
		"lon": "-102.8479782",
		"lat": "21.3714983",
		"number": "9",
		"street": "FELIPE ÁNGELES",
		"city": "NOCHISTLÁN DE MEJÍA",
		"district": "",
		"postcode": "99900"
	},
	{
		"lon": "-103.6430283",
		"lat": "23.628607",
		"number": "225",
		"street": "PLAZUELA DE DONCELES",
		"city": "SOMBRERETE",
		"district": "",
		"postcode": "99100"
	},
	{
		"lon": "-101.9542463",
		"lat": "22.2762447",
		"number": "0",
		"street": "NINGUNO",
		"city": "LORETO",
		"district": "",
		"postcode": "98820"
	},
	{
		"lon": "-102.347129",
		"lat": "22.4485054",
		"number": "4",
		"street": "CUITLÁHUAC",
		"city": "CUAUHTÉMOC",
		"district": "",
		"postcode": "98680"
	},
	{
		"lon": "-102.924272",
		"lat": "21.8636311",
		"number": "35",
		"street": "LAS FLORES",
		"city": "TABASCO",
		"district": "",
		"postcode": "99630"
	},
	{
		"lon": "-101.9535216",
		"lat": "22.1602614",
		"number": "201",
		"street": "JUÁREZ",
		"city": "VILLA GARCÍA",
		"district": "",
		"postcode": "98900"
	},
	{
		"lon": "-102.4951388",
		"lat": "22.7126657",
		"number": "27",
		"street": "BUENAVISTA",
		"city": "GUADALUPE",
		"district": "",
		"postcode": "98658"
	},
	{
		"lon": "-102.9844912",
		"lat": "22.6551889",
		"number": "16",
		"street": "GUADALUPE",
		"city": "JEREZ",
		"district": "",
		"postcode": "99310"
	},
	{
		"lon": "-103.3044372",
		"lat": "21.7815396",
		"number": "49",
		"street": "BENITO JUÁREZ",
		"city": "TLALTENANGO DE SÁNCHEZ ROMÁN",
		"district": "",
		"postcode": "99700"
	},
	{
		"lon": "-102.6072769",
		"lat": "22.7546864",
		"number": "303",
		"street": "COZTIC TEOCUITLATL (ORO)",
		"city": "ZACATECAS",
		"district": "",
		"postcode": "98087"
	},
	{
		"lon": "-102.5907359",
		"lat": "22.7748424",
		"number": "209",
		"street": "DIANA LAURA RIOJAS DE COLOSIO",
		"city": "ZACATECAS",
		"district": "",
		"postcode": "98046"
	},
	{
		"lon": "-102.5008451",
		"lat": "22.7218915",
		"number": "69",
		"street": "LUCITANO",
		"city": "GUADALUPE",
		"district": "",
		"postcode": "98658"
	},
	{
		"lon": "-102.5029938",
		"lat": "22.830255",
		"number": "11",
		"street": "AGUASCALIENTES",
		"city": "VETAGRANDE",
		"district": "",
		"postcode": "98140"
	},
	{
		"lon": "-102.9851121",
		"lat": "22.6465115",
		"number": "9",
		"street": "GUADALUPE VICTORIA",
		"city": "JEREZ",
		"district": "",
		"postcode": "99300"
	},
	{
		"lon": "-103.451608",
		"lat": "24.2924461",
		"number": "29",
		"street": "5 DE FEBRERO",
		"city": "MIGUEL AUZA",
		"district": "",
		"postcode": "98330"
	},
	{
		"lon": "-103.6362455",
		"lat": "23.6321384",
		"number": "134",
		"street": "NINGUNO",
		"city": "SOMBRERETE",
		"district": "",
		"postcode": "99100"
	},
	{
		"lon": "-103.1536838",
		"lat": "22.4519547",
		"number": "156",
		"street": "ITURBIDE",
		"city": "TEPETONGO",
		"district": "",
		"postcode": "99570"
	},
	{
		"lon": "-102.8867043",
		"lat": "22.3599844",
		"number": "149",
		"street": "VENUSTIANO CARRANZA",
		"city": "VILLANUEVA",
		"district": "",
		"postcode": "99547"
	},
	{
		"lon": "-102.5203499",
		"lat": "22.7339037",
		"number": "12",
		"street": "JUAN JOSÉ ARREOLA",
		"city": "GUADALUPE",
		"district": "",
		"postcode": "98605"
	},
	{
		"lon": "-103.6343845",
		"lat": "23.6341908",
		"number": "9",
		"street": "ALLENDE",
		"city": "SOMBRERETE",
		"district": "",
		"postcode": "99100"
	},
	{
		"lon": "-102.5453013",
		"lat": "22.7645917",
		"number": "39",
		"street": "DIBUJANTES",
		"city": "ZACATECAS",
		"district": "",
		"postcode": "98064"
	},
	{
		"lon": "-103.312382",
		"lat": "21.7835768",
		"number": "265",
		"street": "FRANCISCO I. MADERO",
		"city": "TLALTENANGO DE SÁNCHEZ ROMÁN",
		"district": "",
		"postcode": "99700"
	},
	{
		"lon": "-102.5164334",
		"lat": "22.7507654",
		"number": "5",
		"street": "DE LAS FLORES",
		"city": "GUADALUPE",
		"district": "",
		"postcode": "98600"
	},
	{
		"lon": "-102.843783",
		"lat": "23.2250958",
		"number": "46",
		"street": "HOMBRES ILUSTRES",
		"city": "FRESNILLO",
		"district": "",
		"postcode": "99128"
	},
	{
		"lon": "-102.8816043",
		"lat": "23.1974256",
		"number": "12",
		"street": "REVOLUCIÓN",
		"city": "FRESNILLO",
		"district": "",
		"postcode": "99014"
	},
	{
		"lon": "-102.844842",
		"lat": "21.372646",
		"number": "5",
		"street": "ELIZABETH DEL REAL",
		"city": "NOCHISTLÁN DE MEJÍA",
		"district": "",
		"postcode": "99900"
	},
	{
		"lon": "-103.2991245",
		"lat": "21.7841522",
		"number": "11",
		"street": "LÓPEZ MATEOS",
		"city": "TLALTENANGO DE SÁNCHEZ ROMÁN",
		"district": "",
		"postcode": "99700"
	},
	{
		"lon": "-103.4591671",
		"lat": "24.2983151",
		"number": "54",
		"street": "VICTORIA",
		"city": "MIGUEL AUZA",
		"district": "",
		"postcode": "98330"
	},
	{
		"lon": "-102.0982656",
		"lat": "22.7366558",
		"number": "0",
		"street": "ZACATECAS",
		"city": "GENERAL PÁNFILO NATERA",
		"district": "",
		"postcode": "98740"
	},
	{
		"lon": "-103.4512857",
		"lat": "24.2926334",
		"number": "28",
		"street": "5 DE FEBRERO",
		"city": "MIGUEL AUZA",
		"district": "",
		"postcode": "98330"
	},
	{
		"lon": "-102.477646",
		"lat": "23.1826288",
		"number": "270",
		"street": "EMILIANO ZAPATA",
		"city": "VILLA DE COS",
		"district": "",
		"postcode": "98741"
	},
	{
		"lon": "-102.6036242",
		"lat": "22.7700574",
		"number": "306",
		"street": "BOLIVIA",
		"city": "ZACATECAS",
		"district": "",
		"postcode": "98057"
	},
	{
		"lon": "-102.826792",
		"lat": "21.3589764",
		"number": "3",
		"street": "AGUSTÍN NAÑEZ",
		"city": "NOCHISTLÁN DE MEJÍA",
		"district": "",
		"postcode": "99900"
	},
	{
		"lon": "-102.8400792",
		"lat": "21.3601378",
		"number": "18",
		"street": "SAN PABLO",
		"city": "NOCHISTLÁN DE MEJÍA",
		"district": "",
		"postcode": "99900"
	},
	{
		"lon": "-103.5723037",
		"lat": "22.7747725",
		"number": "0",
		"street": "DEL DURAZNO",
		"city": "VALPARAÍSO",
		"district": "",
		"postcode": "99200"
	},
	{
		"lon": "-103.5785437",
		"lat": "22.7662514",
		"number": "0",
		"street": "RÍO YAQUI",
		"city": "VALPARAÍSO",
		"district": "",
		"postcode": "99200"
	},
	{
		"lon": "-103.5710962",
		"lat": "22.7702253",
		"number": "126",
		"street": "SANTOS DEGOLLADO",
		"city": "VALPARAÍSO",
		"district": "",
		"postcode": "99200"
	},
	{
		"lon": "-102.8409937",
		"lat": "21.3747828",
		"number": "40",
		"street": "LIBRADO RUIZ",
		"city": "NOCHISTLÁN DE MEJÍA",
		"district": "",
		"postcode": "99900"
	},
	{
		"lon": "-102.3459663",
		"lat": "22.44944",
		"number": "31",
		"street": "LIBERTAD",
		"city": "CUAUHTÉMOC",
		"district": "",
		"postcode": "98680"
	},
	{
		"lon": "-102.5884743",
		"lat": "22.7711504",
		"number": "207",
		"street": "VENUS",
		"city": "ZACATECAS",
		"district": "",
		"postcode": "98049"
	},
	{
		"lon": "-102.982991",
		"lat": "22.6446538",
		"number": "14",
		"street": "DEL RÍO",
		"city": "JEREZ",
		"district": "",
		"postcode": "99300"
	},
	{
		"lon": "-103.5720392",
		"lat": "22.7668083",
		"number": "159",
		"street": "20 DE NOVIEMBRE",
		"city": "VALPARAÍSO",
		"district": "",
		"postcode": "99200"
	},
	{
		"lon": "-103.5659725",
		"lat": "22.3048813",
		"number": "13",
		"street": "PINO SUÁREZ",
		"city": "MONTE ESCOBEDO",
		"district": "",
		"postcode": "99400"
	},
	{
		"lon": "-103.6604334",
		"lat": "23.859355",
		"number": "90",
		"street": "EMILIANO ZAPATA",
		"city": "SOMBRERETE",
		"district": "",
		"postcode": "99100"
	},
	{
		"lon": "-103.1515162",
		"lat": "22.4546019",
		"number": "0",
		"street": "EMILIANO ZAPATA",
		"city": "TEPETONGO",
		"district": "",
		"postcode": "99570"
	},
	{
		"lon": "-103.310041",
		"lat": "21.7832364",
		"number": "3",
		"street": "CRISTÓBAL COLÓN",
		"city": "TLALTENANGO DE SÁNCHEZ ROMÁN",
		"district": "",
		"postcode": "99700"
	},
	{
		"lon": "-102.345506",
		"lat": "23.2943391",
		"number": "62",
		"street": "HIDALGO",
		"city": "VILLA DE COS",
		"district": "",
		"postcode": "98470"
	},
	{
		"lon": "-103.6334069",
		"lat": "23.6361093",
		"number": "0",
		"street": "HIDALGO",
		"city": "SOMBRERETE",
		"district": "",
		"postcode": "99100"
	},
	{
		"lon": "-101.7616317",
		"lat": "22.2476819",
		"number": "44",
		"street": "NINGUNO",
		"city": "PINOS",
		"district": "",
		"postcode": "98959"
	},
	{
		"lon": "-102.8284017",
		"lat": "21.356925",
		"number": "2",
		"street": "JOAQUÍN AMARO",
		"city": "NOCHISTLÁN DE MEJÍA",
		"district": "",
		"postcode": "99900"
	},
	{
		"lon": "-103.4502048",
		"lat": "24.2968028",
		"number": "12",
		"street": "HIDALGO",
		"city": "MIGUEL AUZA",
		"district": "",
		"postcode": "98330"
	}
]