[
	{
		"lon": "16.5904422",
		"lat": "54.5323233",
		"number": "10",
		"street": "Ulica Słoneczna",
		"city": "Jezierzany",
		"district": "\"sławieński",
		"postcode": "zachodniopomorskie"
	},
	{
		"lon": "16.5854639",
		"lat": "54.5312406",
		"number": "21",
		"street": "Ulica Zbożowa",
		"city": "Jezierzany",
		"district": "\"sławieński",
		"postcode": "zachodniopomorskie"
	},
	{
		"lon": "16.5359455",
		"lat": "54.5410807",
		"number": "40",
		"street": "Ulica Nadmorska",
		"city": "Jarosławiec",
		"district": "\"sławieński",
		"postcode": "zachodniopomorskie"
	},
	{
		"lon": "16.5617013",
		"lat": "54.5391691",
		"number": "32 25",
		"street": "Ulica Nadmorska",
		"city": "Jezierzany",
		"district": "\"sławieński",
		"postcode": "zachodniopomorskie"
	},
	{
		"lon": "16.5276251",
		"lat": "54.5382203",
		"number": "2",
		"street": "Ulica Leśna",
		"city": "Jarosławiec",
		"district": "\"sławieński",
		"postcode": "zachodniopomorskie"
	},
	{
		"lon": "16.5440733",
		"lat": "54.5387322",
		"number": "7",
		"street": "Ulica Różana",
		"city": "Jarosławiec",
		"district": "\"sławieński",
		"postcode": "zachodniopomorskie"
	},
	{
		"lon": "16.5437795",
		"lat": "54.537015",
		"number": "4",
		"street": "Ulica Konwaliowa",
		"city": "Jarosławiec",
		"district": "\"sławieński",
		"postcode": "zachodniopomorskie"
	},
	{
		"lon": "16.5272054",
		"lat": "54.5265216",
		"number": "5",
		"street": "Ulica Kasztanowa",
		"city": "Jarosławiec",
		"district": "\"sławieński",
		"postcode": "zachodniopomorskie"
	},
	{
		"lon": "16.5170961",
		"lat": "54.5159554",
		"number": "8",
		"street": "Ulica Korsarzy",
		"city": "Rusinowo",
		"district": "\"sławieński",
		"postcode": "zachodniopomorskie"
	},
	{
		"lon": "16.511906",
		"lat": "54.5197793",
		"number": "5",
		"street": "Ulica Sosnowa",
		"city": "Rusinowo",
		"district": "\"sławieński",
		"postcode": "zachodniopomorskie"
	},
	{
		"lon": "16.5156912",
		"lat": "54.5173001",
		"number": "78",
		"street": "Ulica Na Wzgórzu",
		"city": "Rusinowo",
		"district": "\"sławieński",
		"postcode": "zachodniopomorskie"
	},
	{
		"lon": "16.4931366",
		"lat": "54.5123848",
		"number": "7",
		"street": "Ulica Jasia i Małgosi",
		"city": "Rusinowo",
		"district": "\"sławieński",
		"postcode": "zachodniopomorskie"
	},
	{
		"lon": "16.4713795",
		"lat": "54.5066429",
		"number": "3",
		"street": "Ulica Słoneczna",
		"city": "Wicie",
		"district": "\"sławieński",
		"postcode": "zachodniopomorskie"
	},
	{
		"lon": "16.3877222",
		"lat": "54.4407157",
		"number": "14",
		"street": "Ulica Słowiańska",
		"city": "Darłowo",
		"district": "\"sławieński",
		"postcode": "zachodniopomorskie"
	},
	{
		"lon": "16.3848439",
		"lat": "54.4396132",
		"number": "6",
		"street": "Ulica Józefa Conrada",
		"city": "Darłowo",
		"district": "\"sławieński",
		"postcode": "zachodniopomorskie"
	},
	{
		"lon": "16.4168509",
		"lat": "54.4205677",
		"number": "7",
		"street": "Ulica Henryka Wieniawskiego",
		"city": "Darłowo",
		"district": "\"sławieński",
		"postcode": "zachodniopomorskie"
	},
	{
		"lon": "16.4134952",
		"lat": "54.422398",
		"number": "42",
		"street": "Ulica Młyńska",
		"city": "Darłowo",
		"district": "\"sławieński",
		"postcode": "zachodniopomorskie"
	},
	{
		"lon": "16.4137588",
		"lat": "54.4206304",
		"number": "15",
		"street": "Ulica Marii Curie-Skłodowskiej",
		"city": "Darłowo",
		"district": "\"sławieński",
		"postcode": "zachodniopomorskie"
	},
	{
		"lon": "16.4125147",
		"lat": "54.4246043",
		"number": "9",
		"street": "Ulica Wojsk Ochrony Pogranicza",
		"city": "Darłowo",
		"district": "\"sławieński",
		"postcode": "zachodniopomorskie"
	},
	{
		"lon": "16.3871583",
		"lat": "54.4379071",
		"number": "39",
		"street": "Ulica Józefa Conrada",
		"city": "Darłowo",
		"district": "\"sławieński",
		"postcode": "zachodniopomorskie"
	},
	{
		"lon": "16.4022036",
		"lat": "54.4264569",
		"number": "37",
		"street": "Ulica Sportowa",
		"city": "Darłowo",
		"district": "\"sławieński",
		"postcode": "zachodniopomorskie"
	},
	{
		"lon": "16.3801722",
		"lat": "54.437073",
		"number": "4",
		"street": "Ulica Wilków Morskich",
		"city": "Darłowo",
		"district": "\"sławieński",
		"postcode": "zachodniopomorskie"
	},
	{
		"lon": "16.3784588",
		"lat": "54.4357553",
		"number": "29c",
		"street": "Ulica Władysława IV",
		"city": "Darłowo",
		"district": "\"sławieński",
		"postcode": "zachodniopomorskie"
	},
	{
		"lon": "16.378354",
		"lat": "54.4364243",
		"number": "21",
		"street": "Ulica Władysława IV",
		"city": "Darłowo",
		"district": "\"sławieński",
		"postcode": "zachodniopomorskie"
	},
	{
		"lon": "16.3786912",
		"lat": "54.4373915",
		"number": "18",
		"street": "Ulica Władysława IV",
		"city": "Darłowo",
		"district": "\"sławieński",
		"postcode": "zachodniopomorskie"
	},
	{
		"lon": "16.3751202",
		"lat": "54.4355708",
		"number": "7",
		"street": "Ulica Plażowa",
		"city": "Darłowo",
		"district": "\"sławieński",
		"postcode": "zachodniopomorskie"
	},
	{
		"lon": "16.6873992",
		"lat": "54.3736846",
		"number": "27",
		"street": "Ulica Morelowa",
		"city": "Sławno",
		"district": "\"sławieński",
		"postcode": "zachodniopomorskie"
	},
	{
		"lon": "16.424094",
		"lat": "54.4287139",
		"number": "27",
		"street": "Ulica Kazimierza Pułaskiego",
		"city": "Darłowo",
		"district": "\"sławieński",
		"postcode": "zachodniopomorskie"
	},
	{
		"lon": "16.4192109",
		"lat": "54.4277519",
		"number": "40a",
		"street": "Ulica Ojca Damiana Tynieckiego",
		"city": "Darłowo",
		"district": "\"sławieński",
		"postcode": "zachodniopomorskie"
	},
	{
		"lon": "16.4267391",
		"lat": "54.4271481",
		"number": "53",
		"street": "Ulica Emilii Plater",
		"city": "Darłowo",
		"district": "\"sławieński",
		"postcode": "zachodniopomorskie"
	},
	{
		"lon": "16.4183016",
		"lat": "54.4263154",
		"number": "2",
		"street": "Ulica Emilii Plater",
		"city": "Darłowo",
		"district": "\"sławieński",
		"postcode": "zachodniopomorskie"
	},
	{
		"lon": "16.4175969",
		"lat": "54.4202771",
		"number": "4",
		"street": "Ulica Mikołaja Kopernika",
		"city": "Darłowo",
		"district": "\"sławieński",
		"postcode": "zachodniopomorskie"
	},
	{
		"lon": "16.4227196",
		"lat": "54.4154226",
		"number": "23",
		"street": "Ulica Mieczysława Karłowicza",
		"city": "Darłowo",
		"district": "\"sławieński",
		"postcode": "zachodniopomorskie"
	},
	{
		"lon": "16.6721194",
		"lat": "54.3661614",
		"number": "10",
		"street": "Ulica Zielona",
		"city": "Sławno",
		"district": "\"sławieński",
		"postcode": "zachodniopomorskie"
	},
	{
		"lon": "16.6747235",
		"lat": "54.3653569",
		"number": "16",
		"street": "Ulica aleja Wojska Polskiego",
		"city": "Sławno",
		"district": "\"sławieński",
		"postcode": "zachodniopomorskie"
	},
	{
		"lon": "16.6540005",
		"lat": "54.3704683",
		"number": "10a",
		"street": "Ulica Morska",
		"city": "Sławno",
		"district": "\"sławieński",
		"postcode": "zachodniopomorskie"
	},
	{
		"lon": "16.6963579",
		"lat": "54.3700792",
		"number": "7A",
		"street": "Ulica Mariana Buczka",
		"city": "Sławno",
		"district": "\"sławieński",
		"postcode": "zachodniopomorskie"
	},
	{
		"lon": "16.687797",
		"lat": "54.3637699",
		"number": "12d",
		"street": "Ulica Augusta Cieszkowskiego",
		"city": "Sławno",
		"district": "\"sławieński",
		"postcode": "zachodniopomorskie"
	},
	{
		"lon": "16.6847411",
		"lat": "54.3652673",
		"number": "31",
		"street": "Ulica Gdańska",
		"city": "Sławno",
		"district": "\"sławieński",
		"postcode": "zachodniopomorskie"
	},
	{
		"lon": "16.6801173",
		"lat": "54.3709145",
		"number": "46",
		"street": "Ulica I Pułku Ułanów",
		"city": "Sławno",
		"district": "\"sławieński",
		"postcode": "zachodniopomorskie"
	},
	{
		"lon": "16.6819793",
		"lat": "54.3714836",
		"number": "6",
		"street": "Ulica Wincentego Witosa",
		"city": "Sławno",
		"district": "\"sławieński",
		"postcode": "zachodniopomorskie"
	},
	{
		"lon": "16.678783",
		"lat": "54.3609944",
		"number": "5",
		"street": "Ulica Jedności Narodowej",
		"city": "Sławno",
		"district": "\"sławieński",
		"postcode": "zachodniopomorskie"
	},
	{
		"lon": "16.6793153",
		"lat": "54.3657079",
		"number": "1",
		"street": "Ulica I Pułku Ułanów",
		"city": "Sławno",
		"district": "\"sławieński",
		"postcode": "zachodniopomorskie"
	},
	{
		"lon": "16.6809031",
		"lat": "54.363445",
		"number": "9",
		"street": "Ulica Mariana Rapackiego",
		"city": "Sławno",
		"district": "\"sławieński",
		"postcode": "zachodniopomorskie"
	},
	{
		"lon": "16.6767238",
		"lat": "54.3711214",
		"number": "9",
		"street": "Ulica Stefanii Sempołowskiej",
		"city": "Sławno",
		"district": "\"sławieński",
		"postcode": "zachodniopomorskie"
	},
	{
		"lon": "16.6782035",
		"lat": "54.3680467",
		"number": "19",
		"street": "Ulica Władysława Jagiełły",
		"city": "Sławno",
		"district": "\"sławieński",
		"postcode": "zachodniopomorskie"
	},
	{
		"lon": "16.6761128",
		"lat": "54.3659959",
		"number": "13",
		"street": "Ulica Fryderyka Szopena",
		"city": "Sławno",
		"district": "\"sławieński",
		"postcode": "zachodniopomorskie"
	},
	{
		"lon": "16.6769696",
		"lat": "54.3619634",
		"number": "19",
		"street": "Ulica Basztowa",
		"city": "Sławno",
		"district": "\"sławieński",
		"postcode": "zachodniopomorskie"
	},
	{
		"lon": "16.6753931",
		"lat": "54.3593988",
		"number": "6",
		"street": "Plac plac Wolności",
		"city": "Sławno",
		"district": "\"sławieński",
		"postcode": "zachodniopomorskie"
	},
	{
		"lon": "16.6788642",
		"lat": "54.3594847",
		"number": "19b",
		"street": "Ulica Jedności Narodowej",
		"city": "Sławno",
		"district": "\"sławieński",
		"postcode": "zachodniopomorskie"
	},
	{
		"lon": "16.676652",
		"lat": "54.3572814",
		"number": "10",
		"street": "Ulica Koszalińska",
		"city": "Sławno",
		"district": "\"sławieński",
		"postcode": "zachodniopomorskie"
	},
	{
		"lon": "16.6718189",
		"lat": "54.3542806",
		"number": "8",
		"street": "Ulica Zofii Nałkowskiej",
		"city": "Sławno",
		"district": "\"sławieński",
		"postcode": "zachodniopomorskie"
	},
	{
		"lon": "16.672765",
		"lat": "54.3545643",
		"number": "15",
		"street": "Ulica Zofii Nałkowskiej",
		"city": "Sławno",
		"district": "\"sławieński",
		"postcode": "zachodniopomorskie"
	},
	{
		"lon": "16.6742943",
		"lat": "54.3500785",
		"number": "4",
		"street": "Ulica Józefa Mireckiego",
		"city": "Sławno",
		"district": "\"sławieński",
		"postcode": "zachodniopomorskie"
	},
	{
		"lon": "16.6800432",
		"lat": "54.349774",
		"number": "1B",
		"street": "Ulica Juliusza Kossaka",
		"city": "Sławno",
		"district": "\"sławieński",
		"postcode": "zachodniopomorskie"
	},
	{
		"lon": "16.6793104",
		"lat": "54.3477491",
		"number": "2",
		"street": "Ulica Tadeusza Rejtana",
		"city": "Sławno",
		"district": "\"sławieński",
		"postcode": "zachodniopomorskie"
	},
	{
		"lon": "16.669936",
		"lat": "54.3470944",
		"number": "4",
		"street": "Ulica Czesława Miłosza",
		"city": "Sławno",
		"district": "\"sławieński",
		"postcode": "zachodniopomorskie"
	},
	{
		"lon": "16.6777268",
		"lat": "54.3464953",
		"number": "2",
		"street": "Ulica Elizy Orzeszkowej",
		"city": "Sławno",
		"district": "\"sławieński",
		"postcode": "zachodniopomorskie"
	},
	{
		"lon": "16.6789216",
		"lat": "54.3456569",
		"number": "10a",
		"street": "Ulica Grunwaldzka",
		"city": "Sławno",
		"district": "\"sławieński",
		"postcode": "zachodniopomorskie"
	},
	{
		"lon": "16.6760643",
		"lat": "54.3442718",
		"number": "44",
		"street": "Plac plac Aleksandra Gierymskiego",
		"city": "Sławno",
		"district": "\"sławieński",
		"postcode": "zachodniopomorskie"
	},
	{
		"lon": "16.6777368",
		"lat": "54.3435599",
		"number": "24",
		"street": "Ulica Juliana Tuwima",
		"city": "Sławno",
		"district": "\"sławieński",
		"postcode": "zachodniopomorskie"
	},
	{
		"lon": "16.6771305",
		"lat": "54.344507",
		"number": "36",
		"street": "Ulica Aleksandra Gierymskiego",
		"city": "Sławno",
		"district": "\"sławieński",
		"postcode": "zachodniopomorskie"
	},
	{
		"lon": "16.6744344",
		"lat": "54.3427152",
		"number": "12",
		"street": "Ulica Juliusza Słowackiego",
		"city": "Sławno",
		"district": "\"sławieński",
		"postcode": "zachodniopomorskie"
	},
	{
		"lon": "16.6881846",
		"lat": "54.3410983",
		"number": "66a",
		"street": "Ulica Polanowska",
		"city": "Sławno",
		"district": "\"sławieński",
		"postcode": "zachodniopomorskie"
	},
	{
		"lon": "16.4275801",
		"lat": "54.4282854",
		"number": "33",
		"street": "Ulica Majora Hubala",
		"city": "Darłowo",
		"district": "\"sławieński",
		"postcode": "zachodniopomorskie"
	},
	{
		"lon": "16.4235844",
		"lat": "54.4286762",
		"number": "21",
		"street": "Ulica Kazimierza Pułaskiego",
		"city": "Darłowo",
		"district": "\"sławieński",
		"postcode": "zachodniopomorskie"
	},
	{
		"lon": "16.4197125",
		"lat": "54.4287523",
		"number": "43",
		"street": "Ulica Ojca Damiana Tynieckiego",
		"city": "Darłowo",
		"district": "\"sławieński",
		"postcode": "zachodniopomorskie"
	},
	{
		"lon": "16.4201366",
		"lat": "54.4281683",
		"number": "2",
		"street": "Ulica Kazimierza Pułaskiego",
		"city": "Darłowo",
		"district": "\"sławieński",
		"postcode": "zachodniopomorskie"
	},
	{
		"lon": "16.4126625",
		"lat": "54.4152364",
		"number": "2",
		"street": "Ulica Cicha",
		"city": "Darłowo",
		"district": "\"sławieński",
		"postcode": "zachodniopomorskie"
	},
	{
		"lon": "16.4096033",
		"lat": "54.4174332",
		"number": "4a",
		"street": "Ulica Stefana Żeromskiego",
		"city": "Darłowo",
		"district": "\"sławieński",
		"postcode": "zachodniopomorskie"
	},
	{
		"lon": "16.4095382",
		"lat": "54.4199962",
		"number": "26",
		"street": "Ulica Powstańców Warszawskich",
		"city": "Darłowo",
		"district": "\"sławieński",
		"postcode": "zachodniopomorskie"
	},
	{
		"lon": "16.4072579",
		"lat": "54.4218354",
		"number": "16",
		"street": "Ulica Rzemieślnicza",
		"city": "Darłowo",
		"district": "\"sławieński",
		"postcode": "zachodniopomorskie"
	},
	{
		"lon": "16.407444",
		"lat": "54.4185685",
		"number": "12",
		"street": "Ulica Bogusława X",
		"city": "Darłowo",
		"district": "\"sławieński",
		"postcode": "zachodniopomorskie"
	},
	{
		"lon": "16.4072573",
		"lat": "54.420487",
		"number": "41",
		"street": "Ulica Wenedów",
		"city": "Darłowo",
		"district": "\"sławieński",
		"postcode": "zachodniopomorskie"
	},
	{
		"lon": "16.3962743",
		"lat": "54.4154791",
		"number": "14",
		"street": "Ulica Władysława Stanisława Reymonta",
		"city": "Darłowo",
		"district": "\"sławieński",
		"postcode": "zachodniopomorskie"
	},
	{
		"lon": "16.4225532",
		"lat": "54.4170474",
		"number": "5A",
		"street": "Ulica Michała Kleofasa Ogińskiego",
		"city": "Darłowo",
		"district": "\"sławieński",
		"postcode": "zachodniopomorskie"
	},
	{
		"lon": "16.4171801",
		"lat": "54.4159132",
		"number": "9",
		"street": "Ulica Witolda Lutosławskiego",
		"city": "Darłowo",
		"district": "\"sławieński",
		"postcode": "zachodniopomorskie"
	},
	{
		"lon": "16.4119799",
		"lat": "54.4121466",
		"number": "1",
		"street": "Ulica Jana Henryka Dąbrowskiego",
		"city": "Darłowo",
		"district": "\"sławieński",
		"postcode": "zachodniopomorskie"
	},
	{
		"lon": "16.2432812",
		"lat": "54.1901733",
		"number": "11",
		"street": "Ulica Grabowa",
		"city": "Koszalin",
		"district": "\"Koszalin",
		"postcode": "zachodniopomorskie"
	},
	{
		"lon": "16.2420348",
		"lat": "54.190032",
		"number": "21",
		"street": "Ulica Wiśniowa",
		"city": "Koszalin",
		"district": "\"Koszalin",
		"postcode": "zachodniopomorskie"
	},
	{
		"lon": "16.239245",
		"lat": "54.1873215",
		"number": "341",
		"street": "Ulica Zwycięstwa",
		"city": "Koszalin",
		"district": "\"Koszalin",
		"postcode": "zachodniopomorskie"
	},
	{
		"lon": "16.2387622",
		"lat": "54.1899318",
		"number": "6",
		"street": "Ulica Wiśniowa",
		"city": "Koszalin",
		"district": "\"Koszalin",
		"postcode": "zachodniopomorskie"
	},
	{
		"lon": "16.2361008",
		"lat": "54.1881895",
		"number": "327",
		"street": "Ulica Zwycięstwa",
		"city": "Koszalin",
		"district": "\"Koszalin",
		"postcode": "zachodniopomorskie"
	},
	{
		"lon": "16.234179",
		"lat": "54.1921923",
		"number": "33",
		"street": "Ulica Westerplatte",
		"city": "Koszalin",
		"district": "\"Koszalin",
		"postcode": "zachodniopomorskie"
	},
	{
		"lon": "16.2332903",
		"lat": "54.1920305",
		"number": "25",
		"street": "Ulica Westerplatte",
		"city": "Koszalin",
		"district": "\"Koszalin",
		"postcode": "zachodniopomorskie"
	},
	{
		"lon": "16.210134",
		"lat": "54.2125549",
		"number": "22",
		"street": "Ulica Rodła",
		"city": "Koszalin",
		"district": "\"Koszalin",
		"postcode": "zachodniopomorskie"
	},
	{
		"lon": "16.2081263",
		"lat": "54.2137011",
		"number": "10",
		"street": "Ulica Izydora Maćkowicza",
		"city": "Koszalin",
		"district": "\"Koszalin",
		"postcode": "zachodniopomorskie"
	},
	{
		"lon": "16.2073864",
		"lat": "54.2145016",
		"number": "16",
		"street": "Ulica Władysława Turowskiego",
		"city": "Koszalin",
		"district": "\"Koszalin",
		"postcode": "zachodniopomorskie"
	},
	{
		"lon": "16.2041065",
		"lat": "54.2162616",
		"number": "12",
		"street": "Ulica Mazowiecka",
		"city": "Koszalin",
		"district": "\"Koszalin",
		"postcode": "zachodniopomorskie"
	},
	{
		"lon": "16.2039793",
		"lat": "54.2152623",
		"number": "5",
		"street": "Ulica Weteranów",
		"city": "Koszalin",
		"district": "\"Koszalin",
		"postcode": "zachodniopomorskie"
	},
	{
		"lon": "16.2059505",
		"lat": "54.2146892",
		"number": "42",
		"street": "Ulica Księdza Maksymiliana Grochowskiego",
		"city": "Koszalin",
		"district": "\"Koszalin",
		"postcode": "zachodniopomorskie"
	},
	{
		"lon": "16.2068813",
		"lat": "54.2140389",
		"number": "34",
		"street": "Ulica Księdza Maksymiliana Grochowskiego",
		"city": "Koszalin",
		"district": "\"Koszalin",
		"postcode": "zachodniopomorskie"
	},
	{
		"lon": "16.2048627",
		"lat": "54.212415",
		"number": "9",
		"street": "Ulica Marii Magdaleny Gąszczak",
		"city": "Koszalin",
		"district": "\"Koszalin",
		"postcode": "zachodniopomorskie"
	},
	{
		"lon": "16.2091969",
		"lat": "54.2132108",
		"number": "8",
		"street": "Ulica Arkadiusza Bożka",
		"city": "Koszalin",
		"district": "\"Koszalin",
		"postcode": "zachodniopomorskie"
	},
	{
		"lon": "16.2107908",
		"lat": "54.2110949",
		"number": "42",
		"street": "Ulica Rodła",
		"city": "Koszalin",
		"district": "\"Koszalin",
		"postcode": "zachodniopomorskie"
	},
	{
		"lon": "16.2070457",
		"lat": "54.2104589",
		"number": "1",
		"street": "Ulica Tradycji",
		"city": "Koszalin",
		"district": "\"Koszalin",
		"postcode": "zachodniopomorskie"
	},
	{
		"lon": "16.2313731",
		"lat": "54.1833435",
		"number": "33",
		"street": "Ulica Orzechowa",
		"city": "Koszalin",
		"district": "\"Koszalin",
		"postcode": "zachodniopomorskie"
	},
	{
		"lon": "16.2315244",
		"lat": "54.1813948",
		"number": "16",
		"street": "Ulica Mahoniowa",
		"city": "Koszalin",
		"district": "\"Koszalin",
		"postcode": "zachodniopomorskie"
	},
	{
		"lon": "16.2311627",
		"lat": "54.1836325",
		"number": "26",
		"street": "Ulica Orzechowa",
		"city": "Koszalin",
		"district": "\"Koszalin",
		"postcode": "zachodniopomorskie"
	},
	{
		"lon": "16.2267891",
		"lat": "54.1909854",
		"number": "18",
		"street": "Ulica Artylerzystów",
		"city": "Koszalin",
		"district": "\"Koszalin",
		"postcode": "zachodniopomorskie"
	},
	{
		"lon": "16.2275609",
		"lat": "54.1894048",
		"number": "8",
		"street": "Ulica Obrońców Tobruku",
		"city": "Koszalin",
		"district": "\"Koszalin",
		"postcode": "zachodniopomorskie"
	},
	{
		"lon": "16.2266562",
		"lat": "54.1855765",
		"number": "23",
		"street": "Ulica Jarzębinowa",
		"city": "Koszalin",
		"district": "\"Koszalin",
		"postcode": "zachodniopomorskie"
	},
	{
		"lon": "16.2281136",
		"lat": "54.1775041",
		"number": "108",
		"street": "Ulica Dzierżęcińska",
		"city": "Koszalin",
		"district": "\"Koszalin",
		"postcode": "zachodniopomorskie"
	},
	{
		"lon": "16.2255235",
		"lat": "54.1850942",
		"number": "28",
		"street": "Ulica Jarzębinowa",
		"city": "Koszalin",
		"district": "\"Koszalin",
		"postcode": "zachodniopomorskie"
	},
	{
		"lon": "16.2239857",
		"lat": "54.1885325",
		"number": "13",
		"street": "Ulica Brzoskwiniowa",
		"city": "Koszalin",
		"district": "\"Koszalin",
		"postcode": "zachodniopomorskie"
	},
	{
		"lon": "16.2239435",
		"lat": "54.1858528",
		"number": "6",
		"street": "Ulica Jarzębinowa",
		"city": "Koszalin",
		"district": "\"Koszalin",
		"postcode": "zachodniopomorskie"
	},
	{
		"lon": "16.2198191",
		"lat": "54.1846625",
		"number": "9",
		"street": "Ulica Tulipanów",
		"city": "Koszalin",
		"district": "\"Koszalin",
		"postcode": "zachodniopomorskie"
	},
	{
		"lon": "16.2191848",
		"lat": "54.1835719",
		"number": "6",
		"street": "Ulica Zalesie",
		"city": "Koszalin",
		"district": "\"Koszalin",
		"postcode": "zachodniopomorskie"
	},
	{
		"lon": "16.2186844",
		"lat": "54.1850131",
		"number": "29",
		"street": "Ulica Polnych Kwiatów",
		"city": "Koszalin",
		"district": "\"Koszalin",
		"postcode": "zachodniopomorskie"
	},
	{
		"lon": "16.215414",
		"lat": "54.1893137",
		"number": "14",
		"street": "Ulica Generała Józefa Bema",
		"city": "Koszalin",
		"district": "\"Koszalin",
		"postcode": "zachodniopomorskie"
	},
	{
		"lon": "16.2143083",
		"lat": "54.1857328",
		"number": "26",
		"street": "Ulica Sadowa",
		"city": "Koszalin",
		"district": "\"Koszalin",
		"postcode": "zachodniopomorskie"
	},
	{
		"lon": "16.2023953",
		"lat": "54.1859977",
		"number": "6",
		"street": "Ulica Jana Kasprowicza",
		"city": "Koszalin",
		"district": "\"Koszalin",
		"postcode": "zachodniopomorskie"
	},
	{
		"lon": "16.2078444",
		"lat": "54.2092303",
		"number": "20",
		"street": "Ulica Michała Żebrowskiego",
		"city": "Koszalin",
		"district": "\"Koszalin",
		"postcode": "zachodniopomorskie"
	},
	{
		"lon": "16.2002366",
		"lat": "54.2077839",
		"number": "11a",
		"street": "Ulica Śniadeckich",
		"city": "Koszalin",
		"district": "\"Koszalin",
		"postcode": "zachodniopomorskie"
	},
	{
		"lon": "16.2070537",
		"lat": "54.1987327",
		"number": "1c",
		"street": "Ulica Franciszka Zubrzyckiego",
		"city": "Koszalin",
		"district": "\"Koszalin",
		"postcode": "zachodniopomorskie"
	},
	{
		"lon": "16.2055383",
		"lat": "54.1975821",
		"number": "6b",
		"street": "Ulica Hanki Sawickiej",
		"city": "Koszalin",
		"district": "\"Koszalin",
		"postcode": "zachodniopomorskie"
	},
	{
		"lon": "16.2005311",
		"lat": "54.1968971",
		"number": "7a",
		"street": "Ulica Tadeusza Rejtana",
		"city": "Koszalin",
		"district": "\"Koszalin",
		"postcode": "zachodniopomorskie"
	},
	{
		"lon": "16.2080418",
		"lat": "54.1965943",
		"number": "21",
		"street": "Ulica Tadeusza Sygietyńskiego",
		"city": "Koszalin",
		"district": "\"Koszalin",
		"postcode": "zachodniopomorskie"
	},
	{
		"lon": "16.2046023",
		"lat": "54.1957364",
		"number": "68",
		"street": "Ulica Marszałka Józefa Piłsudskiego",
		"city": "Koszalin",
		"district": "\"Koszalin",
		"postcode": "zachodniopomorskie"
	},
	{
		"lon": "16.2080449",
		"lat": "54.1951913",
		"number": "40",
		"street": "Ulica Karola Szymanowskiego",
		"city": "Koszalin",
		"district": "\"Koszalin",
		"postcode": "zachodniopomorskie"
	},
	{
		"lon": "16.2212475",
		"lat": "54.1942027",
		"number": "6",
		"street": "Ulica Księżycowa",
		"city": "Koszalin",
		"district": "\"Koszalin",
		"postcode": "zachodniopomorskie"
	},
	{
		"lon": "16.2147931",
		"lat": "54.1941361",
		"number": "5",
		"street": "Ulica Mieczysława Karłowicza",
		"city": "Koszalin",
		"district": "\"Koszalin",
		"postcode": "zachodniopomorskie"
	},
	{
		"lon": "16.2038056",
		"lat": "54.1927871",
		"number": "18b",
		"street": "Ulica Karola Szymanowskiego",
		"city": "Koszalin",
		"district": "\"Koszalin",
		"postcode": "zachodniopomorskie"
	},
	{
		"lon": "16.2036033",
		"lat": "54.1922407",
		"number": "6d",
		"street": "Ulica Stanisława Moniuszki",
		"city": "Koszalin",
		"district": "\"Koszalin",
		"postcode": "zachodniopomorskie"
	},
	{
		"lon": "16.207958",
		"lat": "54.1927957",
		"number": "3",
		"street": "Ulica Zgoda",
		"city": "Koszalin",
		"district": "\"Koszalin",
		"postcode": "zachodniopomorskie"
	},
	{
		"lon": "16.2222498",
		"lat": "54.1933252",
		"number": "15",
		"street": "Ulica Zorzy",
		"city": "Koszalin",
		"district": "\"Koszalin",
		"postcode": "zachodniopomorskie"
	},
	{
		"lon": "16.2210926",
		"lat": "54.1909468",
		"number": "11",
		"street": "Ulica Ferdynanda Ruszczyca",
		"city": "Koszalin",
		"district": "\"Koszalin",
		"postcode": "zachodniopomorskie"
	},
	{
		"lon": "16.2136408",
		"lat": "54.2930201",
		"number": "13",
		"street": "Ulica Piaskowa",
		"city": "Osieki",
		"district": "\"koszaliński",
		"postcode": "zachodniopomorskie"
	},
	{
		"lon": "16.1890752",
		"lat": "54.3047626",
		"number": "8",
		"street": "Ulica Wczasowa",
		"city": "Łazy",
		"district": "\"koszaliński",
		"postcode": "zachodniopomorskie"
	},
	{
		"lon": "16.2025103",
		"lat": "54.1921801",
		"number": "12b",
		"street": "Ulica Hołdu Pruskiego",
		"city": "Koszalin",
		"district": "\"Koszalin",
		"postcode": "zachodniopomorskie"
	},
	{
		"lon": "16.2067905",
		"lat": "54.1896882",
		"number": "32",
		"street": "Ulica Kazimierza Tetmajera",
		"city": "Koszalin",
		"district": "\"Koszalin",
		"postcode": "zachodniopomorskie"
	},
	{
		"lon": "16.2061232",
		"lat": "54.1892356",
		"number": "30",
		"street": "Ulica Stefana Żeromskiego",
		"city": "Koszalin",
		"district": "\"Koszalin",
		"postcode": "zachodniopomorskie"
	},
	{
		"lon": "16.2057819",
		"lat": "54.1879712",
		"number": "22",
		"street": "Ulica Władysława Reymonta",
		"city": "Koszalin",
		"district": "\"Koszalin",
		"postcode": "zachodniopomorskie"
	},
	{
		"lon": "16.2053966",
		"lat": "54.1873988",
		"number": "14",
		"street": "Ulica Władysława Reymonta",
		"city": "Koszalin",
		"district": "\"Koszalin",
		"postcode": "zachodniopomorskie"
	},
	{
		"lon": "16.2046439",
		"lat": "54.185479",
		"number": "62a",
		"street": "Ulica Wojska Polskiego",
		"city": "Koszalin",
		"district": "\"Koszalin",
		"postcode": "zachodniopomorskie"
	},
	{
		"lon": "16.1904545",
		"lat": "54.1835686",
		"number": "15a",
		"street": "Ulica Orla",
		"city": "Koszalin",
		"district": "\"Koszalin",
		"postcode": "zachodniopomorskie"
	},
	{
		"lon": "16.1995175",
		"lat": "54.1798177",
		"number": "4",
		"street": "Ulica Kubusia Puchatka",
		"city": "Koszalin",
		"district": "\"Koszalin",
		"postcode": "zachodniopomorskie"
	},
	{
		"lon": "16.1989721",
		"lat": "54.1792312",
		"number": "5",
		"street": "Ulica Bajkowa",
		"city": "Koszalin",
		"district": "\"Koszalin",
		"postcode": "zachodniopomorskie"
	},
	{
		"lon": "16.1974758",
		"lat": "54.1796147",
		"number": "34",
		"street": "Ulica 4 Marca",
		"city": "Koszalin",
		"district": "\"Koszalin",
		"postcode": "zachodniopomorskie"
	},
	{
		"lon": "16.1943169",
		"lat": "54.1770919",
		"number": "32d",
		"street": "Ulica Gnieźnieńska",
		"city": "Koszalin",
		"district": "\"Koszalin",
		"postcode": "zachodniopomorskie"
	},
	{
		"lon": "16.2066206",
		"lat": "54.1650918",
		"number": "27a",
		"street": "Ulica Skowronków",
		"city": "Koszalin",
		"district": "\"Koszalin",
		"postcode": "zachodniopomorskie"
	},
	{
		"lon": "16.2026289",
		"lat": "54.1643086",
		"number": "11",
		"street": "Ulica Słowików",
		"city": "Koszalin",
		"district": "\"Koszalin",
		"postcode": "zachodniopomorskie"
	},
	{
		"lon": "16.2272081",
		"lat": "54.193106",
		"number": "18",
		"street": "Ulica Saperów",
		"city": "Koszalin",
		"district": "\"Koszalin",
		"postcode": "zachodniopomorskie"
	},
	{
		"lon": "16.2326946",
		"lat": "54.193099",
		"number": "19",
		"street": "Ulica Sianowska",
		"city": "Koszalin",
		"district": "\"Koszalin",
		"postcode": "zachodniopomorskie"
	},
	{
		"lon": "16.230859",
		"lat": "54.1927325",
		"number": "7",
		"street": "Ulica Lotników",
		"city": "Koszalin",
		"district": "\"Koszalin",
		"postcode": "zachodniopomorskie"
	},
	{
		"lon": "16.2161052",
		"lat": "54.192247",
		"number": "9",
		"street": "Ulica Cypriana Norwida",
		"city": "Koszalin",
		"district": "\"Koszalin",
		"postcode": "zachodniopomorskie"
	},
	{
		"lon": "16.2285613",
		"lat": "54.191122",
		"number": "3",
		"street": "Ulica Parkowa",
		"city": "Koszalin",
		"district": "\"Koszalin",
		"postcode": "zachodniopomorskie"
	},
	{
		"lon": "16.2121327",
		"lat": "54.191902",
		"number": "2b",
		"street": "Ulica Feliksa Nowowiejskiego",
		"city": "Koszalin",
		"district": "\"Koszalin",
		"postcode": "zachodniopomorskie"
	},
	{
		"lon": "16.2303928",
		"lat": "54.1897182",
		"number": "20",
		"street": "Ulica Czwartaków",
		"city": "Koszalin",
		"district": "\"Koszalin",
		"postcode": "zachodniopomorskie"
	},
	{
		"lon": "16.2285045",
		"lat": "54.18811",
		"number": "260",
		"street": "Ulica Zwycięstwa",
		"city": "Koszalin",
		"district": "\"Koszalin",
		"postcode": "zachodniopomorskie"
	},
	{
		"lon": "16.2294725",
		"lat": "54.1869151",
		"number": "3",
		"street": "Ulica Akacjowa",
		"city": "Koszalin",
		"district": "\"Koszalin",
		"postcode": "zachodniopomorskie"
	},
	{
		"lon": "16.2327012",
		"lat": "54.1855136",
		"number": "22",
		"street": "Ulica Topolowa",
		"city": "Koszalin",
		"district": "\"Koszalin",
		"postcode": "zachodniopomorskie"
	},
	{
		"lon": "16.2422607",
		"lat": "54.1830901",
		"number": "25",
		"street": "Ulica Światowida",
		"city": "Koszalin",
		"district": "\"Koszalin",
		"postcode": "zachodniopomorskie"
	},
	{
		"lon": "16.2027382",
		"lat": "54.1736438",
		"number": "61",
		"street": "Ulica Gnieźnieńska",
		"city": "Koszalin",
		"district": "\"Koszalin",
		"postcode": "zachodniopomorskie"
	},
	{
		"lon": "16.1866515",
		"lat": "54.1970604",
		"number": "73",
		"street": "Ulica Młyńska",
		"city": "Koszalin",
		"district": "\"Koszalin",
		"postcode": "zachodniopomorskie"
	},
	{
		"lon": "16.1836612",
		"lat": "54.1968782",
		"number": "26",
		"street": "Ulica Podgórna",
		"city": "Koszalin",
		"district": "\"Koszalin",
		"postcode": "zachodniopomorskie"
	},
	{
		"lon": "16.1897825",
		"lat": "54.1983371",
		"number": "7",
		"street": "Ulica Konstantego Ildefonsa Gałczyńskiego",
		"city": "Koszalin",
		"district": "\"Koszalin",
		"postcode": "zachodniopomorskie"
	},
	{
		"lon": "16.1978538",
		"lat": "54.1951817",
		"number": "19",
		"street": "Ulica Krucza",
		"city": "Koszalin",
		"district": "\"Koszalin",
		"postcode": "zachodniopomorskie"
	},
	{
		"lon": "16.182275",
		"lat": "54.1944659",
		"number": "18",
		"street": "Ulica Batalionów Chłopskich",
		"city": "Koszalin",
		"district": "\"Koszalin",
		"postcode": "zachodniopomorskie"
	},
	{
		"lon": "16.2018068",
		"lat": "54.193535",
		"number": "41",
		"street": "Ulica Jana Matejki",
		"city": "Koszalin",
		"district": "\"Koszalin",
		"postcode": "zachodniopomorskie"
	},
	{
		"lon": "16.1954006",
		"lat": "54.1933292",
		"number": "10",
		"street": "Ulica Tadeusza Kościuszki",
		"city": "Koszalin",
		"district": "\"Koszalin",
		"postcode": "zachodniopomorskie"
	},
	{
		"lon": "16.185277",
		"lat": "54.1930857",
		"number": "3",
		"street": "Ulica Piastowska",
		"city": "Koszalin",
		"district": "\"Koszalin",
		"postcode": "zachodniopomorskie"
	},
	{
		"lon": "16.193574",
		"lat": "54.1905125",
		"number": "2",
		"street": "Ulica Marszałka Józefa Piłsudskiego",
		"city": "Koszalin",
		"district": "\"Koszalin",
		"postcode": "zachodniopomorskie"
	},
	{
		"lon": "16.1973934",
		"lat": "54.1902337",
		"number": "140",
		"street": "Ulica Zwycięstwa",
		"city": "Koszalin",
		"district": "\"Koszalin",
		"postcode": "zachodniopomorskie"
	},
	{
		"lon": "16.182797",
		"lat": "54.1888598",
		"number": "7a",
		"street": "Ulica 1 Maja",
		"city": "Koszalin",
		"district": "\"Koszalin",
		"postcode": "zachodniopomorskie"
	},
	{
		"lon": "16.18539",
		"lat": "54.1865853",
		"number": "19",
		"street": "Ulica Heleny Modrzejewskiej",
		"city": "Koszalin",
		"district": "\"Koszalin",
		"postcode": "zachodniopomorskie"
	},
	{
		"lon": "16.2033844",
		"lat": "54.2136597",
		"number": "28",
		"street": "Ulica Malownicza",
		"city": "Koszalin",
		"district": "\"Koszalin",
		"postcode": "zachodniopomorskie"
	},
	{
		"lon": "16.2032007",
		"lat": "54.2167903",
		"number": "22",
		"street": "Ulica Pomorska",
		"city": "Koszalin",
		"district": "\"Koszalin",
		"postcode": "zachodniopomorskie"
	},
	{
		"lon": "16.2039502",
		"lat": "54.2117293",
		"number": "2",
		"street": "Ulica Księdza Bolesława Domańskiego",
		"city": "Koszalin",
		"district": "\"Koszalin",
		"postcode": "zachodniopomorskie"
	},
	{
		"lon": "16.200365",
		"lat": "54.2086719",
		"number": "15d",
		"street": "Ulica Joachima Lelewela",
		"city": "Koszalin",
		"district": "\"Koszalin",
		"postcode": "zachodniopomorskie"
	},
	{
		"lon": "16.1984394",
		"lat": "54.2130511",
		"number": "6",
		"street": "Ulica Boczna",
		"city": "Koszalin",
		"district": "\"Koszalin",
		"postcode": "zachodniopomorskie"
	},
	{
		"lon": "16.2015185",
		"lat": "54.2115657",
		"number": "3",
		"street": "Ulica Stanisława Staszica",
		"city": "Koszalin",
		"district": "\"Koszalin",
		"postcode": "zachodniopomorskie"
	},
	{
		"lon": "16.1974364",
		"lat": "54.2138294",
		"number": "40",
		"street": "Ulica Boczna",
		"city": "Koszalin",
		"district": "\"Koszalin",
		"postcode": "zachodniopomorskie"
	},
	{
		"lon": "16.1992105",
		"lat": "54.2147112",
		"number": "2",
		"street": "Ulica Księdza Jerzego Popiełuszki",
		"city": "Koszalin",
		"district": "\"Koszalin",
		"postcode": "zachodniopomorskie"
	},
	{
		"lon": "16.1900313",
		"lat": "54.2115182",
		"number": "37",
		"street": "Ulica Juliana Krzyżanowskiego",
		"city": "Koszalin",
		"district": "\"Koszalin",
		"postcode": "zachodniopomorskie"
	},
	{
		"lon": "16.1882445",
		"lat": "54.2105299",
		"number": "22",
		"street": "Ulica Juliana Krzyżanowskiego",
		"city": "Koszalin",
		"district": "\"Koszalin",
		"postcode": "zachodniopomorskie"
	},
	{
		"lon": "16.1868598",
		"lat": "54.2106063",
		"number": "6",
		"street": "Ulica Kazimierza Wyki",
		"city": "Koszalin",
		"district": "\"Koszalin",
		"postcode": "zachodniopomorskie"
	},
	{
		"lon": "16.1766452",
		"lat": "54.216034",
		"number": "58",
		"street": "Ulica Holenderska",
		"city": "Koszalin",
		"district": "\"Koszalin",
		"postcode": "zachodniopomorskie"
	},
	{
		"lon": "16.1926451",
		"lat": "54.207219",
		"number": "1c",
		"street": "Ulica Władysława Spasowskiego",
		"city": "Koszalin",
		"district": "\"Koszalin",
		"postcode": "zachodniopomorskie"
	},
	{
		"lon": "16.1940181",
		"lat": "54.2065653",
		"number": "2d",
		"street": "Ulica Władysława Spasowskiego",
		"city": "Koszalin",
		"district": "\"Koszalin",
		"postcode": "zachodniopomorskie"
	},
	{
		"lon": "16.1952905",
		"lat": "54.2008282",
		"number": "15",
		"street": "Ulica Juliana Fałata",
		"city": "Koszalin",
		"district": "\"Koszalin",
		"postcode": "zachodniopomorskie"
	},
	{
		"lon": "16.1908201",
		"lat": "54.2083737",
		"number": "1a",
		"street": "Ulica Wacława Sierpińskiego",
		"city": "Koszalin",
		"district": "\"Koszalin",
		"postcode": "zachodniopomorskie"
	},
	{
		"lon": "16.1874104",
		"lat": "54.2001301",
		"number": "20",
		"street": "Ulica Juliana Tuwima",
		"city": "Koszalin",
		"district": "\"Koszalin",
		"postcode": "zachodniopomorskie"
	},
	{
		"lon": "16.1872683",
		"lat": "54.2024718",
		"number": "3a",
		"street": "Ulica Melchiora Wańkowicza",
		"city": "Koszalin",
		"district": "\"Koszalin",
		"postcode": "zachodniopomorskie"
	},
	{
		"lon": "16.1860634",
		"lat": "54.2008613",
		"number": "34",
		"street": "Ulica Władysława IV",
		"city": "Koszalin",
		"district": "\"Koszalin",
		"postcode": "zachodniopomorskie"
	},
	{
		"lon": "16.1865711",
		"lat": "54.1997643",
		"number": "22b",
		"street": "Ulica Władysława IV",
		"city": "Koszalin",
		"district": "\"Koszalin",
		"postcode": "zachodniopomorskie"
	},
	{
		"lon": "16.1804801",
		"lat": "54.2035186",
		"number": "9",
		"street": "Ulica Stanisława Dąbka",
		"city": "Koszalin",
		"district": "\"Koszalin",
		"postcode": "zachodniopomorskie"
	},
	{
		"lon": "16.1794171",
		"lat": "54.2007346",
		"number": "3",
		"street": "Ulica Emilii Gierczak",
		"city": "Koszalin",
		"district": "\"Koszalin",
		"postcode": "zachodniopomorskie"
	},
	{
		"lon": "16.1768055",
		"lat": "54.2001347",
		"number": "18",
		"street": "Ulica Kościuszkowców",
		"city": "Koszalin",
		"district": "\"Koszalin",
		"postcode": "zachodniopomorskie"
	},
	{
		"lon": "16.1771144",
		"lat": "54.2052569",
		"number": "6a",
		"street": "Ulica Eugeniusza Kwiatkowskiego",
		"city": "Koszalin",
		"district": "\"Koszalin",
		"postcode": "zachodniopomorskie"
	},
	{
		"lon": "16.1730782",
		"lat": "54.2215491",
		"number": "54",
		"street": "Ulica Fińska",
		"city": "Koszalin",
		"district": "\"Koszalin",
		"postcode": "zachodniopomorskie"
	},
	{
		"lon": "16.1666738",
		"lat": "54.2214424",
		"number": "39c",
		"street": "Ulica Austriacka",
		"city": "Koszalin",
		"district": "\"Koszalin",
		"postcode": "zachodniopomorskie"
	},
	{
		"lon": "16.1746089",
		"lat": "54.2211426",
		"number": "27a",
		"street": "Ulica Fińska",
		"city": "Koszalin",
		"district": "\"Koszalin",
		"postcode": "zachodniopomorskie"
	},
	{
		"lon": "16.170516",
		"lat": "54.2207527",
		"number": "43b",
		"street": "Ulica Fińska",
		"city": "Koszalin",
		"district": "\"Koszalin",
		"postcode": "zachodniopomorskie"
	},
	{
		"lon": "16.1674506",
		"lat": "54.2198247",
		"number": "55b",
		"street": "Ulica Fińska",
		"city": "Koszalin",
		"district": "\"Koszalin",
		"postcode": "zachodniopomorskie"
	},
	{
		"lon": "16.1701153",
		"lat": "54.217129",
		"number": "10",
		"street": "Ulica Maltańska",
		"city": "Koszalin",
		"district": "\"Koszalin",
		"postcode": "zachodniopomorskie"
	},
	{
		"lon": "16.181424",
		"lat": "54.2096516",
		"number": "15",
		"street": "Ulica Adolfa Warskiego",
		"city": "Koszalin",
		"district": "\"Koszalin",
		"postcode": "zachodniopomorskie"
	},
	{
		"lon": "16.1802159",
		"lat": "54.2093693",
		"number": "44",
		"street": "Ulica Romana Dmowskiego",
		"city": "Koszalin",
		"district": "\"Koszalin",
		"postcode": "zachodniopomorskie"
	},
	{
		"lon": "16.1814898",
		"lat": "54.2095546",
		"number": "11",
		"street": "Ulica Adolfa Warskiego",
		"city": "Koszalin",
		"district": "\"Koszalin",
		"postcode": "zachodniopomorskie"
	},
	{
		"lon": "16.1807251",
		"lat": "54.2080353",
		"number": "1",
		"street": "Ulica Bolesława Limanowskiego",
		"city": "Koszalin",
		"district": "\"Koszalin",
		"postcode": "zachodniopomorskie"
	},
	{
		"lon": "16.1817498",
		"lat": "54.2063784",
		"number": "11g",
		"street": "Ulica Generała Władysława Sikorskiego",
		"city": "Koszalin",
		"district": "\"Koszalin",
		"postcode": "zachodniopomorskie"
	},
	{
		"lon": "16.1810831",
		"lat": "54.2061682",
		"number": "9b",
		"street": "Ulica Generała Władysława Sikorskiego",
		"city": "Koszalin",
		"district": "\"Koszalin",
		"postcode": "zachodniopomorskie"
	},
	{
		"lon": "16.2176985",
		"lat": "54.2855585",
		"number": "3",
		"street": "Ulica Sosnowa",
		"city": "Osieki",
		"district": "\"koszaliński",
		"postcode": "zachodniopomorskie"
	},
	{
		"lon": "16.2108271",
		"lat": "54.284993",
		"number": "2",
		"street": "Ulica Długa",
		"city": "Osieki",
		"district": "\"koszaliński",
		"postcode": "zachodniopomorskie"
	},
	{
		"lon": "16.2736929",
		"lat": "54.2570364",
		"number": "43",
		"street": "Ulica Koszalińska",
		"city": "Sucha Koszalińska",
		"district": "\"koszaliński",
		"postcode": "zachodniopomorskie"
	},
	{
		"lon": "16.2667931",
		"lat": "54.2577883",
		"number": "12",
		"street": "Ulica Lipowa",
		"city": "Sucha Koszalińska",
		"district": "\"koszaliński",
		"postcode": "zachodniopomorskie"
	},
	{
		"lon": "16.1634461",
		"lat": "54.2394533",
		"number": "51",
		"street": "Ulica Jamneńska",
		"city": "Koszalin",
		"district": "\"Koszalin",
		"postcode": "zachodniopomorskie"
	},
	{
		"lon": "16.2042454",
		"lat": "54.2184954",
		"number": "41",
		"street": "Ulica Pomorska",
		"city": "Koszalin",
		"district": "\"Koszalin",
		"postcode": "zachodniopomorskie"
	},
	{
		"lon": "16.1577172",
		"lat": "54.2098798",
		"number": "143",
		"street": "Ulica Franciszkańska",
		"city": "Koszalin",
		"district": "\"Koszalin",
		"postcode": "zachodniopomorskie"
	},
	{
		"lon": "16.1603052",
		"lat": "54.208757",
		"number": "130d",
		"street": "Ulica Franciszkańska",
		"city": "Koszalin",
		"district": "\"Koszalin",
		"postcode": "zachodniopomorskie"
	},
	{
		"lon": "16.155348",
		"lat": "54.2083376",
		"number": "14",
		"street": "Ulica Jachtowa",
		"city": "Koszalin",
		"district": "\"Koszalin",
		"postcode": "zachodniopomorskie"
	},
	{
		"lon": "16.1644749",
		"lat": "54.2089477",
		"number": "33c",
		"street": "Ulica Bosmańska",
		"city": "Koszalin",
		"district": "\"Koszalin",
		"postcode": "zachodniopomorskie"
	},
	{
		"lon": "16.1657854",
		"lat": "54.207984",
		"number": "23a",
		"street": "Ulica Bosmańska",
		"city": "Koszalin",
		"district": "\"Koszalin",
		"postcode": "zachodniopomorskie"
	},
	{
		"lon": "16.1615363",
		"lat": "54.206761",
		"number": "79",
		"street": "Ulica Spokojna",
		"city": "Koszalin",
		"district": "\"Koszalin",
		"postcode": "zachodniopomorskie"
	},
	{
		"lon": "16.1547819",
		"lat": "54.2069454",
		"number": "111",
		"street": "Ulica Morska",
		"city": "Koszalin",
		"district": "\"Koszalin",
		"postcode": "zachodniopomorskie"
	},
	{
		"lon": "16.1616852",
		"lat": "54.2059274",
		"number": "47",
		"street": "Ulica Kosynierów",
		"city": "Koszalin",
		"district": "\"Koszalin",
		"postcode": "zachodniopomorskie"
	},
	{
		"lon": "16.1614238",
		"lat": "54.2046769",
		"number": "38",
		"street": "Ulica Rybacka",
		"city": "Koszalin",
		"district": "\"Koszalin",
		"postcode": "zachodniopomorskie"
	},
	{
		"lon": "16.1666537",
		"lat": "54.2044509",
		"number": "27",
		"street": "Ulica Jantarowa",
		"city": "Koszalin",
		"district": "\"Koszalin",
		"postcode": "zachodniopomorskie"
	},
	{
		"lon": "16.1639024",
		"lat": "54.2036272",
		"number": "18",
		"street": "Ulica Kosynierów",
		"city": "Koszalin",
		"district": "\"Koszalin",
		"postcode": "zachodniopomorskie"
	},
	{
		"lon": "16.159445",
		"lat": "54.2034978",
		"number": "76",
		"street": "Ulica Morska",
		"city": "Koszalin",
		"district": "\"Koszalin",
		"postcode": "zachodniopomorskie"
	},
	{
		"lon": "16.1653521",
		"lat": "54.2036023",
		"number": "57",
		"street": "Ulica Franciszkańska",
		"city": "Koszalin",
		"district": "\"Koszalin",
		"postcode": "zachodniopomorskie"
	},
	{
		"lon": "16.1832398",
		"lat": "54.1875004",
		"number": "3",
		"street": "Plac Plac Gwiaździsty",
		"city": "Koszalin",
		"district": "\"Koszalin",
		"postcode": "zachodniopomorskie"
	},
	{
		"lon": "16.1813589",
		"lat": "54.1881467",
		"number": "3",
		"street": "Ulica Bolesława Krzywoustego",
		"city": "Koszalin",
		"district": "\"Koszalin",
		"postcode": "zachodniopomorskie"
	},
	{
		"lon": "16.1800385",
		"lat": "54.1913497",
		"number": "22",
		"street": "Ulica Bogusława II",
		"city": "Koszalin",
		"district": "\"Koszalin",
		"postcode": "zachodniopomorskie"
	},
	{
		"lon": "16.1777748",
		"lat": "54.1866034",
		"number": "17",
		"street": "Ulica Walerego Wróblewskiego",
		"city": "Koszalin",
		"district": "\"Koszalin",
		"postcode": "zachodniopomorskie"
	},
	{
		"lon": "16.1777077",
		"lat": "54.1892432",
		"number": "2",
		"street": "Ulica Połtawska",
		"city": "Koszalin",
		"district": "\"Koszalin",
		"postcode": "zachodniopomorskie"
	},
	{
		"lon": "16.1759661",
		"lat": "54.1875715",
		"number": "20a",
		"street": "Ulica Kaszubska",
		"city": "Koszalin",
		"district": "\"Koszalin",
		"postcode": "zachodniopomorskie"
	},
	{
		"lon": "16.1753531",
		"lat": "54.1903508",
		"number": "6",
		"street": "Ulica Jana z Kolna",
		"city": "Koszalin",
		"district": "\"Koszalin",
		"postcode": "zachodniopomorskie"
	},
	{
		"lon": "16.1712764",
		"lat": "54.1872943",
		"number": "4",
		"street": "Ulica Powstańców Wielkopolskich",
		"city": "Koszalin",
		"district": "\"Koszalin",
		"postcode": "zachodniopomorskie"
	},
	{
		"lon": "16.1664097",
		"lat": "54.1860528",
		"number": "6",
		"street": "Ulica Jasna",
		"city": "Koszalin",
		"district": "\"Koszalin",
		"postcode": "zachodniopomorskie"
	},
	{
		"lon": "16.1566714",
		"lat": "54.183589",
		"number": "37",
		"street": "Ulica Szczecińska",
		"city": "Koszalin",
		"district": "\"Koszalin",
		"postcode": "zachodniopomorskie"
	},
	{
		"lon": "16.1819295",
		"lat": "54.1921722",
		"number": "25",
		"street": "Ulica Młyńska",
		"city": "Koszalin",
		"district": "\"Koszalin",
		"postcode": "zachodniopomorskie"
	},
	{
		"lon": "16.1802369",
		"lat": "54.195869",
		"number": "39",
		"street": "Ulica Batalionów Chłopskich",
		"city": "Koszalin",
		"district": "\"Koszalin",
		"postcode": "zachodniopomorskie"
	},
	{
		"lon": "16.1755415",
		"lat": "54.2012316",
		"number": "15a",
		"street": "Ulica Emilii Gierczak",
		"city": "Koszalin",
		"district": "\"Koszalin",
		"postcode": "zachodniopomorskie"
	},
	{
		"lon": "16.1745432",
		"lat": "54.1954452",
		"number": "45",
		"street": "Ulica Niepodległości",
		"city": "Koszalin",
		"district": "\"Koszalin",
		"postcode": "zachodniopomorskie"
	},
	{
		"lon": "16.1742179",
		"lat": "54.1989739",
		"number": "12",
		"street": "Ulica Papiernicza",
		"city": "Koszalin",
		"district": "\"Koszalin",
		"postcode": "zachodniopomorskie"
	},
	{
		"lon": "16.1728766",
		"lat": "54.1935102",
		"number": "10g",
		"street": "Ulica Rzemieślnicza",
		"city": "Koszalin",
		"district": "\"Koszalin",
		"postcode": "zachodniopomorskie"
	},
	{
		"lon": "16.1687466",
		"lat": "54.1954588",
		"number": "6",
		"street": "Ulica Morska",
		"city": "Koszalin",
		"district": "\"Koszalin",
		"postcode": "zachodniopomorskie"
	},
	{
		"lon": "16.1664305",
		"lat": "54.2022232",
		"number": "5",
		"street": "Ulica Stoczniowców",
		"city": "Koszalin",
		"district": "\"Koszalin",
		"postcode": "zachodniopomorskie"
	},
	{
		"lon": "16.1650338",
		"lat": "54.2000996",
		"number": "5",
		"street": "Ulica Marynarzy",
		"city": "Koszalin",
		"district": "\"Koszalin",
		"postcode": "zachodniopomorskie"
	},
	{
		"lon": "16.1657696",
		"lat": "54.1956636",
		"number": "19h",
		"street": "Ulica Morska",
		"city": "Koszalin",
		"district": "\"Koszalin",
		"postcode": "zachodniopomorskie"
	},
	{
		"lon": "16.1566966",
		"lat": "54.1916241",
		"number": "23",
		"street": "Ulica Mieszka I",
		"city": "Koszalin",
		"district": "\"Koszalin",
		"postcode": "zachodniopomorskie"
	},
	{
		"lon": "16.1595687",
		"lat": "54.1977107",
		"number": "9d",
		"street": "Ulica Lniana",
		"city": "Koszalin",
		"district": "\"Koszalin",
		"postcode": "zachodniopomorskie"
	},
	{
		"lon": "16.1596012",
		"lat": "54.1979325",
		"number": "9b",
		"street": "Ulica Lniana",
		"city": "Koszalin",
		"district": "\"Koszalin",
		"postcode": "zachodniopomorskie"
	},
	{
		"lon": "16.1012747",
		"lat": "54.2184782",
		"number": "52 2",
		"street": "Ulica Koszalińska",
		"city": "Mścice",
		"district": "\"koszaliński",
		"postcode": "zachodniopomorskie"
	},
	{
		"lon": "16.1067162",
		"lat": "54.2163356",
		"number": "1",
		"street": "Ulica Zalesie",
		"city": "Mścice",
		"district": "\"koszaliński",
		"postcode": "zachodniopomorskie"
	},
	{
		"lon": "16.1528339",
		"lat": "54.1907914",
		"number": "42",
		"street": "Ulica Zacisze",
		"city": "Koszalin",
		"district": "\"Koszalin",
		"postcode": "zachodniopomorskie"
	},
	{
		"lon": "16.1514188",
		"lat": "54.1822424",
		"number": "45e",
		"street": "Ulica Szczecińska",
		"city": "Koszalin",
		"district": "\"Koszalin",
		"postcode": "zachodniopomorskie"
	},
	{
		"lon": "16.1469076",
		"lat": "54.1804988",
		"number": "49",
		"street": "Ulica Szczecińska",
		"city": "Koszalin",
		"district": "\"Koszalin",
		"postcode": "zachodniopomorskie"
	},
	{
		"lon": "16.2160985",
		"lat": "54.2838277",
		"number": "5",
		"street": "Ulica Jeziorna",
		"city": "Osieki",
		"district": "\"koszaliński",
		"postcode": "zachodniopomorskie"
	},
	{
		"lon": "16.219283",
		"lat": "54.2829927",
		"number": "1",
		"street": "Ulica Darłowska",
		"city": "Osieki",
		"district": "\"koszaliński",
		"postcode": "zachodniopomorskie"
	},
	{
		"lon": "16.2047757",
		"lat": "54.2184198",
		"number": "40a",
		"street": "Ulica Pomorska",
		"city": "Koszalin",
		"district": "\"Koszalin",
		"postcode": "zachodniopomorskie"
	},
	{
		"lon": "16.1785117",
		"lat": "54.2426798",
		"number": "15",
		"street": "Ulica Kwiatowa",
		"city": "Koszalin",
		"district": "\"Koszalin",
		"postcode": "zachodniopomorskie"
	},
	{
		"lon": "16.1750788",
		"lat": "54.2381",
		"number": "44",
		"street": "Ulica Lechicka",
		"city": "Koszalin",
		"district": "\"Koszalin",
		"postcode": "zachodniopomorskie"
	},
	{
		"lon": "16.1747919",
		"lat": "54.2452297",
		"number": "7",
		"street": "Ulica Złota",
		"city": "Koszalin",
		"district": "\"Koszalin",
		"postcode": "zachodniopomorskie"
	},
	{
		"lon": "16.1665064",
		"lat": "54.2462863",
		"number": "19",
		"street": "Ulica Sołecka",
		"city": "Koszalin",
		"district": "\"Koszalin",
		"postcode": "zachodniopomorskie"
	},
	{
		"lon": "16.1651479",
		"lat": "54.2435345",
		"number": "34",
		"street": "Ulica Jamneńska",
		"city": "Koszalin",
		"district": "\"Koszalin",
		"postcode": "zachodniopomorskie"
	},
	{
		"lon": "16.1605437",
		"lat": "54.2394571",
		"number": "3",
		"street": "Ulica Deszczowa",
		"city": "Koszalin",
		"district": "\"Koszalin",
		"postcode": "zachodniopomorskie"
	},
	{
		"lon": "16.1644031",
		"lat": "54.2420484",
		"number": "44",
		"street": "Ulica Jamneńska",
		"city": "Koszalin",
		"district": "\"Koszalin",
		"postcode": "zachodniopomorskie"
	},
	{
		"lon": "16.1805834",
		"lat": "54.273105",
		"number": "92",
		"street": "Ulica Starowiejska",
		"city": "Koszalin",
		"district": "\"Koszalin",
		"postcode": "zachodniopomorskie"
	},
	{
		"lon": "16.1047805",
		"lat": "54.2238343",
		"number": "3",
		"street": "Ulica Brzozowa",
		"city": "Mścice",
		"district": "\"koszaliński",
		"postcode": "zachodniopomorskie"
	},
	{
		"lon": "16.1023494",
		"lat": "54.2220451",
		"number": "18",
		"street": "Ulica Klonowa",
		"city": "Mścice",
		"district": "\"koszaliński",
		"postcode": "zachodniopomorskie"
	},
	{
		"lon": "16.0905761",
		"lat": "54.2682753",
		"number": "3",
		"street": "Ulica Porucznika Włodzimierza Suriana",
		"city": "Unieście",
		"district": "\"koszaliński",
		"postcode": "zachodniopomorskie"
	},
	{
		"lon": "16.0844441",
		"lat": "54.2675957",
		"number": "2",
		"street": "Ulica Bałtycka",
		"city": "Unieście",
		"district": "\"koszaliński",
		"postcode": "zachodniopomorskie"
	},
	{
		"lon": "16.0838148",
		"lat": "54.2670229",
		"number": "37",
		"street": "Ulica 6 Marca",
		"city": "Unieście",
		"district": "\"koszaliński",
		"postcode": "zachodniopomorskie"
	},
	{
		"lon": "16.083717",
		"lat": "54.266239",
		"number": "1",
		"street": "Ulica Róży Wiatrów",
		"city": "Unieście",
		"district": "\"koszaliński",
		"postcode": "zachodniopomorskie"
	},
	{
		"lon": "16.0752222",
		"lat": "54.2642324",
		"number": "3",
		"street": "Ulica Pogodna",
		"city": "Unieście",
		"district": "\"koszaliński",
		"postcode": "zachodniopomorskie"
	},
	{
		"lon": "16.0146926",
		"lat": "54.2501562",
		"number": "14a",
		"street": "Ulica Brzozowa",
		"city": "Mielenko",
		"district": "\"koszaliński",
		"postcode": "zachodniopomorskie"
	},
	{
		"lon": "16.0180436",
		"lat": "54.2489598",
		"number": "19",
		"street": "Ulica Lipowa",
		"city": "Mielenko",
		"district": "\"koszaliński",
		"postcode": "zachodniopomorskie"
	},
	{
		"lon": "16.0789135",
		"lat": "54.2217018",
		"number": "9",
		"street": "Ulica Bałtycka",
		"city": "Mścice",
		"district": "\"koszaliński",
		"postcode": "zachodniopomorskie"
	},
	{
		"lon": "15.990605",
		"lat": "54.2516657",
		"number": "8",
		"street": "Ulica Jachtowa",
		"city": "Chłopy",
		"district": "\"koszaliński",
		"postcode": "zachodniopomorskie"
	},
	{
		"lon": "15.9829376",
		"lat": "54.2509564",
		"number": "26",
		"street": "Ulica Kapitańska",
		"city": "Chłopy",
		"district": "\"koszaliński",
		"postcode": "zachodniopomorskie"
	},
	{
		"lon": "15.9799335",
		"lat": "54.2508106",
		"number": "1",
		"street": "Ulica Morska",
		"city": "Chłopy",
		"district": "\"koszaliński",
		"postcode": "zachodniopomorskie"
	},
	{
		"lon": "15.9698268",
		"lat": "54.2447616",
		"number": "3",
		"street": "Ulica Bałtycka",
		"city": "Sarbinowo",
		"district": "\"koszaliński",
		"postcode": "zachodniopomorskie"
	},
	{
		"lon": "15.9574715",
		"lat": "54.2474417",
		"number": "1",
		"street": "Ulica Poprzeczna",
		"city": "Sarbinowo",
		"district": "\"koszaliński",
		"postcode": "zachodniopomorskie"
	},
	{
		"lon": "15.9557447",
		"lat": "54.2467418",
		"number": "16",
		"street": "Ulica Młyńska",
		"city": "Sarbinowo",
		"district": "\"koszaliński",
		"postcode": "zachodniopomorskie"
	},
	{
		"lon": "15.950341",
		"lat": "54.2486677",
		"number": "90",
		"street": "Ulica Nadmorska",
		"city": "Sarbinowo",
		"district": "\"koszaliński",
		"postcode": "zachodniopomorskie"
	},
	{
		"lon": "15.9376023",
		"lat": "54.2461753",
		"number": "10",
		"street": "Ulica Piaskowa",
		"city": "Sarbinowo",
		"district": "\"koszaliński",
		"postcode": "zachodniopomorskie"
	},
	{
		"lon": "15.8939799",
		"lat": "54.242682",
		"number": "25",
		"street": "Ulica Nadbrzeżna",
		"city": "Gąski",
		"district": "\"koszaliński",
		"postcode": "zachodniopomorskie"
	},
	{
		"lon": "15.8830338",
		"lat": "54.2420989",
		"number": "61",
		"street": "Ulica Nadbrzeżna",
		"city": "Gąski",
		"district": "\"koszaliński",
		"postcode": "zachodniopomorskie"
	},
	{
		"lon": "15.771638",
		"lat": "54.2176141",
		"number": "2B",
		"street": "Ulica Graniczna",
		"city": "Ustronie Morskie",
		"district": "\"kołobrzeski",
		"postcode": "zachodniopomorskie"
	},
	{
		"lon": "15.7643333",
		"lat": "54.2172248",
		"number": "72A",
		"street": "Ulica Bolesława Chrobrego",
		"city": "Ustronie Morskie",
		"district": "\"kołobrzeski",
		"postcode": "zachodniopomorskie"
	},
	{
		"lon": "15.765335",
		"lat": "54.2027361",
		"number": "7A",
		"street": "Ulica Koszalińska",
		"city": "Ustronie Morskie",
		"district": "\"kołobrzeski",
		"postcode": "zachodniopomorskie"
	},
	{
		"lon": "15.7605134",
		"lat": "54.2170754",
		"number": "53d",
		"street": "Ulica Bolesława Chrobrego",
		"city": "Ustronie Morskie",
		"district": "\"kołobrzeski",
		"postcode": "zachodniopomorskie"
	},
	{
		"lon": "15.7620416",
		"lat": "54.2131514",
		"number": "29A",
		"street": "Ulica Górna",
		"city": "Ustronie Morskie",
		"district": "\"kołobrzeski",
		"postcode": "zachodniopomorskie"
	},
	{
		"lon": "15.759442",
		"lat": "54.2158784",
		"number": "15B",
		"street": "Ulica Wojska Polskiego",
		"city": "Ustronie Morskie",
		"district": "\"kołobrzeski",
		"postcode": "zachodniopomorskie"
	},
	{
		"lon": "15.7570941",
		"lat": "54.1963657",
		"number": "1F",
		"street": "Ulica Ku Słońcu",
		"city": "Ustronie Morskie",
		"district": "\"kołobrzeski",
		"postcode": "zachodniopomorskie"
	},
	{
		"lon": "15.7517872",
		"lat": "54.2138654",
		"number": "1",
		"street": "Ulica Osiedlowa",
		"city": "Ustronie Morskie",
		"district": "\"kołobrzeski",
		"postcode": "zachodniopomorskie"
	},
	{
		"lon": "15.7497734",
		"lat": "54.2111899",
		"number": "21",
		"street": "Ulica Wiejska",
		"city": "Ustronie Morskie",
		"district": "\"kołobrzeski",
		"postcode": "zachodniopomorskie"
	},
	{
		"lon": "15.7507068",
		"lat": "54.2091643",
		"number": "39",
		"street": "Ulica Wiejska",
		"city": "Ustronie Morskie",
		"district": "\"kołobrzeski",
		"postcode": "zachodniopomorskie"
	},
	{
		"lon": "15.7505898",
		"lat": "54.2125184",
		"number": "4A",
		"street": "Ulica Osiedlowa",
		"city": "Ustronie Morskie",
		"district": "\"kołobrzeski",
		"postcode": "zachodniopomorskie"
	},
	{
		"lon": "15.744057",
		"lat": "54.2103161",
		"number": "1",
		"street": "Ulica Rolna",
		"city": "Ustronie Morskie",
		"district": "\"kołobrzeski",
		"postcode": "zachodniopomorskie"
	},
	{
		"lon": "15.7419014",
		"lat": "54.2083767",
		"number": "13",
		"street": "Ulica Rolna",
		"city": "Ustronie Morskie",
		"district": "\"kołobrzeski",
		"postcode": "zachodniopomorskie"
	},
	{
		"lon": "15.7336443",
		"lat": "54.2004083",
		"number": "2B",
		"street": "Ulica Kołobrzeska",
		"city": "Sianożęty",
		"district": "\"kołobrzeski",
		"postcode": "zachodniopomorskie"
	},
	{
		"lon": "15.7369859",
		"lat": "54.2052351",
		"number": "1",
		"street": "Ulica Olszyna",
		"city": "Sianożęty",
		"district": "\"kołobrzeski",
		"postcode": "zachodniopomorskie"
	},
	{
		"lon": "15.7283548",
		"lat": "54.2099043",
		"number": "2",
		"street": "Ulica Środkowa",
		"city": "Sianożęty",
		"district": "\"kołobrzeski",
		"postcode": "zachodniopomorskie"
	},
	{
		"lon": "15.7235411",
		"lat": "54.2076432",
		"number": "15",
		"street": "Ulica Lotnicza",
		"city": "Sianożęty",
		"district": "\"kołobrzeski",
		"postcode": "zachodniopomorskie"
	},
	{
		"lon": "15.7196784",
		"lat": "54.2055098",
		"number": "23",
		"street": "Ulica Wczasowa",
		"city": "Sianożęty",
		"district": "\"kołobrzeski",
		"postcode": "zachodniopomorskie"
	},
	{
		"lon": "15.7158299",
		"lat": "54.2051224",
		"number": "50",
		"street": "Ulica Wczasowa",
		"city": "Sianożęty",
		"district": "\"kołobrzeski",
		"postcode": "zachodniopomorskie"
	},
	{
		"lon": "15.7390755",
		"lat": "54.198538",
		"number": "15B",
		"street": "Ulica Kołobrzeska",
		"city": "Ustronie Morskie",
		"district": "\"kołobrzeski",
		"postcode": "zachodniopomorskie"
	},
	{
		"lon": "16.173876",
		"lat": "54.185183",
		"number": "18",
		"street": "Ulica Powstańców Wielkopolskich",
		"city": "Koszalin",
		"district": "\"Koszalin",
		"postcode": "zachodniopomorskie"
	},
	{
		"lon": "16.1808266",
		"lat": "54.185193",
		"number": "5",
		"street": "Ulica Zakole",
		"city": "Koszalin",
		"district": "\"Koszalin",
		"postcode": "zachodniopomorskie"
	},
	{
		"lon": "16.171243",
		"lat": "54.186097",
		"number": "7",
		"street": "Ulica Franciszka Ratajczaka",
		"city": "Koszalin",
		"district": "\"Koszalin",
		"postcode": "zachodniopomorskie"
	},
	{
		"lon": "16.1706876",
		"lat": "54.183301",
		"number": "47",
		"street": "Ulica Kolejowa",
		"city": "Koszalin",
		"district": "\"Koszalin",
		"postcode": "zachodniopomorskie"
	},
	{
		"lon": "16.1589739",
		"lat": "54.1846351",
		"number": "31a",
		"street": "Ulica Szczecińska",
		"city": "Koszalin",
		"district": "\"Koszalin",
		"postcode": "zachodniopomorskie"
	},
	{
		"lon": "16.1801403",
		"lat": "54.1826165",
		"number": "27c",
		"street": "Ulica Lutyków",
		"city": "Koszalin",
		"district": "\"Koszalin",
		"postcode": "zachodniopomorskie"
	},
	{
		"lon": "16.1777356",
		"lat": "54.181196",
		"number": "12",
		"street": "Ulica Poprzeczna",
		"city": "Koszalin",
		"district": "\"Koszalin",
		"postcode": "zachodniopomorskie"
	},
	{
		"lon": "16.1729552",
		"lat": "54.1823541",
		"number": "24",
		"street": "Ulica Lechicka",
		"city": "Koszalin",
		"district": "\"Koszalin",
		"postcode": "zachodniopomorskie"
	},
	{
		"lon": "16.177492",
		"lat": "54.1805769",
		"number": "9c",
		"street": "Ulica Poprzeczna",
		"city": "Koszalin",
		"district": "\"Koszalin",
		"postcode": "zachodniopomorskie"
	},
	{
		"lon": "16.1745377",
		"lat": "54.180716",
		"number": "26c",
		"street": "Ulica Poprzeczna",
		"city": "Koszalin",
		"district": "\"Koszalin",
		"postcode": "zachodniopomorskie"
	},
	{
		"lon": "16.180822",
		"lat": "54.1779664",
		"number": "8a",
		"street": "Ulica Wenedów",
		"city": "Koszalin",
		"district": "\"Koszalin",
		"postcode": "zachodniopomorskie"
	},
	{
		"lon": "16.1810388",
		"lat": "54.1747518",
		"number": "1",
		"street": "Ulica Lubuszan",
		"city": "Koszalin",
		"district": "\"Koszalin",
		"postcode": "zachodniopomorskie"
	},
	{
		"lon": "16.1791482",
		"lat": "54.164942",
		"number": "24j",
		"street": "Ulica Żytnia",
		"city": "Koszalin",
		"district": "\"Koszalin",
		"postcode": "zachodniopomorskie"
	},
	{
		"lon": "15.7311031",
		"lat": "54.1410171",
		"number": "33",
		"street": "Ulica Kolejowa",
		"city": "Dygowo",
		"district": "\"kołobrzeski",
		"postcode": "zachodniopomorskie"
	},
	{
		"lon": "15.7253629",
		"lat": "54.1335571",
		"number": "6",
		"street": "Ulica Wiosenna",
		"city": "Dygowo",
		"district": "\"kołobrzeski",
		"postcode": "zachodniopomorskie"
	},
	{
		"lon": "15.7246376",
		"lat": "54.1330913",
		"number": "3a",
		"street": "Ulica Kolejowa",
		"city": "Dygowo",
		"district": "\"kołobrzeski",
		"postcode": "zachodniopomorskie"
	},
	{
		"lon": "15.7190046",
		"lat": "54.1324455",
		"number": "19",
		"street": "Ulica Ogrodowa",
		"city": "Dygowo",
		"district": "\"kołobrzeski",
		"postcode": "zachodniopomorskie"
	},
	{
		"lon": "15.71315",
		"lat": "54.1343158",
		"number": "19",
		"street": "Ulica Kołobrzeska",
		"city": "Dygowo",
		"district": "\"kołobrzeski",
		"postcode": "zachodniopomorskie"
	},
	{
		"lon": "16.2566995",
		"lat": "54.17475",
		"number": "103",
		"street": "Ulica Lubiatowska",
		"city": "Koszalin",
		"district": "\"Koszalin",
		"postcode": "zachodniopomorskie"
	},
	{
		"lon": "16.2520662",
		"lat": "54.1733424",
		"number": "23",
		"street": "Ulica Łąkowa",
		"city": "Koszalin",
		"district": "\"Koszalin",
		"postcode": "zachodniopomorskie"
	},
	{
		"lon": "16.2473275",
		"lat": "54.1835396",
		"number": "13",
		"street": "Ulica Kupiecka",
		"city": "Koszalin",
		"district": "\"Koszalin",
		"postcode": "zachodniopomorskie"
	},
	{
		"lon": "16.2431987",
		"lat": "54.1850593",
		"number": "12",
		"street": "Ulica Lubiatowska",
		"city": "Koszalin",
		"district": "\"Koszalin",
		"postcode": "zachodniopomorskie"
	},
	{
		"lon": "16.2326677",
		"lat": "54.1872764",
		"number": "21",
		"street": "Ulica Topolowa",
		"city": "Koszalin",
		"district": "\"Koszalin",
		"postcode": "zachodniopomorskie"
	},
	{
		"lon": "16.2172487",
		"lat": "54.1623391",
		"number": "18",
		"street": "Ulica Kretomińska",
		"city": "Kretomino",
		"district": "\"koszaliński",
		"postcode": "zachodniopomorskie"
	},
	{
		"lon": "16.1787956",
		"lat": "54.1647064",
		"number": "30d",
		"street": "Ulica Żytnia",
		"city": "Koszalin",
		"district": "\"Koszalin",
		"postcode": "zachodniopomorskie"
	},
	{
		"lon": "16.2161162",
		"lat": "54.1601296",
		"number": "27",
		"street": "Ulica Kretomińska",
		"city": "Kretomino",
		"district": "\"koszaliński",
		"postcode": "zachodniopomorskie"
	},
	{
		"lon": "16.2145313",
		"lat": "54.1560665",
		"number": "9",
		"street": "Ulica Aroniowa",
		"city": "Kretomino",
		"district": "\"koszaliński",
		"postcode": "zachodniopomorskie"
	},
	{
		"lon": "16.195957",
		"lat": "54.1634392",
		"number": "4",
		"street": "Ulica Seminaryjna",
		"city": "Koszalin",
		"district": "\"Koszalin",
		"postcode": "zachodniopomorskie"
	},
	{
		"lon": "16.2112842",
		"lat": "54.1558555",
		"number": "78",
		"street": "Ulica Paproci",
		"city": "Koszalin",
		"district": "\"Koszalin",
		"postcode": "zachodniopomorskie"
	},
	{
		"lon": "16.2117939",
		"lat": "54.1545629",
		"number": "11",
		"street": "Ulica Stokrotek",
		"city": "Koszalin",
		"district": "\"Koszalin",
		"postcode": "zachodniopomorskie"
	},
	{
		"lon": "16.1977406",
		"lat": "54.1529005",
		"number": "21",
		"street": "Ulica Paproci",
		"city": "Koszalin",
		"district": "\"Koszalin",
		"postcode": "zachodniopomorskie"
	},
	{
		"lon": "16.2061301",
		"lat": "54.153673",
		"number": "8",
		"street": "Ulica Róż",
		"city": "Koszalin",
		"district": "\"Koszalin",
		"postcode": "zachodniopomorskie"
	},
	{
		"lon": "16.2091087",
		"lat": "54.1528363",
		"number": "16",
		"street": "Ulica Konwalii",
		"city": "Koszalin",
		"district": "\"Koszalin",
		"postcode": "zachodniopomorskie"
	},
	{
		"lon": "16.2099167",
		"lat": "54.1515084",
		"number": "2",
		"street": "Ulica Irysów",
		"city": "Koszalin",
		"district": "\"Koszalin",
		"postcode": "zachodniopomorskie"
	},
	{
		"lon": "16.1983314",
		"lat": "54.1487375",
		"number": "27",
		"street": "Ulica Maków",
		"city": "Koszalin",
		"district": "\"Koszalin",
		"postcode": "zachodniopomorskie"
	},
	{
		"lon": "16.0870083",
		"lat": "54.2207519",
		"number": "38",
		"street": "Ulica Północna",
		"city": "Mścice",
		"district": "\"koszaliński",
		"postcode": "zachodniopomorskie"
	},
	{
		"lon": "16.105139",
		"lat": "54.2186209",
		"number": "42",
		"street": "Ulica Koszalińska",
		"city": "Mścice",
		"district": "\"koszaliński",
		"postcode": "zachodniopomorskie"
	},
	{
		"lon": "16.0773329",
		"lat": "54.2173105",
		"number": "21A",
		"street": "Ulica Dworcowa",
		"city": "Mścice",
		"district": "\"koszaliński",
		"postcode": "zachodniopomorskie"
	},
	{
		"lon": "15.8750528",
		"lat": "54.0443252",
		"number": "48f",
		"street": "Ulica Kościuszki",
		"city": "Karlino",
		"district": "\"białogardzki",
		"postcode": "zachodniopomorskie"
	},
	{
		"lon": "15.8750148",
		"lat": "54.0432677",
		"number": "48o",
		"street": "Ulica Kościuszki",
		"city": "Karlino",
		"district": "\"białogardzki",
		"postcode": "zachodniopomorskie"
	},
	{
		"lon": "15.726936",
		"lat": "54.1265411",
		"number": "52",
		"street": "Ulica Kołobrzeska",
		"city": "Dygowo",
		"district": "\"kołobrzeski",
		"postcode": "zachodniopomorskie"
	},
	{
		"lon": "15.7184777",
		"lat": "54.1295377",
		"number": "19",
		"street": "Ulica Diamentowa",
		"city": "Dygowo",
		"district": "\"kołobrzeski",
		"postcode": "zachodniopomorskie"
	},
	{
		"lon": "16.0095492",
		"lat": "54.0083877",
		"number": "7",
		"street": "Ulica Jerzego",
		"city": "Białogard",
		"district": "\"białogardzki",
		"postcode": "zachodniopomorskie"
	},
	{
		"lon": "16.0087184",
		"lat": "54.0082742",
		"number": "10",
		"street": "Ulica Jana Kiepury",
		"city": "Białogard",
		"district": "\"białogardzki",
		"postcode": "zachodniopomorskie"
	},
	{
		"lon": "16.0050951",
		"lat": "54.0087117",
		"number": "17",
		"street": "Ulica Piastów",
		"city": "Białogard",
		"district": "\"białogardzki",
		"postcode": "zachodniopomorskie"
	},
	{
		"lon": "16.0031513",
		"lat": "54.0078215",
		"number": "2",
		"street": "Ulica Szymanowskiego",
		"city": "Białogard",
		"district": "\"białogardzki",
		"postcode": "zachodniopomorskie"
	},
	{
		"lon": "16.0030363",
		"lat": "54.0117417",
		"number": "42",
		"street": "Ulica Zwycięstwa",
		"city": "Białogard",
		"district": "\"białogardzki",
		"postcode": "zachodniopomorskie"
	},
	{
		"lon": "15.9969424",
		"lat": "54.0128814",
		"number": "37",
		"street": "Ulica <Null> Bolesława Śmiałego",
		"city": "Białogard",
		"district": "\"białogardzki",
		"postcode": "zachodniopomorskie"
	},
	{
		"lon": "15.9928858",
		"lat": "54.0139338",
		"number": "22",
		"street": "Ulica <Null> Bolesława Śmiałego",
		"city": "Białogard",
		"district": "\"białogardzki",
		"postcode": "zachodniopomorskie"
	},
	{
		"lon": "15.9917272",
		"lat": "54.0166947",
		"number": "11",
		"street": "Ulica Mestwina",
		"city": "Białogard",
		"district": "\"białogardzki",
		"postcode": "zachodniopomorskie"
	},
	{
		"lon": "15.9916345",
		"lat": "54.0128048",
		"number": "13a",
		"street": "Ulica Wiślana",
		"city": "Białogard",
		"district": "\"białogardzki",
		"postcode": "zachodniopomorskie"
	},
	{
		"lon": "15.987191",
		"lat": "54.010046",
		"number": "12",
		"street": "Ulica Słowackiego",
		"city": "Białogard",
		"district": "\"białogardzki",
		"postcode": "zachodniopomorskie"
	},
	{
		"lon": "15.9895022",
		"lat": "54.0134049",
		"number": "41",
		"street": "Ulica Dąbrowszczaków",
		"city": "Białogard",
		"district": "\"białogardzki",
		"postcode": "zachodniopomorskie"
	},
	{
		"lon": "15.983766",
		"lat": "54.0135019",
		"number": "6",
		"street": "Ulica Bolesława Prusa",
		"city": "Białogard",
		"district": "\"białogardzki",
		"postcode": "zachodniopomorskie"
	},
	{
		"lon": "16.0025834",
		"lat": "54.0064398",
		"number": "7",
		"street": "Ulica Moniuszki",
		"city": "Białogard",
		"district": "\"białogardzki",
		"postcode": "zachodniopomorskie"
	},
	{
		"lon": "15.9901217",
		"lat": "54.0058136",
		"number": "16",
		"street": "Ulica Lindego",
		"city": "Białogard",
		"district": "\"białogardzki",
		"postcode": "zachodniopomorskie"
	},
	{
		"lon": "15.994425",
		"lat": "54.004816",
		"number": "61",
		"street": "Ulica Józefa Piłsudskiego",
		"city": "Białogard",
		"district": "\"białogardzki",
		"postcode": "zachodniopomorskie"
	},
	{
		"lon": "16.0041943",
		"lat": "54.0057236",
		"number": "15",
		"street": "Ulica Moniuszki",
		"city": "Białogard",
		"district": "\"białogardzki",
		"postcode": "zachodniopomorskie"
	},
	{
		"lon": "15.9853587",
		"lat": "54.0051709",
		"number": "2",
		"street": "Ulica Zaułek Drzewny",
		"city": "Białogard",
		"district": "\"białogardzki",
		"postcode": "zachodniopomorskie"
	},
	{
		"lon": "15.9930953",
		"lat": "54.0034073",
		"number": "46",
		"street": "Ulica Józefa Piłsudskiego",
		"city": "Białogard",
		"district": "\"białogardzki",
		"postcode": "zachodniopomorskie"
	},
	{
		"lon": "16.0029983",
		"lat": "54.0026916",
		"number": "2",
		"street": "Ulica Mieszka I",
		"city": "Białogard",
		"district": "\"białogardzki",
		"postcode": "zachodniopomorskie"
	},
	{
		"lon": "15.9943112",
		"lat": "53.9996439",
		"number": "12",
		"street": "Ulica Połczyńska",
		"city": "Białogard",
		"district": "\"białogardzki",
		"postcode": "zachodniopomorskie"
	},
	{
		"lon": "15.9989305",
		"lat": "53.9988557",
		"number": "9",
		"street": "Ulica Wiejska",
		"city": "Białogard",
		"district": "\"białogardzki",
		"postcode": "zachodniopomorskie"
	},
	{
		"lon": "16.0051854",
		"lat": "53.9995284",
		"number": "4",
		"street": "Ulica Wadowicka",
		"city": "Białogard",
		"district": "\"białogardzki",
		"postcode": "zachodniopomorskie"
	},
	{
		"lon": "15.9991581",
		"lat": "53.9979885",
		"number": "3",
		"street": "Ulica Wawelska",
		"city": "Białogard",
		"district": "\"białogardzki",
		"postcode": "zachodniopomorskie"
	},
	{
		"lon": "16.0009121",
		"lat": "53.9971509",
		"number": "26",
		"street": "Ulica Leśna",
		"city": "Białogard",
		"district": "\"białogardzki",
		"postcode": "zachodniopomorskie"
	},
	{
		"lon": "15.9868578",
		"lat": "54.0059153",
		"number": "4",
		"street": "Ulica Wojska Polskiego",
		"city": "Białogard",
		"district": "\"białogardzki",
		"postcode": "zachodniopomorskie"
	},
	{
		"lon": "15.9860085",
		"lat": "54.0104434",
		"number": "12",
		"street": "Ulica Zamoyskiego",
		"city": "Białogard",
		"district": "\"białogardzki",
		"postcode": "zachodniopomorskie"
	},
	{
		"lon": "15.9828632",
		"lat": "54.0116639",
		"number": "6",
		"street": "Ulica Juliana Tuwima",
		"city": "Białogard",
		"district": "\"białogardzki",
		"postcode": "zachodniopomorskie"
	},
	{
		"lon": "15.9834846",
		"lat": "54.0130619",
		"number": "6",
		"street": "Ulica Norwida",
		"city": "Białogard",
		"district": "\"białogardzki",
		"postcode": "zachodniopomorskie"
	},
	{
		"lon": "15.9809378",
		"lat": "54.0082107",
		"number": "25",
		"street": "Ulica Lipowa",
		"city": "Białogard",
		"district": "\"białogardzki",
		"postcode": "zachodniopomorskie"
	},
	{
		"lon": "15.9798082",
		"lat": "54.0059669",
		"number": "48",
		"street": "Ulica Wojska Polskiego",
		"city": "Białogard",
		"district": "\"białogardzki",
		"postcode": "zachodniopomorskie"
	},
	{
		"lon": "15.9789222",
		"lat": "54.0098617",
		"number": "2",
		"street": "Ulica Marcina Borzymowskiego",
		"city": "Białogard",
		"district": "\"białogardzki",
		"postcode": "zachodniopomorskie"
	},
	{
		"lon": "15.9804198",
		"lat": "54.0001606",
		"number": "1",
		"street": "Ulica Cicha",
		"city": "Białogard",
		"district": "\"białogardzki",
		"postcode": "zachodniopomorskie"
	},
	{
		"lon": "15.9727885",
		"lat": "54.0060797",
		"number": "5A",
		"street": "Ulica Szpitalna",
		"city": "Białogard",
		"district": "\"białogardzki",
		"postcode": "zachodniopomorskie"
	},
	{
		"lon": "15.966368",
		"lat": "54.01054",
		"number": "35b",
		"street": "Ulica Kołobrzeska",
		"city": "Białogard",
		"district": "\"białogardzki",
		"postcode": "zachodniopomorskie"
	},
	{
		"lon": "15.9570541",
		"lat": "54.012256",
		"number": "17",
		"street": "Ulica Feliksa Stamma",
		"city": "Białogard",
		"district": "\"białogardzki",
		"postcode": "zachodniopomorskie"
	},
	{
		"lon": "15.9753277",
		"lat": "53.9993521",
		"number": "1",
		"street": "Ulica Łąkowa",
		"city": "Białogard",
		"district": "\"białogardzki",
		"postcode": "zachodniopomorskie"
	},
	{
		"lon": "15.8873906",
		"lat": "54.0438335",
		"number": "4",
		"street": "Ulica Kolejowa",
		"city": "Karlino",
		"district": "\"białogardzki",
		"postcode": "zachodniopomorskie"
	},
	{
		"lon": "15.8793045",
		"lat": "54.0361649",
		"number": "62",
		"street": "Ulica Koszalińska",
		"city": "Karlino",
		"district": "\"białogardzki",
		"postcode": "zachodniopomorskie"
	},
	{
		"lon": "15.8782846",
		"lat": "54.0342426",
		"number": "18",
		"street": "Ulica Koszalińska",
		"city": "Karlino",
		"district": "\"białogardzki",
		"postcode": "zachodniopomorskie"
	},
	{
		"lon": "15.8760539",
		"lat": "54.0412255",
		"number": "10",
		"street": "Ulica Słoneczna",
		"city": "Karlino",
		"district": "\"białogardzki",
		"postcode": "zachodniopomorskie"
	},
	{
		"lon": "15.8758471",
		"lat": "54.040783",
		"number": "3",
		"street": "Ulica Słoneczna",
		"city": "Karlino",
		"district": "\"białogardzki",
		"postcode": "zachodniopomorskie"
	},
	{
		"lon": "15.8759889",
		"lat": "54.0328182",
		"number": "2",
		"street": "Ulica Spichrzowa",
		"city": "Karlino",
		"district": "\"białogardzki",
		"postcode": "zachodniopomorskie"
	},
	{
		"lon": "15.8727013",
		"lat": "54.0428854",
		"number": "2",
		"street": "Ulica Niepodległości",
		"city": "Karlino",
		"district": "\"białogardzki",
		"postcode": "zachodniopomorskie"
	},
	{
		"lon": "15.8770141",
		"lat": "54.0350019",
		"number": "9d",
		"street": "Ulica Szymanowskiego",
		"city": "Karlino",
		"district": "\"białogardzki",
		"postcode": "zachodniopomorskie"
	},
	{
		"lon": "15.8865948",
		"lat": "54.0480593",
		"number": "6b",
		"street": "Ulica Leśna",
		"city": "Karlino",
		"district": "\"białogardzki",
		"postcode": "zachodniopomorskie"
	},
	{
		"lon": "15.9885063",
		"lat": "54.0187236",
		"number": "82",
		"street": "Ulica Dąbrowszczaków",
		"city": "Białogard",
		"district": "\"białogardzki",
		"postcode": "zachodniopomorskie"
	},
	{
		"lon": "15.9869401",
		"lat": "54.0171251",
		"number": "65",
		"street": "Ulica Kochanowskiego",
		"city": "Białogard",
		"district": "\"białogardzki",
		"postcode": "zachodniopomorskie"
	},
	{
		"lon": "15.9683572",
		"lat": "54.0240883",
		"number": "80",
		"street": "Ulica 1 Maja",
		"city": "Białogard",
		"district": "\"białogardzki",
		"postcode": "zachodniopomorskie"
	},
	{
		"lon": "16.005086",
		"lat": "54.011809",
		"number": "1",
		"street": "Ulica Krzysztofa Komedy",
		"city": "Białogard",
		"district": "\"białogardzki",
		"postcode": "zachodniopomorskie"
	},
	{
		"lon": "16.2110556",
		"lat": "54.19532",
		"number": "53",
		"street": "Ulica Fryderyka Chopina",
		"city": "Koszalin",
		"district": "\"Koszalin",
		"postcode": "zachodniopomorskie"
	},
	{
		"lon": "16.2212694",
		"lat": "54.1946558",
		"number": "8",
		"street": "Ulica Leśna",
		"city": "Koszalin",
		"district": "\"Koszalin",
		"postcode": "zachodniopomorskie"
	},
	{
		"lon": "16.2180514",
		"lat": "54.1881594",
		"number": "21",
		"street": "Ulica Zielona",
		"city": "Koszalin",
		"district": "\"Koszalin",
		"postcode": "zachodniopomorskie"
	},
	{
		"lon": "16.2148898",
		"lat": "54.186072",
		"number": "46",
		"street": "Ulica Zielona",
		"city": "Koszalin",
		"district": "\"Koszalin",
		"postcode": "zachodniopomorskie"
	},
	{
		"lon": "16.2304127",
		"lat": "54.1813495",
		"number": "20d",
		"street": "Ulica Wierzbowa",
		"city": "Koszalin",
		"district": "\"Koszalin",
		"postcode": "zachodniopomorskie"
	},
	{
		"lon": "16.2473615",
		"lat": "54.1756374",
		"number": "11",
		"street": "Ulica Dzierżęcińska",
		"city": "Koszalin",
		"district": "\"Koszalin",
		"postcode": "zachodniopomorskie"
	},
	{
		"lon": "16.0013266",
		"lat": "53.9961912",
		"number": "10",
		"street": "Ulica Podlaska",
		"city": "Białogard",
		"district": "\"białogardzki",
		"postcode": "zachodniopomorskie"
	},
	{
		"lon": "15.977689",
		"lat": "53.9961065",
		"number": "35",
		"street": "Ulica Kisielice Duże",
		"city": "Białogard",
		"district": "\"białogardzki",
		"postcode": "zachodniopomorskie"
	},
	{
		"lon": "15.9952637",
		"lat": "54.0038157",
		"number": "8a",
		"street": "Ulica Klementyny Hoffmanowej",
		"city": "Białogard",
		"district": "\"białogardzki",
		"postcode": "zachodniopomorskie"
	},
	{
		"lon": "16.4066511",
		"lat": "54.424003",
		"number": "7",
		"street": "Ulica Jana Matejki",
		"city": "Darłowo",
		"district": "\"sławieński",
		"postcode": "zachodniopomorskie"
	},
	{
		"lon": "16.4048856",
		"lat": "54.424058",
		"number": "11",
		"street": "Ulica Artura Grottgera",
		"city": "Darłowo",
		"district": "\"sławieński",
		"postcode": "zachodniopomorskie"
	},
	{
		"lon": "16.4086896",
		"lat": "54.4236594",
		"number": "114",
		"street": "Ulica Wałowa",
		"city": "Darłowo",
		"district": "\"sławieński",
		"postcode": "zachodniopomorskie"
	},
	{
		"lon": "16.411201",
		"lat": "54.4224886",
		"number": "6",
		"street": "Plac Plac Tadeusza Kościuszki",
		"city": "Darłowo",
		"district": "\"sławieński",
		"postcode": "zachodniopomorskie"
	},
	{
		"lon": "16.4086405",
		"lat": "54.4201946",
		"number": "15",
		"street": "Ulica Kowalska",
		"city": "Darłowo",
		"district": "\"sławieński",
		"postcode": "zachodniopomorskie"
	},
	{
		"lon": "16.4099789",
		"lat": "54.4179468",
		"number": "59b",
		"street": "Ulica Aleje Wojska Polskiego",
		"city": "Darłowo",
		"district": "\"sławieński",
		"postcode": "zachodniopomorskie"
	},
	{
		"lon": "16.4021965",
		"lat": "54.4161502",
		"number": "7",
		"street": "Ulica Juliusza Słowackiego",
		"city": "Darłowo",
		"district": "\"sławieński",
		"postcode": "zachodniopomorskie"
	},
	{
		"lon": "16.4188429",
		"lat": "53.887428",
		"number": "7",
		"street": "Ulica Polna",
		"city": "Mieszałki",
		"district": "\"szczecinecki",
		"postcode": "zachodniopomorskie"
	},
	{
		"lon": "16.4107127",
		"lat": "54.412824",
		"number": "38A",
		"street": "Ulica Aleje Wojska Polskiego",
		"city": "Darłowo",
		"district": "\"sławieński",
		"postcode": "zachodniopomorskie"
	},
	{
		"lon": "16.4311789",
		"lat": "53.8342716",
		"number": "5",
		"street": "Ulica Kolejowa",
		"city": "Grzmiąca",
		"district": "\"szczecinecki",
		"postcode": "zachodniopomorskie"
	},
	{
		"lon": "16.4188744",
		"lat": "53.8329898",
		"number": "25",
		"street": "Ulica Kolejowa",
		"city": "Grzmiąca",
		"district": "\"szczecinecki",
		"postcode": "zachodniopomorskie"
	},
	{
		"lon": "16.2754578",
		"lat": "53.9353501",
		"number": "47",
		"street": "Ulica Bobolicka",
		"city": "Tychowo",
		"district": "\"białogardzki",
		"postcode": "zachodniopomorskie"
	},
	{
		"lon": "16.2701245",
		"lat": "53.9332993",
		"number": "30",
		"street": "Ulica Bobolicka",
		"city": "Tychowo",
		"district": "\"białogardzki",
		"postcode": "zachodniopomorskie"
	},
	{
		"lon": "16.2717993",
		"lat": "53.9290896",
		"number": "4",
		"street": "Ulica Akacjowa",
		"city": "Tychowo",
		"district": "\"białogardzki",
		"postcode": "zachodniopomorskie"
	},
	{
		"lon": "16.2576779",
		"lat": "53.9276296",
		"number": "12",
		"street": "Ulica Wolności",
		"city": "Tychowo",
		"district": "\"białogardzki",
		"postcode": "zachodniopomorskie"
	},
	{
		"lon": "16.2496355",
		"lat": "53.9163812",
		"number": "7",
		"street": "Ulica Dolna",
		"city": "Tychowo",
		"district": "\"białogardzki",
		"postcode": "zachodniopomorskie"
	},
	{
		"lon": "16.3084785",
		"lat": "53.8373276",
		"number": "9",
		"street": "Ulica Rzeczna",
		"city": "Krosino",
		"district": "\"szczecinecki",
		"postcode": "zachodniopomorskie"
	},
	{
		"lon": "16.1075087",
		"lat": "53.7748491",
		"number": "47",
		"street": "Ulica Traugutta",
		"city": "Połczyn-Zdrój",
		"district": "\"świdwiński",
		"postcode": "zachodniopomorskie"
	},
	{
		"lon": "16.1100834",
		"lat": "53.7712302",
		"number": "97",
		"street": "Ulica Polna",
		"city": "Połczyn-Zdrój",
		"district": "\"świdwiński",
		"postcode": "zachodniopomorskie"
	},
	{
		"lon": "16.1041185",
		"lat": "53.7701191",
		"number": "6",
		"street": "Ulica Polna",
		"city": "Połczyn-Zdrój",
		"district": "\"świdwiński",
		"postcode": "zachodniopomorskie"
	},
	{
		"lon": "16.0971517",
		"lat": "53.7706595",
		"number": "11",
		"street": "Ulica Reymonta",
		"city": "Połczyn-Zdrój",
		"district": "\"świdwiński",
		"postcode": "zachodniopomorskie"
	},
	{
		"lon": "16.1005196",
		"lat": "53.7691192",
		"number": "8",
		"street": "Ulica Stanisława Staszica",
		"city": "Połczyn-Zdrój",
		"district": "\"świdwiński",
		"postcode": "zachodniopomorskie"
	},
	{
		"lon": "16.0887718",
		"lat": "53.7686515",
		"number": "15",
		"street": "Ulica Kołobrzeska",
		"city": "Połczyn-Zdrój",
		"district": "\"świdwiński",
		"postcode": "zachodniopomorskie"
	},
	{
		"lon": "16.1029119",
		"lat": "53.7708633",
		"number": "4",
		"street": "Ulica Traugutta",
		"city": "Połczyn-Zdrój",
		"district": "\"świdwiński",
		"postcode": "zachodniopomorskie"
	},
	{
		"lon": "16.0948298",
		"lat": "53.7673713",
		"number": "32",
		"street": "Ulica Grunwaldzka",
		"city": "Połczyn-Zdrój",
		"district": "\"świdwiński",
		"postcode": "zachodniopomorskie"
	},
	{
		"lon": "16.0859259",
		"lat": "53.7674468",
		"number": "37",
		"street": "Ulica Kazimierza Wielkiego",
		"city": "Połczyn-Zdrój",
		"district": "\"świdwiński",
		"postcode": "zachodniopomorskie"
	},
	{
		"lon": "15.9823464",
		"lat": "54.0106541",
		"number": "29",
		"street": "Ulica 1 Maja",
		"city": "Białogard",
		"district": "\"białogardzki",
		"postcode": "zachodniopomorskie"
	},
	{
		"lon": "15.9849765",
		"lat": "54.0056181",
		"number": "74",
		"street": "Ulica Wojska Polskiego",
		"city": "Białogard",
		"district": "\"białogardzki",
		"postcode": "zachodniopomorskie"
	},
	{
		"lon": "15.9804376",
		"lat": "54.0007517",
		"number": "10",
		"street": "Ulica Kisielice Duże",
		"city": "Białogard",
		"district": "\"białogardzki",
		"postcode": "zachodniopomorskie"
	},
	{
		"lon": "15.7498513",
		"lat": "53.7672795",
		"number": "14a",
		"street": "Ulica Chełmińska",
		"city": "Świdwin",
		"district": "\"świdwiński",
		"postcode": "zachodniopomorskie"
	},
	{
		"lon": "15.7594635",
		"lat": "53.7653791",
		"number": "7",
		"street": "Ulica Toruńska",
		"city": "Świdwin",
		"district": "\"świdwiński",
		"postcode": "zachodniopomorskie"
	},
	{
		"lon": "15.775099",
		"lat": "53.7626108",
		"number": "43",
		"street": "Ulica Podmiejska",
		"city": "Świdwin",
		"district": "\"świdwiński",
		"postcode": "zachodniopomorskie"
	},
	{
		"lon": "15.7596728",
		"lat": "53.7667035",
		"number": "2",
		"street": "Ulica Bydgoska",
		"city": "Świdwin",
		"district": "\"świdwiński",
		"postcode": "zachodniopomorskie"
	},
	{
		"lon": "15.7673686",
		"lat": "53.7508795",
		"number": "72",
		"street": "Ulica Drawska",
		"city": "Świdwin",
		"district": "\"świdwiński",
		"postcode": "zachodniopomorskie"
	},
	{
		"lon": "15.7601005",
		"lat": "53.7693946",
		"number": "72",
		"street": "Ulica Szczecińska",
		"city": "Świdwin",
		"district": "\"świdwiński",
		"postcode": "zachodniopomorskie"
	},
	{
		"lon": "16.6790631",
		"lat": "53.7203149",
		"number": "88c",
		"street": "Ulica Koszalińska",
		"city": "Szczecinek",
		"district": "\"szczecinecki",
		"postcode": "zachodniopomorskie"
	},
	{
		"lon": "16.3717098",
		"lat": "53.7331027",
		"number": "52",
		"street": "Ulica 1000-lecia",
		"city": "Barwice",
		"district": "\"szczecinecki",
		"postcode": "zachodniopomorskie"
	},
	{
		"lon": "16.6157536",
		"lat": "53.7184932",
		"number": "76",
		"street": "Ulica Trzesiecka",
		"city": "Szczecinek",
		"district": "\"szczecinecki",
		"postcode": "zachodniopomorskie"
	},
	{
		"lon": "16.5243491",
		"lat": "53.5931339",
		"number": "26",
		"street": "Ulica Nadbrzeżna",
		"city": "Borne Sulinowo",
		"district": "\"szczecinecki",
		"postcode": "zachodniopomorskie"
	},
	{
		"lon": "16.5487732",
		"lat": "53.5834296",
		"number": "28",
		"street": "Ulica Bolesława Chrobrego",
		"city": "Borne Sulinowo",
		"district": "\"szczecinecki",
		"postcode": "zachodniopomorskie"
	},
	{
		"lon": "16.5353973",
		"lat": "53.580939",
		"number": "10",
		"street": "Ulica Kard. Stefana Wyszyńskiego",
		"city": "Borne Sulinowo",
		"district": "\"szczecinecki",
		"postcode": "zachodniopomorskie"
	},
	{
		"lon": "16.5469921",
		"lat": "53.5819524",
		"number": "30a",
		"street": "Ulica Bolesława Chrobrego",
		"city": "Borne Sulinowo",
		"district": "\"szczecinecki",
		"postcode": "zachodniopomorskie"
	},
	{
		"lon": "16.5370975",
		"lat": "53.575519",
		"number": "30",
		"street": "Ulica Wojska Polskiego",
		"city": "Borne Sulinowo",
		"district": "\"szczecinecki",
		"postcode": "zachodniopomorskie"
	},
	{
		"lon": "16.3958678",
		"lat": "53.5879542",
		"number": "12",
		"street": "Ulica Kościuszki",
		"city": "Łubowo",
		"district": "\"szczecinecki",
		"postcode": "zachodniopomorskie"
	},
	{
		"lon": "16.4673774",
		"lat": "53.2741962",
		"number": "8",
		"street": "Ulica Sosnowa",
		"city": "Wałcz",
		"district": "\"wałecki",
		"postcode": "zachodniopomorskie"
	},
	{
		"lon": "16.4673016",
		"lat": "53.2805387",
		"number": "4",
		"street": "Ulica Żabia",
		"city": "Wałcz",
		"district": "\"wałecki",
		"postcode": "zachodniopomorskie"
	},
	{
		"lon": "16.4677942",
		"lat": "53.2798315",
		"number": "17",
		"street": "Ulica Pożarna",
		"city": "Wałcz",
		"district": "\"wałecki",
		"postcode": "zachodniopomorskie"
	},
	{
		"lon": "16.4635555",
		"lat": "53.2740292",
		"number": "10",
		"street": "Ulica Wileńska",
		"city": "Wałcz",
		"district": "\"wałecki",
		"postcode": "zachodniopomorskie"
	},
	{
		"lon": "16.4612222",
		"lat": "53.2751062",
		"number": "4",
		"street": "Ulica Bukowa",
		"city": "Wałcz",
		"district": "\"wałecki",
		"postcode": "zachodniopomorskie"
	},
	{
		"lon": "16.4602062",
		"lat": "53.2758757",
		"number": "24",
		"street": "Ulica Chopina",
		"city": "Wałcz",
		"district": "\"wałecki",
		"postcode": "zachodniopomorskie"
	},
	{
		"lon": "16.4589277",
		"lat": "53.2762907",
		"number": "9",
		"street": "Ulica Ogrodowa",
		"city": "Wałcz",
		"district": "\"wałecki",
		"postcode": "zachodniopomorskie"
	},
	{
		"lon": "16.4554052",
		"lat": "53.2776415",
		"number": "21",
		"street": "Ulica Urocza",
		"city": "Wałcz",
		"district": "\"wałecki",
		"postcode": "zachodniopomorskie"
	},
	{
		"lon": "16.4529406",
		"lat": "53.2800617",
		"number": "20",
		"street": "Ulica Wilcza",
		"city": "Wałcz",
		"district": "\"wałecki",
		"postcode": "zachodniopomorskie"
	},
	{
		"lon": "16.4542711",
		"lat": "53.2751393",
		"number": "47",
		"street": "Ulica Chłodna",
		"city": "Wałcz",
		"district": "\"wałecki",
		"postcode": "zachodniopomorskie"
	},
	{
		"lon": "16.4877978",
		"lat": "53.2804313",
		"number": "3",
		"street": "Ulica Poznańska",
		"city": "Wałcz",
		"district": "\"wałecki",
		"postcode": "zachodniopomorskie"
	},
	{
		"lon": "16.4864801",
		"lat": "53.2802645",
		"number": "29",
		"street": "Ulica Zaułek Chełmiński",
		"city": "Wałcz",
		"district": "\"wałecki",
		"postcode": "zachodniopomorskie"
	},
	{
		"lon": "16.484177",
		"lat": "53.281506",
		"number": "12",
		"street": "Ulica Piaskowa",
		"city": "Wałcz",
		"district": "\"wałecki",
		"postcode": "zachodniopomorskie"
	},
	{
		"lon": "16.4806632",
		"lat": "53.2776499",
		"number": "46",
		"street": "Ulica 1 Maja",
		"city": "Wałcz",
		"district": "\"wałecki",
		"postcode": "zachodniopomorskie"
	},
	{
		"lon": "16.4791433",
		"lat": "53.2734132",
		"number": "3",
		"street": "Ulica Dworcowa",
		"city": "Wałcz",
		"district": "\"wałecki",
		"postcode": "zachodniopomorskie"
	},
	{
		"lon": "16.4800424",
		"lat": "53.274655",
		"number": "5",
		"street": "Ulica Aleja Tysiąclecia",
		"city": "Wałcz",
		"district": "\"wałecki",
		"postcode": "zachodniopomorskie"
	},
	{
		"lon": "16.4747158",
		"lat": "53.2740553",
		"number": "4",
		"street": "Ulica Kościuszki",
		"city": "Wałcz",
		"district": "\"wałecki",
		"postcode": "zachodniopomorskie"
	},
	{
		"lon": "16.4756685",
		"lat": "53.2785289",
		"number": "12b",
		"street": "Ulica Aleja Tysiąclecia",
		"city": "Wałcz",
		"district": "\"wałecki",
		"postcode": "zachodniopomorskie"
	},
	{
		"lon": "16.4714833",
		"lat": "53.2745953",
		"number": "11a",
		"street": "Ulica Dąbrowskiego",
		"city": "Wałcz",
		"district": "\"wałecki",
		"postcode": "zachodniopomorskie"
	},
	{
		"lon": "16.4704672",
		"lat": "53.2765603",
		"number": "16",
		"street": "Ulica 3 Maja",
		"city": "Wałcz",
		"district": "\"wałecki",
		"postcode": "zachodniopomorskie"
	},
	{
		"lon": "16.5697725",
		"lat": "53.3471514",
		"number": "11",
		"street": "Ulica Szkolna",
		"city": "Szwecja",
		"district": "\"wałecki",
		"postcode": "zachodniopomorskie"
	},
	{
		"lon": "16.5717035",
		"lat": "53.3410459",
		"number": "5",
		"street": "Ulica Górna",
		"city": "Szwecja",
		"district": "\"wałecki",
		"postcode": "zachodniopomorskie"
	},
	{
		"lon": "16.4849226",
		"lat": "53.2711435",
		"number": "55",
		"street": "Ulica Południowa",
		"city": "Wałcz",
		"district": "\"wałecki",
		"postcode": "zachodniopomorskie"
	},
	{
		"lon": "16.5728338",
		"lat": "53.3515705",
		"number": "20",
		"street": "Ulica Kościelna",
		"city": "Szwecja",
		"district": "\"wałecki",
		"postcode": "zachodniopomorskie"
	},
	{
		"lon": "16.4134748",
		"lat": "53.3019342",
		"number": "31",
		"street": "Ulica Chrząstkowo",
		"city": "Wałcz",
		"district": "\"wałecki",
		"postcode": "zachodniopomorskie"
	},
	{
		"lon": "16.7101222",
		"lat": "53.6741074",
		"number": "14",
		"street": "Ulica Miodowa",
		"city": "Szczecinek",
		"district": "\"szczecinecki",
		"postcode": "zachodniopomorskie"
	},
	{
		"lon": "15.7740169",
		"lat": "53.7785311",
		"number": "11",
		"street": "Ulica 3 Marca",
		"city": "Świdwin",
		"district": "\"świdwiński",
		"postcode": "zachodniopomorskie"
	},
	{
		"lon": "15.7738822",
		"lat": "53.7740999",
		"number": "2",
		"street": "Ulica Podwale",
		"city": "Świdwin",
		"district": "\"świdwiński",
		"postcode": "zachodniopomorskie"
	},
	{
		"lon": "15.7737958",
		"lat": "53.7771747",
		"number": "2",
		"street": "Ulica 3 Marca",
		"city": "Świdwin",
		"district": "\"świdwiński",
		"postcode": "zachodniopomorskie"
	},
	{
		"lon": "15.772686",
		"lat": "53.775274",
		"number": "28",
		"street": "Ulica 1 Maja",
		"city": "Świdwin",
		"district": "\"świdwiński",
		"postcode": "zachodniopomorskie"
	},
	{
		"lon": "15.7733687",
		"lat": "53.772978",
		"number": "3",
		"street": "Ulica Nowomiejska",
		"city": "Świdwin",
		"district": "\"świdwiński",
		"postcode": "zachodniopomorskie"
	},
	{
		"lon": "15.7689811",
		"lat": "53.7725441",
		"number": "17",
		"street": "Ulica Niedziałkowskiego",
		"city": "Świdwin",
		"district": "\"świdwiński",
		"postcode": "zachodniopomorskie"
	},
	{
		"lon": "15.7729018",
		"lat": "53.7805562",
		"number": "19",
		"street": "Plac Plac Lotników",
		"city": "Świdwin",
		"district": "\"świdwiński",
		"postcode": "zachodniopomorskie"
	},
	{
		"lon": "15.7622835",
		"lat": "53.7711839",
		"number": "2",
		"street": "Ulica Opolska",
		"city": "Świdwin",
		"district": "\"świdwiński",
		"postcode": "zachodniopomorskie"
	},
	{
		"lon": "15.7619779",
		"lat": "53.7707085",
		"number": "82",
		"street": "Ulica Szczecińska",
		"city": "Świdwin",
		"district": "\"świdwiński",
		"postcode": "zachodniopomorskie"
	},
	{
		"lon": "15.759669",
		"lat": "53.7690969",
		"number": "69",
		"street": "Ulica Szczecińska",
		"city": "Świdwin",
		"district": "\"świdwiński",
		"postcode": "zachodniopomorskie"
	},
	{
		"lon": "15.7834835",
		"lat": "53.7815388",
		"number": "3",
		"street": "Ulica Pogodna",
		"city": "Świdwin",
		"district": "\"świdwiński",
		"postcode": "zachodniopomorskie"
	},
	{
		"lon": "15.7818092",
		"lat": "53.7800848",
		"number": "7",
		"street": "Ulica Brawo",
		"city": "Świdwin",
		"district": "\"świdwiński",
		"postcode": "zachodniopomorskie"
	},
	{
		"lon": "15.7836046",
		"lat": "53.776639",
		"number": "24",
		"street": "Ulica Osiedle Chrobrego",
		"city": "Świdwin",
		"district": "\"świdwiński",
		"postcode": "zachodniopomorskie"
	},
	{
		"lon": "15.7911466",
		"lat": "53.7762023",
		"number": "36c",
		"street": "Ulica Połczyńska",
		"city": "Świdwin",
		"district": "\"świdwiński",
		"postcode": "zachodniopomorskie"
	},
	{
		"lon": "15.7838838",
		"lat": "53.7751125",
		"number": "21",
		"street": "Ulica Połczyńska",
		"city": "Świdwin",
		"district": "\"świdwiński",
		"postcode": "zachodniopomorskie"
	},
	{
		"lon": "15.7801164",
		"lat": "53.7699284",
		"number": "10",
		"street": "Ulica Cypriana Norwida",
		"city": "Świdwin",
		"district": "\"świdwiński",
		"postcode": "zachodniopomorskie"
	},
	{
		"lon": "15.7800882",
		"lat": "53.7702864",
		"number": "6",
		"street": "Ulica Jana Kochanowskiego",
		"city": "Świdwin",
		"district": "\"świdwiński",
		"postcode": "zachodniopomorskie"
	},
	{
		"lon": "15.7773933",
		"lat": "53.7785894",
		"number": "28",
		"street": "Ulica Księdza Jerzego Popiełuszki",
		"city": "Świdwin",
		"district": "\"świdwiński",
		"postcode": "zachodniopomorskie"
	},
	{
		"lon": "15.7770141",
		"lat": "53.768398",
		"number": "3a",
		"street": "Ulica Miła",
		"city": "Świdwin",
		"district": "\"świdwiński",
		"postcode": "zachodniopomorskie"
	},
	{
		"lon": "15.7771436",
		"lat": "53.7756817",
		"number": "2",
		"street": "Ulica Armii Krajowej",
		"city": "Świdwin",
		"district": "\"świdwiński",
		"postcode": "zachodniopomorskie"
	},
	{
		"lon": "16.1084233",
		"lat": "53.7644529",
		"number": "22b",
		"street": "Ulica 15 Grudnia",
		"city": "Połczyn-Zdrój",
		"district": "\"świdwiński",
		"postcode": "zachodniopomorskie"
	},
	{
		"lon": "16.104778",
		"lat": "53.7634053",
		"number": "9",
		"street": "Ulica Miodowa",
		"city": "Połczyn-Zdrój",
		"district": "\"świdwiński",
		"postcode": "zachodniopomorskie"
	},
	{
		"lon": "16.0989447",
		"lat": "53.7626107",
		"number": "10b",
		"street": "Ulica Nowa",
		"city": "Połczyn-Zdrój",
		"district": "\"świdwiński",
		"postcode": "zachodniopomorskie"
	},
	{
		"lon": "16.0990632",
		"lat": "53.7671876",
		"number": "7",
		"street": "Plac Plac Tysiąclecia Państwa Polskiego",
		"city": "Połczyn-Zdrój",
		"district": "\"świdwiński",
		"postcode": "zachodniopomorskie"
	},
	{
		"lon": "16.0944904",
		"lat": "53.7663845",
		"number": "22",
		"street": "Ulica Grunwaldzka",
		"city": "Połczyn-Zdrój",
		"district": "\"świdwiński",
		"postcode": "zachodniopomorskie"
	},
	{
		"lon": "16.0941853",
		"lat": "53.765909",
		"number": "14a",
		"street": "Ulica Grunwaldzka",
		"city": "Połczyn-Zdrój",
		"district": "\"świdwiński",
		"postcode": "zachodniopomorskie"
	},
	{
		"lon": "16.0912434",
		"lat": "53.7651302",
		"number": "7",
		"street": "Ulica Zamkowa",
		"city": "Połczyn-Zdrój",
		"district": "\"świdwiński",
		"postcode": "zachodniopomorskie"
	},
	{
		"lon": "16.0897249",
		"lat": "53.7666338",
		"number": "2",
		"street": "Ulica Powstańców Warszawskich",
		"city": "Połczyn-Zdrój",
		"district": "\"świdwiński",
		"postcode": "zachodniopomorskie"
	},
	{
		"lon": "16.0854402",
		"lat": "53.7620947",
		"number": "2",
		"street": "Ulica Sobieskiego",
		"city": "Połczyn-Zdrój",
		"district": "\"świdwiński",
		"postcode": "zachodniopomorskie"
	},
	{
		"lon": "16.43431",
		"lat": "53.8350543",
		"number": "3",
		"street": "Ulica 1 Maja",
		"city": "Grzmiąca",
		"district": "\"szczecinecki",
		"postcode": "zachodniopomorskie"
	},
	{
		"lon": "16.3034689",
		"lat": "53.8426931",
		"number": "3",
		"street": "Ulica 22 Lipca",
		"city": "Krosino",
		"district": "\"szczecinecki",
		"postcode": "zachodniopomorskie"
	},
	{
		"lon": "16.2793232",
		"lat": "53.928981",
		"number": "13",
		"street": "Ulica Lipowa",
		"city": "Tychowo",
		"district": "\"białogardzki",
		"postcode": "zachodniopomorskie"
	},
	{
		"lon": "16.2776262",
		"lat": "53.9282041",
		"number": "2",
		"street": "Ulica Lipowa",
		"city": "Tychowo",
		"district": "\"białogardzki",
		"postcode": "zachodniopomorskie"
	},
	{
		"lon": "16.3560369",
		"lat": "53.746192",
		"number": "31",
		"street": "Ulica Wojska Polskiego",
		"city": "Barwice",
		"district": "\"szczecinecki",
		"postcode": "zachodniopomorskie"
	},
	{
		"lon": "16.3446579",
		"lat": "53.7456949",
		"number": "26d",
		"street": "Ulica Zwycięzców",
		"city": "Barwice",
		"district": "\"szczecinecki",
		"postcode": "zachodniopomorskie"
	},
	{
		"lon": "16.3625481",
		"lat": "53.7352401",
		"number": "41",
		"street": "Ulica 1000-lecia",
		"city": "Barwice",
		"district": "\"szczecinecki",
		"postcode": "zachodniopomorskie"
	},
	{
		"lon": "16.358933",
		"lat": "53.7370232",
		"number": "13",
		"street": "Ulica 1000-lecia",
		"city": "Barwice",
		"district": "\"szczecinecki",
		"postcode": "zachodniopomorskie"
	},
	{
		"lon": "16.3610031",
		"lat": "53.7501666",
		"number": "6",
		"street": "Ulica Nowa",
		"city": "Barwice",
		"district": "\"szczecinecki",
		"postcode": "zachodniopomorskie"
	},
	{
		"lon": "16.3506702",
		"lat": "53.7470187",
		"number": "10",
		"street": "Ulica Harcerska",
		"city": "Barwice",
		"district": "\"szczecinecki",
		"postcode": "zachodniopomorskie"
	},
	{
		"lon": "16.355582",
		"lat": "53.7427466",
		"number": "1",
		"street": "Ulica Bolesława Chrobrego",
		"city": "Barwice",
		"district": "\"szczecinecki",
		"postcode": "zachodniopomorskie"
	},
	{
		"lon": "16.3547883",
		"lat": "53.7409562",
		"number": "33",
		"street": "Ulica Bolesława Chrobrego",
		"city": "Barwice",
		"district": "\"szczecinecki",
		"postcode": "zachodniopomorskie"
	},
	{
		"lon": "16.3546855",
		"lat": "53.7388629",
		"number": "45",
		"street": "Ulica Bolesława Chrobrego",
		"city": "Barwice",
		"district": "\"szczecinecki",
		"postcode": "zachodniopomorskie"
	},
	{
		"lon": "16.1886051",
		"lat": "53.6508878",
		"number": "18",
		"street": "Ulica Białego Orła",
		"city": "Kluczewo",
		"district": "\"drawski",
		"postcode": "zachodniopomorskie"
	},
	{
		"lon": "16.0962319",
		"lat": "53.7597297",
		"number": "35",
		"street": "Ulica Warszawska",
		"city": "Połczyn-Zdrój",
		"district": "\"świdwiński",
		"postcode": "zachodniopomorskie"
	},
	{
		"lon": "16.1838034",
		"lat": "53.6504953",
		"number": "39",
		"street": "Ulica Białego Orła",
		"city": "Kluczewo",
		"district": "\"drawski",
		"postcode": "zachodniopomorskie"
	},
	{
		"lon": "16.0817298",
		"lat": "53.6451003",
		"number": "6",
		"street": "Ulica Mikołaja Kopernika",
		"city": "Nowe Worowo",
		"district": "\"drawski",
		"postcode": "zachodniopomorskie"
	},
	{
		"lon": "16.3822279",
		"lat": "53.5870734",
		"number": "3",
		"street": "Ulica Rakowska",
		"city": "Łubowo",
		"district": "\"szczecinecki",
		"postcode": "zachodniopomorskie"
	},
	{
		"lon": "16.3928643",
		"lat": "53.5857894",
		"number": "7",
		"street": "Ulica Strzelecka",
		"city": "Łubowo",
		"district": "\"szczecinecki",
		"postcode": "zachodniopomorskie"
	},
	{
		"lon": "16.3966455",
		"lat": "53.5882248",
		"number": "8",
		"street": "Ulica Kościuszki",
		"city": "Łubowo",
		"district": "\"szczecinecki",
		"postcode": "zachodniopomorskie"
	},
	{
		"lon": "15.8239644",
		"lat": "53.553461",
		"number": "25",
		"street": "Ulica Połczyńska",
		"city": "Drawsko Pomorskie",
		"district": "\"drawski",
		"postcode": "zachodniopomorskie"
	},
	{
		"lon": "15.8121562",
		"lat": "53.5442453",
		"number": "12",
		"street": "Ulica Juliusza Kossaka",
		"city": "Drawsko Pomorskie",
		"district": "\"drawski",
		"postcode": "zachodniopomorskie"
	},
	{
		"lon": "15.8131932",
		"lat": "53.5432753",
		"number": "3",
		"street": "Ulica Juliana Fałata",
		"city": "Drawsko Pomorskie",
		"district": "\"drawski",
		"postcode": "zachodniopomorskie"
	},
	{
		"lon": "15.8080627",
		"lat": "53.5429453",
		"number": "9",
		"street": "Ulica Artura Grottgera",
		"city": "Drawsko Pomorskie",
		"district": "\"drawski",
		"postcode": "zachodniopomorskie"
	},
	{
		"lon": "15.8033453",
		"lat": "53.5396951",
		"number": "20",
		"street": "Ulica Jaśminowa",
		"city": "Drawsko Pomorskie",
		"district": "\"drawski",
		"postcode": "zachodniopomorskie"
	},
	{
		"lon": "15.8028304",
		"lat": "53.5377732",
		"number": "1",
		"street": "Ulica Jarzębinowa",
		"city": "Drawsko Pomorskie",
		"district": "\"drawski",
		"postcode": "zachodniopomorskie"
	},
	{
		"lon": "15.8077447",
		"lat": "53.5397945",
		"number": "3",
		"street": "Ulica Juliana Tuwima",
		"city": "Drawsko Pomorskie",
		"district": "\"drawski",
		"postcode": "zachodniopomorskie"
	},
	{
		"lon": "15.8283137",
		"lat": "53.5266413",
		"number": "23A",
		"street": "Ulica Złocieniecka",
		"city": "Drawsko Pomorskie",
		"district": "\"drawski",
		"postcode": "zachodniopomorskie"
	},
	{
		"lon": "15.8134121",
		"lat": "53.5327687",
		"number": "61",
		"street": "Ulica 11 Pułku Piechoty",
		"city": "Drawsko Pomorskie",
		"district": "\"drawski",
		"postcode": "zachodniopomorskie"
	},
	{
		"lon": "15.8135243",
		"lat": "53.5347439",
		"number": "75B",
		"street": "Ulica 11 Pułku Piechoty",
		"city": "Drawsko Pomorskie",
		"district": "\"drawski",
		"postcode": "zachodniopomorskie"
	},
	{
		"lon": "15.8104193",
		"lat": "53.5335196",
		"number": "8",
		"street": "Ulica Królewiecka",
		"city": "Drawsko Pomorskie",
		"district": "\"drawski",
		"postcode": "zachodniopomorskie"
	},
	{
		"lon": "15.8093366",
		"lat": "53.5340498",
		"number": "13",
		"street": "Ulica Jana Matejki",
		"city": "Drawsko Pomorskie",
		"district": "\"drawski",
		"postcode": "zachodniopomorskie"
	},
	{
		"lon": "15.8096253",
		"lat": "53.531789",
		"number": "45",
		"street": "Ulica Obrońców Westerplatte",
		"city": "Drawsko Pomorskie",
		"district": "\"drawski",
		"postcode": "zachodniopomorskie"
	},
	{
		"lon": "15.805227",
		"lat": "53.5313877",
		"number": "5",
		"street": "Ulica Gdyńska",
		"city": "Drawsko Pomorskie",
		"district": "\"drawski",
		"postcode": "zachodniopomorskie"
	},
	{
		"lon": "15.7996068",
		"lat": "53.5333234",
		"number": "18",
		"street": "Ulica Tatrzańska",
		"city": "Drawsko Pomorskie",
		"district": "\"drawski",
		"postcode": "zachodniopomorskie"
	},
	{
		"lon": "15.9974287",
		"lat": "53.5471632",
		"number": "15",
		"street": "Plac Plac Walki Młodych",
		"city": "Złocieniec",
		"district": "\"drawski",
		"postcode": "zachodniopomorskie"
	},
	{
		"lon": "16.0148323",
		"lat": "53.5440697",
		"number": "51",
		"street": "Ulica Cieszyńska",
		"city": "Złocieniec",
		"district": "\"drawski",
		"postcode": "zachodniopomorskie"
	},
	{
		"lon": "16.0098269",
		"lat": "53.5420859",
		"number": "8",
		"street": "Ulica Generała Okulickiego",
		"city": "Złocieniec",
		"district": "\"drawski",
		"postcode": "zachodniopomorskie"
	},
	{
		"lon": "16.0054355",
		"lat": "53.5406138",
		"number": "8",
		"street": "Ulica Parkowa",
		"city": "Złocieniec",
		"district": "\"drawski",
		"postcode": "zachodniopomorskie"
	},
	{
		"lon": "16.0046032",
		"lat": "53.5395636",
		"number": "11",
		"street": "Ulica Parkowa",
		"city": "Złocieniec",
		"district": "\"drawski",
		"postcode": "zachodniopomorskie"
	},
	{
		"lon": "16.0039932",
		"lat": "53.5381336",
		"number": "2B",
		"street": "Ulica Cieszyńska",
		"city": "Złocieniec",
		"district": "\"drawski",
		"postcode": "zachodniopomorskie"
	},
	{
		"lon": "16.0038859",
		"lat": "53.5364744",
		"number": "40",
		"street": "Ulica Stanisława Staszica",
		"city": "Złocieniec",
		"district": "\"drawski",
		"postcode": "zachodniopomorskie"
	},
	{
		"lon": "16.0103268",
		"lat": "53.5346595",
		"number": "1",
		"street": "Ulica Wolności",
		"city": "Złocieniec",
		"district": "\"drawski",
		"postcode": "zachodniopomorskie"
	},
	{
		"lon": "16.0104411",
		"lat": "53.5340877",
		"number": "1A",
		"street": "Ulica Władysława Sikorskiego",
		"city": "Złocieniec",
		"district": "\"drawski",
		"postcode": "zachodniopomorskie"
	},
	{
		"lon": "16.0067335",
		"lat": "53.5349825",
		"number": "6",
		"street": "Ulica Stanisława Staszica",
		"city": "Złocieniec",
		"district": "\"drawski",
		"postcode": "zachodniopomorskie"
	},
	{
		"lon": "16.010359",
		"lat": "53.5328892",
		"number": "14",
		"street": "Ulica 5 Marca",
		"city": "Złocieniec",
		"district": "\"drawski",
		"postcode": "zachodniopomorskie"
	},
	{
		"lon": "16.019342",
		"lat": "53.5333008",
		"number": "6",
		"street": "Ulica Tkacka",
		"city": "Złocieniec",
		"district": "\"drawski",
		"postcode": "zachodniopomorskie"
	},
	{
		"lon": "16.0202558",
		"lat": "53.5341827",
		"number": "15",
		"street": "Ulica Czaplinecka",
		"city": "Złocieniec",
		"district": "\"drawski",
		"postcode": "zachodniopomorskie"
	},
	{
		"lon": "16.0297386",
		"lat": "53.5312367",
		"number": "29",
		"street": "Ulica Bohaterów Monte Cassino",
		"city": "Złocieniec",
		"district": "\"drawski",
		"postcode": "zachodniopomorskie"
	},
	{
		"lon": "16.0380544",
		"lat": "53.5339372",
		"number": "28",
		"street": "Ulica Czaplinecka",
		"city": "Złocieniec",
		"district": "\"drawski",
		"postcode": "zachodniopomorskie"
	},
	{
		"lon": "16.0434667",
		"lat": "53.5464835",
		"number": "1",
		"street": "Ulica Kosynierów",
		"city": "Złocieniec",
		"district": "\"drawski",
		"postcode": "zachodniopomorskie"
	},
	{
		"lon": "16.2321717",
		"lat": "53.5589117",
		"number": "11",
		"street": "Ulica Długa",
		"city": "Czaplinek",
		"district": "\"drawski",
		"postcode": "zachodniopomorskie"
	},
	{
		"lon": "16.230991",
		"lat": "53.5554625",
		"number": "8",
		"street": "Ulica Jana Długosza",
		"city": "Czaplinek",
		"district": "\"drawski",
		"postcode": "zachodniopomorskie"
	},
	{
		"lon": "16.2289524",
		"lat": "53.5641972",
		"number": "47",
		"street": "Ulica Drahimska",
		"city": "Czaplinek",
		"district": "\"drawski",
		"postcode": "zachodniopomorskie"
	},
	{
		"lon": "16.230292",
		"lat": "53.5551238",
		"number": "14",
		"street": "Ulica Jana Długosza",
		"city": "Czaplinek",
		"district": "\"drawski",
		"postcode": "zachodniopomorskie"
	},
	{
		"lon": "16.2359211",
		"lat": "53.5514327",
		"number": "17",
		"street": "Ulica Poznańska",
		"city": "Czaplinek",
		"district": "\"drawski",
		"postcode": "zachodniopomorskie"
	},
	{
		"lon": "16.23395",
		"lat": "53.5552436",
		"number": "5A",
		"street": "Ulica Czarnkowskiego",
		"city": "Czaplinek",
		"district": "\"drawski",
		"postcode": "zachodniopomorskie"
	},
	{
		"lon": "16.2374227",
		"lat": "53.5536479",
		"number": "1B",
		"street": "Ulica Bydgoska",
		"city": "Czaplinek",
		"district": "\"drawski",
		"postcode": "zachodniopomorskie"
	},
	{
		"lon": "16.2288864",
		"lat": "53.5538459",
		"number": "6",
		"street": "Ulica Pawła Wasznika",
		"city": "Czaplinek",
		"district": "\"drawski",
		"postcode": "zachodniopomorskie"
	},
	{
		"lon": "16.0154214",
		"lat": "53.5325466",
		"number": "7A",
		"street": "Ulica Adama Mickiewicza",
		"city": "Złocieniec",
		"district": "\"drawski",
		"postcode": "zachodniopomorskie"
	},
	{
		"lon": "16.0113842",
		"lat": "53.5305367",
		"number": "35",
		"street": "Ulica 5 Marca",
		"city": "Złocieniec",
		"district": "\"drawski",
		"postcode": "zachodniopomorskie"
	},
	{
		"lon": "16.0096183",
		"lat": "53.5267832",
		"number": "13",
		"street": "Ulica Stefana Żeromskiego",
		"city": "Złocieniec",
		"district": "\"drawski",
		"postcode": "zachodniopomorskie"
	},
	{
		"lon": "16.0094961",
		"lat": "53.5305574",
		"number": "4A",
		"street": "Ulica Fryderyka Chopina",
		"city": "Złocieniec",
		"district": "\"drawski",
		"postcode": "zachodniopomorskie"
	},
	{
		"lon": "16.0063191",
		"lat": "53.5310676",
		"number": "10",
		"street": "Ulica Polna",
		"city": "Złocieniec",
		"district": "\"drawski",
		"postcode": "zachodniopomorskie"
	},
	{
		"lon": "15.9918727",
		"lat": "53.5278401",
		"number": "4a",
		"street": "Ulica Wielkopolska",
		"city": "Złocieniec",
		"district": "\"drawski",
		"postcode": "zachodniopomorskie"
	},
	{
		"lon": "15.9902967",
		"lat": "53.5281158",
		"number": "2",
		"street": "Ulica Gnieźnieńska",
		"city": "Złocieniec",
		"district": "\"drawski",
		"postcode": "zachodniopomorskie"
	},
	{
		"lon": "15.8214969",
		"lat": "53.5281951",
		"number": "24",
		"street": "Ulica Spokojna",
		"city": "Drawsko Pomorskie",
		"district": "\"drawski",
		"postcode": "zachodniopomorskie"
	},
	{
		"lon": "15.8232756",
		"lat": "53.5269676",
		"number": "1",
		"street": "Ulica Sadowa",
		"city": "Drawsko Pomorskie",
		"district": "\"drawski",
		"postcode": "zachodniopomorskie"
	},
	{
		"lon": "15.8256136",
		"lat": "53.5250983",
		"number": "10",
		"street": "Ulica Kaliska",
		"city": "Drawsko Pomorskie",
		"district": "\"drawski",
		"postcode": "zachodniopomorskie"
	},
	{
		"lon": "15.8221227",
		"lat": "53.5233024",
		"number": "4",
		"street": "Ulica Kolejowa",
		"city": "Drawsko Pomorskie",
		"district": "\"drawski",
		"postcode": "zachodniopomorskie"
	},
	{
		"lon": "15.8008941",
		"lat": "53.5307076",
		"number": "4A",
		"street": "Ulica Marynarska",
		"city": "Drawsko Pomorskie",
		"district": "\"drawski",
		"postcode": "zachodniopomorskie"
	},
	{
		"lon": "15.8136077",
		"lat": "53.5303443",
		"number": "7C",
		"street": "Ulica Józefa Piłsudskiego",
		"city": "Drawsko Pomorskie",
		"district": "\"drawski",
		"postcode": "zachodniopomorskie"
	},
	{
		"lon": "15.8156186",
		"lat": "53.528241",
		"number": "1",
		"street": "Ulica Polna",
		"city": "Drawsko Pomorskie",
		"district": "\"drawski",
		"postcode": "zachodniopomorskie"
	},
	{
		"lon": "15.810469",
		"lat": "53.5301464",
		"number": "25",
		"street": "Ulica Obrońców Westerplatte",
		"city": "Drawsko Pomorskie",
		"district": "\"drawski",
		"postcode": "zachodniopomorskie"
	},
	{
		"lon": "15.7964518",
		"lat": "53.5262504",
		"number": "21",
		"street": "Ulica Łowicka",
		"city": "Drawsko Pomorskie",
		"district": "\"drawski",
		"postcode": "zachodniopomorskie"
	},
	{
		"lon": "15.7968821",
		"lat": "53.5274799",
		"number": "30",
		"street": "Ulica Starogrodzka",
		"city": "Drawsko Pomorskie",
		"district": "\"drawski",
		"postcode": "zachodniopomorskie"
	},
	{
		"lon": "15.8123711",
		"lat": "53.529103",
		"number": "8",
		"street": "Ulica Pocztowa",
		"city": "Drawsko Pomorskie",
		"district": "\"drawski",
		"postcode": "zachodniopomorskie"
	},
	{
		"lon": "15.7907061",
		"lat": "53.5240836",
		"number": "33",
		"street": "Ulica Starogrodzka",
		"city": "Drawsko Pomorskie",
		"district": "\"drawski",
		"postcode": "zachodniopomorskie"
	},
	{
		"lon": "15.8006915",
		"lat": "53.5276856",
		"number": "3",
		"street": "Ulica Śląska",
		"city": "Drawsko Pomorskie",
		"district": "\"drawski",
		"postcode": "zachodniopomorskie"
	},
	{
		"lon": "15.8109785",
		"lat": "53.5297459",
		"number": "18",
		"street": "Ulica Obrońców Westerplatte",
		"city": "Drawsko Pomorskie",
		"district": "\"drawski",
		"postcode": "zachodniopomorskie"
	},
	{
		"lon": "16.0146257",
		"lat": "53.5262441",
		"number": "11",
		"street": "Ulica Mirosławiecka",
		"city": "Złocieniec",
		"district": "\"drawski",
		"postcode": "zachodniopomorskie"
	},
	{
		"lon": "16.0032838",
		"lat": "53.5246412",
		"number": "23",
		"street": "Ulica Bolesława Prusa",
		"city": "Złocieniec",
		"district": "\"drawski",
		"postcode": "zachodniopomorskie"
	},
	{
		"lon": "16.0130705",
		"lat": "53.5250856",
		"number": "6",
		"street": "Ulica Słoneczna",
		"city": "Złocieniec",
		"district": "\"drawski",
		"postcode": "zachodniopomorskie"
	},
	{
		"lon": "15.991465",
		"lat": "53.5268066",
		"number": "34",
		"street": "Ulica Gdyńska",
		"city": "Złocieniec",
		"district": "\"drawski",
		"postcode": "zachodniopomorskie"
	},
	{
		"lon": "16.0080698",
		"lat": "53.5239281",
		"number": "23",
		"street": "Ulica Stefana Żeromskiego",
		"city": "Złocieniec",
		"district": "\"drawski",
		"postcode": "zachodniopomorskie"
	},
	{
		"lon": "16.0147153",
		"lat": "53.5197495",
		"number": "79",
		"street": "Ulica Bolesława Chrobrego",
		"city": "Złocieniec",
		"district": "\"drawski",
		"postcode": "zachodniopomorskie"
	},
	{
		"lon": "16.2305623",
		"lat": "53.5678783",
		"number": "71",
		"street": "Ulica Drahimska",
		"city": "Czaplinek",
		"district": "\"drawski",
		"postcode": "zachodniopomorskie"
	},
	{
		"lon": "16.237056",
		"lat": "53.56544",
		"number": "28C",
		"street": "Ulica Wiejska",
		"city": "Czaplinek",
		"district": "\"drawski",
		"postcode": "zachodniopomorskie"
	},
	{
		"lon": "16.2296818",
		"lat": "53.5659764",
		"number": "57",
		"street": "Ulica Drahimska",
		"city": "Czaplinek",
		"district": "\"drawski",
		"postcode": "zachodniopomorskie"
	},
	{
		"lon": "16.2297706",
		"lat": "53.5623531",
		"number": "1",
		"street": "Ulica Młyńska",
		"city": "Czaplinek",
		"district": "\"drawski",
		"postcode": "zachodniopomorskie"
	},
	{
		"lon": "16.2313774",
		"lat": "53.5610958",
		"number": "7",
		"street": "Ulica Moniuszki",
		"city": "Czaplinek",
		"district": "\"drawski",
		"postcode": "zachodniopomorskie"
	},
	{
		"lon": "16.2311314",
		"lat": "53.5605708",
		"number": "1",
		"street": "Inny rynek Rynek",
		"city": "Czaplinek",
		"district": "\"drawski",
		"postcode": "zachodniopomorskie"
	},
	{
		"lon": "16.2352257",
		"lat": "53.5594415",
		"number": "17",
		"street": "Ulica Leśników",
		"city": "Czaplinek",
		"district": "\"drawski",
		"postcode": "zachodniopomorskie"
	},
	{
		"lon": "16.2426586",
		"lat": "53.5548433",
		"number": "21",
		"street": "Ulica Kościuszki",
		"city": "Czaplinek",
		"district": "\"drawski",
		"postcode": "zachodniopomorskie"
	},
	{
		"lon": "16.241768",
		"lat": "53.5530462",
		"number": "5A",
		"street": "Ulica Chrobrego",
		"city": "Czaplinek",
		"district": "\"drawski",
		"postcode": "zachodniopomorskie"
	},
	{
		"lon": "16.2457708",
		"lat": "53.5516379",
		"number": "2",
		"street": "Ulica Żuławska",
		"city": "Czaplinek",
		"district": "\"drawski",
		"postcode": "zachodniopomorskie"
	},
	{
		"lon": "16.2442819",
		"lat": "53.550677",
		"number": "2",
		"street": "Ulica Toruńska",
		"city": "Czaplinek",
		"district": "\"drawski",
		"postcode": "zachodniopomorskie"
	},
	{
		"lon": "16.243508",
		"lat": "53.5495925",
		"number": "1A",
		"street": "Ulica Tartaczna",
		"city": "Czaplinek",
		"district": "\"drawski",
		"postcode": "zachodniopomorskie"
	},
	{
		"lon": "16.1019577",
		"lat": "53.462154",
		"number": "6",
		"street": "Ulica Ogrodowa",
		"city": "Wierzchowo",
		"district": "\"drawski",
		"postcode": "zachodniopomorskie"
	},
	{
		"lon": "16.1009357",
		"lat": "53.4605748",
		"number": "1",
		"street": "Plac plac Orła Białego",
		"city": "Wierzchowo",
		"district": "\"drawski",
		"postcode": "zachodniopomorskie"
	},
	{
		"lon": "16.096092",
		"lat": "53.4563862",
		"number": "26C",
		"street": "Ulica Długa",
		"city": "Wierzchowo",
		"district": "\"drawski",
		"postcode": "zachodniopomorskie"
	},
	{
		"lon": "16.0850218",
		"lat": "53.4484782",
		"number": "27",
		"street": "Ulica Leśna",
		"city": "Wierzchowo",
		"district": "\"drawski",
		"postcode": "zachodniopomorskie"
	},
	{
		"lon": "16.0918001",
		"lat": "53.4464465",
		"number": "4",
		"street": "Ulica Leśna",
		"city": "Wierzchowo",
		"district": "\"drawski",
		"postcode": "zachodniopomorskie"
	},
	{
		"lon": "16.0905659",
		"lat": "53.4420599",
		"number": "24",
		"street": "Ulica Parkowa",
		"city": "Wierzchowo",
		"district": "\"drawski",
		"postcode": "zachodniopomorskie"
	},
	{
		"lon": "15.9958786",
		"lat": "53.5307081",
		"number": "38",
		"street": "Ulica Drawska",
		"city": "Złocieniec",
		"district": "\"drawski",
		"postcode": "zachodniopomorskie"
	},
	{
		"lon": "16.0947167",
		"lat": "53.3398908",
		"number": "1",
		"street": "Ulica Zamkowa",
		"city": "Mirosławiec",
		"district": "\"wałecki",
		"postcode": "zachodniopomorskie"
	},
	{
		"lon": "16.0882241",
		"lat": "53.3390461",
		"number": "9",
		"street": "Ulica Polna",
		"city": "Mirosławiec",
		"district": "\"wałecki",
		"postcode": "zachodniopomorskie"
	},
	{
		"lon": "16.0875767",
		"lat": "53.3384418",
		"number": "14",
		"street": "Ulica 10 Lutego",
		"city": "Mirosławiec",
		"district": "\"wałecki",
		"postcode": "zachodniopomorskie"
	},
	{
		"lon": "16.0809239",
		"lat": "53.3376191",
		"number": "36",
		"street": "Ulica Jeziorna",
		"city": "Mirosławiec",
		"district": "\"wałecki",
		"postcode": "zachodniopomorskie"
	},
	{
		"lon": "16.0047274",
		"lat": "53.5273844",
		"number": "4",
		"street": "Ulica Jeziorna",
		"city": "Złocieniec",
		"district": "\"drawski",
		"postcode": "zachodniopomorskie"
	},
	{
		"lon": "16.4357363",
		"lat": "53.2895042",
		"number": "16",
		"street": "Ulica Chrząstkowo",
		"city": "Wałcz",
		"district": "\"wałecki",
		"postcode": "zachodniopomorskie"
	},
	{
		"lon": "16.4546127",
		"lat": "53.2883728",
		"number": "11e",
		"street": "Osiedle Osiedle Moje Marzenie",
		"city": "Wałcz",
		"district": "\"wałecki",
		"postcode": "zachodniopomorskie"
	},
	{
		"lon": "16.470918",
		"lat": "53.281712",
		"number": "8C",
		"street": "Ulica Wronia",
		"city": "Wałcz",
		"district": "\"wałecki",
		"postcode": "zachodniopomorskie"
	},
	{
		"lon": "16.4672321",
		"lat": "53.2834208",
		"number": "37",
		"street": "Ulica Żabia",
		"city": "Wałcz",
		"district": "\"wałecki",
		"postcode": "zachodniopomorskie"
	},
	{
		"lon": "16.460558",
		"lat": "53.2808087",
		"number": "23",
		"street": "Ulica Zielna",
		"city": "Wałcz",
		"district": "\"wałecki",
		"postcode": "zachodniopomorskie"
	},
	{
		"lon": "16.4580675",
		"lat": "53.2788403",
		"number": "9",
		"street": "Ulica Ogniowa",
		"city": "Wałcz",
		"district": "\"wałecki",
		"postcode": "zachodniopomorskie"
	},
	{
		"lon": "16.4353976",
		"lat": "53.2873546",
		"number": "13",
		"street": "Ulica Brylantowa",
		"city": "Wałcz",
		"district": "\"wałecki",
		"postcode": "zachodniopomorskie"
	},
	{
		"lon": "16.4652743",
		"lat": "53.2631612",
		"number": "17",
		"street": "Osiedle Osiedle Dolne Miasto",
		"city": "Wałcz",
		"district": "\"wałecki",
		"postcode": "zachodniopomorskie"
	},
	{
		"lon": "16.4538643",
		"lat": "53.259805",
		"number": "6",
		"street": "Ulica Macieja Rataja",
		"city": "Wałcz",
		"district": "\"wałecki",
		"postcode": "zachodniopomorskie"
	},
	{
		"lon": "16.4432526",
		"lat": "53.2643874",
		"number": "35",
		"street": "Ulica Aleja Zdobywców Wału Pomorskiego",
		"city": "Wałcz",
		"district": "\"wałecki",
		"postcode": "zachodniopomorskie"
	},
	{
		"lon": "16.1716592",
		"lat": "53.2184564",
		"number": "5",
		"street": "Ulica Dworcowa",
		"city": "Tuczno",
		"district": "\"wałecki",
		"postcode": "zachodniopomorskie"
	},
	{
		"lon": "16.1351331",
		"lat": "53.2475595",
		"number": "13",
		"street": "Ulica Szkolna",
		"city": "Rzeczyca",
		"district": "\"wałecki",
		"postcode": "zachodniopomorskie"
	},
	{
		"lon": "16.1449703",
		"lat": "53.1932036",
		"number": "23",
		"street": "Ulica Klasztorna",
		"city": "Tuczno",
		"district": "\"wałecki",
		"postcode": "zachodniopomorskie"
	},
	{
		"lon": "16.1517971",
		"lat": "53.1906427",
		"number": "4",
		"street": "Ulica Marii Konopnickiej",
		"city": "Tuczno",
		"district": "\"wałecki",
		"postcode": "zachodniopomorskie"
	},
	{
		"lon": "16.1655698",
		"lat": "53.1878853",
		"number": "2",
		"street": "Ulica Staszica",
		"city": "Tuczno",
		"district": "\"wałecki",
		"postcode": "zachodniopomorskie"
	},
	{
		"lon": "16.4759141",
		"lat": "53.2738609",
		"number": "7",
		"street": "Ulica Wojska Polskiego",
		"city": "Wałcz",
		"district": "\"wałecki",
		"postcode": "zachodniopomorskie"
	},
	{
		"lon": "16.4651773",
		"lat": "53.2688668",
		"number": "8",
		"street": "Ulica Sienkiewicza",
		"city": "Wałcz",
		"district": "\"wałecki",
		"postcode": "zachodniopomorskie"
	},
	{
		"lon": "16.4632255",
		"lat": "53.2731894",
		"number": "17",
		"street": "Ulica Konopnickiej",
		"city": "Wałcz",
		"district": "\"wałecki",
		"postcode": "zachodniopomorskie"
	},
	{
		"lon": "16.4598301",
		"lat": "53.2670919",
		"number": "57",
		"street": "Ulica Aleja Zdobywców Wału Pomorskiego",
		"city": "Wałcz",
		"district": "\"wałecki",
		"postcode": "zachodniopomorskie"
	},
	{
		"lon": "16.4569644",
		"lat": "53.267979",
		"number": "15",
		"street": "Ulica Podgórna",
		"city": "Wałcz",
		"district": "\"wałecki",
		"postcode": "zachodniopomorskie"
	},
	{
		"lon": "16.4549401",
		"lat": "53.2653121",
		"number": "76",
		"street": "Ulica Aleja Zdobywców Wału Pomorskiego",
		"city": "Wałcz",
		"district": "\"wałecki",
		"postcode": "zachodniopomorskie"
	},
	{
		"lon": "16.4466936",
		"lat": "53.2739721",
		"number": "21",
		"street": "Osiedle Osiedle Piastowskie",
		"city": "Wałcz",
		"district": "\"wałecki",
		"postcode": "zachodniopomorskie"
	},
	{
		"lon": "16.1255048",
		"lat": "53.0871244",
		"number": "2",
		"street": "Ulica Piaskowa",
		"city": "Człopa",
		"district": "\"wałecki",
		"postcode": "zachodniopomorskie"
	},
	{
		"lon": "16.1158557",
		"lat": "53.0835271",
		"number": "22",
		"street": "Ulica Zwycięstwa Wojska Polskiego",
		"city": "Człopa",
		"district": "\"wałecki",
		"postcode": "zachodniopomorskie"
	},
	{
		"lon": "16.1190495",
		"lat": "53.0888618",
		"number": "5",
		"street": "Ulica Strzelecka",
		"city": "Człopa",
		"district": "\"wałecki",
		"postcode": "zachodniopomorskie"
	},
	{
		"lon": "16.678783",
		"lat": "54.3439325",
		"number": "38",
		"street": "Ulica Juliana Tuwima",
		"city": "Sławno",
		"district": "\"sławieński",
		"postcode": "zachodniopomorskie"
	},
	{
		"lon": "16.681818",
		"lat": "54.3659337",
		"number": "9",
		"street": "Ulica Mieszka I",
		"city": "Sławno",
		"district": "\"sławieński",
		"postcode": "zachodniopomorskie"
	},
	{
		"lon": "16.687874",
		"lat": "54.1279154",
		"number": "2",
		"street": "Ulica Młodzieżowa",
		"city": "Polanów",
		"district": "\"koszaliński",
		"postcode": "zachodniopomorskie"
	},
	{
		"lon": "16.6900506",
		"lat": "54.123936",
		"number": "19",
		"street": "Ulica Mariańskie Wzgórze",
		"city": "Polanów",
		"district": "\"koszaliński",
		"postcode": "zachodniopomorskie"
	},
	{
		"lon": "16.6905371",
		"lat": "54.1235039",
		"number": "11",
		"street": "Ulica Mariańskie Wzgórze",
		"city": "Polanów",
		"district": "\"koszaliński",
		"postcode": "zachodniopomorskie"
	},
	{
		"lon": "16.690342",
		"lat": "54.1223335",
		"number": "7",
		"street": "Ulica Partyzancka",
		"city": "Polanów",
		"district": "\"koszaliński",
		"postcode": "zachodniopomorskie"
	},
	{
		"lon": "16.6870621",
		"lat": "54.1207389",
		"number": "3",
		"street": "Ulica Magazynowa",
		"city": "Polanów",
		"district": "\"koszaliński",
		"postcode": "zachodniopomorskie"
	},
	{
		"lon": "16.6782915",
		"lat": "54.1165544",
		"number": "16",
		"street": "Ulica Dworcowa",
		"city": "Polanów",
		"district": "\"koszaliński",
		"postcode": "zachodniopomorskie"
	},
	{
		"lon": "16.5914837",
		"lat": "53.9612796",
		"number": "3",
		"street": "Ulica Langiewicza",
		"city": "Bobolice",
		"district": "\"koszaliński",
		"postcode": "zachodniopomorskie"
	},
	{
		"lon": "16.5847882",
		"lat": "53.9617604",
		"number": "7a",
		"street": "Ulica Jedności Narodowej",
		"city": "Bobolice",
		"district": "\"koszaliński",
		"postcode": "zachodniopomorskie"
	},
	{
		"lon": "16.5946815",
		"lat": "53.9612982",
		"number": "20",
		"street": "Ulica Świerczewskiego",
		"city": "Bobolice",
		"district": "\"koszaliński",
		"postcode": "zachodniopomorskie"
	},
	{
		"lon": "16.5895974",
		"lat": "53.9603463",
		"number": "1a",
		"street": "Ulica Świerczewskiego",
		"city": "Bobolice",
		"district": "\"koszaliński",
		"postcode": "zachodniopomorskie"
	},
	{
		"lon": "16.5882253",
		"lat": "53.9593424",
		"number": "1b",
		"street": "Ulica Lipowa",
		"city": "Bobolice",
		"district": "\"koszaliński",
		"postcode": "zachodniopomorskie"
	},
	{
		"lon": "16.5937397",
		"lat": "53.9585702",
		"number": "7",
		"street": "Ulica Głowackiego",
		"city": "Bobolice",
		"district": "\"koszaliński",
		"postcode": "zachodniopomorskie"
	},
	{
		"lon": "16.5886766",
		"lat": "53.9561786",
		"number": "3",
		"street": "Ulica Pionierów",
		"city": "Bobolice",
		"district": "\"koszaliński",
		"postcode": "zachodniopomorskie"
	},
	{
		"lon": "16.5813361",
		"lat": "53.9528751",
		"number": "7",
		"street": "Ulica Reymonta",
		"city": "Bobolice",
		"district": "\"koszaliński",
		"postcode": "zachodniopomorskie"
	},
	{
		"lon": "16.5948172",
		"lat": "53.9534839",
		"number": "7",
		"street": "Ulica Polna",
		"city": "Bobolice",
		"district": "\"koszaliński",
		"postcode": "zachodniopomorskie"
	},
	{
		"lon": "16.5784404",
		"lat": "53.9525496",
		"number": "11",
		"street": "Ulica Reymonta",
		"city": "Bobolice",
		"district": "\"koszaliński",
		"postcode": "zachodniopomorskie"
	},
	{
		"lon": "16.5926654",
		"lat": "53.9532823",
		"number": "2a",
		"street": "Ulica Ogrodowa",
		"city": "Bobolice",
		"district": "\"koszaliński",
		"postcode": "zachodniopomorskie"
	},
	{
		"lon": "16.5871638",
		"lat": "53.953429",
		"number": "5",
		"street": "Plac plac Zwycięstwa",
		"city": "Bobolice",
		"district": "\"koszaliński",
		"postcode": "zachodniopomorskie"
	},
	{
		"lon": "16.6982579",
		"lat": "53.7158549",
		"number": "27",
		"street": "Ulica Kaszubska",
		"city": "Szczecinek",
		"district": "\"szczecinecki",
		"postcode": "zachodniopomorskie"
	},
	{
		"lon": "16.6920733",
		"lat": "53.713984",
		"number": "48a",
		"street": "Ulica 1 Maja",
		"city": "Szczecinek",
		"district": "\"szczecinecki",
		"postcode": "zachodniopomorskie"
	},
	{
		"lon": "16.6882605",
		"lat": "53.7151665",
		"number": "16",
		"street": "Ulica Wiatraczna",
		"city": "Szczecinek",
		"district": "\"szczecinecki",
		"postcode": "zachodniopomorskie"
	},
	{
		"lon": "16.6831322",
		"lat": "53.7146204",
		"number": "34",
		"street": "Ulica Koszalińska",
		"city": "Szczecinek",
		"district": "\"szczecinecki",
		"postcode": "zachodniopomorskie"
	},
	{
		"lon": "16.6817529",
		"lat": "53.7154539",
		"number": "8b",
		"street": "Ulica Myśliwska",
		"city": "Szczecinek",
		"district": "\"szczecinecki",
		"postcode": "zachodniopomorskie"
	},
	{
		"lon": "16.6792962",
		"lat": "53.7160925",
		"number": "12",
		"street": "Ulica Myśliwska",
		"city": "Szczecinek",
		"district": "\"szczecinecki",
		"postcode": "zachodniopomorskie"
	},
	{
		"lon": "16.6739873",
		"lat": "53.7157211",
		"number": "10",
		"street": "Ulica Kosińskiego",
		"city": "Szczecinek",
		"district": "\"szczecinecki",
		"postcode": "zachodniopomorskie"
	},
	{
		"lon": "16.6730487",
		"lat": "53.7163444",
		"number": "24",
		"street": "Ulica Derdowskiego",
		"city": "Szczecinek",
		"district": "\"szczecinecki",
		"postcode": "zachodniopomorskie"
	},
	{
		"lon": "16.8400817",
		"lat": "53.8990378",
		"number": "1F",
		"street": "Ulica Cypriana Kamila Norwida",
		"city": "Biały Bór",
		"district": "\"szczecinecki",
		"postcode": "zachodniopomorskie"
	},
	{
		"lon": "16.8434699",
		"lat": "53.894945",
		"number": "30",
		"street": "Ulica Armii Czerwonej",
		"city": "Biały Bór",
		"district": "\"szczecinecki",
		"postcode": "zachodniopomorskie"
	},
	{
		"lon": "16.8521318",
		"lat": "53.8970689",
		"number": "10",
		"street": "Ulica Topolowa",
		"city": "Biały Bór",
		"district": "\"szczecinecki",
		"postcode": "zachodniopomorskie"
	},
	{
		"lon": "16.8381427",
		"lat": "53.8938935",
		"number": "15",
		"street": "Ulica Armii Czerwonej",
		"city": "Biały Bór",
		"district": "\"szczecinecki",
		"postcode": "zachodniopomorskie"
	},
	{
		"lon": "16.7948711",
		"lat": "53.7404003",
		"number": "12",
		"street": "Ulica Pojezierze",
		"city": "Gwda Wielka",
		"district": "\"szczecinecki",
		"postcode": "zachodniopomorskie"
	},
	{
		"lon": "16.6979612",
		"lat": "53.7165455",
		"number": "37",
		"street": "Ulica Kaszubska",
		"city": "Szczecinek",
		"district": "\"szczecinecki",
		"postcode": "zachodniopomorskie"
	},
	{
		"lon": "16.7155492",
		"lat": "53.7053574",
		"number": "35",
		"street": "Ulica Łódzka I",
		"city": "Szczecinek",
		"district": "\"szczecinecki",
		"postcode": "zachodniopomorskie"
	},
	{
		"lon": "16.7125579",
		"lat": "53.7058656",
		"number": "19",
		"street": "Ulica Sienkiewicza",
		"city": "Szczecinek",
		"district": "\"szczecinecki",
		"postcode": "zachodniopomorskie"
	},
	{
		"lon": "16.7036782",
		"lat": "53.7109856",
		"number": "57",
		"street": "Ulica Lipowa",
		"city": "Szczecinek",
		"district": "\"szczecinecki",
		"postcode": "zachodniopomorskie"
	},
	{
		"lon": "16.7039394",
		"lat": "53.7053333",
		"number": "4",
		"street": "Ulica Spółdzielcza",
		"city": "Szczecinek",
		"district": "\"szczecinecki",
		"postcode": "zachodniopomorskie"
	},
	{
		"lon": "16.7002147",
		"lat": "53.7108822",
		"number": "38",
		"street": "Ulica Lipowa",
		"city": "Szczecinek",
		"district": "\"szczecinecki",
		"postcode": "zachodniopomorskie"
	},
	{
		"lon": "16.6990611",
		"lat": "53.7044226",
		"number": "72a",
		"street": "Ulica Kard. Stefana Wyszyńskiego",
		"city": "Szczecinek",
		"district": "\"szczecinecki",
		"postcode": "zachodniopomorskie"
	},
	{
		"lon": "16.6974501",
		"lat": "53.7087053",
		"number": "13",
		"street": "Ulica Kard. Stefana Wyszyńskiego",
		"city": "Szczecinek",
		"district": "\"szczecinecki",
		"postcode": "zachodniopomorskie"
	},
	{
		"lon": "16.6973396",
		"lat": "53.7052537",
		"number": "13",
		"street": "Ulica Bohaterów Stalingradu",
		"city": "Szczecinek",
		"district": "\"szczecinecki",
		"postcode": "zachodniopomorskie"
	},
	{
		"lon": "16.6966068",
		"lat": "53.7085311",
		"number": "4",
		"street": "Ulica Mariacka",
		"city": "Szczecinek",
		"district": "\"szczecinecki",
		"postcode": "zachodniopomorskie"
	},
	{
		"lon": "16.6962771",
		"lat": "53.7070637",
		"number": "5",
		"street": "Ulica Wojska Polskiego",
		"city": "Szczecinek",
		"district": "\"szczecinecki",
		"postcode": "zachodniopomorskie"
	},
	{
		"lon": "16.6901386",
		"lat": "53.7091756",
		"number": "3",
		"street": "Ulica Junacka",
		"city": "Szczecinek",
		"district": "\"szczecinecki",
		"postcode": "zachodniopomorskie"
	},
	{
		"lon": "16.685693",
		"lat": "53.7106078",
		"number": "2",
		"street": "Ulica Kościuszki",
		"city": "Szczecinek",
		"district": "\"szczecinecki",
		"postcode": "zachodniopomorskie"
	},
	{
		"lon": "16.6843174",
		"lat": "53.7117338",
		"number": "3b",
		"street": "Ulica Jeziorna",
		"city": "Szczecinek",
		"district": "\"szczecinecki",
		"postcode": "zachodniopomorskie"
	},
	{
		"lon": "16.7055504",
		"lat": "53.7035438",
		"number": "23",
		"street": "Ulica Niecała",
		"city": "Szczecinek",
		"district": "\"szczecinecki",
		"postcode": "zachodniopomorskie"
	},
	{
		"lon": "16.7009276",
		"lat": "53.7020843",
		"number": "4IIIb",
		"street": "Ulica 28 Lutego",
		"city": "Szczecinek",
		"district": "\"szczecinecki",
		"postcode": "zachodniopomorskie"
	},
	{
		"lon": "16.710317",
		"lat": "53.7053296",
		"number": "20",
		"street": "Ulica Słowiańska",
		"city": "Szczecinek",
		"district": "\"szczecinecki",
		"postcode": "zachodniopomorskie"
	},
	{
		"lon": "16.7012652",
		"lat": "53.7015318",
		"number": "10d",
		"street": "Ulica 28 Lutego",
		"city": "Szczecinek",
		"district": "\"szczecinecki",
		"postcode": "zachodniopomorskie"
	},
	{
		"lon": "16.6977991",
		"lat": "53.7025837",
		"number": "73d",
		"street": "Ulica Kard. Stefana Wyszyńskiego",
		"city": "Szczecinek",
		"district": "\"szczecinecki",
		"postcode": "zachodniopomorskie"
	},
	{
		"lon": "16.7063043",
		"lat": "53.6998189",
		"number": "39",
		"street": "Ulica Gen. Władysława Sikorskiego",
		"city": "Szczecinek",
		"district": "\"szczecinecki",
		"postcode": "zachodniopomorskie"
	},
	{
		"lon": "16.7010651",
		"lat": "53.7000828",
		"number": "16",
		"street": "Ulica 28 Lutego",
		"city": "Szczecinek",
		"district": "\"szczecinecki",
		"postcode": "zachodniopomorskie"
	},
	{
		"lon": "16.7014354",
		"lat": "53.699641",
		"number": "4a",
		"street": "Ulica Warszawska",
		"city": "Szczecinek",
		"district": "\"szczecinecki",
		"postcode": "zachodniopomorskie"
	},
	{
		"lon": "16.6995352",
		"lat": "53.6937982",
		"number": "1a",
		"street": "Ulica Czaplinecka",
		"city": "Szczecinek",
		"district": "\"szczecinecki",
		"postcode": "zachodniopomorskie"
	},
	{
		"lon": "16.6990339",
		"lat": "53.6923347",
		"number": "31",
		"street": "Ulica Czaplinecka",
		"city": "Szczecinek",
		"district": "\"szczecinecki",
		"postcode": "zachodniopomorskie"
	},
	{
		"lon": "16.6988533",
		"lat": "53.6919121",
		"number": "30",
		"street": "Ulica Czaplinecka",
		"city": "Szczecinek",
		"district": "\"szczecinecki",
		"postcode": "zachodniopomorskie"
	},
	{
		"lon": "16.6979624",
		"lat": "53.6899935",
		"number": "47",
		"street": "Ulica Miła",
		"city": "Szczecinek",
		"district": "\"szczecinecki",
		"postcode": "zachodniopomorskie"
	},
	{
		"lon": "16.7012797",
		"lat": "53.6927703",
		"number": "19",
		"street": "Ulica Gen. Władysława Sikorskiego",
		"city": "Szczecinek",
		"district": "\"szczecinecki",
		"postcode": "zachodniopomorskie"
	},
	{
		"lon": "16.7144817",
		"lat": "53.6908118",
		"number": "7",
		"street": "Ulica Waryńskiego",
		"city": "Szczecinek",
		"district": "\"szczecinecki",
		"postcode": "zachodniopomorskie"
	},
	{
		"lon": "16.799121",
		"lat": "53.7347713",
		"number": "10",
		"street": "Ulica Polna",
		"city": "Gwda Wielka",
		"district": "\"szczecinecki",
		"postcode": "zachodniopomorskie"
	},
	{
		"lon": "16.7153817",
		"lat": "53.7041664",
		"number": "41",
		"street": "Ulica Wiejska",
		"city": "Szczecinek",
		"district": "\"szczecinecki",
		"postcode": "zachodniopomorskie"
	},
	{
		"lon": "16.7111357",
		"lat": "53.7041628",
		"number": "7",
		"street": "Ulica Wiejska",
		"city": "Szczecinek",
		"district": "\"szczecinecki",
		"postcode": "zachodniopomorskie"
	},
	{
		"lon": "16.7119822",
		"lat": "53.7038092",
		"number": "14",
		"street": "Ulica Wiejska",
		"city": "Szczecinek",
		"district": "\"szczecinecki",
		"postcode": "zachodniopomorskie"
	},
	{
		"lon": "16.7045069",
		"lat": "53.7061",
		"number": "19b",
		"street": "Ulica Kopernika",
		"city": "Szczecinek",
		"district": "\"szczecinecki",
		"postcode": "zachodniopomorskie"
	},
	{
		"lon": "16.7009665",
		"lat": "53.704444",
		"number": "12",
		"street": "Ulica Armii Krajowej",
		"city": "Szczecinek",
		"district": "\"szczecinecki",
		"postcode": "zachodniopomorskie"
	},
	{
		"lon": "16.6945766",
		"lat": "53.7088035",
		"number": "2",
		"street": "Ulica Strażacka",
		"city": "Szczecinek",
		"district": "\"szczecinecki",
		"postcode": "zachodniopomorskie"
	},
	{
		"lon": "16.6772558",
		"lat": "53.7235759",
		"number": "4c",
		"street": "Ulica Kołobrzeska",
		"city": "Szczecinek",
		"district": "\"szczecinecki",
		"postcode": "zachodniopomorskie"
	},
	{
		"lon": "16.6704053",
		"lat": "53.7163805",
		"number": "5",
		"street": "Ulica Mazurska",
		"city": "Szczecinek",
		"district": "\"szczecinecki",
		"postcode": "zachodniopomorskie"
	},
	{
		"lon": "16.6685743",
		"lat": "53.720176",
		"number": "2a",
		"street": "Ulica Krakowska",
		"city": "Szczecinek",
		"district": "\"szczecinecki",
		"postcode": "zachodniopomorskie"
	},
	{
		"lon": "16.6689368",
		"lat": "53.7178737",
		"number": "15",
		"street": "Ulica Królowej Jadwigi",
		"city": "Szczecinek",
		"district": "\"szczecinecki",
		"postcode": "zachodniopomorskie"
	},
	{
		"lon": "16.8476845",
		"lat": "53.8949666",
		"number": "26",
		"street": "Ulica Brzeźnicka",
		"city": "Biały Bór",
		"district": "\"szczecinecki",
		"postcode": "zachodniopomorskie"
	},
	{
		"lon": "16.8393698",
		"lat": "53.9014158",
		"number": "2c",
		"street": "Ulica Żymierskiego",
		"city": "Biały Bór",
		"district": "\"szczecinecki",
		"postcode": "zachodniopomorskie"
	},
	{
		"lon": "16.8418615",
		"lat": "53.9030632",
		"number": "21",
		"street": "Ulica Słoneczna",
		"city": "Biały Bór",
		"district": "\"szczecinecki",
		"postcode": "zachodniopomorskie"
	},
	{
		"lon": "16.6434469",
		"lat": "53.720577",
		"number": "17",
		"street": "Ulica Słowicza",
		"city": "Szczecinek",
		"district": "\"szczecinecki",
		"postcode": "zachodniopomorskie"
	},
	{
		"lon": "16.6655324",
		"lat": "53.720958",
		"number": "104e",
		"street": "Ulica Polna",
		"city": "Szczecinek",
		"district": "\"szczecinecki",
		"postcode": "zachodniopomorskie"
	},
	{
		"lon": "16.6676639",
		"lat": "53.7208031",
		"number": "1a",
		"street": "Ulica Barwicka",
		"city": "Szczecinek",
		"district": "\"szczecinecki",
		"postcode": "zachodniopomorskie"
	},
	{
		"lon": "16.6411735",
		"lat": "53.7182657",
		"number": "11",
		"street": "Ulica Trzesiecka",
		"city": "Szczecinek",
		"district": "\"szczecinecki",
		"postcode": "zachodniopomorskie"
	},
	{
		"lon": "16.6449508",
		"lat": "53.719925",
		"number": "10",
		"street": "Ulica Sowia",
		"city": "Szczecinek",
		"district": "\"szczecinecki",
		"postcode": "zachodniopomorskie"
	},
	{
		"lon": "16.6588425",
		"lat": "53.7188936",
		"number": "26",
		"street": "\"Ulica Gen. Stefana \"\"Grota\"\" Roweckiego\"",
		"city": "Szczecinek",
		"district": "\"szczecinecki",
		"postcode": "zachodniopomorskie"
	},
	{
		"lon": "16.6646674",
		"lat": "53.717557",
		"number": "50a",
		"street": "Ulica Jagiełły",
		"city": "Szczecinek",
		"district": "\"szczecinecki",
		"postcode": "zachodniopomorskie"
	},
	{
		"lon": "16.6653125",
		"lat": "53.7172371",
		"number": "24",
		"street": "Ulica Jagiełły",
		"city": "Szczecinek",
		"district": "\"szczecinecki",
		"postcode": "zachodniopomorskie"
	},
	{
		"lon": "16.6840152",
		"lat": "54.1176787",
		"number": "4",
		"street": "Ulica Rybna",
		"city": "Polanów",
		"district": "\"koszaliński",
		"postcode": "zachodniopomorskie"
	},
	{
		"lon": "16.5855292",
		"lat": "53.9524194",
		"number": "2",
		"street": "Ulica Matejki",
		"city": "Bobolice",
		"district": "\"koszaliński",
		"postcode": "zachodniopomorskie"
	},
	{
		"lon": "16.8086354",
		"lat": "53.6733549",
		"number": "7",
		"street": "Ulica Kościelna",
		"city": "Żółtnica",
		"district": "\"szczecinecki",
		"postcode": "zachodniopomorskie"
	},
	{
		"lon": "16.8137084",
		"lat": "53.672016",
		"number": "16",
		"street": "Ulica Drawieńska",
		"city": "Żółtnica",
		"district": "\"szczecinecki",
		"postcode": "zachodniopomorskie"
	},
	{
		"lon": "16.7572541",
		"lat": "53.6988441",
		"number": "7 2",
		"street": "Ulica Czarnobór",
		"city": "Szczecinek",
		"district": "\"szczecinecki",
		"postcode": "zachodniopomorskie"
	},
	{
		"lon": "16.7165196",
		"lat": "53.681911",
		"number": "19",
		"street": "Ulica Dębowa",
		"city": "Szczecinek",
		"district": "\"szczecinecki",
		"postcode": "zachodniopomorskie"
	},
	{
		"lon": "16.7156905",
		"lat": "53.6827074",
		"number": "11",
		"street": "Ulica Dębowa",
		"city": "Szczecinek",
		"district": "\"szczecinecki",
		"postcode": "zachodniopomorskie"
	},
	{
		"lon": "16.7122775",
		"lat": "53.6827431",
		"number": "14",
		"street": "Ulica Brzozowa",
		"city": "Szczecinek",
		"district": "\"szczecinecki",
		"postcode": "zachodniopomorskie"
	},
	{
		"lon": "16.704715",
		"lat": "53.6746382",
		"number": "107",
		"street": "Ulica Szarych Szeregów",
		"city": "Szczecinek",
		"district": "\"szczecinecki",
		"postcode": "zachodniopomorskie"
	},
	{
		"lon": "16.6978999",
		"lat": "53.689837",
		"number": "51",
		"street": "Ulica Miła",
		"city": "Szczecinek",
		"district": "\"szczecinecki",
		"postcode": "zachodniopomorskie"
	},
	{
		"lon": "16.6793268",
		"lat": "53.7186552",
		"number": "74a",
		"street": "Ulica Koszalińska",
		"city": "Szczecinek",
		"district": "\"szczecinecki",
		"postcode": "zachodniopomorskie"
	},
	{
		"lon": "16.6743677",
		"lat": "53.7174421",
		"number": "70",
		"street": "Ulica Derdowskiego",
		"city": "Szczecinek",
		"district": "\"szczecinecki",
		"postcode": "zachodniopomorskie"
	},
	{
		"lon": "16.6777269",
		"lat": "53.7184051",
		"number": "33f",
		"street": "Ulica Polna",
		"city": "Szczecinek",
		"district": "\"szczecinecki",
		"postcode": "zachodniopomorskie"
	},
	{
		"lon": "16.700005",
		"lat": "53.6957509",
		"number": "9",
		"street": "Ulica Toruńska",
		"city": "Szczecinek",
		"district": "\"szczecinecki",
		"postcode": "zachodniopomorskie"
	},
	{
		"lon": "16.703767",
		"lat": "53.6964808",
		"number": "8a",
		"street": "Ulica Drahimska",
		"city": "Szczecinek",
		"district": "\"szczecinecki",
		"postcode": "zachodniopomorskie"
	},
	{
		"lon": "16.699434",
		"lat": "53.6950395",
		"number": "20a",
		"street": "Ulica Toruńska",
		"city": "Szczecinek",
		"district": "\"szczecinecki",
		"postcode": "zachodniopomorskie"
	},
	{
		"lon": "16.7172348",
		"lat": "53.6811999",
		"number": "25",
		"street": "Ulica Dębowa",
		"city": "Szczecinek",
		"district": "\"szczecinecki",
		"postcode": "zachodniopomorskie"
	},
	{
		"lon": "16.703296",
		"lat": "53.6778445",
		"number": "22",
		"street": "Ulica Obrońców Westerplatte",
		"city": "Szczecinek",
		"district": "\"szczecinecki",
		"postcode": "zachodniopomorskie"
	},
	{
		"lon": "16.5404067",
		"lat": "53.5845814",
		"number": "12",
		"street": "Ulica Aleja Niepodległości",
		"city": "Borne Sulinowo",
		"district": "\"szczecinecki",
		"postcode": "zachodniopomorskie"
	},
	{
		"lon": "16.5345053",
		"lat": "53.5835866",
		"number": "7",
		"street": "Ulica Orła Białego",
		"city": "Borne Sulinowo",
		"district": "\"szczecinecki",
		"postcode": "zachodniopomorskie"
	},
	{
		"lon": "14.9420902",
		"lat": "53.0121368",
		"number": "36",
		"street": "Ulica Pyrzycka",
		"city": "Lipiany",
		"district": "\"pyrzycki",
		"postcode": "zachodniopomorskie"
	},
	{
		"lon": "14.8765349",
		"lat": "52.9263505",
		"number": "35",
		"street": "Osiedle Osiedle Słowiańskie",
		"city": "Myślibórz",
		"district": "\"myśliborski",
		"postcode": "zachodniopomorskie"
	},
	{
		"lon": "14.8665342",
		"lat": "52.9266218",
		"number": "19",
		"street": "Ulica Pomorska",
		"city": "Myślibórz",
		"district": "\"myśliborski",
		"postcode": "zachodniopomorskie"
	},
	{
		"lon": "14.8856549",
		"lat": "52.9198201",
		"number": "12",
		"street": "Ulica Tuwima",
		"city": "Myślibórz",
		"district": "\"myśliborski",
		"postcode": "zachodniopomorskie"
	},
	{
		"lon": "14.7069017",
		"lat": "52.7408936",
		"number": "3",
		"street": "Ulica Ogrodowa",
		"city": "Dębno",
		"district": "\"myśliborski",
		"postcode": "zachodniopomorskie"
	},
	{
		"lon": "15.6674995",
		"lat": "54.1909439",
		"number": "2b",
		"street": "Ulica Krzemieniecka",
		"city": "Kołobrzeg",
		"district": "\"kołobrzeski",
		"postcode": "zachodniopomorskie"
	},
	{
		"lon": "15.6633639",
		"lat": "54.1924083",
		"number": "2d",
		"street": "Ulica Lwowska",
		"city": "Kołobrzeg",
		"district": "\"kołobrzeski",
		"postcode": "zachodniopomorskie"
	},
	{
		"lon": "15.611663",
		"lat": "54.1559791",
		"number": "2",
		"street": "Ulica Polankowa",
		"city": "Niekanin",
		"district": "\"kołobrzeski",
		"postcode": "zachodniopomorskie"
	},
	{
		"lon": "15.6035076",
		"lat": "54.1652407",
		"number": "21",
		"street": "Ulica Rzemieślnicza",
		"city": "Kołobrzeg",
		"district": "\"kołobrzeski",
		"postcode": "zachodniopomorskie"
	},
	{
		"lon": "15.5992379",
		"lat": "54.1780203",
		"number": "13a",
		"street": "Ulica Stanisława Koniecpolskiego",
		"city": "Kołobrzeg",
		"district": "\"kołobrzeski",
		"postcode": "zachodniopomorskie"
	},
	{
		"lon": "15.5993604",
		"lat": "54.1655112",
		"number": "2a",
		"street": "Ulica Janiska",
		"city": "Kołobrzeg",
		"district": "\"kołobrzeski",
		"postcode": "zachodniopomorskie"
	},
	{
		"lon": "15.5969688",
		"lat": "54.1808516",
		"number": "16D",
		"street": "Ulica Jana Chodkiewicza",
		"city": "Kołobrzeg",
		"district": "\"kołobrzeski",
		"postcode": "zachodniopomorskie"
	},
	{
		"lon": "15.6005564",
		"lat": "54.1749455",
		"number": "35",
		"street": "Ulica Kaszubska",
		"city": "Kołobrzeg",
		"district": "\"kołobrzeski",
		"postcode": "zachodniopomorskie"
	},
	{
		"lon": "15.5923035",
		"lat": "54.1772428",
		"number": "24",
		"street": "Ulica Ogrodowa",
		"city": "Kołobrzeg",
		"district": "\"kołobrzeski",
		"postcode": "zachodniopomorskie"
	},
	{
		"lon": "15.5922471",
		"lat": "54.1775546",
		"number": "3a",
		"street": "Ulica Ogrodowa",
		"city": "Kołobrzeg",
		"district": "\"kołobrzeski",
		"postcode": "zachodniopomorskie"
	},
	{
		"lon": "15.5864266",
		"lat": "54.17581",
		"number": "26",
		"street": "Ulica Koszalińska",
		"city": "Kołobrzeg",
		"district": "\"kołobrzeski",
		"postcode": "zachodniopomorskie"
	},
	{
		"lon": "15.5824354",
		"lat": "54.1823078",
		"number": "8",
		"street": "Ulica Jana Kasprowicza",
		"city": "Kołobrzeg",
		"district": "\"kołobrzeski",
		"postcode": "zachodniopomorskie"
	},
	{
		"lon": "15.5818363",
		"lat": "54.1786175",
		"number": "3B",
		"street": "Ulica Zapleczna",
		"city": "Kołobrzeg",
		"district": "\"kołobrzeski",
		"postcode": "zachodniopomorskie"
	},
	{
		"lon": "15.5820522",
		"lat": "54.1796949",
		"number": "4",
		"street": "Ulica Okopowa",
		"city": "Kołobrzeg",
		"district": "\"kołobrzeski",
		"postcode": "zachodniopomorskie"
	},
	{
		"lon": "15.5791853",
		"lat": "54.1769873",
		"number": "10",
		"street": "Ulica Giełdowa",
		"city": "Kołobrzeg",
		"district": "\"kołobrzeski",
		"postcode": "zachodniopomorskie"
	},
	{
		"lon": "15.578408",
		"lat": "54.184108",
		"number": "5",
		"street": "Ulica Mikołaja Kopernika",
		"city": "Kołobrzeg",
		"district": "\"kołobrzeski",
		"postcode": "zachodniopomorskie"
	},
	{
		"lon": "15.5759712",
		"lat": "54.1756936",
		"number": "26",
		"street": "Ulica Armii Krajowej",
		"city": "Kołobrzeg",
		"district": "\"kołobrzeski",
		"postcode": "zachodniopomorskie"
	},
	{
		"lon": "15.5743188",
		"lat": "54.1810918",
		"number": "18",
		"street": "Ulica Władysława Kniewskiego",
		"city": "Kołobrzeg",
		"district": "\"kołobrzeski",
		"postcode": "zachodniopomorskie"
	},
	{
		"lon": "15.5708899",
		"lat": "54.1799151",
		"number": "6",
		"street": "Ulica Zwycięzców",
		"city": "Kołobrzeg",
		"district": "\"kołobrzeski",
		"postcode": "zachodniopomorskie"
	},
	{
		"lon": "15.5694071",
		"lat": "54.1801243",
		"number": "1",
		"street": "Ulica Zwycięzców",
		"city": "Kołobrzeg",
		"district": "\"kołobrzeski",
		"postcode": "zachodniopomorskie"
	},
	{
		"lon": "15.5702693",
		"lat": "54.1785842",
		"number": "1",
		"street": "Ulica Armii Krajowej",
		"city": "Kołobrzeg",
		"district": "\"kołobrzeski",
		"postcode": "zachodniopomorskie"
	},
	{
		"lon": "15.5902326",
		"lat": "54.1762046",
		"number": "31f",
		"street": "Ulica Koszalińska",
		"city": "Kołobrzeg",
		"district": "\"kołobrzeski",
		"postcode": "zachodniopomorskie"
	},
	{
		"lon": "15.5939295",
		"lat": "54.1679224",
		"number": "61",
		"street": "Ulica Bolesława Krzywoustego",
		"city": "Kołobrzeg",
		"district": "\"kołobrzeski",
		"postcode": "zachodniopomorskie"
	},
	{
		"lon": "15.5819584",
		"lat": "54.1748401",
		"number": "12",
		"street": "Ulica Kaliska",
		"city": "Kołobrzeg",
		"district": "\"kołobrzeski",
		"postcode": "zachodniopomorskie"
	},
	{
		"lon": "15.5772877",
		"lat": "54.1742092",
		"number": "27A",
		"street": "Ulica Budowlana",
		"city": "Kołobrzeg",
		"district": "\"kołobrzeski",
		"postcode": "zachodniopomorskie"
	},
	{
		"lon": "15.5754269",
		"lat": "54.1742732",
		"number": "40",
		"street": "Ulica Podporucznika Emilii Gierczak",
		"city": "Kołobrzeg",
		"district": "\"kołobrzeski",
		"postcode": "zachodniopomorskie"
	},
	{
		"lon": "15.5734403",
		"lat": "54.1744435",
		"number": "18D",
		"street": "Ulica Gabriela Narutowicza",
		"city": "Kołobrzeg",
		"district": "\"kołobrzeski",
		"postcode": "zachodniopomorskie"
	},
	{
		"lon": "15.5767252",
		"lat": "54.1762854",
		"number": "2",
		"street": "Ulica Ratuszowa",
		"city": "Kołobrzeg",
		"district": "\"kołobrzeski",
		"postcode": "zachodniopomorskie"
	},
	{
		"lon": "15.5687449",
		"lat": "54.1729303",
		"number": "9",
		"street": "Ulica Radomska",
		"city": "Kołobrzeg",
		"district": "\"kołobrzeski",
		"postcode": "zachodniopomorskie"
	},
	{
		"lon": "15.5665135",
		"lat": "54.1726451",
		"number": "12",
		"street": "Ulica Lotnicza",
		"city": "Kołobrzeg",
		"district": "\"kołobrzeski",
		"postcode": "zachodniopomorskie"
	},
	{
		"lon": "15.5663078",
		"lat": "54.1711323",
		"number": "39",
		"street": "Ulica Wolności",
		"city": "Kołobrzeg",
		"district": "\"kołobrzeski",
		"postcode": "zachodniopomorskie"
	},
	{
		"lon": "15.5651441",
		"lat": "54.1724812",
		"number": "1",
		"street": "Ulica Radomska",
		"city": "Kołobrzeg",
		"district": "\"kołobrzeski",
		"postcode": "zachodniopomorskie"
	},
	{
		"lon": "15.5555902",
		"lat": "54.1696225",
		"number": "18B",
		"street": "Ulica Żurawia",
		"city": "Kołobrzeg",
		"district": "\"kołobrzeski",
		"postcode": "zachodniopomorskie"
	},
	{
		"lon": "15.5824892",
		"lat": "54.1608095",
		"number": "1",
		"street": "Ulica Lipowa",
		"city": "Budzistowo",
		"district": "\"kołobrzeski",
		"postcode": "zachodniopomorskie"
	},
	{
		"lon": "15.5765305",
		"lat": "54.1567186",
		"number": "23",
		"street": "Ulica Pałacowa",
		"city": "Budzistowo",
		"district": "\"kołobrzeski",
		"postcode": "zachodniopomorskie"
	},
	{
		"lon": "15.5683325",
		"lat": "54.1673313",
		"number": "32",
		"street": "Ulica Artyleryjska",
		"city": "Kołobrzeg",
		"district": "\"kołobrzeski",
		"postcode": "zachodniopomorskie"
	},
	{
		"lon": "15.5685416",
		"lat": "54.1653796",
		"number": "88",
		"street": "Ulica 6 Dywizji Piechoty",
		"city": "Kołobrzeg",
		"district": "\"kołobrzeski",
		"postcode": "zachodniopomorskie"
	},
	{
		"lon": "15.5661181",
		"lat": "54.1638579",
		"number": "1B",
		"street": "Ulica Wiedeńska",
		"city": "Kołobrzeg",
		"district": "\"kołobrzeski",
		"postcode": "zachodniopomorskie"
	},
	{
		"lon": "15.5763384",
		"lat": "54.1578664",
		"number": "31",
		"street": "Ulica Pałacowa",
		"city": "Budzistowo",
		"district": "\"kołobrzeski",
		"postcode": "zachodniopomorskie"
	},
	{
		"lon": "15.5545609",
		"lat": "54.1594082",
		"number": "7",
		"street": "Ulica Konstantego Maciejewicza",
		"city": "Kołobrzeg",
		"district": "\"kołobrzeski",
		"postcode": "zachodniopomorskie"
	},
	{
		"lon": "15.5532339",
		"lat": "54.1588383",
		"number": "45",
		"street": "Ulica Konstantego Maciejewicza",
		"city": "Kołobrzeg",
		"district": "\"kołobrzeski",
		"postcode": "zachodniopomorskie"
	},
	{
		"lon": "15.5509891",
		"lat": "54.1618081",
		"number": "10",
		"street": "Ulica Urocza",
		"city": "Kołobrzeg",
		"district": "\"kołobrzeski",
		"postcode": "zachodniopomorskie"
	},
	{
		"lon": "15.5553423",
		"lat": "54.1638137",
		"number": "8a",
		"street": "Ulica Słoneczna",
		"city": "Kołobrzeg",
		"district": "\"kołobrzeski",
		"postcode": "zachodniopomorskie"
	},
	{
		"lon": "15.5669653",
		"lat": "54.1766071",
		"number": "10",
		"street": "Ulica Zygmuntowska",
		"city": "Kołobrzeg",
		"district": "\"kołobrzeski",
		"postcode": "zachodniopomorskie"
	},
	{
		"lon": "15.5592383",
		"lat": "54.1819259",
		"number": "37",
		"street": "Ulica Portowa",
		"city": "Kołobrzeg",
		"district": "\"kołobrzeski",
		"postcode": "zachodniopomorskie"
	},
	{
		"lon": "15.5562641",
		"lat": "54.1852693",
		"number": "18C",
		"street": "Ulica Cicha",
		"city": "Kołobrzeg",
		"district": "\"kołobrzeski",
		"postcode": "zachodniopomorskie"
	},
	{
		"lon": "15.5530041",
		"lat": "54.1787175",
		"number": "6a",
		"street": "Ulica Węgorzowa",
		"city": "Kołobrzeg",
		"district": "\"kołobrzeski",
		"postcode": "zachodniopomorskie"
	},
	{
		"lon": "15.5499986",
		"lat": "54.1766578",
		"number": "87A",
		"street": "Ulica Wylotowa",
		"city": "Kołobrzeg",
		"district": "\"kołobrzeski",
		"postcode": "zachodniopomorskie"
	},
	{
		"lon": "15.5473408",
		"lat": "54.1772451",
		"number": "4",
		"street": "Ulica Próżna",
		"city": "Kołobrzeg",
		"district": "\"kołobrzeski",
		"postcode": "zachodniopomorskie"
	},
	{
		"lon": "15.546035",
		"lat": "54.1763388",
		"number": "37",
		"street": "Ulica Jedności Narodowej",
		"city": "Kołobrzeg",
		"district": "\"kołobrzeski",
		"postcode": "zachodniopomorskie"
	},
	{
		"lon": "15.5458614",
		"lat": "54.1755909",
		"number": "14",
		"street": "Ulica Wylotowa",
		"city": "Kołobrzeg",
		"district": "\"kołobrzeski",
		"postcode": "zachodniopomorskie"
	},
	{
		"lon": "15.5421554",
		"lat": "54.174297",
		"number": "29",
		"street": "Ulica Wylotowa",
		"city": "Kołobrzeg",
		"district": "\"kołobrzeski",
		"postcode": "zachodniopomorskie"
	},
	{
		"lon": "15.5405201",
		"lat": "54.174518",
		"number": "13",
		"street": "Ulica Sosnowa",
		"city": "Kołobrzeg",
		"district": "\"kołobrzeski",
		"postcode": "zachodniopomorskie"
	},
	{
		"lon": "15.5371531",
		"lat": "54.1767316",
		"number": "21",
		"street": "Ulica Krzysztofa Arciszewskiego",
		"city": "Kołobrzeg",
		"district": "\"kołobrzeski",
		"postcode": "zachodniopomorskie"
	},
	{
		"lon": "15.5504116",
		"lat": "54.1590215",
		"number": "21",
		"street": "Ulica Bajeczna",
		"city": "Kołobrzeg",
		"district": "\"kołobrzeski",
		"postcode": "zachodniopomorskie"
	},
	{
		"lon": "15.5424388",
		"lat": "54.1581572",
		"number": "22",
		"street": "Ulica Bydgoska",
		"city": "Kołobrzeg",
		"district": "\"kołobrzeski",
		"postcode": "zachodniopomorskie"
	},
	{
		"lon": "15.5470711",
		"lat": "54.157012",
		"number": "8",
		"street": "Ulica Tadeusza Makowskiego",
		"city": "Kołobrzeg",
		"district": "\"kołobrzeski",
		"postcode": "zachodniopomorskie"
	},
	{
		"lon": "15.5475652",
		"lat": "54.1570237",
		"number": "9",
		"street": "Ulica Tadeusza Makowskiego",
		"city": "Kołobrzeg",
		"district": "\"kołobrzeski",
		"postcode": "zachodniopomorskie"
	},
	{
		"lon": "15.5469373",
		"lat": "54.1557674",
		"number": "19",
		"street": "Ulica Juliusza Kossaka",
		"city": "Kołobrzeg",
		"district": "\"kołobrzeski",
		"postcode": "zachodniopomorskie"
	},
	{
		"lon": "15.5378123",
		"lat": "54.1560038",
		"number": "39",
		"street": "Ulica Ludomira Różyckiego",
		"city": "Kołobrzeg",
		"district": "\"kołobrzeski",
		"postcode": "zachodniopomorskie"
	},
	{
		"lon": "15.5395968",
		"lat": "54.1548937",
		"number": "15",
		"street": "Ulica Ludomira Różyckiego",
		"city": "Kołobrzeg",
		"district": "\"kołobrzeski",
		"postcode": "zachodniopomorskie"
	},
	{
		"lon": "15.5417625",
		"lat": "54.1547006",
		"number": "25",
		"street": "Ulica Henryka Wieniawskiego",
		"city": "Kołobrzeg",
		"district": "\"kołobrzeski",
		"postcode": "zachodniopomorskie"
	},
	{
		"lon": "15.5505066",
		"lat": "54.153438",
		"number": "52",
		"street": "Ulica Malinowa",
		"city": "Zieleniewo",
		"district": "\"kołobrzeski",
		"postcode": "zachodniopomorskie"
	},
	{
		"lon": "15.5396519",
		"lat": "54.1527419",
		"number": "10",
		"street": "Ulica Turystyczna",
		"city": "Zieleniewo",
		"district": "\"kołobrzeski",
		"postcode": "zachodniopomorskie"
	},
	{
		"lon": "15.537711",
		"lat": "54.1742582",
		"number": "13",
		"street": "Ulica Klonowa",
		"city": "Kołobrzeg",
		"district": "\"kołobrzeski",
		"postcode": "zachodniopomorskie"
	},
	{
		"lon": "15.55195",
		"lat": "54.1717518",
		"number": "9",
		"street": "Ulica Henryka Sienkiewicza",
		"city": "Kołobrzeg",
		"district": "\"kołobrzeski",
		"postcode": "zachodniopomorskie"
	},
	{
		"lon": "15.5364112",
		"lat": "54.163523",
		"number": "11",
		"street": "Ulica Rubinowa",
		"city": "Kołobrzeg",
		"district": "\"kołobrzeski",
		"postcode": "zachodniopomorskie"
	},
	{
		"lon": "15.5370233",
		"lat": "54.1636695",
		"number": "14",
		"street": "Ulica Rubinowa",
		"city": "Kołobrzeg",
		"district": "\"kołobrzeski",
		"postcode": "zachodniopomorskie"
	},
	{
		"lon": "15.5402924",
		"lat": "54.163884",
		"number": "12",
		"street": "Ulica Szmaragdowa",
		"city": "Kołobrzeg",
		"district": "\"kołobrzeski",
		"postcode": "zachodniopomorskie"
	},
	{
		"lon": "15.5382586",
		"lat": "54.1619297",
		"number": "25",
		"street": "Ulica Perłowa",
		"city": "Kołobrzeg",
		"district": "\"kołobrzeski",
		"postcode": "zachodniopomorskie"
	},
	{
		"lon": "15.5375315",
		"lat": "54.1618806",
		"number": "37",
		"street": "Ulica Perłowa",
		"city": "Kołobrzeg",
		"district": "\"kołobrzeski",
		"postcode": "zachodniopomorskie"
	},
	{
		"lon": "15.548128",
		"lat": "54.1612561",
		"number": "12",
		"street": "Ulica Gdańska",
		"city": "Kołobrzeg",
		"district": "\"kołobrzeski",
		"postcode": "zachodniopomorskie"
	},
	{
		"lon": "15.5358869",
		"lat": "54.1595639",
		"number": "33",
		"street": "Ulica Partyzantów",
		"city": "Kołobrzeg",
		"district": "\"kołobrzeski",
		"postcode": "zachodniopomorskie"
	},
	{
		"lon": "15.5510867",
		"lat": "54.1597032",
		"number": "25",
		"street": "Ulica Akacjowa",
		"city": "Kołobrzeg",
		"district": "\"kołobrzeski",
		"postcode": "zachodniopomorskie"
	},
	{
		"lon": "15.541052",
		"lat": "54.1587799",
		"number": "74",
		"street": "Ulica Warszawska",
		"city": "Kołobrzeg",
		"district": "\"kołobrzeski",
		"postcode": "zachodniopomorskie"
	},
	{
		"lon": "15.6236067",
		"lat": "54.156044",
		"number": "15",
		"street": "Ulica Radosna",
		"city": "Niekanin",
		"district": "\"kołobrzeski",
		"postcode": "zachodniopomorskie"
	},
	{
		"lon": "15.6239085",
		"lat": "54.0866352",
		"number": "25B",
		"street": "Ulica Kamienna",
		"city": "Ząbrowo",
		"district": "\"kołobrzeski",
		"postcode": "zachodniopomorskie"
	},
	{
		"lon": "15.5954791",
		"lat": "54.1239357",
		"number": "14",
		"street": "Ulica Zagajnikowa",
		"city": "Rościęcino",
		"district": "\"kołobrzeski",
		"postcode": "zachodniopomorskie"
	},
	{
		"lon": "15.6055448",
		"lat": "54.1523461",
		"number": "14",
		"street": "Ulica Turkusowa",
		"city": "Niekanin",
		"district": "\"kołobrzeski",
		"postcode": "zachodniopomorskie"
	},
	{
		"lon": "15.5764003",
		"lat": "54.0915744",
		"number": "10",
		"street": "Ulica Lipowa",
		"city": "Charzyno",
		"district": "\"kołobrzeski",
		"postcode": "zachodniopomorskie"
	},
	{
		"lon": "15.6469184",
		"lat": "54.0542047",
		"number": "2",
		"street": "Ulica Kolejowa",
		"city": "Gościno",
		"district": "\"kołobrzeski",
		"postcode": "zachodniopomorskie"
	},
	{
		"lon": "15.658738",
		"lat": "54.0524898",
		"number": "4",
		"street": "Ulica Brylantowa",
		"city": "Gościno",
		"district": "\"kołobrzeski",
		"postcode": "zachodniopomorskie"
	},
	{
		"lon": "15.6519735",
		"lat": "54.0529594",
		"number": "11a",
		"street": "Ulica IV Dywizji Wojska Polskiego",
		"city": "Gościno",
		"district": "\"kołobrzeski",
		"postcode": "zachodniopomorskie"
	},
	{
		"lon": "15.6461921",
		"lat": "54.0538139",
		"number": "15",
		"street": "Ulica Kolejowa",
		"city": "Gościno",
		"district": "\"kołobrzeski",
		"postcode": "zachodniopomorskie"
	},
	{
		"lon": "15.65854",
		"lat": "54.0491389",
		"number": "10",
		"street": "Ulica Kościelna",
		"city": "Gościno",
		"district": "\"kołobrzeski",
		"postcode": "zachodniopomorskie"
	},
	{
		"lon": "15.6468882",
		"lat": "54.0513837",
		"number": "14",
		"street": "Ulica Stanisława Wyspiańskiego",
		"city": "Gościno",
		"district": "\"kołobrzeski",
		"postcode": "zachodniopomorskie"
	},
	{
		"lon": "15.5411506",
		"lat": "54.032462",
		"number": "23",
		"street": "Ulica Kołobrzeska",
		"city": "Siemyśl",
		"district": "\"kołobrzeski",
		"postcode": "zachodniopomorskie"
	},
	{
		"lon": "15.5361541",
		"lat": "54.0266196",
		"number": "17",
		"street": "Ulica Ogrodowa",
		"city": "Siemyśl",
		"district": "\"kołobrzeski",
		"postcode": "zachodniopomorskie"
	},
	{
		"lon": "15.5886504",
		"lat": "54.1779649",
		"number": "9",
		"street": "Ulica Myśliwska",
		"city": "Kołobrzeg",
		"district": "\"kołobrzeski",
		"postcode": "zachodniopomorskie"
	},
	{
		"lon": "15.5609597",
		"lat": "54.1480496",
		"number": "30",
		"street": "Ulica Rycerska",
		"city": "Zieleniewo",
		"district": "\"kołobrzeski",
		"postcode": "zachodniopomorskie"
	},
	{
		"lon": "15.5601137",
		"lat": "54.1472938",
		"number": "15",
		"street": "Ulica Szczecińska",
		"city": "Zieleniewo",
		"district": "\"kołobrzeski",
		"postcode": "zachodniopomorskie"
	},
	{
		"lon": "15.5559623",
		"lat": "54.1442191",
		"number": "4",
		"street": "Ulica Jantarowa",
		"city": "Zieleniewo",
		"district": "\"kołobrzeski",
		"postcode": "zachodniopomorskie"
	},
	{
		"lon": "15.5303849",
		"lat": "54.1404813",
		"number": "13",
		"street": "Ulica Bażancia",
		"city": "Zieleniewo",
		"district": "\"kołobrzeski",
		"postcode": "zachodniopomorskie"
	},
	{
		"lon": "15.5597163",
		"lat": "54.1356597",
		"number": "105",
		"street": "Ulica Szczecińska",
		"city": "Zieleniewo",
		"district": "\"kołobrzeski",
		"postcode": "zachodniopomorskie"
	},
	{
		"lon": "15.5782351",
		"lat": "54.0900557",
		"number": "16",
		"street": "Ulica Zielona",
		"city": "Charzyno",
		"district": "\"kołobrzeski",
		"postcode": "zachodniopomorskie"
	},
	{
		"lon": "15.5718693",
		"lat": "54.089527",
		"number": "2",
		"street": "Ulica Szkolna",
		"city": "Charzyno",
		"district": "\"kołobrzeski",
		"postcode": "zachodniopomorskie"
	},
	{
		"lon": "15.5534734",
		"lat": "54.1441766",
		"number": "21",
		"street": "Ulica Jantarowa",
		"city": "Zieleniewo",
		"district": "\"kołobrzeski",
		"postcode": "zachodniopomorskie"
	},
	{
		"lon": "15.655947",
		"lat": "54.0504956",
		"number": "5",
		"street": "Ulica Tadeusza Kościuszki",
		"city": "Gościno",
		"district": "\"kołobrzeski",
		"postcode": "zachodniopomorskie"
	},
	{
		"lon": "15.7005163",
		"lat": "53.9010522",
		"number": "42",
		"street": "Ulica Kołobrzeska",
		"city": "Sławoborze",
		"district": "\"świdwiński",
		"postcode": "zachodniopomorskie"
	},
	{
		"lon": "15.7082013",
		"lat": "53.8985963",
		"number": "2d",
		"street": "Ulica Lepińska",
		"city": "Sławoborze",
		"district": "\"świdwiński",
		"postcode": "zachodniopomorskie"
	},
	{
		"lon": "15.7152052",
		"lat": "53.8956715",
		"number": "2",
		"street": "Ulica Parcela",
		"city": "Sławoborze",
		"district": "\"świdwiński",
		"postcode": "zachodniopomorskie"
	},
	{
		"lon": "15.5094482",
		"lat": "54.164569",
		"number": "1",
		"street": "Ulica Marynarska",
		"city": "Grzybowo",
		"district": "\"kołobrzeski",
		"postcode": "zachodniopomorskie"
	},
	{
		"lon": "15.5040932",
		"lat": "54.1652027",
		"number": "38d",
		"street": "Ulica Nadmorska",
		"city": "Grzybowo",
		"district": "\"kołobrzeski",
		"postcode": "zachodniopomorskie"
	},
	{
		"lon": "15.5152389",
		"lat": "54.1659255",
		"number": "4d2",
		"street": "Ulica Przybrzeżna",
		"city": "Grzybowo",
		"district": "\"kołobrzeski",
		"postcode": "zachodniopomorskie"
	},
	{
		"lon": "15.5092275",
		"lat": "54.1625332",
		"number": "9",
		"street": "Ulica Wiejska",
		"city": "Grzybowo",
		"district": "\"kołobrzeski",
		"postcode": "zachodniopomorskie"
	},
	{
		"lon": "15.5084813",
		"lat": "54.1616487",
		"number": "3c",
		"street": "Ulica Wiejska",
		"city": "Grzybowo",
		"district": "\"kołobrzeski",
		"postcode": "zachodniopomorskie"
	},
	{
		"lon": "15.5036998",
		"lat": "54.1619961",
		"number": "22",
		"street": "Ulica Kamyczkowa",
		"city": "Grzybowo",
		"district": "\"kołobrzeski",
		"postcode": "zachodniopomorskie"
	},
	{
		"lon": "15.4976361",
		"lat": "54.1600921",
		"number": "23",
		"street": "Ulica Polna",
		"city": "Grzybowo",
		"district": "\"kołobrzeski",
		"postcode": "zachodniopomorskie"
	},
	{
		"lon": "15.533478",
		"lat": "54.1595689",
		"number": "2",
		"street": "Ulica Marynarska",
		"city": "Kołobrzeg",
		"district": "\"kołobrzeski",
		"postcode": "zachodniopomorskie"
	},
	{
		"lon": "15.5340716",
		"lat": "54.1594594",
		"number": "31",
		"street": "Ulica Synów Pułku",
		"city": "Kołobrzeg",
		"district": "\"kołobrzeski",
		"postcode": "zachodniopomorskie"
	},
	{
		"lon": "15.5322605",
		"lat": "54.1505703",
		"number": "6",
		"street": "Ulica Szałwiowa",
		"city": "Korzystno",
		"district": "\"kołobrzeski",
		"postcode": "zachodniopomorskie"
	},
	{
		"lon": "15.5329611",
		"lat": "54.1496023",
		"number": "7",
		"street": "Ulica Szeroka",
		"city": "Korzystno",
		"district": "\"kołobrzeski",
		"postcode": "zachodniopomorskie"
	},
	{
		"lon": "15.5205182",
		"lat": "54.1464783",
		"number": "5",
		"street": "Ulica Migdałowa",
		"city": "Korzystno",
		"district": "\"kołobrzeski",
		"postcode": "zachodniopomorskie"
	},
	{
		"lon": "15.5270723",
		"lat": "54.144671",
		"number": "7",
		"street": "Ulica Majerankowa",
		"city": "Korzystno",
		"district": "\"kołobrzeski",
		"postcode": "zachodniopomorskie"
	},
	{
		"lon": "15.5300025",
		"lat": "54.1383156",
		"number": "37",
		"street": "Ulica Bażancia",
		"city": "Zieleniewo",
		"district": "\"kołobrzeski",
		"postcode": "zachodniopomorskie"
	},
	{
		"lon": "15.4986558",
		"lat": "54.1637909",
		"number": "1",
		"street": "Ulica Jachtowa",
		"city": "Grzybowo",
		"district": "\"kołobrzeski",
		"postcode": "zachodniopomorskie"
	},
	{
		"lon": "15.4935276",
		"lat": "54.1636645",
		"number": "1",
		"street": "Ulica Bosmańska",
		"city": "Grzybowo",
		"district": "\"kołobrzeski",
		"postcode": "zachodniopomorskie"
	},
	{
		"lon": "15.4840076",
		"lat": "54.1650145",
		"number": "24",
		"street": "Ulica Bałtycka",
		"city": "Grzybowo",
		"district": "\"kołobrzeski",
		"postcode": "zachodniopomorskie"
	},
	{
		"lon": "15.4861892",
		"lat": "54.1611262",
		"number": "8b",
		"street": "Ulica Bałtycka",
		"city": "Grzybowo",
		"district": "\"kołobrzeski",
		"postcode": "zachodniopomorskie"
	},
	{
		"lon": "15.4948013",
		"lat": "54.1628132",
		"number": "65",
		"street": "Ulica Nadmorska",
		"city": "Grzybowo",
		"district": "\"kołobrzeski",
		"postcode": "zachodniopomorskie"
	},
	{
		"lon": "15.4874706",
		"lat": "54.1584057",
		"number": "34",
		"street": "Ulica Kościelna",
		"city": "Grzybowo",
		"district": "\"kołobrzeski",
		"postcode": "zachodniopomorskie"
	},
	{
		"lon": "15.4926079",
		"lat": "54.1589527",
		"number": "1",
		"street": "Ulica Szkolna",
		"city": "Grzybowo",
		"district": "\"kołobrzeski",
		"postcode": "zachodniopomorskie"
	},
	{
		"lon": "15.4830387",
		"lat": "54.156537",
		"number": "13",
		"street": "Ulica Zachodnia",
		"city": "Grzybowo",
		"district": "\"kołobrzeski",
		"postcode": "zachodniopomorskie"
	},
	{
		"lon": "15.4984552",
		"lat": "54.1598311",
		"number": "19",
		"street": "Ulica Polna",
		"city": "Grzybowo",
		"district": "\"kołobrzeski",
		"postcode": "zachodniopomorskie"
	},
	{
		"lon": "15.4876463",
		"lat": "54.1575755",
		"number": "7",
		"street": "Ulica Kościelna",
		"city": "Grzybowo",
		"district": "\"kołobrzeski",
		"postcode": "zachodniopomorskie"
	},
	{
		"lon": "15.4956193",
		"lat": "54.1548634",
		"number": "12",
		"street": "Ulica Gajowa",
		"city": "Grzybowo",
		"district": "\"kołobrzeski",
		"postcode": "zachodniopomorskie"
	},
	{
		"lon": "15.4969982",
		"lat": "54.1537632",
		"number": "19",
		"street": "Ulica Leśna",
		"city": "Grzybowo",
		"district": "\"kołobrzeski",
		"postcode": "zachodniopomorskie"
	},
	{
		"lon": "15.5392856",
		"lat": "54.0307903",
		"number": "14",
		"street": "Ulica Kołobrzeska",
		"city": "Siemyśl",
		"district": "\"kołobrzeski",
		"postcode": "zachodniopomorskie"
	},
	{
		"lon": "15.5412659",
		"lat": "53.9475451",
		"number": "2A",
		"street": "Ulica Sportowa",
		"city": "Rymań",
		"district": "\"kołobrzeski",
		"postcode": "zachodniopomorskie"
	},
	{
		"lon": "15.5344749",
		"lat": "54.0281696",
		"number": "5",
		"street": "Ulica Kołobrzeska",
		"city": "Siemyśl",
		"district": "\"kołobrzeski",
		"postcode": "zachodniopomorskie"
	},
	{
		"lon": "15.526628",
		"lat": "53.9496083",
		"number": "6",
		"street": "Ulica Wiejska",
		"city": "Rymań",
		"district": "\"kołobrzeski",
		"postcode": "zachodniopomorskie"
	},
	{
		"lon": "15.4779789",
		"lat": "54.1569954",
		"number": "17",
		"street": "Ulica Ogrodowa",
		"city": "Grzybowo",
		"district": "\"kołobrzeski",
		"postcode": "zachodniopomorskie"
	},
	{
		"lon": "15.4794313",
		"lat": "54.1575707",
		"number": "26",
		"street": "Ulica Ogrodowa",
		"city": "Grzybowo",
		"district": "\"kołobrzeski",
		"postcode": "zachodniopomorskie"
	},
	{
		"lon": "15.4766374",
		"lat": "54.1580006",
		"number": "35",
		"street": "Ulica Ogrodowa",
		"city": "Grzybowo",
		"district": "\"kołobrzeski",
		"postcode": "zachodniopomorskie"
	},
	{
		"lon": "15.4733089",
		"lat": "54.1519597",
		"number": "19",
		"street": "Ulica Tęczowa",
		"city": "Grzybowo",
		"district": "\"kołobrzeski",
		"postcode": "zachodniopomorskie"
	},
	{
		"lon": "15.4141045",
		"lat": "54.1588332",
		"number": "40l",
		"street": "Ulica Wyzwolenia",
		"city": "Dźwirzyno",
		"district": "\"kołobrzeski",
		"postcode": "zachodniopomorskie"
	},
	{
		"lon": "15.4131633",
		"lat": "54.1570362",
		"number": "11g",
		"street": "Ulica Piastowska",
		"city": "Dźwirzyno",
		"district": "\"kołobrzeski",
		"postcode": "zachodniopomorskie"
	},
	{
		"lon": "15.4092937",
		"lat": "54.1578012",
		"number": "9",
		"street": "Ulica Piastowska",
		"city": "Dźwirzyno",
		"district": "\"kołobrzeski",
		"postcode": "zachodniopomorskie"
	},
	{
		"lon": "15.4046616",
		"lat": "54.1581234",
		"number": "10c",
		"street": "Ulica Piastowska",
		"city": "Dźwirzyno",
		"district": "\"kołobrzeski",
		"postcode": "zachodniopomorskie"
	},
	{
		"lon": "15.4004231",
		"lat": "54.1535548",
		"number": "9",
		"street": "Ulica Kasztanowa",
		"city": "Dźwirzyno",
		"district": "\"kołobrzeski",
		"postcode": "zachodniopomorskie"
	},
	{
		"lon": "15.3987607",
		"lat": "54.1575254",
		"number": "27",
		"street": "Ulica Kołobrzeska",
		"city": "Dźwirzyno",
		"district": "\"kołobrzeski",
		"postcode": "zachodniopomorskie"
	},
	{
		"lon": "15.4811023",
		"lat": "54.1536853",
		"number": "21",
		"street": "Ulica Borkowska",
		"city": "Grzybowo",
		"district": "\"kołobrzeski",
		"postcode": "zachodniopomorskie"
	},
	{
		"lon": "15.3977894",
		"lat": "54.1528244",
		"number": "1",
		"street": "Ulica Jana Krasickiego",
		"city": "Dźwirzyno",
		"district": "\"kołobrzeski",
		"postcode": "zachodniopomorskie"
	},
	{
		"lon": "15.3972216",
		"lat": "54.157836",
		"number": "18",
		"street": "Ulica Ogrodowa",
		"city": "Dźwirzyno",
		"district": "\"kołobrzeski",
		"postcode": "zachodniopomorskie"
	},
	{
		"lon": "15.3951386",
		"lat": "54.1566715",
		"number": "20",
		"street": "Ulica Jana Krasickiego",
		"city": "Dźwirzyno",
		"district": "\"kołobrzeski",
		"postcode": "zachodniopomorskie"
	},
	{
		"lon": "15.3060885",
		"lat": "54.146311",
		"number": "5",
		"street": "Ulica Wypoczynkowa",
		"city": "Mrzeżyno",
		"district": "\"gryficki",
		"postcode": "zachodniopomorskie"
	},
	{
		"lon": "15.3011624",
		"lat": "54.144866",
		"number": "23",
		"street": "Ulica Aleja Tysiąclecia",
		"city": "Mrzeżyno",
		"district": "\"gryficki",
		"postcode": "zachodniopomorskie"
	},
	{
		"lon": "15.2987944",
		"lat": "54.1456678",
		"number": "2",
		"street": "Ulica Śliska",
		"city": "Mrzeżyno",
		"district": "\"gryficki",
		"postcode": "zachodniopomorskie"
	},
	{
		"lon": "15.2950106",
		"lat": "54.1441371",
		"number": "44",
		"street": "Ulica Aleja Tysiąclecia",
		"city": "Mrzeżyno",
		"district": "\"gryficki",
		"postcode": "zachodniopomorskie"
	},
	{
		"lon": "15.2896814",
		"lat": "54.1441155",
		"number": "5B",
		"street": "Ulica Bałtycka",
		"city": "Mrzeżyno",
		"district": "\"gryficki",
		"postcode": "zachodniopomorskie"
	},
	{
		"lon": "15.2902609",
		"lat": "54.1375231",
		"number": "9",
		"street": "Ulica Boczna",
		"city": "Mrzeżyno",
		"district": "\"gryficki",
		"postcode": "zachodniopomorskie"
	},
	{
		"lon": "15.3550583",
		"lat": "53.9574664",
		"number": "11",
		"street": "Ulica Długa",
		"city": "Brojce",
		"district": "\"gryficki",
		"postcode": "zachodniopomorskie"
	},
	{
		"lon": "15.3698341",
		"lat": "53.9534201",
		"number": "22",
		"street": "Ulica Brzozowa",
		"city": "Brojce",
		"district": "\"gryficki",
		"postcode": "zachodniopomorskie"
	},
	{
		"lon": "15.2762812",
		"lat": "54.1386782",
		"number": "44A",
		"street": "Ulica Wojska Polskiego",
		"city": "Mrzeżyno",
		"district": "\"gryficki",
		"postcode": "zachodniopomorskie"
	},
	{
		"lon": "15.2860946",
		"lat": "54.1360818",
		"number": "19",
		"street": "Ulica Trzebiatowska",
		"city": "Mrzeżyno",
		"district": "\"gryficki",
		"postcode": "zachodniopomorskie"
	},
	{
		"lon": "15.277757",
		"lat": "54.0668328",
		"number": "9",
		"street": "Ulica Piaskowa",
		"city": "Trzebiatów",
		"district": "\"gryficki",
		"postcode": "zachodniopomorskie"
	},
	{
		"lon": "15.2692838",
		"lat": "54.0634808",
		"number": "7",
		"street": "Plac Plac Zjednoczenia",
		"city": "Trzebiatów",
		"district": "\"gryficki",
		"postcode": "zachodniopomorskie"
	},
	{
		"lon": "15.2729429",
		"lat": "54.0655946",
		"number": "1A",
		"street": "Ulica Kołobrzeska",
		"city": "Trzebiatów",
		"district": "\"gryficki",
		"postcode": "zachodniopomorskie"
	},
	{
		"lon": "15.2833364",
		"lat": "54.0625224",
		"number": "8",
		"street": "Ulica Mariana Buczka",
		"city": "Trzebiatów",
		"district": "\"gryficki",
		"postcode": "zachodniopomorskie"
	},
	{
		"lon": "15.274325",
		"lat": "54.0610261",
		"number": "3",
		"street": "Ulica Dworcowa",
		"city": "Trzebiatów",
		"district": "\"gryficki",
		"postcode": "zachodniopomorskie"
	},
	{
		"lon": "15.2768058",
		"lat": "54.0631243",
		"number": "3",
		"street": "Ulica Rzeźnicka",
		"city": "Trzebiatów",
		"district": "\"gryficki",
		"postcode": "zachodniopomorskie"
	},
	{
		"lon": "15.2836905",
		"lat": "54.0614844",
		"number": "9",
		"street": "Ulica Królowej Jadwigi",
		"city": "Trzebiatów",
		"district": "\"gryficki",
		"postcode": "zachodniopomorskie"
	},
	{
		"lon": "15.2672153",
		"lat": "54.0627493",
		"number": "24",
		"street": "Ulica Wojska Polskiego",
		"city": "Trzebiatów",
		"district": "\"gryficki",
		"postcode": "zachodniopomorskie"
	},
	{
		"lon": "15.2657509",
		"lat": "54.0645969",
		"number": "2B",
		"street": "Ulica Kozia",
		"city": "Trzebiatów",
		"district": "\"gryficki",
		"postcode": "zachodniopomorskie"
	},
	{
		"lon": "15.2654642",
		"lat": "54.0625823",
		"number": "1",
		"street": "Ulica Rynek",
		"city": "Trzebiatów",
		"district": "\"gryficki",
		"postcode": "zachodniopomorskie"
	},
	{
		"lon": "15.263393",
		"lat": "54.0623549",
		"number": "35",
		"street": "Ulica Tadeusza Kościuszki",
		"city": "Trzebiatów",
		"district": "\"gryficki",
		"postcode": "zachodniopomorskie"
	},
	{
		"lon": "15.2645423",
		"lat": "54.0636436",
		"number": "3/B",
		"street": "Ulica Głęboka",
		"city": "Trzebiatów",
		"district": "\"gryficki",
		"postcode": "zachodniopomorskie"
	},
	{
		"lon": "15.2604201",
		"lat": "54.0597076",
		"number": "15",
		"street": "Ulica Adama Mickiewicza",
		"city": "Trzebiatów",
		"district": "\"gryficki",
		"postcode": "zachodniopomorskie"
	},
	{
		"lon": "15.2525518",
		"lat": "54.1301034",
		"number": "50B",
		"street": "Ulica Wojska Polskiego",
		"city": "Mrzeżyno",
		"district": "\"gryficki",
		"postcode": "zachodniopomorskie"
	},
	{
		"lon": "15.1248247",
		"lat": "54.0958843",
		"number": "3F",
		"street": "Ulica Leśników",
		"city": "Pogorzelica",
		"district": "\"gryficki",
		"postcode": "zachodniopomorskie"
	},
	{
		"lon": "15.283329",
		"lat": "54.057533",
		"number": "16",
		"street": "Ulica Długa",
		"city": "Trzebiatów",
		"district": "\"gryficki",
		"postcode": "zachodniopomorskie"
	},
	{
		"lon": "15.2870393",
		"lat": "54.0566503",
		"number": "42",
		"street": "Ulica Długa",
		"city": "Trzebiatów",
		"district": "\"gryficki",
		"postcode": "zachodniopomorskie"
	},
	{
		"lon": "15.2802012",
		"lat": "54.0589358",
		"number": "1",
		"street": "Ulica Małej Kolejki",
		"city": "Trzebiatów",
		"district": "\"gryficki",
		"postcode": "zachodniopomorskie"
	},
	{
		"lon": "15.2789358",
		"lat": "54.0489053",
		"number": "14",
		"street": "Ulica Wolności",
		"city": "Trzebiatów",
		"district": "\"gryficki",
		"postcode": "zachodniopomorskie"
	},
	{
		"lon": "15.2778667",
		"lat": "54.0526469",
		"number": "12",
		"street": "Ulica Stefana Okrzei",
		"city": "Trzebiatów",
		"district": "\"gryficki",
		"postcode": "zachodniopomorskie"
	},
	{
		"lon": "15.2628322",
		"lat": "54.0588818",
		"number": "30B",
		"street": "Ulica II Pułku Ułanów",
		"city": "Trzebiatów",
		"district": "\"gryficki",
		"postcode": "zachodniopomorskie"
	},
	{
		"lon": "15.259443",
		"lat": "54.0561593",
		"number": "7",
		"street": "Ulica Zagórska",
		"city": "Trzebiatów",
		"district": "\"gryficki",
		"postcode": "zachodniopomorskie"
	},
	{
		"lon": "15.258401",
		"lat": "54.0564458",
		"number": "8",
		"street": "Ulica Kamieniecka",
		"city": "Trzebiatów",
		"district": "\"gryficki",
		"postcode": "zachodniopomorskie"
	},
	{
		"lon": "15.2575631",
		"lat": "54.0581656",
		"number": "14",
		"street": "Ulica Sportowa",
		"city": "Trzebiatów",
		"district": "\"gryficki",
		"postcode": "zachodniopomorskie"
	},
	{
		"lon": "15.2549558",
		"lat": "54.0550832",
		"number": "1B",
		"street": "Ulica Kamieniecka",
		"city": "Trzebiatów",
		"district": "\"gryficki",
		"postcode": "zachodniopomorskie"
	},
	{
		"lon": "15.2851207",
		"lat": "53.9403912",
		"number": "17",
		"street": "Ulica Szosowa",
		"city": "Przybiernowo",
		"district": "\"gryficki",
		"postcode": "zachodniopomorskie"
	},
	{
		"lon": "15.2581571",
		"lat": "54.0553786",
		"number": "6",
		"street": "Ulica Zagórska",
		"city": "Trzebiatów",
		"district": "\"gryficki",
		"postcode": "zachodniopomorskie"
	},
	{
		"lon": "15.1938412",
		"lat": "53.9303688",
		"number": "8A",
		"street": "Ulica Niekładzka",
		"city": "Gryfice",
		"district": "\"gryficki",
		"postcode": "zachodniopomorskie"
	},
	{
		"lon": "15.176935",
		"lat": "53.9186199",
		"number": "65",
		"street": "Ulica Henryka Sienkiewicza",
		"city": "Gryfice",
		"district": "\"gryficki",
		"postcode": "zachodniopomorskie"
	},
	{
		"lon": "15.0250199",
		"lat": "54.0843491",
		"number": "4",
		"street": "Ulica Bolesława Krzywoustego",
		"city": "Rewal",
		"district": "\"gryficki",
		"postcode": "zachodniopomorskie"
	},
	{
		"lon": "15.0227373",
		"lat": "54.0831432",
		"number": "15",
		"street": "Ulica Słoneczna",
		"city": "Rewal",
		"district": "\"gryficki",
		"postcode": "zachodniopomorskie"
	},
	{
		"lon": "15.0236163",
		"lat": "54.0819615",
		"number": "18",
		"street": "Ulica Nowy Świat",
		"city": "Rewal",
		"district": "\"gryficki",
		"postcode": "zachodniopomorskie"
	},
	{
		"lon": "15.0275106",
		"lat": "54.0815671",
		"number": "6",
		"street": "Ulica Władysława Łokietka",
		"city": "Rewal",
		"district": "\"gryficki",
		"postcode": "zachodniopomorskie"
	},
	{
		"lon": "15.0326867",
		"lat": "54.0825921",
		"number": "28",
		"street": "Ulica Władysława Łokietka",
		"city": "Rewal",
		"district": "\"gryficki",
		"postcode": "zachodniopomorskie"
	},
	{
		"lon": "15.0132071",
		"lat": "54.0767462",
		"number": "14N",
		"street": "Ulica Polna",
		"city": "Rewal",
		"district": "\"gryficki",
		"postcode": "zachodniopomorskie"
	},
	{
		"lon": "15.0351736",
		"lat": "54.0761444",
		"number": "12",
		"street": "Ulica Słoneczna",
		"city": "Śliwin",
		"district": "\"gryficki",
		"postcode": "zachodniopomorskie"
	},
	{
		"lon": "15.1287401",
		"lat": "54.1037497",
		"number": "42",
		"street": "Ulica Wojska Polskiego",
		"city": "Pogorzelica",
		"district": "\"gryficki",
		"postcode": "zachodniopomorskie"
	},
	{
		"lon": "15.095932",
		"lat": "54.0985734",
		"number": "2",
		"street": "Ulica Jodłowa",
		"city": "Niechorze",
		"district": "\"gryficki",
		"postcode": "zachodniopomorskie"
	},
	{
		"lon": "15.0955359",
		"lat": "54.0982414",
		"number": "3",
		"street": "Ulica Jodłowa",
		"city": "Niechorze",
		"district": "\"gryficki",
		"postcode": "zachodniopomorskie"
	},
	{
		"lon": "15.0944392",
		"lat": "54.0985459",
		"number": "12",
		"street": "Ulica Jodłowa",
		"city": "Niechorze",
		"district": "\"gryficki",
		"postcode": "zachodniopomorskie"
	},
	{
		"lon": "15.0829496",
		"lat": "54.0968648",
		"number": "12",
		"street": "Ulica Słoneczna",
		"city": "Niechorze",
		"district": "\"gryficki",
		"postcode": "zachodniopomorskie"
	},
	{
		"lon": "15.0808892",
		"lat": "54.0961379",
		"number": "14",
		"street": "Ulica Krakowska",
		"city": "Niechorze",
		"district": "\"gryficki",
		"postcode": "zachodniopomorskie"
	},
	{
		"lon": "15.0774231",
		"lat": "54.095401",
		"number": "7A",
		"street": "Ulica Mazowiecka",
		"city": "Niechorze",
		"district": "\"gryficki",
		"postcode": "zachodniopomorskie"
	},
	{
		"lon": "15.0755019",
		"lat": "54.0965805",
		"number": "1",
		"street": "Ulica Pomorska",
		"city": "Niechorze",
		"district": "\"gryficki",
		"postcode": "zachodniopomorskie"
	},
	{
		"lon": "15.0730617",
		"lat": "54.0919493",
		"number": "12",
		"street": "Ulica Trzebiatowska",
		"city": "Niechorze",
		"district": "\"gryficki",
		"postcode": "zachodniopomorskie"
	},
	{
		"lon": "15.0744467",
		"lat": "54.0941879",
		"number": "6",
		"street": "Ulica Kolejowa",
		"city": "Niechorze",
		"district": "\"gryficki",
		"postcode": "zachodniopomorskie"
	},
	{
		"lon": "15.0662493",
		"lat": "54.0918402",
		"number": "26",
		"street": "Ulica Żeglarska",
		"city": "Niechorze",
		"district": "\"gryficki",
		"postcode": "zachodniopomorskie"
	},
	{
		"lon": "15.0362442",
		"lat": "54.0885807",
		"number": "15",
		"street": "Ulica Klifowa",
		"city": "Rewal",
		"district": "\"gryficki",
		"postcode": "zachodniopomorskie"
	},
	{
		"lon": "14.9887483",
		"lat": "54.0760663",
		"number": "10",
		"street": "Ulica Kamieńska",
		"city": "Trzęsacz",
		"district": "\"gryficki",
		"postcode": "zachodniopomorskie"
	},
	{
		"lon": "15.0381727",
		"lat": "54.0720809",
		"number": "3",
		"street": "Ulica Sportowa",
		"city": "Śliwin",
		"district": "\"gryficki",
		"postcode": "zachodniopomorskie"
	},
	{
		"lon": "15.0435808",
		"lat": "54.0349115",
		"number": "1",
		"street": "Ulica Sosnowa",
		"city": "Karnice",
		"district": "\"gryficki",
		"postcode": "zachodniopomorskie"
	},
	{
		"lon": "15.0533687",
		"lat": "54.0292817",
		"number": "3A",
		"street": "Ulica Osiedlowa",
		"city": "Karnice",
		"district": "\"gryficki",
		"postcode": "zachodniopomorskie"
	},
	{
		"lon": "15.0475261",
		"lat": "54.03386",
		"number": "5",
		"street": "Ulica Słoneczna",
		"city": "Karnice",
		"district": "\"gryficki",
		"postcode": "zachodniopomorskie"
	},
	{
		"lon": "15.0120683",
		"lat": "54.0755241",
		"number": "23",
		"street": "Ulica Dworcowa",
		"city": "Rewal",
		"district": "\"gryficki",
		"postcode": "zachodniopomorskie"
	},
	{
		"lon": "15.0077329",
		"lat": "54.0775133",
		"number": "10",
		"street": "Ulica Długa",
		"city": "Rewal",
		"district": "\"gryficki",
		"postcode": "zachodniopomorskie"
	},
	{
		"lon": "14.9892269",
		"lat": "54.0717233",
		"number": "26",
		"street": "Ulica Olszynowa",
		"city": "Trzęsacz",
		"district": "\"gryficki",
		"postcode": "zachodniopomorskie"
	},
	{
		"lon": "14.9899893",
		"lat": "54.0766364",
		"number": "8",
		"street": "Ulica Nadmorska",
		"city": "Trzęsacz",
		"district": "\"gryficki",
		"postcode": "zachodniopomorskie"
	},
	{
		"lon": "14.9723073",
		"lat": "54.0702077",
		"number": "12",
		"street": "Ulica Wąska",
		"city": "Pustkowo",
		"district": "\"gryficki",
		"postcode": "zachodniopomorskie"
	},
	{
		"lon": "14.969497",
		"lat": "54.0678588",
		"number": "29",
		"street": "Ulica Słoneczna",
		"city": "Pustkowo",
		"district": "\"gryficki",
		"postcode": "zachodniopomorskie"
	},
	{
		"lon": "14.9468833",
		"lat": "54.064825",
		"number": "2",
		"street": "Ulica Okrzei",
		"city": "Pobierowo",
		"district": "\"gryficki",
		"postcode": "zachodniopomorskie"
	},
	{
		"lon": "14.9450142",
		"lat": "54.0617177",
		"number": "4A",
		"street": "Ulica Mokotowska",
		"city": "Pobierowo",
		"district": "\"gryficki",
		"postcode": "zachodniopomorskie"
	},
	{
		"lon": "14.9427869",
		"lat": "54.0634169",
		"number": "5",
		"street": "Ulica Powstańców",
		"city": "Pobierowo",
		"district": "\"gryficki",
		"postcode": "zachodniopomorskie"
	},
	{
		"lon": "14.9388237",
		"lat": "54.0584623",
		"number": "16",
		"street": "Ulica Gnieźnieńska",
		"city": "Pobierowo",
		"district": "\"gryficki",
		"postcode": "zachodniopomorskie"
	},
	{
		"lon": "14.9420468",
		"lat": "54.0594018",
		"number": "25",
		"street": "Ulica Piastowska",
		"city": "Pobierowo",
		"district": "\"gryficki",
		"postcode": "zachodniopomorskie"
	},
	{
		"lon": "14.9391681",
		"lat": "54.058947",
		"number": "4",
		"street": "Ulica Gnieźnieńska",
		"city": "Pobierowo",
		"district": "\"gryficki",
		"postcode": "zachodniopomorskie"
	},
	{
		"lon": "14.937725",
		"lat": "54.0601797",
		"number": "5",
		"street": "Ulica Warszawska",
		"city": "Pobierowo",
		"district": "\"gryficki",
		"postcode": "zachodniopomorskie"
	},
	{
		"lon": "14.9347226",
		"lat": "54.0607031",
		"number": "95",
		"street": "Ulica Grunwaldzka",
		"city": "Pobierowo",
		"district": "\"gryficki",
		"postcode": "zachodniopomorskie"
	},
	{
		"lon": "14.92882",
		"lat": "54.0603611",
		"number": "70D",
		"street": "Ulica Grunwaldzka",
		"city": "Pobierowo",
		"district": "\"gryficki",
		"postcode": "zachodniopomorskie"
	},
	{
		"lon": "14.9303713",
		"lat": "54.0579845",
		"number": "3",
		"street": "Ulica Orzeszkowej",
		"city": "Pobierowo",
		"district": "\"gryficki",
		"postcode": "zachodniopomorskie"
	},
	{
		"lon": "14.9277257",
		"lat": "54.0568907",
		"number": "15",
		"street": "Ulica Mickiewicza",
		"city": "Pobierowo",
		"district": "\"gryficki",
		"postcode": "zachodniopomorskie"
	},
	{
		"lon": "14.9269142",
		"lat": "54.0554047",
		"number": "8",
		"street": "Ulica Konopnickiej",
		"city": "Pobierowo",
		"district": "\"gryficki",
		"postcode": "zachodniopomorskie"
	},
	{
		"lon": "14.9310362",
		"lat": "54.0538883",
		"number": "43",
		"street": "Ulica Orzeszkowej",
		"city": "Pobierowo",
		"district": "\"gryficki",
		"postcode": "zachodniopomorskie"
	},
	{
		"lon": "14.945964",
		"lat": "54.0512005",
		"number": "52",
		"street": "Ulica Wojska Polskiego",
		"city": "Pobierowo",
		"district": "\"gryficki",
		"postcode": "zachodniopomorskie"
	},
	{
		"lon": "14.9297589",
		"lat": "54.0525214",
		"number": "50",
		"street": "Ulica Mickiewicza",
		"city": "Pobierowo",
		"district": "\"gryficki",
		"postcode": "zachodniopomorskie"
	},
	{
		"lon": "14.9889343",
		"lat": "53.8179878",
		"number": "8",
		"street": "Ulica Pogodna",
		"city": "Golczewo",
		"district": "\"kamieński",
		"postcode": "zachodniopomorskie"
	},
	{
		"lon": "14.9839386",
		"lat": "53.8205554",
		"number": "8a",
		"street": "Osiedle Osiedle Robotnicze",
		"city": "Golczewo",
		"district": "\"kamieński",
		"postcode": "zachodniopomorskie"
	},
	{
		"lon": "14.979004",
		"lat": "53.824629",
		"number": "4",
		"street": "Ulica Jedności Narodowej",
		"city": "Golczewo",
		"district": "\"kamieński",
		"postcode": "zachodniopomorskie"
	},
	{
		"lon": "14.9858615",
		"lat": "53.8183194",
		"number": "6",
		"street": "Ulica Zaciszna",
		"city": "Golczewo",
		"district": "\"kamieński",
		"postcode": "zachodniopomorskie"
	},
	{
		"lon": "14.9805775",
		"lat": "53.8234999",
		"number": "8",
		"street": "Ulica Witosa",
		"city": "Golczewo",
		"district": "\"kamieński",
		"postcode": "zachodniopomorskie"
	},
	{
		"lon": "14.9734475",
		"lat": "53.8161622",
		"number": "9",
		"street": "Ulica Spacerowa",
		"city": "Golczewo",
		"district": "\"kamieński",
		"postcode": "zachodniopomorskie"
	},
	{
		"lon": "14.9742405",
		"lat": "53.8225585",
		"number": "42",
		"street": "Ulica Zwycięstwa",
		"city": "Golczewo",
		"district": "\"kamieński",
		"postcode": "zachodniopomorskie"
	},
	{
		"lon": "14.9185925",
		"lat": "54.0562576",
		"number": "4",
		"street": "Ulica Karola Borka",
		"city": "Pobierowo",
		"district": "\"gryficki",
		"postcode": "zachodniopomorskie"
	},
	{
		"lon": "14.9172855",
		"lat": "54.0576062",
		"number": "5",
		"street": "Ulica Ciechanowska",
		"city": "Pobierowo",
		"district": "\"gryficki",
		"postcode": "zachodniopomorskie"
	},
	{
		"lon": "14.8791639",
		"lat": "54.0470143",
		"number": "4f",
		"street": "Ulica Spacerowa",
		"city": "Łukęcin",
		"district": "\"kamieński",
		"postcode": "zachodniopomorskie"
	},
	{
		"lon": "14.8725867",
		"lat": "54.0437532",
		"number": "2e",
		"street": "Ulica Bursztynowa",
		"city": "Łukęcin",
		"district": "\"kamieński",
		"postcode": "zachodniopomorskie"
	},
	{
		"lon": "14.8695319",
		"lat": "54.0449631",
		"number": "14",
		"street": "Ulica Słoneczna",
		"city": "Łukęcin",
		"district": "\"kamieński",
		"postcode": "zachodniopomorskie"
	},
	{
		"lon": "14.8073614",
		"lat": "54.0368212",
		"number": "17",
		"street": "Ulica 1 Maja",
		"city": "Dziwnówek",
		"district": "\"kamieński",
		"postcode": "zachodniopomorskie"
	},
	{
		"lon": "14.8025185",
		"lat": "54.0339182",
		"number": "6",
		"street": "Ulica Wolności",
		"city": "Dziwnówek",
		"district": "\"kamieński",
		"postcode": "zachodniopomorskie"
	},
	{
		"lon": "14.7766555",
		"lat": "54.029432",
		"number": "36",
		"street": "Ulica Wybrzeże Kościuszkowskie",
		"city": "Dziwnów",
		"district": "\"kamieński",
		"postcode": "zachodniopomorskie"
	},
	{
		"lon": "14.7707528",
		"lat": "54.0281603",
		"number": "29",
		"street": "Ulica Tęsknoty",
		"city": "Dziwnów",
		"district": "\"kamieński",
		"postcode": "zachodniopomorskie"
	},
	{
		"lon": "14.807772",
		"lat": "54.0243637",
		"number": "25",
		"street": "Ulica Osiedle Słoneczne",
		"city": "Dziwnówek",
		"district": "\"kamieński",
		"postcode": "zachodniopomorskie"
	},
	{
		"lon": "14.7900676",
		"lat": "53.9824226",
		"number": "43",
		"street": "Ulica Fryderyka Chopina",
		"city": "Kamień Pomorski",
		"district": "\"kamieński",
		"postcode": "zachodniopomorskie"
	},
	{
		"lon": "14.7918071",
		"lat": "53.980487",
		"number": "16",
		"street": "Ulica Wincentego Witosa",
		"city": "Kamień Pomorski",
		"district": "\"kamieński",
		"postcode": "zachodniopomorskie"
	},
	{
		"lon": "14.7879011",
		"lat": "53.9788633",
		"number": "45a",
		"street": "Ulica Fryderyka Chopina",
		"city": "Kamień Pomorski",
		"district": "\"kamieński",
		"postcode": "zachodniopomorskie"
	},
	{
		"lon": "14.7928626",
		"lat": "53.9803234",
		"number": "23",
		"street": "Ulica Karola Szymanowskiego",
		"city": "Kamień Pomorski",
		"district": "\"kamieński",
		"postcode": "zachodniopomorskie"
	},
	{
		"lon": "14.7897747",
		"lat": "53.9798512",
		"number": "15",
		"street": "Ulica Fryderyka Chopina",
		"city": "Kamień Pomorski",
		"district": "\"kamieński",
		"postcode": "zachodniopomorskie"
	},
	{
		"lon": "14.781776",
		"lat": "53.9673871",
		"number": "5",
		"street": "Ulica Gryficka",
		"city": "Kamień Pomorski",
		"district": "\"kamieński",
		"postcode": "zachodniopomorskie"
	},
	{
		"lon": "14.7792937",
		"lat": "53.964171",
		"number": "35c",
		"street": "Ulica Szczecińska",
		"city": "Kamień Pomorski",
		"district": "\"kamieński",
		"postcode": "zachodniopomorskie"
	},
	{
		"lon": "14.7770932",
		"lat": "53.9665987",
		"number": "3",
		"street": "Ulica IV Pułku Piechoty",
		"city": "Kamień Pomorski",
		"district": "\"kamieński",
		"postcode": "zachodniopomorskie"
	},
	{
		"lon": "14.7760434",
		"lat": "53.9659529",
		"number": "15",
		"street": "Ulica Jana Długosza",
		"city": "Kamień Pomorski",
		"district": "\"kamieński",
		"postcode": "zachodniopomorskie"
	},
	{
		"lon": "14.7777452",
		"lat": "53.971745",
		"number": "3",
		"street": "Ulica Kanałowa",
		"city": "Kamień Pomorski",
		"district": "\"kamieński",
		"postcode": "zachodniopomorskie"
	},
	{
		"lon": "14.7893777",
		"lat": "53.9782338",
		"number": "1",
		"street": "Ulica Fryderyka Chopina",
		"city": "Kamień Pomorski",
		"district": "\"kamieński",
		"postcode": "zachodniopomorskie"
	},
	{
		"lon": "14.7754622",
		"lat": "53.9682356",
		"number": "2c",
		"street": "Ulica Dziwnowska",
		"city": "Kamień Pomorski",
		"district": "\"kamieński",
		"postcode": "zachodniopomorskie"
	}
]