[
	{
		"lon": "42.903651",
		"lat": "50.4039932",
		"number": "142",
		"street": "улица Свердлова",
		"city": "Панфилово",
		"district": "Новоаннинский муниципальный район",
		"postcode": "403990"
	},
	{
		"lon": "42.9856877",
		"lat": "50.369254",
		"number": "44а",
		"street": "улица Центральная",
		"city": "Новосельский",
		"district": "Новоаннинский муниципальный район",
		"postcode": "403995"
	},
	{
		"lon": "42.5574227",
		"lat": "50.8410516",
		"number": "25",
		"street": "улица Восточная",
		"city": "Куликовский",
		"district": "Новониколаевский муниципальный район",
		"postcode": "403930"
	},
	{
		"lon": "42.9001046",
		"lat": "50.4064559",
		"number": "112",
		"street": "улица Свердлова",
		"city": "Панфилово",
		"district": "Новоаннинский муниципальный район",
		"postcode": "403990"
	},
	{
		"lon": "42.6358457",
		"lat": "50.8074715",
		"number": "3",
		"street": "улица Береговая",
		"city": "Баклановский",
		"district": "Новониколаевский муниципальный район",
		"postcode": "403930"
	},
	{
		"lon": "42.9361044",
		"lat": "50.4224812",
		"number": "6",
		"street": "улица Зеленая",
		"city": "\"с-за \"\"АМО\"\"\"",
		"district": "Новоаннинский муниципальный район",
		"postcode": "403991"
	},
	{
		"lon": "42.6341244",
		"lat": "50.8106272",
		"number": "15",
		"street": "улица Береговая",
		"city": "Баклановский",
		"district": "Новониколаевский муниципальный район",
		"postcode": "403930"
	},
	{
		"lon": "42.663934",
		"lat": "51.0882041",
		"number": "32",
		"street": "Зеленая",
		"city": "Верхнекардаильский",
		"district": "Новониколаевский муниципальный район",
		"postcode": "403923"
	},
	{
		"lon": "42.6792074",
		"lat": "51.0852295",
		"number": "4",
		"street": "Речная",
		"city": "Верхнекардаильский",
		"district": "Новониколаевский муниципальный район",
		"postcode": "403923"
	},
	{
		"lon": "44.1889481",
		"lat": "48.0693989",
		"number": "112",
		"street": "улица Гордиенко",
		"city": "Абганерово",
		"district": "Октябрьский муниципальный район",
		"postcode": "404302"
	},
	{
		"lon": "43.149272",
		"lat": "50.7816702",
		"number": "23",
		"street": "улица Советская",
		"city": "Песчановка",
		"district": "Киквидзенский муниципальный район",
		"postcode": "403231"
	},
	{
		"lon": "43.2239799",
		"lat": "50.7698874",
		"number": "9",
		"street": "улица Молодежная",
		"city": "Озерки",
		"district": "Киквидзенский муниципальный район",
		"postcode": "403238"
	},
	{
		"lon": "42.8042846",
		"lat": "50.6809419",
		"number": "44",
		"street": "улица МОЛОДЕЖНАЯ",
		"city": "АЛЬСЯПИНСКИЙ",
		"district": "Новоаннинский муниципальный район",
		"postcode": "403982"
	},
	{
		"lon": "43.2223772",
		"lat": "50.7700487",
		"number": "10",
		"street": "улица Молодежная",
		"city": "Озерки",
		"district": "Киквидзенский муниципальный район",
		"postcode": "403238"
	},
	{
		"lon": "43.2253892",
		"lat": "50.771426",
		"number": "1",
		"street": "улица Садовая",
		"city": "Озерки",
		"district": "Киквидзенский муниципальный район",
		"postcode": "403238"
	},
	{
		"lon": "42.8235887",
		"lat": "50.4192262",
		"number": "28",
		"street": "улица Хуторская",
		"city": "\"с-за \"\"АМО\"\"\"",
		"district": "Новоаннинский муниципальный район",
		"postcode": "403990"
	},
	{
		"lon": "43.2097021",
		"lat": "50.7729969",
		"number": "60",
		"street": "улица Садовая",
		"city": "Озерки",
		"district": "Киквидзенский муниципальный район",
		"postcode": "403238"
	},
	{
		"lon": "44.1923778",
		"lat": "48.0841743",
		"number": "2",
		"street": "улица Молодёжная",
		"city": "Абганерово",
		"district": "Октябрьский муниципальный район",
		"postcode": "404302"
	},
	{
		"lon": "43.0401492",
		"lat": "50.8171493",
		"number": "58",
		"street": "улица Придорожная",
		"city": "Завязка",
		"district": "Киквидзенский муниципальный район",
		"postcode": "403227"
	},
	{
		"lon": "44.1903176",
		"lat": "48.0830256",
		"number": "4/2/2",
		"street": "улица Титова",
		"city": "Абганерово",
		"district": "Октябрьский муниципальный район",
		"postcode": "404302"
	},
	{
		"lon": "43.2372089",
		"lat": "50.7735321",
		"number": "13",
		"street": "улица Советская",
		"city": "Озерки",
		"district": "Киквидзенский муниципальный район",
		"postcode": "403238"
	},
	{
		"lon": "46.3900827",
		"lat": "50.4231",
		"number": "Склад",
		"street": "улица",
		"city": "Новая Полтавка",
		"district": "Старополтавский муниципальный район",
		"postcode": "404215"
	},
	{
		"lon": "44.1909909",
		"lat": "48.0862249",
		"number": "23",
		"street": "улица Титова",
		"city": "Абганерово",
		"district": "Октябрьский муниципальный район",
		"postcode": "404302"
	},
	{
		"lon": "42.8149227",
		"lat": "50.6878559",
		"number": "12",
		"street": "улица БУЗУЛУКСКАЯ",
		"city": "АЛЬСЯПИНСКИЙ",
		"district": "Новоаннинский муниципальный район",
		"postcode": "403982"
	},
	{
		"lon": "42.8476641",
		"lat": "50.7350013",
		"number": "35",
		"street": "улица ДОНСКАЯ",
		"city": "ГАЛУШКИНСКИЙ",
		"district": "Новоаннинский муниципальный район",
		"postcode": "403982"
	},
	{
		"lon": "42.8413544",
		"lat": "50.740949",
		"number": "30",
		"street": "улица ДОНСКАЯ",
		"city": "ГАЛУШКИНСКИЙ",
		"district": "Новоаннинский муниципальный район",
		"postcode": "403982"
	},
	{
		"lon": "46.39025",
		"lat": "50.5041545",
		"number": "Кошара",
		"street": "улица",
		"city": "Старая Полтавка",
		"district": "Старополтавский муниципальный район",
		"postcode": "404211"
	},
	{
		"lon": "42.5495594",
		"lat": "50.5490884",
		"number": "18/2",
		"street": "улица Центральная",
		"city": "Березовка 2-я",
		"district": "Новоаннинский муниципальный район",
		"postcode": "403976"
	},
	{
		"lon": "42.8867411",
		"lat": "50.4135615",
		"number": "24",
		"street": "улица Свердлова",
		"city": "Панфилово",
		"district": "Новоаннинский муниципальный район",
		"postcode": "403990"
	},
	{
		"lon": "42.7044275",
		"lat": "50.5328095",
		"number": "8",
		"street": "улица Степная",
		"city": "Новоаннинский",
		"district": "Новоаннинский муниципальный район",
		"postcode": "403955"
	},
	{
		"lon": "44.0549286",
		"lat": "47.9766697",
		"number": "11/1",
		"street": "улица гагарина",
		"city": "шелестово",
		"district": "Октябрьский муниципальный район",
		"postcode": "404312"
	},
	{
		"lon": "42.9878778",
		"lat": "50.3730634",
		"number": "32",
		"street": "улица Рабочая",
		"city": "Новосельский",
		"district": "Новоаннинский муниципальный район",
		"postcode": "403995"
	},
	{
		"lon": "42.8416582",
		"lat": "50.7458341",
		"number": "9",
		"street": "улица ЦЕНТРАЛЬНАЯ",
		"city": "ГАЛУШКИНСКИЙ",
		"district": "Новоаннинский муниципальный район",
		"postcode": "403982"
	},
	{
		"lon": "43.4507429",
		"lat": "47.9867507",
		"number": "30",
		"street": "улица Раздольная",
		"city": "Чиков",
		"district": "Октябрьский муниципальный район",
		"postcode": "404331"
	},
	{
		"lon": "43.518126",
		"lat": "47.9959914",
		"number": "9/2",
		"street": "улица Лиманная",
		"city": "Чиков",
		"district": "Октябрьский муниципальный район",
		"postcode": "404331"
	},
	{
		"lon": "43.4121298",
		"lat": "47.9799173",
		"number": "29",
		"street": "улица Дружбы",
		"city": "Водянский",
		"district": "Октябрьский муниципальный район",
		"postcode": "404331"
	},
	{
		"lon": "43.4463753",
		"lat": "47.9871151",
		"number": "13",
		"street": "переулок Казачий",
		"city": "Чиков",
		"district": "Октябрьский муниципальный район",
		"postcode": "404331"
	},
	{
		"lon": "43.0241084",
		"lat": "49.3375717",
		"number": "16",
		"street": "улица Печерских",
		"city": "Караженский",
		"district": "Клетский муниципальный район",
		"postcode": "403562"
	},
	{
		"lon": "42.8471755",
		"lat": "49.4036442",
		"number": "14",
		"street": "улица Степная",
		"city": "Распопинская",
		"district": "Клетский муниципальный район",
		"postcode": "403576"
	},
	{
		"lon": "47.1597507",
		"lat": "50.1098258",
		"number": "15",
		"street": "улица Центральная",
		"city": "Смычка",
		"district": "Палласовский муниципальный район",
		"postcode": "404231"
	},
	{
		"lon": "44.7795264",
		"lat": "50.4768095",
		"number": "15",
		"street": "Заречная",
		"city": "Слюсарево",
		"district": "Котельниковский муниципальный район",
		"postcode": "403827"
	},
	{
		"lon": "44.7917257",
		"lat": "50.4788829",
		"number": "36",
		"street": "Садовая",
		"city": "Слюсарево",
		"district": "Котовский муниципальный район",
		"postcode": "403827"
	},
	{
		"lon": "44.4488917",
		"lat": "50.4453565",
		"number": "19",
		"street": "улица Первомайская",
		"city": "Островская",
		"district": "Даниловский муниципальный район",
		"postcode": "403391"
	},
	{
		"lon": "44.9270029",
		"lat": "49.0273157",
		"number": "20/2",
		"street": "переулок Ленинградский",
		"city": "Рахинка",
		"district": "Среднеахтубинский муниципальный район",
		"postcode": "404145"
	},
	{
		"lon": "44.4512999",
		"lat": "50.4471008",
		"number": "27",
		"street": "улица Луговая",
		"city": "Островская",
		"district": "Даниловский муниципальный район",
		"postcode": "403391"
	},
	{
		"lon": "44.9216437",
		"lat": "49.017379",
		"number": "45",
		"street": "улица Советская",
		"city": "Рахинка",
		"district": "Среднеахтубинский муниципальный район",
		"postcode": "404145"
	},
	{
		"lon": "44.7007093",
		"lat": "48.6509849",
		"number": "3",
		"street": "Раздольная",
		"city": "Закутский",
		"district": "Среднеахтубинский муниципальный район",
		"postcode": "404152"
	},
	{
		"lon": "44.6329358",
		"lat": "48.7043835",
		"number": "2",
		"street": "переулок Школьный",
		"city": "Госпитомник",
		"district": "Среднеахтубинский муниципальный район",
		"postcode": "404159"
	},
	{
		"lon": "44.9190211",
		"lat": "49.0171097",
		"number": "41",
		"street": "улица Садовая",
		"city": "Рахинка",
		"district": "Среднеахтубинский муниципальный район",
		"postcode": "404145"
	},
	{
		"lon": "44.6284897",
		"lat": "48.7030381",
		"number": "25/1",
		"street": "Дружбы",
		"city": "Госпитомник",
		"district": "Среднеахтубинский муниципальный район",
		"postcode": "404159"
	},
	{
		"lon": "44.9191018",
		"lat": "49.0145931",
		"number": "32",
		"street": "улица Садовая",
		"city": "Рахинка",
		"district": "Среднеахтубинский муниципальный район",
		"postcode": "404145"
	},
	{
		"lon": "44.0659289",
		"lat": "50.1707745",
		"number": "38",
		"street": "Набережная",
		"city": "Атамановка",
		"district": "Даниловский муниципальный район",
		"postcode": "403388"
	},
	{
		"lon": "44.6628203",
		"lat": "48.7032531",
		"number": "31",
		"street": "Зеленая",
		"city": "Бурковский",
		"district": "Среднеахтубинский муниципальный район",
		"postcode": "404151"
	},
	{
		"lon": "44.6626447",
		"lat": "48.6975519",
		"number": "7/2",
		"street": "улица Заречная",
		"city": "Бурковский",
		"district": "Среднеахтубинский муниципальный район",
		"postcode": "404151"
	},
	{
		"lon": "44.6672275",
		"lat": "48.7059301",
		"number": "1",
		"street": "Набережный",
		"city": "Бурковский",
		"district": "Среднеахтубинский муниципальный район",
		"postcode": "404151"
	},
	{
		"lon": "44.883363",
		"lat": "50.5229682",
		"number": "12",
		"street": "Набережная",
		"city": "Крячки",
		"district": "Котовский муниципальный район",
		"postcode": "403822"
	},
	{
		"lon": "44.7749699",
		"lat": "50.4824979",
		"number": "35",
		"street": "Советская",
		"city": "слюсарево",
		"district": "Котовский муниципальный район",
		"postcode": "403827"
	},
	{
		"lon": "44.9226721",
		"lat": "49.0194395",
		"number": "56/2",
		"street": "улица Советская",
		"city": "Рахинка",
		"district": "Среднеахтубинский муниципальный район",
		"postcode": "404145"
	},
	{
		"lon": "44.927499",
		"lat": "49.0262794",
		"number": "93",
		"street": "улица 60 лет Октября",
		"city": "Рахинка",
		"district": "Среднеахтубинский муниципальный район",
		"postcode": "404145"
	},
	{
		"lon": "44.9952981",
		"lat": "50.4649868",
		"number": "52",
		"street": "Октябрьская",
		"city": "Мокрая Ольховка",
		"district": "Котовский муниципальный район",
		"postcode": "403820"
	},
	{
		"lon": "44.8906405",
		"lat": "48.6152873",
		"number": "10",
		"street": "переулок Дядькина",
		"city": "Суходол",
		"district": "Среднеахтубинский муниципальный район",
		"postcode": "404147"
	},
	{
		"lon": "43.8221401",
		"lat": "50.4969432",
		"number": "14",
		"street": "улица Совесткая",
		"city": "Профсоюзник",
		"district": "Даниловский муниципальный район",
		"postcode": "403383"
	},
	{
		"lon": "44.8925372",
		"lat": "48.6850118",
		"number": "7/2",
		"street": "улица Вишневая",
		"city": "Красный Сад",
		"district": "Среднеахтубинский муниципальный район",
		"postcode": "404148"
	},
	{
		"lon": "44.742016",
		"lat": "50.2088959",
		"number": "17",
		"street": "Кирова",
		"city": "Моисеево",
		"district": "Котовский муниципальный район",
		"postcode": "403807"
	},
	{
		"lon": "44.9950237",
		"lat": "50.4641352",
		"number": "58",
		"street": "Октябрьская",
		"city": "Мокрая Ольховка",
		"district": "Котовский муниципальный район",
		"postcode": "403820"
	},
	{
		"lon": "44.920227",
		"lat": "48.9778618",
		"number": "1/2",
		"street": "улица Зеленая",
		"city": "Волжанка",
		"district": "Среднеахтубинский муниципальный район",
		"postcode": "404164"
	},
	{
		"lon": "44.0676592",
		"lat": "50.1714384",
		"number": "16",
		"street": "Калиновская",
		"city": "Атамановка",
		"district": "Даниловский муниципальный район",
		"postcode": "403388"
	},
	{
		"lon": "44.6617724",
		"lat": "50.5970922",
		"number": "20",
		"street": "Широкая",
		"city": "Мирошники",
		"district": "Котовский муниципальный район",
		"postcode": "403824"
	},
	{
		"lon": "44.726837",
		"lat": "50.2152659",
		"number": "38",
		"street": "Горького",
		"city": "Моисеево",
		"district": "Котовский муниципальный район",
		"postcode": "403807"
	},
	{
		"lon": "43.8202646",
		"lat": "50.4855903",
		"number": "5",
		"street": "улица Народная",
		"city": "Семибратовский",
		"district": "Даниловский муниципальный район",
		"postcode": "403383"
	},
	{
		"lon": "44.7456773",
		"lat": "50.2076911",
		"number": "41",
		"street": "Кирова",
		"city": "Моисеево",
		"district": "Котовский муниципальный район",
		"postcode": "403807"
	},
	{
		"lon": "44.4542928",
		"lat": "50.4459859",
		"number": "43",
		"street": "улица Луговая",
		"city": "Островская",
		"district": "Даниловский муниципальный район",
		"postcode": "403391"
	},
	{
		"lon": "44.7494754",
		"lat": "50.2043783",
		"number": "64",
		"street": "Кирова",
		"city": "Моисеево",
		"district": "Котовский муниципальный район",
		"postcode": "403807"
	},
	{
		"lon": "44.7516739",
		"lat": "50.2054022",
		"number": "5",
		"street": "переулок Степной",
		"city": "Моисеево",
		"district": "Котовский муниципальный район",
		"postcode": "403807"
	},
	{
		"lon": "44.7361355",
		"lat": "50.5582076",
		"number": "26",
		"street": "Победы",
		"city": "Дорошево",
		"district": "Котовский муниципальный район",
		"postcode": "403823"
	},
	{
		"lon": "44.9935676",
		"lat": "50.4722989",
		"number": "3",
		"street": "Октябрьская",
		"city": "Мокрая Ольховка",
		"district": "Котовский муниципальный район",
		"postcode": "403820"
	},
	{
		"lon": "44.7467625",
		"lat": "50.2042678",
		"number": "7",
		"street": "переулок Южный",
		"city": "Моисеево",
		"district": "Котовский муниципальный район",
		"postcode": "403807"
	},
	{
		"lon": "45.0008821",
		"lat": "50.3620548",
		"number": "3",
		"street": "школьная",
		"city": "ж/д_ст Лапшинская",
		"district": "Котовский муниципальный район",
		"postcode": "403811"
	},
	{
		"lon": "43.8270426",
		"lat": "50.4961809",
		"number": "8",
		"street": "переулок Набережный",
		"city": "Профсоюзник",
		"district": "Даниловский муниципальный район",
		"postcode": "403383"
	},
	{
		"lon": "44.8803742",
		"lat": "48.6186539",
		"number": "1",
		"street": "улица заречная",
		"city": "суходол",
		"district": "Среднеахтубинский муниципальный район",
		"postcode": "404147"
	},
	{
		"lon": "44.4540272",
		"lat": "50.445667",
		"number": "3",
		"street": "улица Комсомольская",
		"city": "Островская",
		"district": "Даниловский муниципальный район",
		"postcode": "403391"
	},
	{
		"lon": "44.8506886",
		"lat": "48.721881",
		"number": "21",
		"street": "Рабочая",
		"city": "Средняя Ахтуба",
		"district": "Среднеахтубинский муниципальный район",
		"postcode": "404143"
	},
	{
		"lon": "44.6607273",
		"lat": "48.710543",
		"number": "51",
		"street": "Мира",
		"city": "Бурковский",
		"district": "Среднеахтубинский муниципальный район",
		"postcode": "404151"
	},
	{
		"lon": "43.8214422",
		"lat": "50.4984852",
		"number": "1/1",
		"street": "улица Пионерская",
		"city": "Профсоюзник",
		"district": "Даниловский муниципальный район",
		"postcode": "4033383"
	},
	{
		"lon": "44.9169631",
		"lat": "48.6336469",
		"number": "4",
		"street": "улица Речная",
		"city": "Максима Горького",
		"district": "Среднеахтубинский муниципальный район",
		"postcode": "404147"
	},
	{
		"lon": "44.7758107",
		"lat": "50.5571679",
		"number": "32",
		"street": "Майская",
		"city": "Тарасово",
		"district": "Котовский муниципальный район",
		"postcode": "403823"
	},
	{
		"lon": "44.9491312",
		"lat": "48.5678571",
		"number": "7",
		"street": "улица Булгаков",
		"city": "Булгаков",
		"district": "Среднеахтубинский муниципальный район",
		"postcode": "404147"
	},
	{
		"lon": "44.6509502",
		"lat": "50.5989487",
		"number": "3",
		"street": "Мира",
		"city": "Мирошники",
		"district": "Котовский муниципальный район",
		"postcode": "403824"
	},
	{
		"lon": "44.8950085",
		"lat": "48.6771332",
		"number": "1",
		"street": "улица Озерная",
		"city": "Красный Сад",
		"district": "Среднеахтубинский муниципальный район",
		"postcode": "404148"
	},
	{
		"lon": "44.9216661",
		"lat": "49.0098836",
		"number": "8",
		"street": "улица Советская",
		"city": "Рахинка",
		"district": "Среднеахтубинский муниципальный район",
		"postcode": "404145"
	},
	{
		"lon": "44.6251207",
		"lat": "48.6895824",
		"number": "7",
		"street": "Приозерная",
		"city": "Сахарный",
		"district": "Среднеахтубинский муниципальный район",
		"postcode": "404161"
	},
	{
		"lon": "44.5046741",
		"lat": "50.1866699",
		"number": "4",
		"street": "Больничная",
		"city": "Попки",
		"district": "Котовский муниципальный район",
		"postcode": "403806"
	},
	{
		"lon": "44.8573293",
		"lat": "48.6832011",
		"number": "11е",
		"street": "Промышленная",
		"city": "Куйбышев",
		"district": "Среднеахтубинский муниципальный район",
		"postcode": "404146"
	},
	{
		"lon": "44.658108",
		"lat": "50.5725904",
		"number": "8",
		"street": "Луговая",
		"city": "Гордиенки",
		"district": "Котовский муниципальный район",
		"postcode": "403824"
	},
	{
		"lon": "44.820673",
		"lat": "48.7016079",
		"number": "1/2",
		"street": "улица Садовая",
		"city": "Колхозная Ахтуба",
		"district": "Среднеахтубинский муниципальный район",
		"postcode": "404143"
	},
	{
		"lon": "44.7276935",
		"lat": "48.7643458",
		"number": "3/2",
		"street": "улица Юности",
		"city": "Кировец",
		"district": "Среднеахтубинский муниципальный район",
		"postcode": "404150"
	},
	{
		"lon": "44.727766",
		"lat": "48.7632006",
		"number": "14/1",
		"street": "улица Ахтубинская",
		"city": "Кировец",
		"district": "Среднеахтубинский муниципальный район",
		"postcode": "404150"
	},
	{
		"lon": "44.6497676",
		"lat": "48.7102184",
		"number": "7",
		"street": "Новоселов",
		"city": "Маслово",
		"district": "Среднеахтубинский муниципальный район",
		"postcode": "404151"
	},
	{
		"lon": "44.8092719",
		"lat": "48.7161429",
		"number": "51/2",
		"street": "улица веселая",
		"city": "Колхозная Ахтуба",
		"district": "Среднеахтубинский муниципальный район",
		"postcode": "404143"
	},
	{
		"lon": "44.8114607",
		"lat": "48.7148305",
		"number": "63/2",
		"street": "улица центральная",
		"city": "Колхозная Ахтуба",
		"district": "Среднеахтубинский муниципальный район",
		"postcode": "404143"
	},
	{
		"lon": "44.9519961",
		"lat": "48.5670873",
		"number": "11",
		"street": "улица Лесная",
		"city": "Суходол",
		"district": "Среднеахтубинский муниципальный район",
		"postcode": "404147"
	},
	{
		"lon": "44.8442587",
		"lat": "48.7036468",
		"number": "6",
		"street": "улица заречная",
		"city": "Колхозная Ахтуба",
		"district": "Среднеахтубинский муниципальный район",
		"postcode": "404143"
	},
	{
		"lon": "44.8433436",
		"lat": "48.6855917",
		"number": "10/1",
		"street": "Байкальская",
		"city": "Куйбышев",
		"district": "Среднеахтубинский муниципальный район",
		"postcode": "404146"
	},
	{
		"lon": "44.9889215",
		"lat": "50.4751704",
		"number": "16",
		"street": "Куйбышева",
		"city": "Мокрая Ольховка",
		"district": "Котовский муниципальный район",
		"postcode": "403820"
	},
	{
		"lon": "44.818118",
		"lat": "48.6956916",
		"number": "9/2",
		"street": "улица Садовая",
		"city": "п . Колхозная Ахтуба",
		"district": "Среднеахтубинский муниципальный район",
		"postcode": "404143"
	},
	{
		"lon": "45.0717281",
		"lat": "50.2172254",
		"number": "4А",
		"street": "Центральная",
		"city": "Авилово",
		"district": "Котовский муниципальный район",
		"postcode": "403815"
	},
	{
		"lon": "44.1083932",
		"lat": "50.3535826",
		"number": "80",
		"street": "улица Октябрьская",
		"city": "Даниловка",
		"district": "Даниловский муниципальный район",
		"postcode": "403371"
	},
	{
		"lon": "44.851932",
		"lat": "48.6792316",
		"number": "29",
		"street": "турусова",
		"city": "куйбышев",
		"district": "Среднеахтубинский муниципальный район",
		"postcode": "404146"
	},
	{
		"lon": "44.8575936",
		"lat": "48.6437617",
		"number": "27/2",
		"street": "Центральная",
		"city": "Кочетково",
		"district": "Среднеахтубинский муниципальный район",
		"postcode": "404146"
	},
	{
		"lon": "44.7948344",
		"lat": "48.7150447",
		"number": "3/1",
		"street": "улица Центральная",
		"city": "Колхозная Ахтуба",
		"district": "Среднеахтубинский муниципальный район",
		"postcode": "404143"
	},
	{
		"lon": "44.8578008",
		"lat": "48.643395",
		"number": "25/3",
		"street": "Центральная",
		"city": "Кочетково",
		"district": "Среднеахтубинский муниципальный район",
		"postcode": "404146"
	},
	{
		"lon": "44.852453",
		"lat": "48.583248",
		"number": "18",
		"street": "улица речная",
		"city": "чапаевец",
		"district": "Среднеахтубинский муниципальный район",
		"postcode": "404147"
	},
	{
		"lon": "44.6631262",
		"lat": "48.7010242",
		"number": "14",
		"street": "Тополевая",
		"city": "Бурковский",
		"district": "Среднеахтубинский муниципальный район",
		"postcode": "404151"
	},
	{
		"lon": "44.2485215",
		"lat": "50.1948798",
		"number": "12",
		"street": "Заречная",
		"city": "Кувшинов",
		"district": "Даниловский муниципальный район",
		"postcode": "403387"
	},
	{
		"lon": "45.0704642",
		"lat": "50.2198877",
		"number": "18",
		"street": "Заречная",
		"city": "Авилово",
		"district": "Котовский муниципальный район",
		"postcode": "403815"
	},
	{
		"lon": "44.8822805",
		"lat": "48.6174321",
		"number": "6/1",
		"street": "улица Советская",
		"city": "Суходол",
		"district": "Среднеахтубинский муниципальный район",
		"postcode": "404147"
	},
	{
		"lon": "45.009985",
		"lat": "50.3182448",
		"number": "2",
		"street": "Советская",
		"city": "купцово",
		"district": "Котовский муниципальный район",
		"postcode": "403812"
	},
	{
		"lon": "44.7246239",
		"lat": "48.6607228",
		"number": "19",
		"street": "двойная",
		"city": "великий октябрь",
		"district": "Среднеахтубинский муниципальный район",
		"postcode": "404158"
	},
	{
		"lon": "44.7932866",
		"lat": "48.7168276",
		"number": "1а/1",
		"street": "улица Веселая",
		"city": "Колхозная Ахтуба",
		"district": "Среднеахтубинский муниципальный район",
		"postcode": "404143"
	},
	{
		"lon": "44.5362914",
		"lat": "50.620424",
		"number": "12",
		"street": "Карла Маркса",
		"city": "Сосновка",
		"district": "Котовский муниципальный район",
		"postcode": "403825"
	},
	{
		"lon": "44.8545401",
		"lat": "48.5898473",
		"number": "1а",
		"street": "улица Садовая",
		"city": "Чапаевец",
		"district": "Среднеахтубинский муниципальный район",
		"postcode": "404147"
	},
	{
		"lon": "44.8014237",
		"lat": "48.6650271",
		"number": "2а",
		"street": "Заречная",
		"city": "Каширин",
		"district": "Среднеахтубинский муниципальный район",
		"postcode": "404146"
	},
	{
		"lon": "44.9891925",
		"lat": "50.4810505",
		"number": "7Б",
		"street": "8 Марта",
		"city": "Мокрая Ольховка",
		"district": "Котовский муниципальный район",
		"postcode": "403820"
	},
	{
		"lon": "44.238232",
		"lat": "50.1889946",
		"number": "10",
		"street": "Центральная",
		"city": "Кувшинов",
		"district": "Даниловский муниципальный район",
		"postcode": "403387"
	},
	{
		"lon": "44.9409917",
		"lat": "50.1813173",
		"number": "45Б",
		"street": "улица Школьная",
		"city": "Коростино",
		"district": "Котовский муниципальный район",
		"postcode": "403809"
	},
	{
		"lon": "44.9130585",
		"lat": "48.6178554",
		"number": "8/2",
		"street": "улица Суходольская",
		"city": "Суходол",
		"district": "Среднеахтубинский муниципальный район",
		"postcode": "404147"
	},
	{
		"lon": "44.2137368",
		"lat": "50.4624275",
		"number": "83",
		"street": "Народная",
		"city": "Лобойково",
		"district": "Даниловский муниципальный район",
		"postcode": "403380"
	},
	{
		"lon": "44.5417452",
		"lat": "50.6226988",
		"number": "6",
		"street": "Центральный",
		"city": "Сосновка",
		"district": "Котовский муниципальный район",
		"postcode": "403825"
	},
	{
		"lon": "45.1017945",
		"lat": "50.1982023",
		"number": "16А",
		"street": "Центральная",
		"city": "Новониколаевка",
		"district": "Котовский муниципальный район",
		"postcode": "403815"
	},
	{
		"lon": "44.8112753",
		"lat": "48.6296363",
		"number": "40",
		"street": "Вишневая",
		"city": "Красный",
		"district": "Среднеахтубинский муниципальный район",
		"postcode": "404146"
	},
	{
		"lon": "47.2076572",
		"lat": "50.3012959",
		"number": "3/1",
		"street": "улица Почтовая",
		"city": "Торгун",
		"district": "Старополтавский муниципальный район",
		"postcode": "404202"
	},
	{
		"lon": "44.2167226",
		"lat": "50.4581147",
		"number": "39",
		"street": "Молодёжная",
		"city": "Лобойково",
		"district": "Даниловский муниципальный район",
		"postcode": "403380"
	},
	{
		"lon": "45.0028246",
		"lat": "50.3167449",
		"number": "441",
		"street": "Ленина",
		"city": "Купцово",
		"district": "Котовский муниципальный район",
		"postcode": "403812"
	},
	{
		"lon": "45.115033",
		"lat": "50.351004",
		"number": "1",
		"street": "комсомольская",
		"city": "с Смородино",
		"district": "Котовский муниципальный район",
		"postcode": "403813"
	},
	{
		"lon": "45.099271",
		"lat": "50.1972035",
		"number": "23",
		"street": "Центральная",
		"city": "Новониколаевка",
		"district": "Котовский муниципальный район",
		"postcode": "403815"
	},
	{
		"lon": "44.1292388",
		"lat": "50.3336218",
		"number": "24",
		"street": "улица Рабочая",
		"city": "Красный",
		"district": "Даниловский муниципальный район",
		"postcode": "403395"
	},
	{
		"lon": "45.1020078",
		"lat": "50.1990365",
		"number": "9",
		"street": "Центральная",
		"city": "Новониколаевка",
		"district": "Котовский муниципальный район",
		"postcode": "403815"
	},
	{
		"lon": "44.4814352",
		"lat": "50.1796808",
		"number": "28",
		"street": "Садовая",
		"city": "Попки",
		"district": "Котовский муниципальный район",
		"postcode": "403806"
	},
	{
		"lon": "44.1310472",
		"lat": "50.3320849",
		"number": "10",
		"street": "тупик Рабочая",
		"city": "Красный",
		"district": "Даниловский муниципальный район",
		"postcode": "403395"
	},
	{
		"lon": "44.7964371",
		"lat": "48.7186613",
		"number": "4",
		"street": "улица береговая",
		"city": "Колхозная Ахтуба",
		"district": "Среднеахтубинский муниципальный район",
		"postcode": "404143"
	},
	{
		"lon": "44.1334123",
		"lat": "50.3322099",
		"number": "6",
		"street": "улица Центральная",
		"city": "Красный",
		"district": "Даниловский муниципальный район",
		"postcode": "403395"
	},
	{
		"lon": "44.7391233",
		"lat": "48.7384059",
		"number": "24",
		"street": "улица центральная",
		"city": "Тутов",
		"district": "Среднеахтубинский муниципальный район",
		"postcode": "404143"
	},
	{
		"lon": "44.1049104",
		"lat": "50.3551237",
		"number": "121",
		"street": "улица Октябрьская",
		"city": "Даниловка",
		"district": "Даниловский муниципальный район",
		"postcode": "403371"
	},
	{
		"lon": "44.9369717",
		"lat": "50.1863414",
		"number": "6",
		"street": "переулок Молодежный",
		"city": "Коростино",
		"district": "Котовский муниципальный район",
		"postcode": "403809"
	},
	{
		"lon": "45.3025371",
		"lat": "49.0767087",
		"number": "9/2",
		"street": "улица им.О.Рыжовой",
		"city": "Красный Октябрь",
		"district": "Среднеахтубинский муниципальный район",
		"postcode": "404149"
	},
	{
		"lon": "45.1040585",
		"lat": "50.5294734",
		"number": "16",
		"street": "Коренная",
		"city": "Перещепное",
		"district": "Котовский муниципальный район",
		"postcode": "403821"
	},
	{
		"lon": "45.0000947",
		"lat": "50.4704048",
		"number": "1",
		"street": "Шмидта",
		"city": "Мокрая Ольховка",
		"district": "Котовский муниципальный район",
		"postcode": "403820"
	},
	{
		"lon": "45.1003269",
		"lat": "50.5267226",
		"number": "32",
		"street": "Зеленая",
		"city": "Перещепное",
		"district": "Котовский муниципальный район",
		"postcode": "403821"
	},
	{
		"lon": "47.2105921",
		"lat": "50.3048295",
		"number": "5/1",
		"street": "Октябрьская",
		"city": "Торгун",
		"district": "Старополтавский муниципальный район",
		"postcode": "404202"
	},
	{
		"lon": "45.003649",
		"lat": "50.3171805",
		"number": "43",
		"street": "улица Ленина",
		"city": "Купцово",
		"district": "Котовский муниципальный район",
		"postcode": "403812"
	},
	{
		"lon": "45.1172096",
		"lat": "50.352076",
		"number": "10а",
		"street": "комсомольская",
		"city": "с Смородино",
		"district": "Котовский муниципальный район",
		"postcode": "403813"
	},
	{
		"lon": "44.8017991",
		"lat": "48.7137951",
		"number": "12",
		"street": "улица центральная",
		"city": "Колхозная Ахтуба",
		"district": "Среднеахтубинский муниципальный район",
		"postcode": "404143"
	},
	{
		"lon": "45.0044128",
		"lat": "50.3136169",
		"number": "26А",
		"street": "Октябрьская",
		"city": "Купцово",
		"district": "Котовский муниципальный район",
		"postcode": "403812"
	},
	{
		"lon": "45.1181223",
		"lat": "50.3532656",
		"number": "15",
		"street": "комсомольская",
		"city": "с Смородино",
		"district": "Котовский муниципальный район",
		"postcode": "403813"
	},
	{
		"lon": "47.2105466",
		"lat": "50.3023029",
		"number": "21",
		"street": "Центральная",
		"city": "Торгун",
		"district": "Старополтавский муниципальный район",
		"postcode": "404202"
	},
	{
		"lon": "45.1028593",
		"lat": "50.1995796",
		"number": "52",
		"street": "Центральная",
		"city": "Новониколаевка",
		"district": "Котовский муниципальный район",
		"postcode": "403815"
	},
	{
		"lon": "47.2118006",
		"lat": "50.3041033",
		"number": "16/2",
		"street": "Первомайская",
		"city": "Торгун",
		"district": "Старополтавский муниципальный район",
		"postcode": "404202"
	},
	{
		"lon": "44.8073722",
		"lat": "48.7143987",
		"number": "40",
		"street": "улица центральная",
		"city": "Колхозная Ахтуба",
		"district": "Среднеахтубинский муниципальный район",
		"postcode": "404143"
	},
	{
		"lon": "44.9214114",
		"lat": "50.1861664",
		"number": "4",
		"street": "Новая",
		"city": "Коростино",
		"district": "Котовский муниципальный район",
		"postcode": "403809"
	},
	{
		"lon": "44.9502711",
		"lat": "50.3620337",
		"number": "4",
		"street": "Горная",
		"city": "Лобынец",
		"district": "Котовский муниципальный район",
		"postcode": "403811"
	},
	{
		"lon": "44.7675425",
		"lat": "48.7176512",
		"number": "3/1",
		"street": "улица Прямая",
		"city": "Новенький",
		"district": "Среднеахтубинский муниципальный район",
		"postcode": "404143"
	},
	{
		"lon": "45.0107766",
		"lat": "50.3172203",
		"number": "5А",
		"street": "Ленина",
		"city": "Купцово",
		"district": "Котовский муниципальный район",
		"postcode": "403812"
	},
	{
		"lon": "44.8042203",
		"lat": "48.6358077",
		"number": "14б",
		"street": "Вишневая",
		"city": "Красный",
		"district": "Среднеахтубинский муниципальный район",
		"postcode": "404146"
	},
	{
		"lon": "45.0016626",
		"lat": "50.3167064",
		"number": "48А",
		"street": "Ленина",
		"city": "Купцово",
		"district": "Котовский муниципальный район",
		"postcode": "403812"
	},
	{
		"lon": "44.7405461",
		"lat": "48.7414549",
		"number": "9",
		"street": "улица лесная",
		"city": "Тутов",
		"district": "Среднеахтубинский муниципальный район",
		"postcode": "404143"
	},
	{
		"lon": "44.7028605",
		"lat": "50.2647619",
		"number": "55",
		"street": "Мира",
		"city": "Ефимовка",
		"district": "Котовский муниципальный район",
		"postcode": "403816"
	},
	{
		"lon": "43.9983896",
		"lat": "50.2718173",
		"number": "7",
		"street": "переулок Коммунистический",
		"city": "Берёзовская",
		"district": "Даниловский муниципальный район",
		"postcode": "403385"
	},
	{
		"lon": "47.2103412",
		"lat": "50.301164",
		"number": "6/2",
		"street": "Почтовая",
		"city": "Торгун",
		"district": "Старополтавский муниципальный район",
		"postcode": "404202"
	},
	{
		"lon": "43.9972287",
		"lat": "50.2714608",
		"number": "2",
		"street": "переулок Интернациональный",
		"city": "Берёзовская",
		"district": "Даниловский муниципальный район",
		"postcode": "403385"
	},
	{
		"lon": "45.1103263",
		"lat": "50.538701",
		"number": "10",
		"street": "Гагарина",
		"city": "Перещепное",
		"district": "Котовский муниципальный район",
		"postcode": "403821"
	},
	{
		"lon": "44.9309211",
		"lat": "50.1820401",
		"number": "3",
		"street": "улица Чапаева",
		"city": "Коростино",
		"district": "Котовский муниципальный район",
		"postcode": "403809"
	},
	{
		"lon": "44.9182725",
		"lat": "49.0099829",
		"number": "2а",
		"street": "улица Садовая",
		"city": "Рахинка",
		"district": "Среднеахтубинский муниципальный район",
		"postcode": "404145"
	},
	{
		"lon": "47.2023561",
		"lat": "50.2954922",
		"number": "22/1",
		"street": "Республиканская",
		"city": "Торгун",
		"district": "Старополтавский муниципальный район",
		"postcode": "404202"
	},
	{
		"lon": "44.0808441",
		"lat": "50.1670955",
		"number": "1",
		"street": "Ивановская",
		"city": "Атамановка",
		"district": "Даниловский муниципальный район",
		"postcode": "403388"
	},
	{
		"lon": "47.2031357",
		"lat": "50.2950484",
		"number": "23/2",
		"street": "Республиканская",
		"city": "Торгун",
		"district": "Старополтавский муниципальный район",
		"postcode": "404202"
	},
	{
		"lon": "44.0891381",
		"lat": "50.1691134",
		"number": "12",
		"street": "Ивановская",
		"city": "Атамановка",
		"district": "Даниловский муниципальный район",
		"postcode": "403388"
	},
	{
		"lon": "44.0598696",
		"lat": "50.4235916",
		"number": "4/2",
		"street": "Центральная",
		"city": "Миусово",
		"district": "Даниловский муниципальный район",
		"postcode": "403384"
	},
	{
		"lon": "43.0611334",
		"lat": "47.9004577",
		"number": "25",
		"street": "улица Алимова",
		"city": "Красноярский",
		"district": "Котельниковский муниципальный район",
		"postcode": "404371"
	},
	{
		"lon": "44.0701921",
		"lat": "50.1697463",
		"number": "16",
		"street": "Садовая",
		"city": "Атамановка",
		"district": "Даниловский муниципальный район",
		"postcode": "403388"
	},
	{
		"lon": "43.5406443",
		"lat": "48.5689402",
		"number": "28",
		"street": "улица Ленина",
		"city": "Приморский",
		"district": "Калачевский муниципальный район",
		"postcode": "404528"
	},
	{
		"lon": "43.5455952",
		"lat": "48.5679122",
		"number": "23",
		"street": "улица Мира",
		"city": "Приморский",
		"district": "Калачевский муниципальный район",
		"postcode": "404528"
	},
	{
		"lon": "43.538141",
		"lat": "48.5655422",
		"number": "5",
		"street": "улица Солнечная",
		"city": "Приморский",
		"district": "Калачевский муниципальный район",
		"postcode": "404528"
	},
	{
		"lon": "44.7886603",
		"lat": "48.7347562",
		"number": "65",
		"street": "улица Зеленая",
		"city": "Киляковка",
		"district": "Среднеахтубинский муниципальный район",
		"postcode": "404143"
	},
	{
		"lon": "43.1586206",
		"lat": "47.5870741",
		"number": "5",
		"street": "улица Центральная",
		"city": "Нагольный",
		"district": "Котельниковский муниципальный район",
		"postcode": "404361"
	},
	{
		"lon": "44.9183031",
		"lat": "49.0204831",
		"number": "29",
		"street": "улица Рабочий",
		"city": "Рахинка",
		"district": "Среднеахтубинский муниципальный район",
		"postcode": "404145"
	},
	{
		"lon": "44.8350654",
		"lat": "50.2304777",
		"number": "5",
		"street": "Зеленая",
		"city": "Племхоз",
		"district": "Котовский муниципальный район",
		"postcode": "403808"
	},
	{
		"lon": "43.2153888",
		"lat": "48.0006956",
		"number": "9",
		"street": "улица Генералова",
		"city": "х.Генераловский",
		"district": "Котельниковский муниципальный район",
		"postcode": "404372"
	},
	{
		"lon": "44.9985862",
		"lat": "50.4829054",
		"number": "31",
		"street": "Кирова",
		"city": "Мокрая Ольховка",
		"district": "Котовский муниципальный район",
		"postcode": "403820"
	},
	{
		"lon": "44.7835454",
		"lat": "48.7342752",
		"number": "41",
		"street": "улица зеленая",
		"city": "Киляковка",
		"district": "Среднеахтубинский муниципальный район",
		"postcode": "404143"
	},
	{
		"lon": "44.066061",
		"lat": "50.1720431",
		"number": "10",
		"street": "Калиновская",
		"city": "Атамановка",
		"district": "Даниловский муниципальный район",
		"postcode": "403388"
	},
	{
		"lon": "44.8327327",
		"lat": "50.2294937",
		"number": "18.3",
		"street": "Зеленая",
		"city": "Племхоз",
		"district": "Котовский муниципальный район",
		"postcode": "403808"
	},
	{
		"lon": "44.5159139",
		"lat": "50.1952869",
		"number": "35",
		"street": "Октябрьская",
		"city": "Попки",
		"district": "Котовский муниципальный район",
		"postcode": "403806"
	},
	{
		"lon": "44.7874519",
		"lat": "48.7345875",
		"number": "57",
		"street": "улица Зеленая",
		"city": "Киляковка",
		"district": "Среднеахтубинский муниципальный район",
		"postcode": "404143"
	},
	{
		"lon": "44.1150098",
		"lat": "50.3537222",
		"number": "40",
		"street": "улица Центральная",
		"city": "Даниловка",
		"district": "Даниловский муниципальный район",
		"postcode": "403371"
	},
	{
		"lon": "44.8334893",
		"lat": "50.230749",
		"number": "12",
		"street": "улица Зеленая",
		"city": "Племхоз",
		"district": "Котовский муниципальный район",
		"postcode": "403808"
	},
	{
		"lon": "42.8300573",
		"lat": "47.7665627",
		"number": "44/2",
		"street": "улица Цимлянская",
		"city": "Нагавская",
		"district": "Котельниковский муниципальный район",
		"postcode": "404375"
	},
	{
		"lon": "44.929555",
		"lat": "50.1838402",
		"number": "54",
		"street": "Кирова",
		"city": "Коростино",
		"district": "Котовский муниципальный район",
		"postcode": "403809"
	},
	{
		"lon": "44.0675464",
		"lat": "50.1697642",
		"number": "45/1",
		"street": "Центральная",
		"city": "Атамановка",
		"district": "Даниловский муниципальный район",
		"postcode": "403388"
	},
	{
		"lon": "45.8833179",
		"lat": "50.5073271",
		"number": "48",
		"street": "Волжская",
		"city": "Иловатка",
		"district": "Старополтавский муниципальный район",
		"postcode": "404220"
	},
	{
		"lon": "42.320374",
		"lat": "49.3747715",
		"number": "32",
		"street": "улица Центральная",
		"city": "Большой",
		"district": "Серафимовичский муниципальный район",
		"postcode": " "
	},
	{
		"lon": "42.3176572",
		"lat": "49.3657153",
		"number": "22",
		"street": "улица Гвардейская",
		"city": "Большой",
		"district": "Серафимовичский муниципальный район",
		"postcode": " "
	},
	{
		"lon": "42.3146848",
		"lat": "49.3821224",
		"number": "3",
		"street": "улица Солнечная",
		"city": "Большой",
		"district": "Серафимовичский муниципальный район",
		"postcode": " "
	},
	{
		"lon": "42.3261722",
		"lat": "49.3893529",
		"number": "6а",
		"street": "улица Степная",
		"city": "Большой",
		"district": "Серафимовичский муниципальный район",
		"postcode": " "
	},
	{
		"lon": "42.3250558",
		"lat": "49.3821463",
		"number": "7",
		"street": "улица Дружбы",
		"city": "Большой",
		"district": "Серафимовичский муниципальный район",
		"postcode": " "
	},
	{
		"lon": "42.306942",
		"lat": "49.430857",
		"number": "29",
		"street": "улица Дорожная",
		"city": "Котовский",
		"district": "Серафимовичский муниципальный район",
		"postcode": " "
	},
	{
		"lon": "42.3071605",
		"lat": "49.3925455",
		"number": "1",
		"street": "улица Юрия Гагарина",
		"city": "Большой",
		"district": "Серафимовичский муниципальный район",
		"postcode": " "
	},
	{
		"lon": "43.4843329",
		"lat": "47.8455101",
		"number": "20/2",
		"street": "улица Молодёжная",
		"city": "Равнинный",
		"district": "Котельниковский муниципальный район",
		"postcode": "404385"
	},
	{
		"lon": "44.5349336",
		"lat": "48.8478613",
		"number": "29/2",
		"street": "Победы",
		"city": "Орловка",
		"district": "Городищенский муниципальный район",
		"postcode": "403014"
	},
	{
		"lon": "43.1649621",
		"lat": "47.5828596",
		"number": "37",
		"street": "улица Центральная",
		"city": "Нагольный",
		"district": "Котельниковский муниципальный район",
		"postcode": "404361"
	},
	{
		"lon": "43.1676279",
		"lat": "47.5806655",
		"number": "1/1",
		"street": "улица Надежда",
		"city": "Нагольный",
		"district": "Котельниковский муниципальный район",
		"postcode": "404361"
	},
	{
		"lon": "43.9937529",
		"lat": "50.2679796",
		"number": "59",
		"street": "улица Недорубова",
		"city": "Берёзовская",
		"district": "Даниловский муниципальный район",
		"postcode": "403385"
	},
	{
		"lon": "43.4676741",
		"lat": "47.7001473",
		"number": "5",
		"street": "улица Мира",
		"city": "Пимено-Черни",
		"district": "Котельниковский муниципальный район",
		"postcode": "404365"
	},
	{
		"lon": "45.8822204",
		"lat": "50.5137526",
		"number": "20",
		"street": "Ленина",
		"city": "Иловатка",
		"district": "Старополтавский муниципальный район",
		"postcode": "404220"
	},
	{
		"lon": "43.6592254",
		"lat": "47.8469999",
		"number": "9/1",
		"street": "улица СТЕПНАЯ",
		"city": "ТЕРНОВОЙ",
		"district": "Котельниковский муниципальный район",
		"postcode": "404385"
	},
	{
		"lon": "44.5370501",
		"lat": "48.845557",
		"number": "2Б",
		"street": "улица Советская",
		"city": "Орловка",
		"district": "Городищенский муниципальный район",
		"postcode": "403014"
	},
	{
		"lon": "46.4228917",
		"lat": "50.3545471",
		"number": "9",
		"street": "переулок Молодежный",
		"city": "Валуевка",
		"district": "Старополтавский муниципальный район",
		"postcode": "404218"
	},
	{
		"lon": "43.1701746",
		"lat": "47.5819757",
		"number": "49",
		"street": "улица Набережная",
		"city": "Нагольный",
		"district": "Котельниковский муниципальный район",
		"postcode": "404361"
	},
	{
		"lon": "45.8907122",
		"lat": "50.5080556",
		"number": "88",
		"street": "улица Советская",
		"city": "Иловатка",
		"district": "Старополтавский муниципальный район",
		"postcode": "404220"
	},
	{
		"lon": "42.8240127",
		"lat": "47.7638866",
		"number": "25/2",
		"street": "улица Молодежная",
		"city": "Нагавская",
		"district": "Котельниковский муниципальный район",
		"postcode": "404375"
	},
	{
		"lon": "43.5246884",
		"lat": "47.5115722",
		"number": "номер не присвоенб",
		"street": "улица адрес не присвоен",
		"city": "Поперечный",
		"district": "Котельниковский муниципальный район",
		"postcode": "404367"
	},
	{
		"lon": "44.538064",
		"lat": "48.8447916",
		"number": "20",
		"street": "улица Тракторная",
		"city": "Орловка",
		"district": "Городищенский муниципальный район",
		"postcode": "403014"
	},
	{
		"lon": "43.9887313",
		"lat": "50.2698001",
		"number": "17",
		"street": "улица Советская",
		"city": "Берёзовская",
		"district": "Даниловский муниципальный район",
		"postcode": "403385"
	},
	{
		"lon": "43.2147478",
		"lat": "48.0098179",
		"number": "11/1",
		"street": "улица Северная",
		"city": "х.Генераловский",
		"district": "Котельниковский муниципальный район",
		"postcode": "404372"
	},
	{
		"lon": "43.5334931",
		"lat": "47.519576",
		"number": "12",
		"street": "улица Школьная",
		"city": "Поперечный",
		"district": "Котельниковский муниципальный район",
		"postcode": "404367"
	},
	{
		"lon": "43.1651044",
		"lat": "48.0130567",
		"number": "6",
		"street": "улица Аксайская",
		"city": "Пугачевская",
		"district": "Котельниковский муниципальный район",
		"postcode": "404378"
	},
	{
		"lon": "45.8861045",
		"lat": "50.5143773",
		"number": "46",
		"street": "улица Колхозная",
		"city": "Иловатка",
		"district": "Старополтавский муниципальный район",
		"postcode": "404220"
	},
	{
		"lon": "43.8987993",
		"lat": "48.9378551",
		"number": "5",
		"street": "переулок Мирный",
		"city": "Вертячий",
		"district": "Городищенский муниципальный район",
		"postcode": "403025"
	},
	{
		"lon": "43.4712162",
		"lat": "47.693401",
		"number": "4",
		"street": "улица Зеленая",
		"city": "Пимено-Черни",
		"district": "Котельниковский муниципальный район",
		"postcode": "404365"
	},
	{
		"lon": "45.888576",
		"lat": "50.5121236",
		"number": "56",
		"street": "улица Колхозная",
		"city": "Иловатка",
		"district": "Старополтавский муниципальный район",
		"postcode": "404220"
	},
	{
		"lon": "43.3349174",
		"lat": "47.9811018",
		"number": "3",
		"street": "улица Ленина",
		"city": "Дорофеевский",
		"district": "Котельниковский муниципальный район",
		"postcode": "404373"
	},
	{
		"lon": "43.1009899",
		"lat": "47.8473632",
		"number": "28",
		"street": "улица Центральная",
		"city": "Нижнеяблочный",
		"district": "Котельниковский муниципальный район",
		"postcode": "404370"
	},
	{
		"lon": "43.429705",
		"lat": "47.6859622",
		"number": "4",
		"street": "улица Юбилейная",
		"city": "Нижние Черни",
		"district": "Котельниковский муниципальный район",
		"postcode": "404364"
	},
	{
		"lon": "43.3284147",
		"lat": "47.9806213",
		"number": "1",
		"street": "улица Восточная",
		"city": "Дорофеевский",
		"district": "Котельниковский муниципальный район",
		"postcode": "404373"
	},
	{
		"lon": "43.3273593",
		"lat": "47.9831256",
		"number": "24",
		"street": "улица Цветочная",
		"city": "Дорофеевский",
		"district": "Котельниковский муниципальный район",
		"postcode": "404373"
	},
	{
		"lon": "43.9149572",
		"lat": "48.9471032",
		"number": "42/2",
		"street": "улица Мира",
		"city": "Вертячий",
		"district": "Городищенский муниципальный район",
		"postcode": "403025"
	},
	{
		"lon": "45.8856257",
		"lat": "50.5184442",
		"number": "19",
		"street": "улица Комсомольская",
		"city": "Иловатка",
		"district": "Старополтавский муниципальный район",
		"postcode": "404220"
	},
	{
		"lon": "43.1575121",
		"lat": "48.0111065",
		"number": "15",
		"street": "улица Донская",
		"city": "Пугачевская",
		"district": "Котельниковский муниципальный район",
		"postcode": "404378"
	},
	{
		"lon": "43.3276997",
		"lat": "47.9840564",
		"number": "9",
		"street": "улица Цветочная",
		"city": "Дорофеевский",
		"district": "Котельниковский муниципальный район",
		"postcode": "404373"
	},
	{
		"lon": "43.0963605",
		"lat": "47.8487159",
		"number": "46",
		"street": "улица Центральная",
		"city": "Нижнеяблочный",
		"district": "Котельниковский муниципальный район",
		"postcode": "404370"
	},
	{
		"lon": "45.883703",
		"lat": "50.5153845",
		"number": "41",
		"street": "улица Садовая",
		"city": "Иловатка",
		"district": "Старополтавский муниципальный район",
		"postcode": "404220"
	},
	{
		"lon": "44.3805361",
		"lat": "48.4431773",
		"number": "2в",
		"street": "улица Дружбы",
		"city": "Червленое",
		"district": "Светлоярский муниципальный район",
		"postcode": "404186"
	},
	{
		"lon": "44.3813479",
		"lat": "48.4420246",
		"number": "6",
		"street": "улица Дружбы",
		"city": "Червленое",
		"district": "Светлоярский муниципальный район",
		"postcode": "404186"
	},
	{
		"lon": "44.6155917",
		"lat": "48.3285731",
		"number": "12",
		"street": "площадь Хвастанцева",
		"city": "Дубовый Овраг",
		"district": "Светлоярский муниципальный район",
		"postcode": "404175"
	},
	{
		"lon": "44.5061699",
		"lat": "48.4446003",
		"number": "3",
		"street": "микрорайон",
		"city": "Чапурники",
		"district": "Светлоярский муниципальный район",
		"postcode": "404181"
	},
	{
		"lon": "44.531428",
		"lat": "48.8456376",
		"number": "36",
		"street": "улица Волгоградская",
		"city": "Орловка",
		"district": "Городищенский муниципальный район",
		"postcode": "403014"
	},
	{
		"lon": "44.6148207",
		"lat": "48.3426344",
		"number": "24",
		"street": "улица Василенко",
		"city": "Дубовый Овраг",
		"district": "Светлоярский муниципальный район",
		"postcode": "404175"
	},
	{
		"lon": "43.0996791",
		"lat": "47.8452341",
		"number": "29",
		"street": "улица Цимлянская",
		"city": "Нижнеяблочный",
		"district": "Котельниковский муниципальный район",
		"postcode": "404370"
	},
	{
		"lon": "43.0916657",
		"lat": "47.8475261",
		"number": "67",
		"street": "улица Цимлянская",
		"city": "Нижнеяблочный",
		"district": "Котельниковский муниципальный район",
		"postcode": "404370"
	},
	{
		"lon": "44.616319",
		"lat": "48.344033",
		"number": "22",
		"street": "улица Октябрьская",
		"city": "Дубовый Овраг",
		"district": "Светлоярский муниципальный район",
		"postcode": "404175"
	},
	{
		"lon": "43.0915935",
		"lat": "47.84681",
		"number": "24/1",
		"street": "улица Морская",
		"city": "Нижнеяблочный",
		"district": "Котельниковский муниципальный район",
		"postcode": "404370"
	},
	{
		"lon": "44.6190523",
		"lat": "48.3388627",
		"number": "61ж",
		"street": "улица Октябрьская",
		"city": "Дубовый Овраг",
		"district": "Светлоярский муниципальный район",
		"postcode": "404175"
	},
	{
		"lon": "44.5315314",
		"lat": "48.4722607",
		"number": "7",
		"street": "переулок Виноградный",
		"city": "Кирова",
		"district": "Светлоярский муниципальный район",
		"postcode": "404180"
	},
	{
		"lon": "44.6193199",
		"lat": "48.3305867",
		"number": "39",
		"street": "улица Советская",
		"city": "дубовый Овраг",
		"district": "Светлоярский муниципальный район",
		"postcode": "404175"
	},
	{
		"lon": "43.8986561",
		"lat": "48.94721",
		"number": "16",
		"street": "улица Школьная",
		"city": "Вертячий",
		"district": "Городищенский муниципальный район",
		"postcode": "403025"
	},
	{
		"lon": "44.6200234",
		"lat": "48.3303053",
		"number": "40",
		"street": "улица Советская",
		"city": "Дубовый Овраг",
		"district": "Светлоярский муниципальный район",
		"postcode": "404175"
	},
	{
		"lon": "44.6157973",
		"lat": "48.3332659",
		"number": "19",
		"street": "улица Садовая",
		"city": "Дубовый Овраг",
		"district": "Светлоярский муниципальный район",
		"postcode": "404175"
	},
	{
		"lon": "43.1036732",
		"lat": "47.8514963",
		"number": "8/2",
		"street": "улица Степная",
		"city": "Нижнеяблочный",
		"district": "Котельниковский муниципальный район",
		"postcode": "404370"
	},
	{
		"lon": "44.6791933",
		"lat": "48.1997629",
		"number": "21",
		"street": "улица Советская",
		"city": "Цаца",
		"district": "Светлоярский муниципальный район",
		"postcode": "404177"
	},
	{
		"lon": "44.6761974",
		"lat": "48.1890973",
		"number": "2/1",
		"street": "улица советская новая",
		"city": "цаца",
		"district": "Светлоярский муниципальный район",
		"postcode": "404177"
	},
	{
		"lon": "43.9150849",
		"lat": "48.952036",
		"number": "45/2",
		"street": "улица Быстрова",
		"city": "Вертячий",
		"district": "Городищенский муниципальный район",
		"postcode": "403025"
	},
	{
		"lon": "44.5794645",
		"lat": "48.4119394",
		"number": "19/2",
		"street": "улица Спортивная",
		"city": "Большие Чапурники",
		"district": "Светлоярский муниципальный район",
		"postcode": "404174"
	},
	{
		"lon": "44.5799896",
		"lat": "48.4119248",
		"number": "17/1",
		"street": "улица Спортивная",
		"city": "Большие Чапурники",
		"district": "Светлоярский муниципальный район",
		"postcode": "404174"
	},
	{
		"lon": "43.8115109",
		"lat": "48.9168026",
		"number": "16",
		"street": "улица им.Гули Королёвой",
		"city": "Песковатка",
		"district": "Городищенский муниципальный район",
		"postcode": "403029"
	},
	{
		"lon": "46.819121",
		"lat": "50.2130739",
		"number": "Водонапорная башня",
		"street": "улица Коршуновская",
		"city": "Коршуновка",
		"district": "Старополтавский муниципальный район",
		"postcode": "404200"
	},
	{
		"lon": "46.7540384",
		"lat": "50.3496849",
		"number": "6/2",
		"street": "улица Казахстанская",
		"city": "Цветочное",
		"district": "Старополтавский муниципальный район",
		"postcode": "404200"
	},
	{
		"lon": "44.6763908",
		"lat": "48.1976944",
		"number": "53",
		"street": "улица Центральная",
		"city": "Цаца",
		"district": "Светлоярский муниципальный район",
		"postcode": "404177"
	},
	{
		"lon": "43.9090915",
		"lat": "48.9460438",
		"number": "8",
		"street": "улица Чуйкова",
		"city": "Вертячий",
		"district": "Городищенский муниципальный район",
		"postcode": "403025"
	},
	{
		"lon": "44.6768637",
		"lat": "48.196941",
		"number": "78",
		"street": "улица Центральная",
		"city": "Цаца",
		"district": "Светлоярский муниципальный район",
		"postcode": "404177"
	},
	{
		"lon": "44.1927788",
		"lat": "48.4847127",
		"number": "2/2",
		"street": "улица Ворошилова",
		"city": "Нариман",
		"district": "Светлоярский муниципальный район",
		"postcode": "404197"
	},
	{
		"lon": "44.3778992",
		"lat": "48.4734014",
		"number": "21",
		"street": "улица Полевая",
		"city": "Ивановка",
		"district": "Светлоярский муниципальный район",
		"postcode": "404187"
	},
	{
		"lon": "46.8574689",
		"lat": "50.2853546",
		"number": "7",
		"street": "улица Центральная",
		"city": "Вербный",
		"district": "Старополтавский муниципальный район",
		"postcode": "404203"
	},
	{
		"lon": "43.8114934",
		"lat": "48.9151273",
		"number": "8/1",
		"street": "улица Дзержинского",
		"city": "Песковатка",
		"district": "Городищенский муниципальный район",
		"postcode": "403029"
	},
	{
		"lon": "44.5327019",
		"lat": "48.4754143",
		"number": "60",
		"street": "улица Тепличная",
		"city": "Кирова",
		"district": "Светлоярский муниципальный район",
		"postcode": "404180"
	},
	{
		"lon": "46.4177463",
		"lat": "50.3529135",
		"number": "41",
		"street": "улица Ильменская",
		"city": "Валуевка",
		"district": "Старополтавский муниципальный район",
		"postcode": "404218"
	},
	{
		"lon": "44.6657542",
		"lat": "48.1857358",
		"number": "69",
		"street": "улица КАМЫШИНСКАЯ",
		"city": "ЦАЦА",
		"district": "Светлоярский муниципальный район",
		"postcode": "404177"
	},
	{
		"lon": "43.080421",
		"lat": "48.3619966",
		"number": "11",
		"street": "улица Асеева",
		"city": "Нижний Чир",
		"district": "Суровикинский муниципальный район",
		"postcode": "404446"
	},
	{
		"lon": "43.0816616",
		"lat": "48.3470974",
		"number": "20",
		"street": "улица Вальковых",
		"city": "Нижний Чир",
		"district": "Суровикинский муниципальный район",
		"postcode": "404446"
	},
	{
		"lon": "43.0870218",
		"lat": "48.3642846",
		"number": "9",
		"street": "улица им. Воскобойникова",
		"city": "Нижний Чир",
		"district": "Суровикинский муниципальный район",
		"postcode": "404446"
	},
	{
		"lon": "42.9934483",
		"lat": "48.7480497",
		"number": "4",
		"street": "улица Степная",
		"city": "Савинский",
		"district": "Суровикинский муниципальный район",
		"postcode": "404435"
	},
	{
		"lon": "42.839601",
		"lat": "48.4569115",
		"number": "5",
		"street": "улица Крестьянская",
		"city": "Сысоевский",
		"district": "Суровикинский муниципальный район",
		"postcode": "404421"
	},
	{
		"lon": "42.8424749",
		"lat": "48.6028653",
		"number": "8",
		"street": "микрорайон 2",
		"city": "Суровикино",
		"district": "Суровикинский муниципальный район",
		"postcode": "404415"
	},
	{
		"lon": "42.9938199",
		"lat": "48.7389231",
		"number": "20",
		"street": "улица Степная",
		"city": "Савинский",
		"district": "Суровикинский муниципальный район",
		"postcode": "404435"
	},
	{
		"lon": "43.1752726",
		"lat": "48.7041617",
		"number": "19а",
		"street": "улица Центральная",
		"city": "Попов-1",
		"district": "Суровикинский муниципальный район",
		"postcode": "404426"
	},
	{
		"lon": "46.472692",
		"lat": "50.4815318",
		"number": "10/2а",
		"street": "улица Степная",
		"city": "Старая Полтавка",
		"district": "Старополтавский муниципальный район",
		"postcode": "404211"
	},
	{
		"lon": "46.4717585",
		"lat": "50.482691",
		"number": "6/2",
		"street": "улица Степная",
		"city": "Старая Полтавка",
		"district": "Старополтавский муниципальный район",
		"postcode": "404211"
	},
	{
		"lon": "46.473461",
		"lat": "50.4737739",
		"number": "1Е",
		"street": "улица Молодежная",
		"city": "Старая Полтавка",
		"district": "Старополтавский муниципальный район",
		"postcode": "404211"
	},
	{
		"lon": "43.1392552",
		"lat": "48.5272486",
		"number": "10/1а",
		"street": "улица Школьная",
		"city": "Бурацкий",
		"district": "Суровикинский муниципальный район",
		"postcode": "404451"
	},
	{
		"lon": "43.0899005",
		"lat": "48.3623281",
		"number": "43",
		"street": "улица им. Дзержинского",
		"city": "Нижний Чир",
		"district": "Суровикинский муниципальный район",
		"postcode": "404446"
	},
	{
		"lon": "42.8484077",
		"lat": "48.4553776",
		"number": "8б",
		"street": "улица Центральная",
		"city": "Сысоевский",
		"district": "Суровикинский муниципальный район",
		"postcode": "404421"
	},
	{
		"lon": "43.0866149",
		"lat": "48.3707744",
		"number": "16",
		"street": "улица Горная",
		"city": "Нижний Чир",
		"district": "Суровикинский муниципальный район",
		"postcode": "404446"
	},
	{
		"lon": "42.9623514",
		"lat": "48.8242321",
		"number": "58",
		"street": "улица им.Генерала Брагина",
		"city": "Добринка",
		"district": "Суровикинский муниципальный район",
		"postcode": "404433"
	},
	{
		"lon": "42.1389508",
		"lat": "51.0396421",
		"number": "5",
		"street": "улица Казачья",
		"city": "Большинский",
		"district": "Урюпинский муниципальный район",
		"postcode": "403104"
	},
	{
		"lon": "46.4770196",
		"lat": "50.4786144",
		"number": "69/1",
		"street": "улица Колхозная",
		"city": "Старая Полтавка",
		"district": "Старополтавский муниципальный район",
		"postcode": "404211"
	},
	{
		"lon": "43.2076235",
		"lat": "48.6714556",
		"number": "8а",
		"street": "улица Просёлочная",
		"city": "Яблоневый",
		"district": "Суровикинский муниципальный район",
		"postcode": "404426"
	},
	{
		"lon": "43.1556141",
		"lat": "48.4814696",
		"number": "3",
		"street": "улица Партизанская",
		"city": "Новомаксимовский",
		"district": "Суровикинский муниципальный район",
		"postcode": "404450"
	},
	{
		"lon": "42.9792682",
		"lat": "48.8203076",
		"number": "1",
		"street": "улица им.Генерала Брагина",
		"city": "Добринка",
		"district": "Суровикинский муниципальный район",
		"postcode": "404433"
	},
	{
		"lon": "42.9656568",
		"lat": "48.8208876",
		"number": "57",
		"street": "улица им.Генерала Брагина",
		"city": "Добринка",
		"district": "Суровикинский муниципальный район",
		"postcode": "404433"
	},
	{
		"lon": "42.8569387",
		"lat": "48.4484188",
		"number": "12",
		"street": "улица Каменная",
		"city": "Сысоевский",
		"district": "Суровикинский муниципальный район",
		"postcode": "404421"
	},
	{
		"lon": "43.0934083",
		"lat": "48.3715743",
		"number": "9",
		"street": "улица им. Димитрова",
		"city": "Нижний Чир",
		"district": "Суровикинский муниципальный район",
		"postcode": "404446"
	},
	{
		"lon": "42.6813365",
		"lat": "48.3977817",
		"number": "9",
		"street": "улица Прудовая",
		"city": "\"отделения  №3  совхоза  \"\"Красная  Звезда\"\"\"",
		"district": "Суровикинский муниципальный район",
		"postcode": "404421"
	},
	{
		"lon": "42.1213907",
		"lat": "51.0263943",
		"number": "12",
		"street": "переулок Куминской",
		"city": "Серковский",
		"district": "Урюпинский муниципальный район",
		"postcode": "403104"
	},
	{
		"lon": "42.9288575",
		"lat": "48.6401405",
		"number": "8",
		"street": "улица Заречная",
		"city": "Ближнеосиновский",
		"district": "Суровикинский муниципальный район",
		"postcode": "404415"
	},
	{
		"lon": "42.1210499",
		"lat": "51.0266477",
		"number": "8",
		"street": "улица Школьная",
		"city": "Серковский",
		"district": "Урюпинский муниципальный район",
		"postcode": "403104"
	},
	{
		"lon": "43.1617421",
		"lat": "48.4798224",
		"number": "13",
		"street": "улица Фрунзе",
		"city": "Новомаксимовский",
		"district": "Суровикинский муниципальный район",
		"postcode": "404450"
	},
	{
		"lon": "42.8470399",
		"lat": "48.4529403",
		"number": "1б",
		"street": "улица Южная",
		"city": "Сысоевский",
		"district": "Суровикинский муниципальный район",
		"postcode": "404421"
	},
	{
		"lon": "43.1361553",
		"lat": "48.5285016",
		"number": "15а",
		"street": "улица им.Плешакова",
		"city": "Бурацкий",
		"district": "Суровикинский муниципальный район",
		"postcode": "404451"
	},
	{
		"lon": "46.4781709",
		"lat": "50.48221",
		"number": "94/2",
		"street": "улица Колхозная",
		"city": "Старая Полтавка",
		"district": "Старополтавский муниципальный район",
		"postcode": "404211"
	},
	{
		"lon": "43.1625431",
		"lat": "48.4805064",
		"number": "1",
		"street": "улица Фрунзе",
		"city": "Новомаксимовский",
		"district": "Суровикинский муниципальный район",
		"postcode": "404450"
	},
	{
		"lon": "43.1289589",
		"lat": "48.527099",
		"number": "19а",
		"street": "улица Центральная",
		"city": "Бурацкий",
		"district": "Суровикинский муниципальный район",
		"postcode": "404451"
	},
	{
		"lon": "43.1666969",
		"lat": "48.4779003",
		"number": "20",
		"street": "улица школьная",
		"city": "Новомаксимовский",
		"district": "Суровикинский муниципальный район",
		"postcode": "404450"
	},
	{
		"lon": "42.8466958",
		"lat": "48.4542085",
		"number": "7а",
		"street": "улица Победы",
		"city": "Сысоевский",
		"district": "Суровикинский муниципальный район",
		"postcode": "404421"
	},
	{
		"lon": "43.1667172",
		"lat": "48.4780138",
		"number": "18",
		"street": "улица Школьная",
		"city": "Новомаксимовский",
		"district": "Суровикинский муниципальный район",
		"postcode": "404450"
	},
	{
		"lon": "43.1708967",
		"lat": "48.6632564",
		"number": "17а",
		"street": "улица Садовая",
		"city": "Лысов",
		"district": "Суровикинский муниципальный район",
		"postcode": "404426"
	},
	{
		"lon": "46.4776988",
		"lat": "50.4732796",
		"number": "21",
		"street": "улица Октябрьская",
		"city": "Старая Полтавка",
		"district": "Старополтавский муниципальный район",
		"postcode": "404211"
	},
	{
		"lon": "42.104216",
		"lat": "51.0154742",
		"number": "29",
		"street": "улица Молодежная",
		"city": "Серковский",
		"district": "Урюпинский муниципальный район",
		"postcode": "403103"
	},
	{
		"lon": "43.1683284",
		"lat": "48.4784793",
		"number": "6",
		"street": "улица Донская",
		"city": "Новомаксимовский",
		"district": "Суровикинский муниципальный район",
		"postcode": "404450"
	},
	{
		"lon": "42.1105262",
		"lat": "51.0205506",
		"number": "55/2",
		"street": "улица Молодежная",
		"city": "Сепковский",
		"district": "Урюпинский муниципальный район",
		"postcode": "403103"
	},
	{
		"lon": "43.0861754",
		"lat": "48.349511",
		"number": "25",
		"street": "улица Зелёная",
		"city": "Нижний Чир",
		"district": "Суровикинский муниципальный район",
		"postcode": "404446"
	},
	{
		"lon": "43.1531931",
		"lat": "48.4794278",
		"number": "15",
		"street": "улица Колхозная",
		"city": "Новомаксимовский",
		"district": "Суровикинский муниципальный район",
		"postcode": "404450"
	},
	{
		"lon": "42.1019868",
		"lat": "51.0115219",
		"number": "9/1",
		"street": "улица Молодежная",
		"city": "Серковский",
		"district": "Урюпинский муниципальный район",
		"postcode": "403103"
	},
	{
		"lon": "43.1762224",
		"lat": "48.6511834",
		"number": "13а",
		"street": "улица Молодёжная",
		"city": "Лысов",
		"district": "Суровикинский муниципальный район",
		"postcode": "404426"
	},
	{
		"lon": "46.9081245",
		"lat": "50.3789785",
		"number": "70",
		"street": "улица Октябрьская",
		"city": "Гмелинка",
		"district": "Старополтавский муниципальный район",
		"postcode": "404200"
	},
	{
		"lon": "42.8426585",
		"lat": "48.7923558",
		"number": "9",
		"street": "улица Центральная",
		"city": "Лобакин",
		"district": "Суровикинский муниципальный район",
		"postcode": "404432"
	},
	{
		"lon": "42.103175",
		"lat": "51.0043592",
		"number": "58",
		"street": "улица Шефская",
		"city": "Нижнецепляевский",
		"district": "Урюпинский муниципальный район",
		"postcode": "403103"
	},
	{
		"lon": "46.9076425",
		"lat": "50.3807133",
		"number": "99",
		"street": "улица Октябрьская",
		"city": "Гмелинка",
		"district": "Старополтавский муниципальный район",
		"postcode": "404200"
	},
	{
		"lon": "43.1791993",
		"lat": "48.644668",
		"number": "43а",
		"street": "улица Молодёжная",
		"city": "Лысов",
		"district": "Суровикинский муниципальный район",
		"postcode": "404426"
	},
	{
		"lon": "42.8482186",
		"lat": "48.7926282",
		"number": "29",
		"street": "улица Центральная",
		"city": "Лобакин",
		"district": "Суровикинский муниципальный район",
		"postcode": "404432"
	},
	{
		"lon": "43.2115159",
		"lat": "48.7574627",
		"number": "130",
		"street": "улица Заречная",
		"city": "Качалин",
		"district": "Суровикинский муниципальный район",
		"postcode": "404440"
	},
	{
		"lon": "43.1945308",
		"lat": "48.4815388",
		"number": "147",
		"street": "улица цимлянская",
		"city": "верхнечирский",
		"district": "Суровикинский муниципальный район",
		"postcode": "404452"
	},
	{
		"lon": "42.9666845",
		"lat": "48.8105443",
		"number": "12",
		"street": "улица Александровская",
		"city": "Добринка",
		"district": "Суровикинский муниципальный район",
		"postcode": "404433"
	},
	{
		"lon": "43.1720534",
		"lat": "48.648026",
		"number": "10а",
		"street": "улица Весёлая",
		"city": "Лысов",
		"district": "Суровикинский муниципальный район",
		"postcode": "404426"
	},
	{
		"lon": "43.1772915",
		"lat": "48.6479244",
		"number": "28а",
		"street": "улица Молодёжная",
		"city": "Лысов",
		"district": "Суровикинский муниципальный район",
		"postcode": "404426"
	},
	{
		"lon": "43.1581718",
		"lat": "48.4816681",
		"number": "27",
		"street": "улица Октябрьская",
		"city": "Новомаксимовский",
		"district": "Суровикинский муниципальный район",
		"postcode": "404450"
	},
	{
		"lon": "43.0780283",
		"lat": "48.3543153",
		"number": "14",
		"street": "улица им. Куйбышева",
		"city": "Нижний Чир",
		"district": "Суровикинский муниципальный район",
		"postcode": "404446"
	},
	{
		"lon": "46.4801902",
		"lat": "50.4702418",
		"number": "23",
		"street": "улица Победа",
		"city": "Старая Полтавка",
		"district": "Старополтавский муниципальный район",
		"postcode": "404211"
	},
	{
		"lon": "46.4805543",
		"lat": "50.468728",
		"number": "18",
		"street": "улица Победа",
		"city": "Старая Полтавка",
		"district": "Старополтавский муниципальный район",
		"postcode": "404211"
	},
	{
		"lon": "42.7810354",
		"lat": "48.6307396",
		"number": "181",
		"street": "улица",
		"city": "Нижнеосиновский",
		"district": "Суровикинский муниципальный район",
		"postcode": "404436"
	},
	{
		"lon": "42.7757478",
		"lat": "48.6332505",
		"number": "201",
		"street": "улица",
		"city": "Нижнеосиновский",
		"district": "Суровикинский муниципальный район",
		"postcode": "404436"
	},
	{
		"lon": "42.8344689",
		"lat": "48.379246",
		"number": "1а",
		"street": "переулок Зеленый",
		"city": "Верхнесолоновский",
		"district": "Суровикинский муниципальный район",
		"postcode": "404422"
	},
	{
		"lon": "42.8324448",
		"lat": "48.3761824",
		"number": "8",
		"street": "улица Мира",
		"city": "верхнесолоновский",
		"district": "Суровикинский муниципальный район",
		"postcode": "404422"
	},
	{
		"lon": "46.4811777",
		"lat": "50.4821672",
		"number": "99а",
		"street": "улица Победа",
		"city": "Старая Полтавка",
		"district": "Старополтавский муниципальный район",
		"postcode": "404211"
	},
	{
		"lon": "43.0355814",
		"lat": "48.5257304",
		"number": "18",
		"street": "улица Продольная",
		"city": "Ближнеосиновский",
		"district": "Старополтавский муниципальный район",
		"postcode": "404443"
	},
	{
		"lon": "42.99961",
		"lat": "50.551118",
		"number": "28/1",
		"street": "улица Центральная",
		"city": "Калачевский",
		"district": "Киквидзенский муниципальный район",
		"postcode": "403213"
	},
	{
		"lon": "42.9950693",
		"lat": "50.6093023",
		"number": "8/1",
		"street": "улица Юбилейная",
		"city": "с Кузькин",
		"district": "Киквидзенский муниципальный район",
		"postcode": "403213"
	},
	{
		"lon": "42.9939228",
		"lat": "50.6112725",
		"number": "14/2",
		"street": "улица Юбилейная",
		"city": "с Кузькин",
		"district": "Киквидзенский муниципальный район",
		"postcode": "403213"
	},
	{
		"lon": "42.8441305",
		"lat": "48.7885012",
		"number": "1",
		"street": "улица Луговая",
		"city": "Лобакин",
		"district": "Суровикинский муниципальный район",
		"postcode": "404432"
	},
	{
		"lon": "43.0350299",
		"lat": "48.526133",
		"number": "29",
		"street": "улица Продольная",
		"city": "Ближнеосиновский",
		"district": "Суровикинский муниципальный район",
		"postcode": "404443"
	},
	{
		"lon": "43.0007451",
		"lat": "50.5486044",
		"number": "10/2",
		"street": "улица Центральная",
		"city": "Калачевский",
		"district": "Киквидзенский муниципальный район",
		"postcode": "403213"
	},
	{
		"lon": "43.0360912",
		"lat": "48.5297471",
		"number": "1",
		"street": "улица Родниковая",
		"city": "Ближнеосиновский",
		"district": "Суровикинский муниципальный район",
		"postcode": "404443"
	},
	{
		"lon": "42.8376431",
		"lat": "48.7846881",
		"number": "2",
		"street": "переулок Подгорный",
		"city": "Лобакин",
		"district": "Суровикинский муниципальный район",
		"postcode": "404432"
	},
	{
		"lon": "43.1533344",
		"lat": "50.6261087",
		"number": "19/1",
		"street": "улица Центральная",
		"city": "Гришин",
		"district": "Киквидзенский муниципальный район",
		"postcode": "403211"
	},
	{
		"lon": "42.8391722",
		"lat": "48.781315",
		"number": "21",
		"street": "улица Заречная",
		"city": "Лобакин",
		"district": "Суровикинский муниципальный район",
		"postcode": "404432"
	},
	{
		"lon": "43.0333485",
		"lat": "50.9204809",
		"number": "4а",
		"street": "улица Центральная",
		"city": "Алонцево",
		"district": "Киквидзенский муниципальный район",
		"postcode": "403228"
	},
	{
		"lon": "42.9226656",
		"lat": "50.7293968",
		"number": "21",
		"street": "улица Набережная",
		"city": "Дубровский",
		"district": "Киквидзенский муниципальный район",
		"postcode": "403225"
	},
	{
		"lon": "42.8651192",
		"lat": "50.7963798",
		"number": "17",
		"street": "улица Центральная",
		"city": "Страхов",
		"district": "Киквидзенский муниципальный район",
		"postcode": "403226"
	},
	{
		"lon": "43.3099858",
		"lat": "50.9915805",
		"number": "15",
		"street": "улица Центральная",
		"city": "Михайловка",
		"district": "Киквидзенский муниципальный район",
		"postcode": "403237"
	},
	{
		"lon": "43.2689508",
		"lat": "50.8799029",
		"number": "24",
		"street": "улица Молодежная",
		"city": "Калиновский",
		"district": "Киквидзенский муниципальный район",
		"postcode": "403234"
	},
	{
		"lon": "43.1327023",
		"lat": "50.4267426",
		"number": "51",
		"street": "улица Дар-гора",
		"city": "Новокиевка",
		"district": "Новоаннинский муниципальный район",
		"postcode": "403992"
	},
	{
		"lon": "43.1570382",
		"lat": "50.6253493",
		"number": "13",
		"street": "улица Восточная",
		"city": "Гришин",
		"district": "Киквидзенский муниципальный район",
		"postcode": "403211"
	},
	{
		"lon": "43.3105343",
		"lat": "50.991588",
		"number": "19",
		"street": "улица Центральная",
		"city": "Михайловка",
		"district": "Киквидзенский муниципальный район",
		"postcode": "403237"
	},
	{
		"lon": "42.454492",
		"lat": "51.0444302",
		"number": "28/2",
		"street": "МОЛОДЕЖНАЯ",
		"city": "ДВОЙНОВСКИЙ",
		"district": "Новониколаевский муниципальный район",
		"postcode": "403922"
	},
	{
		"lon": "42.9587847",
		"lat": "50.4271112",
		"number": "16",
		"street": "улица Кубинская",
		"city": "Бурнацкий",
		"district": "Новоаннинский муниципальный район",
		"postcode": "403991"
	},
	{
		"lon": "43.0530338",
		"lat": "50.3899138",
		"number": "29",
		"street": "улица Северная",
		"city": "Дробязкин",
		"district": "Новоаннинский муниципальный район",
		"postcode": "403995"
	},
	{
		"lon": "43.2907797",
		"lat": "50.9920052",
		"number": "21",
		"street": "улица Алексеевская",
		"city": "Михайловка",
		"district": "Киквидзенский муниципальный район",
		"postcode": "403237"
	},
	{
		"lon": "42.3058381",
		"lat": "50.5080332",
		"number": "871",
		"street": "улица Советская",
		"city": "Мартыновский",
		"district": "Новоаннинский муниципальный район",
		"postcode": "403972"
	},
	{
		"lon": "43.1943273",
		"lat": "50.96321",
		"number": "14",
		"street": "улица Крестьянская",
		"city": "Ежовка",
		"district": "Киквидзенский муниципальный район",
		"postcode": "403235"
	},
	{
		"lon": "43.0446981",
		"lat": "50.3895376",
		"number": "2",
		"street": "улица Северная",
		"city": "Дробязкин",
		"district": "Новоаннинский муниципальный район",
		"postcode": "403995"
	},
	{
		"lon": "42.8877714",
		"lat": "50.4065015",
		"number": "6",
		"street": "улица Д.Бедного",
		"city": "Панфилово",
		"district": "Новоаннинский муниципальный район",
		"postcode": "403990"
	},
	{
		"lon": "42.61365",
		"lat": "50.5484582",
		"number": "12",
		"street": "улица Центральная",
		"city": "Березовка 1-я",
		"district": "Новоаннинский муниципальный район",
		"postcode": "403976"
	},
	{
		"lon": "42.9544526",
		"lat": "50.4321817",
		"number": "7",
		"street": "улица Центральная",
		"city": "Бурнацкий",
		"district": "Новоаннинский муниципальный район",
		"postcode": "403991"
	},
	{
		"lon": "42.8668627",
		"lat": "50.3626438",
		"number": "11",
		"street": "улица Центральная",
		"city": "Троецкий",
		"district": "Новоаннинский муниципальный район",
		"postcode": "403996"
	},
	{
		"lon": "42.9171459",
		"lat": "50.4239231",
		"number": "2",
		"street": "улица Степная",
		"city": "\"с-за \"\"АМО\"\"\"",
		"district": "Новоаннинский муниципальный район",
		"postcode": "403991"
	},
	{
		"lon": "43.2986523",
		"lat": "50.7979685",
		"number": "53",
		"street": "улица Степная",
		"city": "Мачеха",
		"district": "Киквидзенский муниципальный район",
		"postcode": "403232"
	},
	{
		"lon": "43.2709202",
		"lat": "50.8808902",
		"number": "17",
		"street": "улица Заречная",
		"city": "Калиновский",
		"district": "Киквидзенский муниципальный район",
		"postcode": "403234"
	},
	{
		"lon": "43.0332629",
		"lat": "50.920484",
		"number": "4",
		"street": "улица Центральная",
		"city": "Алонцево",
		"district": "Киквидзенский муниципальный район",
		"postcode": "403228"
	},
	{
		"lon": "43.1794496",
		"lat": "50.605373",
		"number": "19/4",
		"street": "улица Молодежная",
		"city": "Крутой Лог",
		"district": "Киквидзенский муниципальный район",
		"postcode": "403211"
	},
	{
		"lon": "42.2821368",
		"lat": "50.5034796",
		"number": "12",
		"street": "улица Советская",
		"city": "Мартыновский",
		"district": "Новоаннинский муниципальный район",
		"postcode": "403972"
	},
	{
		"lon": "43.2095095",
		"lat": "51.0641417",
		"number": "3",
		"street": "улица советская",
		"city": "александровка",
		"district": "Киквидзенский муниципальный район",
		"postcode": "403236"
	},
	{
		"lon": "42.8794361",
		"lat": "50.3623126",
		"number": "16/1",
		"street": "улица Целинная",
		"city": "Троецкий",
		"district": "Новоаннинский муниципальный район",
		"postcode": "403996"
	},
	{
		"lon": "45.7756666",
		"lat": "50.6168247",
		"number": "45",
		"street": "улица Октябрьская",
		"city": "Красный Яр",
		"district": "Старополтавский муниципальный район",
		"postcode": "404222"
	},
	{
		"lon": "43.2174396",
		"lat": "51.0698282",
		"number": "25",
		"street": "улица школьная",
		"city": "александровка",
		"district": "Киквидзенский муниципальный район",
		"postcode": "403236"
	},
	{
		"lon": "45.7739928",
		"lat": "50.6154261",
		"number": "28",
		"street": "улица Советская",
		"city": "Красный Яр",
		"district": "Старополтавский муниципальный район",
		"postcode": "404222"
	},
	{
		"lon": "42.9270155",
		"lat": "50.7372456",
		"number": "77",
		"street": "улица Центральная",
		"city": "Дубровский",
		"district": "Киквидзенский муниципальный район",
		"postcode": "403225"
	},
	{
		"lon": "42.2855539",
		"lat": "50.503266",
		"number": "19",
		"street": "улица Советская",
		"city": "Мартыновский",
		"district": "Новоаннинский муниципальный район",
		"postcode": "403972"
	},
	{
		"lon": "45.4738281",
		"lat": "50.0321039",
		"number": "30/2",
		"street": "улица Пролетарская",
		"city": "Николаевск",
		"district": "Николаевский муниципальный район",
		"postcode": " "
	},
	{
		"lon": "42.9284291",
		"lat": "50.7336427",
		"number": "52",
		"street": "улица Набережная",
		"city": "Дубровский",
		"district": "Киквидзенский муниципальный район",
		"postcode": "403225"
	},
	{
		"lon": "45.4537231",
		"lat": "50.0291374",
		"number": "16кв. 1",
		"street": "улица Чернышевского",
		"city": "Николаевск",
		"district": "Николаевский муниципальный район",
		"postcode": " "
	},
	{
		"lon": "46.4883483",
		"lat": "50.4681176",
		"number": "3",
		"street": "улица Набережная",
		"city": "Старая Полтавка",
		"district": "Старополтавский муниципальный район",
		"postcode": "404211"
	},
	{
		"lon": "45.7741368",
		"lat": "50.6129344",
		"number": "9",
		"street": "улица Кооперативная",
		"city": "Красный Яр",
		"district": "Старополтавский муниципальный район",
		"postcode": "404222"
	},
	{
		"lon": "42.9311602",
		"lat": "50.7375376",
		"number": "78",
		"street": "улица Набережная",
		"city": "Дубровский",
		"district": "Киквидзенский муниципальный район",
		"postcode": "403225"
	},
	{
		"lon": "43.3227017",
		"lat": "50.8073886",
		"number": "13",
		"street": "улица Комсомольская",
		"city": "Мачеха",
		"district": "Киквидзенский муниципальный район",
		"postcode": "403232"
	},
	{
		"lon": "42.2777302",
		"lat": "50.5043511",
		"number": "1",
		"street": "улица Советская",
		"city": "Мартыновский",
		"district": "Новоаннинский муниципальный район",
		"postcode": "403972"
	},
	{
		"lon": "43.1178563",
		"lat": "50.3899314",
		"number": "13",
		"street": "улица Молодежная",
		"city": "Махиновский",
		"district": "Новоаннинский муниципальный район",
		"postcode": "403992"
	},
	{
		"lon": "42.8990155",
		"lat": "50.4019297",
		"number": "40",
		"street": "улица Степная",
		"city": "Панфилово",
		"district": "Новоаннинский муниципальный район",
		"postcode": "403990"
	},
	{
		"lon": "43.0327736",
		"lat": "50.7357433",
		"number": "2з",
		"street": "улица им. Н. Сухова",
		"city": "Преображенская",
		"district": "Киквидзенский муниципальный район",
		"postcode": "403221"
	},
	{
		"lon": "43.4621232",
		"lat": "47.9801381",
		"number": "3/2",
		"street": "улица Речная",
		"city": "Заливский",
		"district": "Октябрьский муниципальный район",
		"postcode": "404331"
	},
	{
		"lon": "46.4835076",
		"lat": "50.4740754",
		"number": "63",
		"street": "улица Центральная",
		"city": "Старая Полтавка",
		"district": "Старополтавский муниципальный район",
		"postcode": "404211"
	},
	{
		"lon": "42.7926196",
		"lat": "51.0089289",
		"number": "11",
		"street": "улица Зеленая",
		"city": "Хоперский",
		"district": "Новониколаевский муниципальный район",
		"postcode": "403912"
	},
	{
		"lon": "42.9170239",
		"lat": "50.4250522",
		"number": "9/2",
		"street": "улица Степная",
		"city": "\"с-за \"\"АМО\"\"\"",
		"district": "Новоаннинский муниципальный район",
		"postcode": "403991"
	},
	{
		"lon": "43.4512733",
		"lat": "47.9763427",
		"number": "32",
		"street": "улица Вишневая",
		"city": "Заливский",
		"district": "Октябрьский муниципальный район",
		"postcode": "404331"
	},
	{
		"lon": "42.6526776",
		"lat": "50.3837644",
		"number": "5/1",
		"street": "улица Торговая",
		"city": "Бочаровский",
		"district": "Новоаннинский муниципальный район",
		"postcode": "403965"
	},
	{
		"lon": "42.483902",
		"lat": "51.0520989",
		"number": "2",
		"street": "ЦЕНТРАЛЬНАЯ",
		"city": "ДВОЙНОВСКИЙ",
		"district": "Новониколаевский муниципальный район",
		"postcode": "403922"
	},
	{
		"lon": "42.5913725",
		"lat": "50.2849003",
		"number": "2",
		"street": "улица Степная",
		"city": "Сатаровский",
		"district": "Новоаннинский муниципальный район",
		"postcode": "403965"
	},
	{
		"lon": "42.8518983",
		"lat": "50.7458019",
		"number": "41",
		"street": "улица ЦЕНТРАЛЬНАЯ",
		"city": "ГАЛУШКИНСКИЙ",
		"district": "Новоаннинский муниципальный район",
		"postcode": "403982"
	},
	{
		"lon": "43.1751127",
		"lat": "50.6068943",
		"number": "5",
		"street": "улица Школьная",
		"city": "Крутой Лог",
		"district": "Киквидзенский муниципальный район",
		"postcode": "403211"
	},
	{
		"lon": "46.4837724",
		"lat": "50.4688122",
		"number": "14",
		"street": "улица Центральная",
		"city": "Старая Полтавка",
		"district": "Старополтавский муниципальный район",
		"postcode": "404211"
	},
	{
		"lon": "46.4861538",
		"lat": "50.4851264",
		"number": "150А",
		"street": "улица Центральная",
		"city": "Старая Полтавка",
		"district": "Старополтавский муниципальный район",
		"postcode": "404211"
	},
	{
		"lon": "42.5666837",
		"lat": "50.681514",
		"number": "56",
		"street": "улица Ленина",
		"city": "Черкесовский",
		"district": "Новоаннинский муниципальный район",
		"postcode": "403980"
	},
	{
		"lon": "42.868685",
		"lat": "50.3607358",
		"number": "4",
		"street": "переулок Казачий",
		"city": "Троецкий",
		"district": "Новоаннинский муниципальный район",
		"postcode": "403996"
	},
	{
		"lon": "42.5656717",
		"lat": "50.6910773",
		"number": "2",
		"street": "переулок Куйбышева",
		"city": "Черкесовский",
		"district": "Новоаннинский муниципальный район",
		"postcode": "403980"
	},
	{
		"lon": "42.9103662",
		"lat": "51.0392368",
		"number": "1/2",
		"street": "улица Рабочая",
		"city": "Красноармейский",
		"district": "Новониколаевский муниципальный район",
		"postcode": "403913"
	},
	{
		"lon": "42.9146307",
		"lat": "51.0404558",
		"number": "13/1",
		"street": "Рабочая",
		"city": "Красноармейский",
		"district": "Новониколаевский муниципальный район",
		"postcode": "403913"
	},
	{
		"lon": "42.9007916",
		"lat": "50.3654531",
		"number": "8/1",
		"street": "улица Ценральная",
		"city": "Труд рассвет",
		"district": "Новоаннинский муниципальный район",
		"postcode": "403996"
	},
	{
		"lon": "46.4853633",
		"lat": "50.4802055",
		"number": "112",
		"street": "улица Центральная",
		"city": "Старая Полтавка",
		"district": "Старополтавский муниципальный район",
		"postcode": "404211"
	},
	{
		"lon": "45.7759685",
		"lat": "50.6144319",
		"number": "22",
		"street": "улица Октябрьская",
		"city": "Красный Яр",
		"district": "Старополтавский муниципальный район",
		"postcode": "404222"
	},
	{
		"lon": "42.6802088",
		"lat": "50.4358812",
		"number": "2/1",
		"street": "улица Продольная",
		"city": "Кузнецовский",
		"district": "Новоаннинский муниципальный район",
		"postcode": "403965"
	},
	{
		"lon": "42.4516917",
		"lat": "51.0340229",
		"number": "29",
		"street": "улица НАБЕРЕЖНАЯ",
		"city": "ДВОЙНОВСКИЙ",
		"district": "Новониколаевский муниципальный район",
		"postcode": "403922"
	},
	{
		"lon": "42.6953925",
		"lat": "50.4346068",
		"number": "46/2",
		"street": "улица Продольная",
		"city": "Кузнецовский",
		"district": "Новоаннинский муниципальный район",
		"postcode": "403965"
	},
	{
		"lon": "42.9108259",
		"lat": "51.0450683",
		"number": "13/2",
		"street": "улица Сиреневая",
		"city": "Красноармейский",
		"district": "Новониколаевский муниципальный район",
		"postcode": "403913"
	},
	{
		"lon": "43.458199",
		"lat": "47.9791171",
		"number": "10",
		"street": "улица Цимлянская",
		"city": "Заливский",
		"district": "Октябрьский муниципальный район",
		"postcode": "404331"
	},
	{
		"lon": "42.9008419",
		"lat": "50.3983917",
		"number": "72",
		"street": "улица Ленинская",
		"city": "Панфилово",
		"district": "Новоаннинский муниципальный район",
		"postcode": "403990"
	},
	{
		"lon": "45.7679142",
		"lat": "50.6200099",
		"number": "57",
		"street": "улица Чапаева",
		"city": "Красный Яр",
		"district": "Старополтавский муниципальный район",
		"postcode": "404222"
	},
	{
		"lon": "42.6935214",
		"lat": "50.4342595",
		"number": "21",
		"street": "улица Чудесная",
		"city": "Кузнецовский",
		"district": "Новоаннинский муниципальный район",
		"postcode": "403965"
	},
	{
		"lon": "43.4569573",
		"lat": "47.9821196",
		"number": "30",
		"street": "улица Цимлянская",
		"city": "Заливский",
		"district": "Октябрьский муниципальный район",
		"postcode": "404331"
	},
	{
		"lon": "46.4854362",
		"lat": "50.4753666",
		"number": "47",
		"street": "улица им. Королева С.Л.",
		"city": "Старая Полтавка",
		"district": "Старополтавский муниципальный район",
		"postcode": "404211"
	},
	{
		"lon": "42.5375815",
		"lat": "50.8435294",
		"number": "23",
		"street": "улица Привокзальная",
		"city": "Куликовский",
		"district": "Новониколаевский муниципальный район",
		"postcode": "403930"
	},
	{
		"lon": "43.2050812",
		"lat": "50.9560649",
		"number": "2б",
		"street": "улица Центральная",
		"city": "Ежовка",
		"district": "Киквидзенский муниципальный район",
		"postcode": "403235"
	},
	{
		"lon": "42.7933829",
		"lat": "51.006968",
		"number": "9",
		"street": "Школьная",
		"city": "Хоперский",
		"district": "Новониколаевский муниципальный район",
		"postcode": "403912"
	},
	{
		"lon": "42.5353124",
		"lat": "50.8347213",
		"number": "13",
		"street": "улица Крестьянская",
		"city": "Куликовский",
		"district": "Новониколаевский муниципальный район",
		"postcode": "403930"
	},
	{
		"lon": "42.9099558",
		"lat": "51.0382734",
		"number": "5",
		"street": "переулок Заречный",
		"city": "Красноармейский",
		"district": "Новониколаевский муниципальный район",
		"postcode": "403913"
	},
	{
		"lon": "42.2987296",
		"lat": "50.4965516",
		"number": "39",
		"street": "улица Гуляевская",
		"city": "Мартыновский",
		"district": "Новоаннинский муниципальный район",
		"postcode": "403972"
	},
	{
		"lon": "42.6764138",
		"lat": "51.088115",
		"number": "16",
		"street": "Тополиная",
		"city": "Верхнекардаильский",
		"district": "Новониколаевский муниципальный район",
		"postcode": "403923"
	},
	{
		"lon": "42.9014887",
		"lat": "51.0470767",
		"number": "6/1",
		"street": "улица 8 Марта",
		"city": "Красноармейский",
		"district": "Новониколаевский муниципальный район",
		"postcode": "403913"
	},
	{
		"lon": "43.4114748",
		"lat": "47.9768469",
		"number": "14",
		"street": "улица Ленина",
		"city": "Водянский",
		"district": "Октябрьский муниципальный район",
		"postcode": "404325"
	},
	{
		"lon": "43.4095218",
		"lat": "47.9778014",
		"number": "12",
		"street": "улица Лазоревая",
		"city": "Водянский",
		"district": "Октябрьский муниципальный район",
		"postcode": "404325"
	},
	{
		"lon": "46.4868362",
		"lat": "50.4751638",
		"number": "63",
		"street": "улица Ерусланская",
		"city": "Старая Полтавка",
		"district": "Старополтавский муниципальный район",
		"postcode": "404211"
	},
	{
		"lon": "43.039913",
		"lat": "50.7426117",
		"number": "23",
		"street": "улица 50 лет Победы",
		"city": "Преображенская",
		"district": "Киквидзенский муниципальный район",
		"postcode": "403221"
	},
	{
		"lon": "42.4662018",
		"lat": "50.5161533",
		"number": "15",
		"street": "улица Центральная",
		"city": "Ярыженский",
		"district": "Новоаннинский муниципальный район",
		"postcode": "403975"
	},
	{
		"lon": "42.9033417",
		"lat": "50.4083475",
		"number": "25",
		"street": "улица ус. Плодосовхоза",
		"city": "Панфилово",
		"district": "Новоаннинский муниципальный район",
		"postcode": "403990"
	},
	{
		"lon": "43.4565263",
		"lat": "47.9845308",
		"number": "63",
		"street": "улица Цимлянская",
		"city": "Заливский",
		"district": "Октябрьский муниципальный район",
		"postcode": "404331"
	},
	{
		"lon": "43.1661893",
		"lat": "50.7674172",
		"number": "101",
		"street": "улица озёрная",
		"city": "Казарино",
		"district": "Киквидзенский муниципальный район",
		"postcode": "403230"
	},
	{
		"lon": "42.4668907",
		"lat": "50.5183866",
		"number": "3",
		"street": "улица Степная",
		"city": "Ярыженский",
		"district": "Новоаннинский муниципальный район",
		"postcode": "403975"
	},
	{
		"lon": "43.1747418",
		"lat": "50.7948723",
		"number": "127",
		"street": "улица Буденного",
		"city": "Семеновка",
		"district": "Киквидзенский муниципальный район",
		"postcode": "403231"
	},
	{
		"lon": "43.4549094",
		"lat": "47.9855242",
		"number": "20",
		"street": "улица Веселая",
		"city": "Заливский",
		"district": "Октябрьский муниципальный район",
		"postcode": "404331"
	},
	{
		"lon": "42.7387752",
		"lat": "50.4114869",
		"number": "2",
		"street": "улица Заречная",
		"city": "Гуляевский",
		"district": "Новоаннинский муниципальный район",
		"postcode": "403965"
	},
	{
		"lon": "42.9108877",
		"lat": "51.0480132",
		"number": "15",
		"street": "улица Школьная",
		"city": "Красноармейский",
		"district": "Новониколаевский муниципальный район",
		"postcode": "403913"
	},
	{
		"lon": "42.982169",
		"lat": "50.3654084",
		"number": "6",
		"street": "улица Молодежная",
		"city": "Новосельский",
		"district": "Новоаннинский муниципальный район",
		"postcode": "403995"
	},
	{
		"lon": "43.0128039",
		"lat": "50.7327415",
		"number": "153",
		"street": "улица Углянская",
		"city": "Преображенская",
		"district": "Киквидзенский муниципальный район",
		"postcode": "403221"
	},
	{
		"lon": "42.9834783",
		"lat": "50.3692818",
		"number": "13/1",
		"street": "улица Школьная",
		"city": "Новосельский",
		"district": "Новоаннинский муниципальный район",
		"postcode": "403995"
	},
	{
		"lon": "42.9328213",
		"lat": "50.4238632",
		"number": "31",
		"street": "улица Перевозинская",
		"city": "\"с-за \"\"АМО\"\"\"",
		"district": "Новоаннинский муниципальный район",
		"postcode": "403991"
	},
	{
		"lon": "42.5680711",
		"lat": "50.6857197",
		"number": "28",
		"street": "улица Ленина",
		"city": "Черкесовский",
		"district": "Новоаннинский муниципальный район",
		"postcode": "403980"
	},
	{
		"lon": "42.9074383",
		"lat": "51.0490254",
		"number": "9",
		"street": "улица Народная",
		"city": "Красноармейский",
		"district": "Новониколаевский муниципальный район",
		"postcode": "403913"
	},
	{
		"lon": "42.9844698",
		"lat": "50.3729139",
		"number": "26/2",
		"street": "улица Центральная",
		"city": "Новосельский",
		"district": "Новоаннинский муниципальный район",
		"postcode": "403995"
	},
	{
		"lon": "43.269924",
		"lat": "48.0074453",
		"number": "1",
		"street": "улица центральная",
		"city": "новоаксайский",
		"district": "Октябрьский муниципальный район",
		"postcode": "404332"
	},
	{
		"lon": "42.2298314",
		"lat": "48.4091819",
		"number": "13",
		"street": "улица Заречная",
		"city": "Чернышковский",
		"district": "Чернышковский муниципальный район",
		"postcode": "404462"
	},
	{
		"lon": "42.6843872",
		"lat": "48.1738752",
		"number": "1/1",
		"street": "улица 2я.гвардейская",
		"city": "тормосин",
		"district": "Чернышковский муниципальный район",
		"postcode": "404473"
	},
	{
		"lon": "44.0567898",
		"lat": "47.9884856",
		"number": "4",
		"street": "улица песчаная",
		"city": "шелестово",
		"district": "Октябрьский муниципальный район",
		"postcode": "404312"
	},
	{
		"lon": "44.0492378",
		"lat": "47.9808784",
		"number": "38",
		"street": "проспект калинина",
		"city": "шелестово",
		"district": "Октябрьский муниципальный район",
		"postcode": "404312"
	},
	{
		"lon": "42.241522",
		"lat": "48.4206599",
		"number": "12/2",
		"street": "улица Победы",
		"city": "Чернышковский",
		"district": "Чернышковский муниципальный район",
		"postcode": "404462"
	},
	{
		"lon": "42.682046",
		"lat": "48.1725477",
		"number": "5",
		"street": "улица ленина",
		"city": "тормосин",
		"district": "Чернышковский муниципальный район",
		"postcode": "404473"
	},
	{
		"lon": "42.2336023",
		"lat": "48.4228692",
		"number": "14а",
		"street": "улица им. 2-й Гвардейской Армии",
		"city": "Чернышковский",
		"district": "Чернышковский муниципальный район",
		"postcode": "404462"
	},
	{
		"lon": "42.2349469",
		"lat": "48.4295532",
		"number": "21/2",
		"street": "улица Техническая",
		"city": "Чернышковский",
		"district": "Чернышковский муниципальный район",
		"postcode": "404462"
	},
	{
		"lon": "42.2233908",
		"lat": "48.4272348",
		"number": "14",
		"street": "улица Пролетарская",
		"city": "Чернышковский",
		"district": "Чернышковский муниципальный район",
		"postcode": "404462"
	},
	{
		"lon": "42.219558",
		"lat": "48.4296621",
		"number": "45",
		"street": "улица Луговая",
		"city": "Чернышковский",
		"district": "Чернышковский муниципальный район",
		"postcode": "404462"
	},
	{
		"lon": "42.2283474",
		"lat": "48.4270183",
		"number": "2",
		"street": "улица Попова",
		"city": "Чернышковский",
		"district": "Чернышковский муниципальный район",
		"postcode": "404462"
	},
	{
		"lon": "42.2478479",
		"lat": "48.2517077",
		"number": "18",
		"street": "улица Московская",
		"city": "Верхнегнутов",
		"district": "Чернышковский муниципальный район",
		"postcode": "404482"
	},
	{
		"lon": "42.2490689",
		"lat": "48.2510269",
		"number": "17",
		"street": "улица Молодежная",
		"city": "Верхнегнутов",
		"district": "Чернышковский муниципальный район",
		"postcode": "404482"
	},
	{
		"lon": "42.2450398",
		"lat": "48.2489068",
		"number": "20",
		"street": "улица Советская",
		"city": "Верхнегнутов",
		"district": "Чернышковский муниципальный район",
		"postcode": "404482"
	},
	{
		"lon": "42.2067462",
		"lat": "48.4178956",
		"number": "20",
		"street": "улица Новая",
		"city": "Чернышковский",
		"district": "Чернышковский муниципальный район",
		"postcode": "404462"
	},
	{
		"lon": "42.2090986",
		"lat": "48.4189186",
		"number": "10/2",
		"street": "улица Новая",
		"city": "Чернышковский",
		"district": "Чернышковский муниципальный район",
		"postcode": "404462"
	},
	{
		"lon": "43.0408303",
		"lat": "49.3213027",
		"number": "7",
		"street": "улица Крестьянская",
		"city": "Поднижний",
		"district": "Клетский муниципальный район",
		"postcode": "403562"
	},
	{
		"lon": "44.0596939",
		"lat": "47.9943011",
		"number": "45",
		"street": "улица песчаная",
		"city": "шелестово",
		"district": "Октябрьский муниципальный район",
		"postcode": "404312"
	},
	{
		"lon": "42.218483",
		"lat": "48.4315803",
		"number": "73/1",
		"street": "улица Юбилейная",
		"city": "Чернышковский",
		"district": "Чернышковский муниципальный район",
		"postcode": "404462"
	},
	{
		"lon": "42.0253356",
		"lat": "48.0871059",
		"number": "16",
		"street": "улица Зеленая",
		"city": "Низянка",
		"district": "Чернышковский муниципальный район",
		"postcode": "404484"
	},
	{
		"lon": "43.3405061",
		"lat": "49.4021406",
		"number": "4",
		"street": "переулок 1 пер. степной",
		"city": "Перекопская",
		"district": "Клетский муниципальный район",
		"postcode": "403574"
	},
	{
		"lon": "42.2111647",
		"lat": "48.430414",
		"number": "104",
		"street": "улица Кузнечная",
		"city": "Чернышковский",
		"district": "Чернышковский муниципальный район",
		"postcode": "404462"
	},
	{
		"lon": "42.5601177",
		"lat": "49.2765653",
		"number": "24",
		"street": "улица Раздольная",
		"city": "Жирковский",
		"district": "Клетский муниципальный район",
		"postcode": "403554"
	},
	{
		"lon": "42.2145191",
		"lat": "48.423456",
		"number": "311",
		"street": "переулок Школьный",
		"city": "Чернышковский",
		"district": "Чернышковский муниципальный район",
		"postcode": "404462"
	},
	{
		"lon": "42.6700312",
		"lat": "48.1691089",
		"number": "20",
		"street": "улица тани.скоробогатовой",
		"city": "тормосин",
		"district": "Чернышковский муниципальный район",
		"postcode": "404473"
	},
	{
		"lon": "42.2119225",
		"lat": "48.4295716",
		"number": "90",
		"street": "улица Кузнечная",
		"city": "Чернышковский",
		"district": "Чернышковский муниципальный район",
		"postcode": "404462"
	},
	{
		"lon": "42.683575",
		"lat": "48.1678173",
		"number": "64",
		"street": "улица октябрьская",
		"city": "тормосин",
		"district": "Чернышковский муниципальный район",
		"postcode": "404473"
	},
	{
		"lon": "42.6701415",
		"lat": "48.1701234",
		"number": "13",
		"street": "улица тани.скоробогатовой",
		"city": "тормосин",
		"district": "Чернышковский муниципальный район",
		"postcode": "404473"
	},
	{
		"lon": "42.2295169",
		"lat": "48.4305872",
		"number": "142",
		"street": "улица Степная",
		"city": "Чернышковский",
		"district": "Чернышковский муниципальный район",
		"postcode": "404462"
	},
	{
		"lon": "42.2452166",
		"lat": "48.2478953",
		"number": "8",
		"street": "улица Пролетарская",
		"city": "Верхнегнутов",
		"district": "Чернышковский муниципальный район",
		"postcode": "404482"
	},
	{
		"lon": "42.6914595",
		"lat": "48.1628478",
		"number": "32",
		"street": "улица пролетарская",
		"city": "тормосин",
		"district": "Чернышковский муниципальный район",
		"postcode": "404473"
	},
	{
		"lon": "42.4358262",
		"lat": "48.0606635",
		"number": "5",
		"street": "улица Западная",
		"city": "Лозной",
		"district": "Чернышковский муниципальный район",
		"postcode": "404486"
	},
	{
		"lon": "42.6905571",
		"lat": "48.1667812",
		"number": "28",
		"street": "улица чапаева",
		"city": "тормосин",
		"district": "Фроловский муниципальный район",
		"postcode": "404473"
	},
	{
		"lon": "42.2195697",
		"lat": "48.427219",
		"number": "31",
		"street": "улица Партизанская",
		"city": "Чернышковский",
		"district": "Чернышковский муниципальный район",
		"postcode": "404462"
	},
	{
		"lon": "42.6893088",
		"lat": "48.166835",
		"number": "б/н",
		"street": "улица чапаева",
		"city": "тормосин",
		"district": "Чернышковский муниципальный район",
		"postcode": "404473"
	},
	{
		"lon": "42.2173143",
		"lat": "48.4174389",
		"number": "35/2",
		"street": "улица Садовая",
		"city": "Чернышковский",
		"district": "Чернышковский муниципальный район",
		"postcode": "404462"
	},
	{
		"lon": "42.6908029",
		"lat": "48.1670013",
		"number": "27",
		"street": "улица чапаева",
		"city": "тормосин",
		"district": "Чернышковский муниципальный район",
		"postcode": "404473"
	},
	{
		"lon": "42.1788838",
		"lat": "48.2396222",
		"number": "11/1",
		"street": "улица Колхозная",
		"city": "Гладков",
		"district": "Чернышковский муниципальный район",
		"postcode": "404484"
	},
	{
		"lon": "42.2210096",
		"lat": "48.4163157",
		"number": "10б",
		"street": "улица Паршина",
		"city": "Чернышковский",
		"district": "Чернышковский муниципальный район",
		"postcode": "404462"
	},
	{
		"lon": "42.2234457",
		"lat": "48.4224867",
		"number": "35А",
		"street": "улица Цимлянская",
		"city": "Чернышковский",
		"district": "Чернышковский муниципальный район",
		"postcode": "404462"
	},
	{
		"lon": "42.2494059",
		"lat": "48.2444356",
		"number": "6/2",
		"street": "улица Октябрьская",
		"city": "Верхнегнутов",
		"district": "Чернышковский муниципальный район",
		"postcode": "404482"
	},
	{
		"lon": "42.1254903",
		"lat": "48.0893213",
		"number": "6/1",
		"street": "улица Отрадная",
		"city": "Россошанский",
		"district": "Чернышковский муниципальный район",
		"postcode": "404484"
	},
	{
		"lon": "44.7066516",
		"lat": "48.7701663",
		"number": "3",
		"street": "переулок Банный",
		"city": "Лебяжья Поляна",
		"district": "Среднеахтубинский муниципальный район",
		"postcode": "404150"
	},
	{
		"lon": "42.2273054",
		"lat": "48.4206661",
		"number": "3",
		"street": "улица Советская",
		"city": "Чернышковский",
		"district": "Чернышковский муниципальный район",
		"postcode": "404462"
	},
	{
		"lon": "45.0680114",
		"lat": "49.347853",
		"number": "9",
		"street": "улица Набережная",
		"city": "Луговая Пролейка",
		"district": "Быковский муниципальный район",
		"postcode": "404075"
	},
	{
		"lon": "44.7039771",
		"lat": "48.7689177",
		"number": "6",
		"street": "улица Широкая",
		"city": "Лебяжья Поляна",
		"district": "Среднеахтубинский муниципальный район",
		"postcode": "404150"
	},
	{
		"lon": "44.774974",
		"lat": "49.9978206",
		"number": "25",
		"street": "улица Пролетарская",
		"city": "Рыбинкка",
		"district": "Ольховский муниципальный район",
		"postcode": "403661"
	},
	{
		"lon": "45.304485",
		"lat": "49.0799286",
		"number": "3\\1",
		"street": "улица Мира",
		"city": "Красный Октябрь",
		"district": "Среднеахтубинский муниципальный район",
		"postcode": "404149"
	},
	{
		"lon": "45.0380139",
		"lat": "49.9721078",
		"number": "72",
		"street": "улица Центральная",
		"city": "Таловка",
		"district": "Камышинский муниципальный район",
		"postcode": "403854"
	},
	{
		"lon": "44.730752",
		"lat": "48.763321",
		"number": "16",
		"street": "улица Веселая",
		"city": "Кировец",
		"district": "Среднеахтубинский муниципальный район",
		"postcode": "404150"
	},
	{
		"lon": "45.3046051",
		"lat": "49.0787148",
		"number": "7\\2",
		"street": "улица Центральная",
		"city": "Красный Октябрь",
		"district": "Среднеахтубинский муниципальный район",
		"postcode": "404149"
	},
	{
		"lon": "44.7315082",
		"lat": "48.757775",
		"number": "13",
		"street": "улица Коммунистическая",
		"city": "Кировец",
		"district": "Среднеахтубинский муниципальный район",
		"postcode": "404150"
	},
	{
		"lon": "45.0376618",
		"lat": "49.9680783",
		"number": "33",
		"street": "улица Молодежная",
		"city": "Таловка",
		"district": "Камышинский муниципальный район",
		"postcode": "403854"
	},
	{
		"lon": "42.2398564",
		"lat": "48.4124201",
		"number": "18",
		"street": "улица Молодежная",
		"city": "Чернышковский",
		"district": "Чернышковский муниципальный район",
		"postcode": "404462"
	},
	{
		"lon": "42.2443645",
		"lat": "48.4144001",
		"number": "30",
		"street": "улица Южная",
		"city": "Чернышковский",
		"district": "Чернышковский муниципальный район",
		"postcode": "404462"
	},
	{
		"lon": "44.7011079",
		"lat": "48.7690748",
		"number": "8",
		"street": "улица Мичурина",
		"city": "Лебяжья Поляна",
		"district": "Среднеахтубинский муниципальный район",
		"postcode": "404150"
	},
	{
		"lon": "44.7389657",
		"lat": "48.7367189",
		"number": "11",
		"street": "улица центральная",
		"city": "Тутов",
		"district": "Среднеахтубинский муниципальный район",
		"postcode": "404143"
	},
	{
		"lon": "44.6965642",
		"lat": "48.7725919",
		"number": "27/1",
		"street": "улица Приканальная",
		"city": "Лебяжья Поляна",
		"district": "Среднеахтубинский муниципальный район",
		"postcode": "404150"
	},
	{
		"lon": "44.69838",
		"lat": "48.7700426",
		"number": "9",
		"street": "улица Советская",
		"city": "Лебяжья Поляна",
		"district": "Среднеахтубинский муниципальный район",
		"postcode": "404150"
	},
	{
		"lon": "44.6998516",
		"lat": "48.7686049",
		"number": "5",
		"street": "улица Дубовая",
		"city": "Лебяжья Поляна",
		"district": "Среднеахтубинский муниципальный район",
		"postcode": "404150"
	},
	{
		"lon": "45.0219079",
		"lat": "49.2618522",
		"number": "37",
		"street": "переулок Первомайский",
		"city": "Приморск",
		"district": "Быковский муниципальный район",
		"postcode": "404070"
	},
	{
		"lon": "42.6881078",
		"lat": "48.1815322",
		"number": "133",
		"street": "улица гагарина",
		"city": "тормосин",
		"district": "Чернышковский муниципальный район",
		"postcode": "404473"
	},
	{
		"lon": "44.4035487",
		"lat": "50.0687037",
		"number": "13/2",
		"street": "улица Молодежная",
		"city": "Гурово",
		"district": "Ольховский муниципальный район",
		"postcode": "403666"
	},
	{
		"lon": "45.0199337",
		"lat": "49.2572848",
		"number": "2/3",
		"street": "улица Портовая",
		"city": "Приморск",
		"district": "Быковский муниципальный район",
		"postcode": "404070"
	},
	{
		"lon": "44.7026182",
		"lat": "48.7263651",
		"number": "18",
		"street": "улица Шоссейная",
		"city": "Красный Буксир",
		"district": "Среднеахтубинский муниципальный район",
		"postcode": "404157"
	},
	{
		"lon": "44.7388067",
		"lat": "48.7421939",
		"number": "2",
		"street": "улица луговая",
		"city": "Тутов",
		"district": "Среднеахтубинский муниципальный район",
		"postcode": "404143"
	},
	{
		"lon": "45.2150679",
		"lat": "50.1683661",
		"number": "18",
		"street": "улица Кирова",
		"city": "Лебяжье",
		"district": "Камышинский муниципальный район",
		"postcode": "403842"
	},
	{
		"lon": "44.6993486",
		"lat": "48.7536313",
		"number": "1",
		"street": "улица Центральная",
		"city": "Тырлы",
		"district": "Среднеахтубинский муниципальный район",
		"postcode": "404150"
	},
	{
		"lon": "44.6923053",
		"lat": "48.7676238",
		"number": "11",
		"street": "улица Титова",
		"city": "Лебяжья Поляна",
		"district": "Среднеахтубинский муниципальный район",
		"postcode": "404150"
	},
	{
		"lon": "44.7109414",
		"lat": "48.720422",
		"number": "31",
		"street": "улица Центральная",
		"city": "Красный Буксир",
		"district": "Среднеахтубинский муниципальный район",
		"postcode": "404157"
	},
	{
		"lon": "44.6481316",
		"lat": "48.7618669",
		"number": "9/2",
		"street": "улица Центральная",
		"city": "Рыбоводный",
		"district": "Среднеахтубинский муниципальный район",
		"postcode": "404150"
	},
	{
		"lon": "44.7087224",
		"lat": "48.7261967",
		"number": "10",
		"street": "улица Садовая",
		"city": "Красный Буксир",
		"district": "Среднеахтубинский муниципальный район",
		"postcode": "404157"
	},
	{
		"lon": "44.6990838",
		"lat": "48.7367635",
		"number": "7",
		"street": "улица Центральная",
		"city": "Зональный",
		"district": "Среднеахтубинский муниципальный район",
		"postcode": "404157"
	},
	{
		"lon": "44.7088839",
		"lat": "48.750171",
		"number": "25/2",
		"street": "улица Есенина",
		"city": "Третья Карта",
		"district": "Среднеахтубинский муниципальный район",
		"postcode": "404150"
	},
	{
		"lon": "43.6101116",
		"lat": "50.9648494",
		"number": "17",
		"street": "улица Ленинская",
		"city": "Дубовое",
		"district": "Еланский муниципальный район",
		"postcode": "403711"
	},
	{
		"lon": "45.0310473",
		"lat": "49.2629257",
		"number": "25",
		"street": "улица Чапаева",
		"city": "Приморск",
		"district": "Быковский муниципальный район",
		"postcode": "404070"
	},
	{
		"lon": "45.5362764",
		"lat": "49.3779274",
		"number": "5/1",
		"street": "улица Молодежная",
		"city": "Катричев",
		"district": "Быковский муниципальный район",
		"postcode": "404073"
	},
	{
		"lon": "42.8640303",
		"lat": "48.2268318",
		"number": "6",
		"street": "улица Садовая",
		"city": "Водяновский",
		"district": "Чернышковский муниципальный район",
		"postcode": "404477"
	},
	{
		"lon": "45.5443174",
		"lat": "49.3816858",
		"number": "10",
		"street": "улица Гагарина",
		"city": "Катричев",
		"district": "Быковский муниципальный район",
		"postcode": "404073"
	},
	{
		"lon": "45.5431432",
		"lat": "49.3815795",
		"number": "12",
		"street": "улица Шмарова",
		"city": "Катричев",
		"district": "Быковский муниципальный район",
		"postcode": "404073"
	},
	{
		"lon": "45.5728941",
		"lat": "49.3776401",
		"number": "5",
		"street": "улица Восточная",
		"city": "Катричев",
		"district": "Быковский муниципальный район",
		"postcode": "404073"
	},
	{
		"lon": "44.7091547",
		"lat": "48.7511",
		"number": "3/2",
		"street": "улица Лесная",
		"city": "Третья Карта",
		"district": "Среднеахтубинский муниципальный район",
		"postcode": "404150"
	},
	{
		"lon": "44.6734735",
		"lat": "48.7548766",
		"number": "33",
		"street": "улица Первомайская",
		"city": "Приканальный",
		"district": "Среднеахтубинский муниципальный район",
		"postcode": "404150"
	},
	{
		"lon": "44.6585452",
		"lat": "48.747921",
		"number": "10",
		"street": "улица Бородинская",
		"city": "Старенький",
		"district": "Среднеахтубинский муниципальный район",
		"postcode": "404150"
	},
	{
		"lon": "44.6522871",
		"lat": "48.7468754",
		"number": "20",
		"street": "улица Школьная",
		"city": "Старенький",
		"district": "Среднеахтубинский муниципальный район",
		"postcode": "404150"
	},
	{
		"lon": "44.7186666",
		"lat": "48.7497359",
		"number": "8",
		"street": "улица Полевая",
		"city": "Третья Карта",
		"district": "Среднеахтубинский муниципальный район",
		"postcode": "404150"
	},
	{
		"lon": "44.714586",
		"lat": "48.5767127",
		"number": "24/1",
		"street": "улица Новая",
		"city": "Пламенка",
		"district": "Среднеахтубинский муниципальный район",
		"postcode": "404155"
	},
	{
		"lon": "44.7133341",
		"lat": "48.7513997",
		"number": "18",
		"street": "улица Историческая",
		"city": "Третья Карта",
		"district": "Среднеахтубинский муниципальный район",
		"postcode": "404150"
	},
	{
		"lon": "44.7146518",
		"lat": "48.755122",
		"number": "10",
		"street": "улица Степная",
		"city": "Третья Карта",
		"district": "Среднеахтубинский муниципальный район",
		"postcode": "404150"
	},
	{
		"lon": "44.7634753",
		"lat": "49.9847464",
		"number": "15",
		"street": "улица Центральная",
		"city": "Рыбинка",
		"district": "Ольховский муниципальный район",
		"postcode": "403661"
	},
	{
		"lon": "44.7183121",
		"lat": "48.572753",
		"number": "2/1",
		"street": "улица Старая",
		"city": "Пламенка",
		"district": "Среднеахтубинский муниципальный район",
		"postcode": "404155"
	},
	{
		"lon": "44.7111925",
		"lat": "48.5772297",
		"number": "6",
		"street": "улица Новая",
		"city": "Пламенка",
		"district": "Среднеахтубинский муниципальный район",
		"postcode": "404155"
	},
	{
		"lon": "45.6496764",
		"lat": "50.3730026",
		"number": "69а",
		"street": "улица Советская",
		"city": "Верхняя Добринка",
		"district": "Камышинский муниципальный район",
		"postcode": "403863"
	},
	{
		"lon": "45.6549367",
		"lat": "50.3672738",
		"number": "2",
		"street": "улица Школьная",
		"city": "Верхняя Добринка",
		"district": "Камышинский муниципальный район",
		"postcode": "403863"
	},
	{
		"lon": "44.7142661",
		"lat": "48.750926",
		"number": "27",
		"street": "улица Заречная",
		"city": "Третья Карта",
		"district": "Среднеахтубинский муниципальный район",
		"postcode": "404150"
	},
	{
		"lon": "44.7217884",
		"lat": "48.5520717",
		"number": "8",
		"street": "улица Пролетарская",
		"city": "Кривуша",
		"district": "Среднеахтубинский муниципальный район",
		"postcode": "404155"
	},
	{
		"lon": "43.6172912",
		"lat": "50.9577251",
		"number": "12",
		"street": "улица озерная",
		"city": "дубовое",
		"district": "Еланский муниципальный район",
		"postcode": "403711"
	},
	{
		"lon": "44.69581",
		"lat": "48.5958274",
		"number": "24а",
		"street": "улица набережная",
		"city": "клетский",
		"district": "Среднеахтубинский муниципальный район",
		"postcode": "404156"
	},
	{
		"lon": "44.7229765",
		"lat": "48.5510677",
		"number": "16",
		"street": "улица Протасова",
		"city": "Кривуша",
		"district": "Среднеахтубинский муниципальный район",
		"postcode": "404155"
	},
	{
		"lon": "44.4960303",
		"lat": "50.623456",
		"number": "12",
		"street": "улица Григорьева",
		"city": "Лопуховка",
		"district": "Руднянский муниципальный район",
		"postcode": "403615"
	},
	{
		"lon": "44.700577",
		"lat": "48.5946364",
		"number": "39",
		"street": "улица набережная",
		"city": "клетский",
		"district": "Среднеахтубинский муниципальный район",
		"postcode": "404156"
	},
	{
		"lon": "44.7976449",
		"lat": "48.55176",
		"number": "2/1",
		"street": "улица новостройка",
		"city": "Репино",
		"district": "Среднеахтубинский муниципальный район",
		"postcode": "404156"
	},
	{
		"lon": "44.6274874",
		"lat": "48.6234058",
		"number": "2",
		"street": "улица центральная",
		"city": "тумак",
		"district": "Среднеахтубинский муниципальный район",
		"postcode": "404154"
	},
	{
		"lon": "45.2156815",
		"lat": "50.1734959",
		"number": "79",
		"street": "улица Садовая",
		"city": "Лебяжье",
		"district": "Камышинский муниципальный район",
		"postcode": "403842"
	},
	{
		"lon": "45.2145526",
		"lat": "50.1742718",
		"number": "64 а",
		"street": "улица Садовая",
		"city": "Лебяжье",
		"district": "Камышинский муниципальный район",
		"postcode": "403842"
	},
	{
		"lon": "45.2116839",
		"lat": "50.1735029",
		"number": "44а",
		"street": "улица Кирова",
		"city": "Лебяжье",
		"district": "Камышинский муниципальный район",
		"postcode": "403842"
	},
	{
		"lon": "45.2097323",
		"lat": "50.1708925",
		"number": "45",
		"street": "улица Калинина",
		"city": "Лебяжье",
		"district": "Камышинский муниципальный район",
		"postcode": "403842"
	},
	{
		"lon": "45.2090434",
		"lat": "50.1700474",
		"number": "22",
		"street": "улица Калинина",
		"city": "Лебяжье",
		"district": "Камышинский муниципальный район",
		"postcode": "403842"
	},
	{
		"lon": "45.2074855",
		"lat": "50.1696358",
		"number": "3",
		"street": "улица Гражданская",
		"city": "Лебяжье",
		"district": "Камышинский муниципальный район",
		"postcode": "403842"
	},
	{
		"lon": "44.7921921",
		"lat": "48.5532132",
		"number": "8",
		"street": "улица Набережная",
		"city": "Репино",
		"district": "Среднеахтубинский муниципальный район",
		"postcode": "404156"
	},
	{
		"lon": "44.7217236",
		"lat": "48.59338",
		"number": "83",
		"street": "улица приканальная",
		"city": "клетский",
		"district": "Среднеахтубинский муниципальный район",
		"postcode": "404156"
	},
	{
		"lon": "42.8302034",
		"lat": "51.1821948",
		"number": "19",
		"street": "народная",
		"city": "Мирный",
		"district": "Новониколаевский муниципальный район",
		"postcode": "403907"
	},
	{
		"lon": "44.8114663",
		"lat": "50.8653966",
		"number": "16",
		"street": "Микрорайон Южный",
		"city": "Линёво",
		"district": "Жирновский муниципальный район",
		"postcode": "403770"
	},
	{
		"lon": "44.4154377",
		"lat": "50.0746618",
		"number": "21",
		"street": "улица Заречная",
		"city": "Гурово",
		"district": "Ольховский муниципальный район",
		"postcode": "403666"
	},
	{
		"lon": "44.8289472",
		"lat": "50.8854722",
		"number": "16",
		"street": "улица Комсомольская",
		"city": "Линёво",
		"district": "Жирновский муниципальный район",
		"postcode": "403770"
	},
	{
		"lon": "44.8268817",
		"lat": "50.8849155",
		"number": "25",
		"street": "улица Октябрьская",
		"city": "Линёво",
		"district": "Жирновский муниципальный район",
		"postcode": "403770"
	},
	{
		"lon": "44.8293405",
		"lat": "50.8862281",
		"number": "6",
		"street": "улица Комсомольская",
		"city": "Линёво",
		"district": "Жирновский муниципальный район",
		"postcode": "403770"
	},
	{
		"lon": "44.8233256",
		"lat": "50.881139",
		"number": "68",
		"street": "улица Октябрьская",
		"city": "Линёво",
		"district": "Жирновский муниципальный район",
		"postcode": "403770"
	},
	{
		"lon": "44.8204767",
		"lat": "50.8919828",
		"number": "35",
		"street": "улица Калинина",
		"city": "Линёво",
		"district": "Жирновский муниципальный район",
		"postcode": "403770"
	},
	{
		"lon": "45.2871017",
		"lat": "50.1140757",
		"number": "5",
		"street": "улица Новая",
		"city": "Средняя Камышинка",
		"district": "Камышинский муниципальный район",
		"postcode": "403882"
	},
	{
		"lon": "45.2520306",
		"lat": "50.1216477",
		"number": "26",
		"street": "улица Центральная",
		"city": "Грязнуха",
		"district": "Камышинский муниципальный район",
		"postcode": "403882"
	},
	{
		"lon": "44.8229997",
		"lat": "50.8954456",
		"number": "9",
		"street": "улица К.Либкнехта",
		"city": "Линёво",
		"district": "Жирновский муниципальный район",
		"postcode": "403770"
	},
	{
		"lon": "44.8264063",
		"lat": "50.8913335",
		"number": "63",
		"street": "улица Карла Маркса",
		"city": "Линёво",
		"district": "Жирновский муниципальный район",
		"postcode": "403770"
	},
	{
		"lon": "44.8233937",
		"lat": "50.8794134",
		"number": "80",
		"street": "улица Октябрьская",
		"city": "Линёво",
		"district": "Жирновский муниципальный район",
		"postcode": "403770"
	},
	{
		"lon": "44.8204861",
		"lat": "50.8762831",
		"number": "123",
		"street": "улица Ленина",
		"city": "Линёво",
		"district": "Жирновский муниципальный район",
		"postcode": "403770"
	},
	{
		"lon": "45.275318",
		"lat": "48.689482",
		"number": "1",
		"street": "улица Лиманная",
		"city": "Маляевка",
		"district": "Ленинский муниципальный район",
		"postcode": "404610"
	},
	{
		"lon": "45.2723141",
		"lat": "48.6904593",
		"number": "5",
		"street": "улица Молодежная",
		"city": "Маляевка",
		"district": "Ленинский муниципальный район",
		"postcode": "404610"
	},
	{
		"lon": "45.2880081",
		"lat": "48.6856995",
		"number": "9",
		"street": "улица Новая",
		"city": "Маляевка",
		"district": "Ленинский муниципальный район",
		"postcode": "404610"
	},
	{
		"lon": "45.2825235",
		"lat": "48.684413",
		"number": "32",
		"street": "улица Советская",
		"city": "Маляевка",
		"district": "Ленинский муниципальный район",
		"postcode": "404610"
	},
	{
		"lon": "45.2813621",
		"lat": "48.6810639",
		"number": "68",
		"street": "улица Комбинатская",
		"city": "Маляевка",
		"district": "Ленинский муниципальный район",
		"postcode": "404610"
	},
	{
		"lon": "45.285555",
		"lat": "48.681083",
		"number": "31",
		"street": "улица Колхозная",
		"city": "Маляевка",
		"district": "Ленинский муниципальный район",
		"postcode": "404610"
	},
	{
		"lon": "45.1455435",
		"lat": "48.7121375",
		"number": "73",
		"street": "улица Халтурина",
		"city": "Бахтияровка",
		"district": "Ленинский муниципальный район",
		"postcode": "404617"
	},
	{
		"lon": "45.136974",
		"lat": "48.71417",
		"number": "31",
		"street": "улица Гагарина",
		"city": "Бахтияровка",
		"district": "Ленинский муниципальный район",
		"postcode": "404617"
	},
	{
		"lon": "45.3653305",
		"lat": "48.6610715",
		"number": "6а",
		"street": "улица Набережная",
		"city": "Царев",
		"district": "Ленинский муниципальный район",
		"postcode": "404611"
	},
	{
		"lon": "45.13036",
		"lat": "48.715006",
		"number": "8",
		"street": "улица Гагарина",
		"city": "Бахтияровка",
		"district": "Ленинский муниципальный район",
		"postcode": "404617"
	},
	{
		"lon": "45.143258",
		"lat": "48.7145702",
		"number": "9",
		"street": "улица Лермонтова",
		"city": "Бахтияровка",
		"district": "Ленинский муниципальный район",
		"postcode": "404617"
	},
	{
		"lon": "45.3084723",
		"lat": "48.4520657",
		"number": "10",
		"street": "улица Молодежная",
		"city": "Каршевитое",
		"district": "Ленинский муниципальный район",
		"postcode": "404614"
	},
	{
		"lon": "45.3159141",
		"lat": "48.4560837",
		"number": "60",
		"street": "улица Центральная",
		"city": "Каршевитое",
		"district": "Ленинский муниципальный район",
		"postcode": "404614"
	},
	{
		"lon": "45.3055892",
		"lat": "48.4535998",
		"number": "11",
		"street": "улица Заречная",
		"city": "Каршевитое",
		"district": "Ленинский муниципальный район",
		"postcode": "404614"
	},
	{
		"lon": "45.3764432",
		"lat": "48.4741804",
		"number": "51",
		"street": "улица Дачная",
		"city": "Глухой",
		"district": "Ленинский муниципальный район",
		"postcode": "404614"
	},
	{
		"lon": "45.4520498",
		"lat": "48.6615322",
		"number": "4/2",
		"street": "улица Ломоносова",
		"city": "Колобовка",
		"district": "Ленинский муниципальный район",
		"postcode": "404613"
	},
	{
		"lon": "45.4526247",
		"lat": "48.6579265",
		"number": "10",
		"street": "улица Ленина",
		"city": "Колобовка",
		"district": "Ленинский муниципальный район",
		"postcode": "404613"
	},
	{
		"lon": "45.4642957",
		"lat": "48.6539592",
		"number": "111",
		"street": "улица Ленина",
		"city": "Колобовка",
		"district": "Ленинский муниципальный район",
		"postcode": "404613"
	},
	{
		"lon": "45.4614167",
		"lat": "48.6567652",
		"number": "32",
		"street": "улица Комсомольская",
		"city": "Колобовка",
		"district": "Ленинский муниципальный район",
		"postcode": "404613"
	},
	{
		"lon": "45.3173252",
		"lat": "48.872384",
		"number": "5",
		"street": "улица Дорожная",
		"city": "Коммунар",
		"district": "Ленинский муниципальный район",
		"postcode": "404607"
	},
	{
		"lon": "45.3158515",
		"lat": "48.8752355",
		"number": "9/3",
		"street": "улица Октябрьская",
		"city": "Коммунар",
		"district": "Ленинский муниципальный район",
		"postcode": "404607"
	},
	{
		"lon": "45.3172555",
		"lat": "48.8781839",
		"number": "17",
		"street": "улица Молодежная",
		"city": "Коммунар",
		"district": "Ленинский муниципальный район",
		"postcode": "404607"
	},
	{
		"lon": "45.3129855",
		"lat": "48.879079",
		"number": "2/1",
		"street": "улица Коммунистическая",
		"city": "Коммунар",
		"district": "Ленинский муниципальный район",
		"postcode": "404607"
	},
	{
		"lon": "45.3185785",
		"lat": "48.879754",
		"number": "23/2",
		"street": "улица Коммунистическая",
		"city": "Коммунар",
		"district": "Ленинский муниципальный район",
		"postcode": "404607"
	},
	{
		"lon": "45.314605",
		"lat": "48.878195",
		"number": "8/1",
		"street": "улица Пионерская",
		"city": "Коммунар",
		"district": "Ленинский муниципальный район",
		"postcode": "404607"
	},
	{
		"lon": "45.0397693",
		"lat": "48.4749359",
		"number": "6",
		"street": "улица Речная",
		"city": "Покровка",
		"district": "Ленинский муниципальный район",
		"postcode": "404615"
	},
	{
		"lon": "45.0436289",
		"lat": "48.4765432",
		"number": "12/1",
		"street": "переулок Почтовый",
		"city": "покровка",
		"district": "Ленинский муниципальный район",
		"postcode": "404615"
	},
	{
		"lon": "45.0483957",
		"lat": "48.4828096",
		"number": "7",
		"street": "улица Вербная",
		"city": "Покровка",
		"district": "Ленинский муниципальный район",
		"postcode": "404615"
	},
	{
		"lon": "45.1177514",
		"lat": "48.4866606",
		"number": "20",
		"street": "улица Волжская",
		"city": "Булгаков",
		"district": "Ленинский муниципальный район",
		"postcode": "404618"
	},
	{
		"lon": "44.9426469",
		"lat": "48.5033944",
		"number": "7",
		"street": "переулок Трудовый",
		"city": "Лещев",
		"district": "Ленинский муниципальный район",
		"postcode": "404616"
	},
	{
		"lon": "44.9461398",
		"lat": "48.5008827",
		"number": "9",
		"street": "улица Гвардейская",
		"city": "Лещев",
		"district": "Ленинский муниципальный район",
		"postcode": "404616"
	},
	{
		"lon": "45.0783362",
		"lat": "48.5038841",
		"number": "15",
		"street": "улица Центральная",
		"city": "Степана Разина",
		"district": "Ленинский муниципальный район",
		"postcode": "404618"
	},
	{
		"lon": "45.5692736",
		"lat": "48.9708184",
		"number": "4",
		"street": "переулок Садовый",
		"city": "Путь Ильича",
		"district": "Ленинский муниципальный район",
		"postcode": "404603"
	},
	{
		"lon": "45.568264",
		"lat": "48.9673885",
		"number": "3/2",
		"street": "улица Ключевая",
		"city": "Путь Ильича",
		"district": "Ленинский муниципальный район",
		"postcode": "404603"
	},
	{
		"lon": "45.5596583",
		"lat": "48.9714045",
		"number": "9",
		"street": "улица Приканальная",
		"city": "Путь Ильича",
		"district": "Ленинский муниципальный район",
		"postcode": "404603"
	},
	{
		"lon": "45.570682",
		"lat": "48.9663085",
		"number": "10/2",
		"street": "улица Степная",
		"city": "Путь Ильича",
		"district": "Ленинский муниципальный район",
		"postcode": "404603"
	},
	{
		"lon": "45.5911537",
		"lat": "48.9336177",
		"number": "55",
		"street": "улица добровольского",
		"city": "Степной",
		"district": "Ленинский муниципальный район",
		"postcode": "404602"
	},
	{
		"lon": "45.5921638",
		"lat": "48.9302895",
		"number": "9",
		"street": "улица Зеленая",
		"city": "Степной",
		"district": "Ленинский муниципальный район",
		"postcode": "404602"
	},
	{
		"lon": "45.5967043",
		"lat": "48.9269175",
		"number": "23",
		"street": "улица Добровольского",
		"city": "Степной",
		"district": "Ленинский муниципальный район",
		"postcode": "404602"
	},
	{
		"lon": "45.5962488",
		"lat": "48.9301225",
		"number": "17/2",
		"street": "улица Колхозная",
		"city": "Степной",
		"district": "Ленинский муниципальный район",
		"postcode": "404602"
	},
	{
		"lon": "45.5333895",
		"lat": "48.8027267",
		"number": "2/1",
		"street": "улица Пионерская",
		"city": "Заря",
		"district": "Ленинский муниципальный район",
		"postcode": "404601"
	},
	{
		"lon": "45.3816188",
		"lat": "48.663649",
		"number": "24",
		"street": "улица Гагарина",
		"city": "Царев",
		"district": "Ленинский муниципальный район",
		"postcode": "404611"
	},
	{
		"lon": "45.369191",
		"lat": "48.662628",
		"number": "29",
		"street": "улица Матросова",
		"city": "Царев",
		"district": "Ленинский муниципальный район",
		"postcode": "404611"
	},
	{
		"lon": "45.370706",
		"lat": "48.668024",
		"number": "15",
		"street": "улица Ленина",
		"city": "Царев",
		"district": "Ленинский муниципальный район",
		"postcode": "404611"
	},
	{
		"lon": "45.3818985",
		"lat": "48.6649045",
		"number": "15/2",
		"street": "переулок Спортивный",
		"city": "Царев",
		"district": "Ленинский муниципальный район",
		"postcode": "404611"
	},
	{
		"lon": "45.3792019",
		"lat": "48.6624398",
		"number": "4/1",
		"street": "улица Ломакина",
		"city": "Царев",
		"district": "Ленинский муниципальный район",
		"postcode": "404611"
	},
	{
		"lon": "45.3818592",
		"lat": "48.6631682",
		"number": "25",
		"street": "улица Гагарина",
		"city": "Царев",
		"district": "Ленинский муниципальный район",
		"postcode": "404611"
	},
	{
		"lon": "45.375665",
		"lat": "48.666857",
		"number": "14",
		"street": "улица Ленина",
		"city": "Царев",
		"district": "Ленинский муниципальный район",
		"postcode": "4046011"
	},
	{
		"lon": "45.3919837",
		"lat": "48.672007",
		"number": "14",
		"street": "улица Комарова",
		"city": "Солодовка",
		"district": "Ленинский муниципальный район",
		"postcode": "404612"
	},
	{
		"lon": "45.3861692",
		"lat": "48.6701652",
		"number": "3",
		"street": "улица Коммунистическая",
		"city": "Сарай",
		"district": "Ленинский муниципальный район",
		"postcode": "404612"
	},
	{
		"lon": "45.012732",
		"lat": "48.7005395",
		"number": "3",
		"street": "переулок Глеба Успенского",
		"city": "Заплавное",
		"district": "Ленинский муниципальный район",
		"postcode": "404609"
	},
	{
		"lon": "45.0163862",
		"lat": "48.7023887",
		"number": "36",
		"street": "улица Ленинградская",
		"city": "Заплавное",
		"district": "Ленинский муниципальный район",
		"postcode": "404609"
	},
	{
		"lon": "45.0243888",
		"lat": "48.7008946",
		"number": "33",
		"street": "улица Пушкина",
		"city": "Заплавное",
		"district": "Ленинский муниципальный район",
		"postcode": "404609"
	},
	{
		"lon": "45.0143067",
		"lat": "48.7038531",
		"number": "43",
		"street": "улица Советская",
		"city": "Заплавное",
		"district": "Ленинский муниципальный район",
		"postcode": "404609"
	},
	{
		"lon": "45.0295063",
		"lat": "48.7062563",
		"number": "98",
		"street": "Советская",
		"city": "Заплавное",
		"district": "Ленинский муниципальный район",
		"postcode": "404609"
	},
	{
		"lon": "45.0038382",
		"lat": "48.702986",
		"number": "4",
		"street": "улица Волжская",
		"city": "Заплавное",
		"district": "Ленинский муниципальный район",
		"postcode": "404609"
	},
	{
		"lon": "45.0283162",
		"lat": "48.7057247",
		"number": "90",
		"street": "улица Советская",
		"city": "Заплавное",
		"district": "Ленинский муниципальный район",
		"postcode": "404609"
	},
	{
		"lon": "45.0025427",
		"lat": "48.7036985",
		"number": "6",
		"street": "улица Воровского",
		"city": "Заплавное",
		"district": "Ленинский муниципальный район",
		"postcode": "404609"
	},
	{
		"lon": "44.9987091",
		"lat": "48.7034401",
		"number": "17",
		"street": "улица Ленинская",
		"city": "Заплавное",
		"district": "Ленинский муниципальный район",
		"postcode": "404609"
	},
	{
		"lon": "45.020915",
		"lat": "48.709612",
		"number": "17/2",
		"street": "улица Самохина",
		"city": "Заплавное",
		"district": "Ленинский муниципальный район",
		"postcode": "404609"
	},
	{
		"lon": "45.0247696",
		"lat": "48.7079287",
		"number": "44",
		"street": "улица Совхозная",
		"city": "Заплавное",
		"district": "Ленинский муниципальный район",
		"postcode": "404609"
	},
	{
		"lon": "45.0367458",
		"lat": "48.7100772",
		"number": "138/3",
		"street": "улица Советская",
		"city": "Заплавное",
		"district": "Ленинский муниципальный район",
		"postcode": "404609"
	},
	{
		"lon": "45.0376553",
		"lat": "48.7090788",
		"number": "42",
		"street": "улица Тамбовская",
		"city": "Заплавное",
		"district": "Ленинский муниципальный район",
		"postcode": "404609"
	},
	{
		"lon": "45.03739",
		"lat": "48.711048",
		"number": "189/1",
		"street": "улица Советская",
		"city": "Заплавное",
		"district": "Ленинский муниципальный район",
		"postcode": "404609"
	},
	{
		"lon": "45.0350655",
		"lat": "48.707829",
		"number": "51 а",
		"street": "улица Тамбовская",
		"city": "Заплавное",
		"district": "Ленинский муниципальный район",
		"postcode": "404609"
	},
	{
		"lon": "45.025269",
		"lat": "48.7042835",
		"number": "18/1",
		"street": "переулок Самарский",
		"city": "Заплавное",
		"district": "Ленинский муниципальный район",
		"postcode": "404609"
	},
	{
		"lon": "45.0184181",
		"lat": "48.7050387",
		"number": "29",
		"street": "улица Комсомольская",
		"city": "Заплавное",
		"district": "Ленинский муниципальный район",
		"postcode": "404609"
	},
	{
		"lon": "45.037384",
		"lat": "48.706915",
		"number": "6/1",
		"street": "улица Молодежная",
		"city": "Заплвное",
		"district": "Ленинский муниципальный район",
		"postcode": "404609"
	},
	{
		"lon": "45.024497",
		"lat": "48.702639",
		"number": "45/2",
		"street": "улица Пушкина",
		"city": "Заплавное",
		"district": "Ленинский муниципальный район",
		"postcode": "404609"
	},
	{
		"lon": "45.0101359",
		"lat": "48.7058787",
		"number": "8",
		"street": "переулок Пролеткурский",
		"city": "Заплавное",
		"district": "Ленинский муниципальный район",
		"postcode": "404609"
	},
	{
		"lon": "45.0176005",
		"lat": "48.706679",
		"number": "7",
		"street": "улица Совхозная",
		"city": "Заплавное",
		"district": "Ленинский муниципальный район",
		"postcode": "404609"
	},
	{
		"lon": "45.0587901",
		"lat": "48.7058188",
		"number": "29",
		"street": "улица Новая",
		"city": "Восьмое Марта",
		"district": "Ленинский муниципальный район",
		"postcode": "404609"
	},
	{
		"lon": "45.0067937",
		"lat": "48.7061815",
		"number": "72",
		"street": "улица Ленинская",
		"city": "Заплавное",
		"district": "Ленинский муниципальный район",
		"postcode": "404609"
	},
	{
		"lon": "44.8276579",
		"lat": "50.8927357",
		"number": "33",
		"street": "улица Красноармейская",
		"city": "Линёво",
		"district": "Жирновский муниципальный район",
		"postcode": "403770"
	},
	{
		"lon": "44.8312185",
		"lat": "50.8957447",
		"number": "21",
		"street": "улица Нефтяников",
		"city": "Линёво",
		"district": "Жирновский муниципальный район",
		"postcode": "403770"
	},
	{
		"lon": "44.830129",
		"lat": "50.8990512",
		"number": "2",
		"street": "улица Нефтяников",
		"city": "Линёво",
		"district": "Жирновский муниципальный район",
		"postcode": "403770"
	},
	{
		"lon": "44.0626317",
		"lat": "48.6710942",
		"number": "21",
		"street": "улица Демократическая",
		"city": "Новый Рогачик",
		"district": "Городищенский муниципальный район",
		"postcode": "403021"
	},
	{
		"lon": "44.9764451",
		"lat": "49.3752094",
		"number": "1",
		"street": "улица Пригорная",
		"city": "Горная Пролейка",
		"district": "Дубовский муниципальный район",
		"postcode": "404014"
	},
	{
		"lon": "44.711259",
		"lat": "48.9787837",
		"number": "37",
		"street": "улица Комсомольская",
		"city": "Пичуга",
		"district": "Дубовский муниципальный район",
		"postcode": "404011"
	},
	{
		"lon": "44.051172",
		"lat": "48.6750395",
		"number": "8",
		"street": "улица Звездная",
		"city": "Новый Рогачик",
		"district": "Городищенский муниципальный район",
		"postcode": "403020"
	},
	{
		"lon": "44.0514148",
		"lat": "48.6756562",
		"number": "6",
		"street": "улица Терешковой",
		"city": "Новый Рогачик",
		"district": "Городищенский муниципальный район",
		"postcode": "403020"
	},
	{
		"lon": "44.7254722",
		"lat": "49.2308519",
		"number": "93",
		"street": "улица Солнечная",
		"city": "Прямая Балка",
		"district": "Дубовский муниципальный район",
		"postcode": "404021"
	},
	{
		"lon": "44.848903",
		"lat": "49.1137592",
		"number": "5",
		"street": "улица Молодежная",
		"city": "Песковатка",
		"district": "Дубовский муниципальный район",
		"postcode": "404010"
	},
	{
		"lon": "44.8487919",
		"lat": "49.1168321",
		"number": "9",
		"street": "улица Западная",
		"city": "Песковатка",
		"district": "Дубовский муниципальный район",
		"postcode": "404010"
	},
	{
		"lon": "44.9899486",
		"lat": "49.3741697",
		"number": "7",
		"street": "улица Сквозная",
		"city": "Горная Пролейка",
		"district": "Дубовский муниципальный район",
		"postcode": "404014"
	},
	{
		"lon": "44.0506741",
		"lat": "48.6672607",
		"number": "59",
		"street": "улица Центральная",
		"city": "Новый Рогачик",
		"district": "Городищенский муниципальный район",
		"postcode": "403021"
	},
	{
		"lon": "44.723295",
		"lat": "49.231937",
		"number": "58",
		"street": "улица Солнечная",
		"city": "Прямая Балка",
		"district": "Дубовский муниципальный район",
		"postcode": "404021"
	},
	{
		"lon": "44.8603007",
		"lat": "49.1145046",
		"number": "13",
		"street": "улица Центральная",
		"city": "Песковатка",
		"district": "Дубовский муниципальный район",
		"postcode": "404010"
	},
	{
		"lon": "44.7222356",
		"lat": "49.2317066",
		"number": "71",
		"street": "улица Мира",
		"city": "Пямая Балка",
		"district": "Дубовский муниципальный район",
		"postcode": "404021"
	},
	{
		"lon": "44.8549707",
		"lat": "49.119673",
		"number": "78",
		"street": "улица Московская",
		"city": "Песковатка",
		"district": "Дубовский муниципальный район",
		"postcode": "404010"
	},
	{
		"lon": "44.8609491",
		"lat": "49.1182443",
		"number": "56",
		"street": "улица Московская",
		"city": "Песковатка",
		"district": "Дубовский муниципальный район",
		"postcode": "404010"
	},
	{
		"lon": "44.7136829",
		"lat": "48.9784028",
		"number": "55",
		"street": "улица московская",
		"city": "Пичуга",
		"district": "Дубовский муниципальный район",
		"postcode": "40401"
	},
	{
		"lon": "44.7185408",
		"lat": "48.980807",
		"number": "29",
		"street": "улица Московская",
		"city": "Пичуга",
		"district": "Дубовский муниципальный район",
		"postcode": "404011"
	},
	{
		"lon": "45.5646775",
		"lat": "49.0526509",
		"number": "17",
		"street": "улица Ленина",
		"city": "Тракторострой",
		"district": "Ленинский муниципальный район",
		"postcode": "404604"
	},
	{
		"lon": "45.47801",
		"lat": "48.6507733",
		"number": "4",
		"street": "улица Шалаевка",
		"city": "Колобовка",
		"district": "Ленинский муниципальный район",
		"postcode": "404613"
	},
	{
		"lon": "44.7102898",
		"lat": "49.2377816",
		"number": "8",
		"street": "улица Садовая",
		"city": "Прямая Балка",
		"district": "Дубовский муниципальный район",
		"postcode": "404021"
	},
	{
		"lon": "44.71557",
		"lat": "49.2343895",
		"number": "1",
		"street": "улица Полевая",
		"city": "Прямая Балка",
		"district": "Дубовский муниципальный район",
		"postcode": "404021"
	},
	{
		"lon": "44.722911",
		"lat": "48.9808066",
		"number": "1",
		"street": "улица ПРИВОЛЖСКАЯ",
		"city": "ПИЧУГА",
		"district": "Дубовский муниципальный район",
		"postcode": "404011"
	},
	{
		"lon": "44.7211412",
		"lat": "49.2301528",
		"number": "14",
		"street": "улица Волжская",
		"city": "Прямая Балка",
		"district": "Дубовский муниципальный район",
		"postcode": "404021"
	},
	{
		"lon": "44.8698354",
		"lat": "49.1157254",
		"number": "1",
		"street": "улица Московская",
		"city": "Песковатка",
		"district": "Дубовский муниципальный район",
		"postcode": "404010"
	},
	{
		"lon": "44.8692679",
		"lat": "49.1160989",
		"number": "6",
		"street": "улица Московская",
		"city": "Песковатка",
		"district": "Дубовский муниципальный район",
		"postcode": "404010"
	},
	{
		"lon": "44.7115681",
		"lat": "48.9813009",
		"number": "26",
		"street": "улица волгоградская",
		"city": "пичуга",
		"district": "Дубовский муниципальный район",
		"postcode": "404011"
	},
	{
		"lon": "44.9670619",
		"lat": "50.0553421",
		"number": "1б",
		"street": "улица Южная",
		"city": "Костарево",
		"district": "Камышинский муниципальный район",
		"postcode": "403839"
	},
	{
		"lon": "45.2970856",
		"lat": "50.0103583",
		"number": "11",
		"street": "улица Молодежная",
		"city": "Вихлянцево",
		"district": "Камышинский муниципальный район",
		"postcode": "403857"
	},
	{
		"lon": "44.8648207",
		"lat": "49.1137624",
		"number": "14",
		"street": "улица Крутая",
		"city": "Песковатка",
		"district": "Дубовский муниципальный район",
		"postcode": "404010"
	},
	{
		"lon": "44.866661",
		"lat": "49.1137563",
		"number": "11",
		"street": "улица Волжская",
		"city": "Песковатка",
		"district": "Дубовский муниципальный район",
		"postcode": "404010"
	},
	{
		"lon": "44.8646773",
		"lat": "49.1154492",
		"number": "3",
		"street": "улица Тургенева",
		"city": "Песковатка",
		"district": "Дубовский муниципальный район",
		"postcode": "404010"
	},
	{
		"lon": "45.3005151",
		"lat": "50.0340763",
		"number": "15",
		"street": "улица Центральная",
		"city": "Поповка",
		"district": "Камышинский муниципальный район",
		"postcode": "403857"
	},
	{
		"lon": "44.7118479",
		"lat": "48.9865437",
		"number": "2",
		"street": "улица степная",
		"city": "пичуга",
		"district": "Дубовский муниципальный район",
		"postcode": "404011"
	},
	{
		"lon": "41.7671796",
		"lat": "50.3992977",
		"number": "36",
		"street": "улица Ломоносова",
		"city": "Нехаевская",
		"district": "Нехаевский муниципальный район",
		"postcode": "403171"
	},
	{
		"lon": "45.2991627",
		"lat": "50.0090893",
		"number": "25",
		"street": "улица Мира",
		"city": "Вихлянцево",
		"district": "Камышинский муниципальный район",
		"postcode": "403857"
	},
	{
		"lon": "41.6263585",
		"lat": "50.596221",
		"number": "6",
		"street": "улица Верхняя",
		"city": "Карайчевский",
		"district": "Нехаевский муниципальный район",
		"postcode": "403188"
	},
	{
		"lon": "45.2958926",
		"lat": "50.0089757",
		"number": "39",
		"street": "улица Мира",
		"city": "Вихлянцево",
		"district": "Камышинский муниципальный район",
		"postcode": "403857"
	},
	{
		"lon": "41.5708571",
		"lat": "50.1142735",
		"number": "158",
		"street": "улица Ленина",
		"city": "кругловка",
		"district": "Нехаевский муниципальный район",
		"postcode": "403183"
	},
	{
		"lon": "41.754084",
		"lat": "50.4164112",
		"number": "26",
		"street": "улица Заречная",
		"city": "Нехаевская",
		"district": "Нехаевский муниципальный район",
		"postcode": "403171"
	},
	{
		"lon": "41.6250663",
		"lat": "50.5974989",
		"number": "74",
		"street": "улица Ценральная",
		"city": "Карайчевский",
		"district": "Нехаевский муниципальный район",
		"postcode": "403188"
	},
	{
		"lon": "41.5752289",
		"lat": "50.1161839",
		"number": "77/1",
		"street": "улица Ленина",
		"city": "кругловка",
		"district": "Нехаевский муниципальный район",
		"postcode": "403183"
	},
	{
		"lon": "41.8404944",
		"lat": "50.2392351",
		"number": "44",
		"street": "улица Ленина",
		"city": "Упорниковская",
		"district": "Нехаевский муниципальный район",
		"postcode": "403186"
	},
	{
		"lon": "44.4114325",
		"lat": "49.2833353",
		"number": "35/1",
		"street": "улица Гагарина",
		"city": "Лозное",
		"district": "Дубовский муниципальный район",
		"postcode": "404026"
	},
	{
		"lon": "41.7550582",
		"lat": "50.4174271",
		"number": "20",
		"street": "переулок Тургеневский",
		"city": "Нехаевская",
		"district": "Нехаевский муниципальный район",
		"postcode": "403171"
	},
	{
		"lon": "44.4090561",
		"lat": "49.2815781",
		"number": "4/2",
		"street": "улица Комсомольская",
		"city": "Лозное",
		"district": "Дубовский муниципальный район",
		"postcode": "404026"
	},
	{
		"lon": "44.4106952",
		"lat": "49.2840088",
		"number": "2/1А",
		"street": "улица Пролетарская",
		"city": "Лозное",
		"district": "Дубовский муниципальный район",
		"postcode": "404026"
	},
	{
		"lon": "45.4907513",
		"lat": "50.0472693",
		"number": "30/2",
		"street": "улица Лесная",
		"city": "Николаевск Агрофирма",
		"district": "Николаевский муниципальный район",
		"postcode": " "
	},
	{
		"lon": "45.1541499",
		"lat": "50.1317486",
		"number": "22",
		"street": "улица Клубная",
		"city": "Барановка",
		"district": "Камышинский муниципальный район",
		"postcode": "403845"
	},
	{
		"lon": "41.8905799",
		"lat": "50.4555537",
		"number": "16",
		"street": "улица Почтовая",
		"city": "Ольховский",
		"district": "Нехаевский муниципальный район",
		"postcode": "403174"
	},
	{
		"lon": "45.1543138",
		"lat": "50.1266092",
		"number": "16",
		"street": "улица Тамбовская",
		"city": "Барановка",
		"district": "Камышинский муниципальный район",
		"postcode": "403845"
	},
	{
		"lon": "44.4355814",
		"lat": "49.2855265",
		"number": "41",
		"street": "улица Восточная",
		"city": "Лозное",
		"district": "Дубовский муниципальный район",
		"postcode": "404026"
	},
	{
		"lon": "44.9698375",
		"lat": "50.06349",
		"number": "65",
		"street": "улица Советская",
		"city": "Костарево",
		"district": "Камышинский муниципальный район",
		"postcode": "403839"
	},
	{
		"lon": "41.6027018",
		"lat": "50.2075666",
		"number": "1",
		"street": "переулок Рабочий",
		"city": "каменский",
		"district": "Нехаевский муниципальный район",
		"postcode": "403178"
	},
	{
		"lon": "41.6069029",
		"lat": "50.2053523",
		"number": "3",
		"street": "переулок Школьный",
		"city": "каменский",
		"district": "Нехаевский муниципальный район",
		"postcode": "403178"
	},
	{
		"lon": "45.6525984",
		"lat": "49.2332873",
		"number": "14",
		"street": "улица Степная",
		"city": "п МАяк Октября",
		"district": "Ленинский муниципальный район",
		"postcode": "404606"
	},
	{
		"lon": "42.1451923",
		"lat": "50.2953122",
		"number": "79",
		"street": "улица",
		"city": "Стеженский",
		"district": "Алексеевский муниципальный район",
		"postcode": "403256"
	},
	{
		"lon": "43.1387476",
		"lat": "47.6165026",
		"number": "36",
		"street": "улица Партизанская",
		"city": "Котельниково",
		"district": "Котельниковский муниципальный район",
		"postcode": " "
	},
	{
		"lon": "43.1343257",
		"lat": "47.6166653",
		"number": "3",
		"street": "улица Романовых",
		"city": "Котельниково",
		"district": "Котельниковский муниципальный район",
		"postcode": " "
	},
	{
		"lon": "43.1434821",
		"lat": "47.6124775",
		"number": "79",
		"street": "улица Кивгила",
		"city": "Котельниково",
		"district": "Котельниковский муниципальный район",
		"postcode": " "
	},
	{
		"lon": "43.1406689",
		"lat": "47.6127125",
		"number": "71/1",
		"street": "улица Кивгила",
		"city": "Котельниково",
		"district": "Котельниковский муниципальный район",
		"postcode": " "
	},
	{
		"lon": "43.1343819",
		"lat": "47.614979",
		"number": "32",
		"street": "улица Чехова",
		"city": "Котельниково",
		"district": "Котельниковский муниципальный район",
		"postcode": " "
	},
	{
		"lon": "43.1445543",
		"lat": "47.6220809",
		"number": "51",
		"street": "улица Пушкина",
		"city": "Котельниково",
		"district": "Котельниковский муниципальный район",
		"postcode": " "
	},
	{
		"lon": "43.1425749",
		"lat": "47.6406839",
		"number": "148",
		"street": "улица Баранова",
		"city": "Котельниково",
		"district": "Котельниковский муниципальный район",
		"postcode": " "
	},
	{
		"lon": "43.1428258",
		"lat": "47.6363678",
		"number": "46",
		"street": "улица Баранова",
		"city": "Котельниково",
		"district": "Котельниковский муниципальный район",
		"postcode": " "
	},
	{
		"lon": "43.144729",
		"lat": "47.6359076",
		"number": "6",
		"street": "улица Маркса",
		"city": "Котельниково",
		"district": "Котельниковский муниципальный район",
		"postcode": " "
	},
	{
		"lon": "43.1509508",
		"lat": "47.6354848",
		"number": "10",
		"street": "улица Лиманная",
		"city": "Котельниково",
		"district": "Котельниковский муниципальный район",
		"postcode": " "
	},
	{
		"lon": "43.1515085",
		"lat": "47.6323783",
		"number": "10",
		"street": "улица Заречная",
		"city": "Котельниково",
		"district": "Котельниковский муниципальный район",
		"postcode": " "
	},
	{
		"lon": "43.1590517",
		"lat": "47.6332089",
		"number": "101",
		"street": "улица Ломакина",
		"city": "Котельниково",
		"district": "Котельниковский муниципальный район",
		"postcode": " "
	},
	{
		"lon": "43.162585",
		"lat": "47.6282568",
		"number": "33",
		"street": "улица Пионерская",
		"city": "Котельниково",
		"district": "Котельниковский муниципальный район",
		"postcode": " "
	},
	{
		"lon": "43.1564593",
		"lat": "47.6302989",
		"number": "77",
		"street": "улица Ротмистрова",
		"city": "Котельниково",
		"district": "Котельниковский муниципальный район",
		"postcode": " "
	},
	{
		"lon": "43.1621305",
		"lat": "47.6336711",
		"number": "13",
		"street": "улица Думенко",
		"city": "Котельниково",
		"district": "Котельниковский муниципальный район",
		"postcode": " "
	},
	{
		"lon": "43.1596844",
		"lat": "47.6385637",
		"number": "1",
		"street": "улица Геологов",
		"city": "Котельниково",
		"district": "Котельниковский муниципальный район",
		"postcode": " "
	},
	{
		"lon": "43.1375158",
		"lat": "47.6343983",
		"number": "18",
		"street": "улица Липова",
		"city": "Котельниково",
		"district": "Котельниковский муниципальный район",
		"postcode": " "
	},
	{
		"lon": "43.1479411",
		"lat": "47.6360715",
		"number": "33",
		"street": "улица Маркса",
		"city": "Котельниково",
		"district": "Котельниковский муниципальный район",
		"postcode": " "
	},
	{
		"lon": "43.1553944",
		"lat": "47.6370198",
		"number": "82",
		"street": "улица Урицкого",
		"city": "Котельниково",
		"district": "Котельниковский муниципальный район",
		"postcode": " "
	},
	{
		"lon": "43.1541249",
		"lat": "47.6414492",
		"number": "88",
		"street": "улица Полякова",
		"city": "Котельниково",
		"district": "Котельниковский муниципальный район",
		"postcode": " "
	},
	{
		"lon": "43.144646",
		"lat": "47.6396491",
		"number": "152",
		"street": "улица Октябрьская",
		"city": "Котельниково",
		"district": "Котельниковский муниципальный район",
		"postcode": " "
	},
	{
		"lon": "43.1546545",
		"lat": "47.639658",
		"number": "51",
		"street": "улица Полякова",
		"city": "Котельниково",
		"district": "Котельниковский муниципальный район",
		"postcode": " "
	},
	{
		"lon": "43.1515806",
		"lat": "47.6418948",
		"number": "190",
		"street": "улица Родина",
		"city": "Котельниково",
		"district": "Котельниковский муниципальный район",
		"postcode": " "
	},
	{
		"lon": "43.1647598",
		"lat": "47.6239067",
		"number": "34",
		"street": "улица Лесная",
		"city": "Котельниково",
		"district": "Котельниковский муниципальный район",
		"postcode": " "
	},
	{
		"lon": "43.151686",
		"lat": "47.6277126",
		"number": "29",
		"street": "улица 8марта",
		"city": "Котельниково",
		"district": "Котельниковский муниципальный район",
		"postcode": " "
	},
	{
		"lon": "43.1580466",
		"lat": "47.6210596",
		"number": "25",
		"street": "улица Некрасова",
		"city": "Котельниково",
		"district": "Котельниковский муниципальный район",
		"postcode": " "
	},
	{
		"lon": "43.1472348",
		"lat": "47.624014",
		"number": "21",
		"street": "улица Сербина",
		"city": "Котельниково",
		"district": "Котельниковский муниципальный район",
		"postcode": " "
	},
	{
		"lon": "43.1448922",
		"lat": "47.624615",
		"number": "25",
		"street": "улица Пушкина",
		"city": "Котельниково",
		"district": "Котельниковский муниципальный район",
		"postcode": " "
	},
	{
		"lon": "43.1195664",
		"lat": "47.6333371",
		"number": "АЗС Лукойл",
		"street": "улица Волгоградская",
		"city": "Котельниково",
		"district": "Котельниковский муниципальный район",
		"postcode": " "
	},
	{
		"lon": "43.1578519",
		"lat": "47.6324783",
		"number": "87",
		"street": "улица Ломакина",
		"city": "Котельниково",
		"district": "Котельниковский муниципальный район",
		"postcode": " "
	},
	{
		"lon": "43.1539578",
		"lat": "47.636809",
		"number": "15",
		"street": "улица Полякова",
		"city": "Котельниково",
		"district": "Котельниковский муниципальный район",
		"postcode": " "
	},
	{
		"lon": "43.1449562",
		"lat": "47.6350161",
		"number": "74",
		"street": "улица Октябрьская",
		"city": "Котельниково",
		"district": "Котельниковский муниципальный район",
		"postcode": " "
	},
	{
		"lon": "43.1285838",
		"lat": "47.6332446",
		"number": "101",
		"street": "улица Калинина",
		"city": "Котельниково",
		"district": "Котельниковский муниципальный район",
		"postcode": " "
	},
	{
		"lon": "43.1318559",
		"lat": "47.6334452",
		"number": "78",
		"street": "улица Войкова",
		"city": "Котельниково",
		"district": "Котельниковский муниципальный район",
		"postcode": " "
	},
	{
		"lon": "43.1429429",
		"lat": "47.6435907",
		"number": "215",
		"street": "улица Октябрьская",
		"city": "Котельниково",
		"district": "Котельниковский муниципальный район",
		"postcode": " "
	},
	{
		"lon": "43.1493476",
		"lat": "47.6255814",
		"number": "19",
		"street": "переулок Первомайский",
		"city": "Котельниково",
		"district": "Котельниковский муниципальный район",
		"postcode": " "
	},
	{
		"lon": "43.1454905",
		"lat": "47.621321",
		"number": "84",
		"street": "улица Горького",
		"city": "Котельниково",
		"district": "Котельниковский муниципальный район",
		"postcode": " "
	},
	{
		"lon": "43.1493557",
		"lat": "47.6143622",
		"number": "93",
		"street": "улица Романовых",
		"city": "Котельниково",
		"district": "Котельниковский муниципальный район",
		"postcode": " "
	},
	{
		"lon": "43.159256",
		"lat": "47.6285495",
		"number": "4",
		"street": "переулок Ремезова",
		"city": "Котельниково",
		"district": "Котельниковский муниципальный район",
		"postcode": " "
	},
	{
		"lon": "43.1363774",
		"lat": "47.6160961",
		"number": "19",
		"street": "улица Романовых",
		"city": "Котельниково",
		"district": "Котельниковский муниципальный район",
		"postcode": " "
	},
	{
		"lon": "43.1341489",
		"lat": "47.6195444",
		"number": "15",
		"street": "улица Куйбышева",
		"city": "Котельниково",
		"district": "Котельниковский муниципальный район",
		"postcode": " "
	},
	{
		"lon": "43.1402413",
		"lat": "47.6233934",
		"number": "50",
		"street": "улица Орлова",
		"city": "Котельниково",
		"district": "Котельниковский муниципальный район",
		"postcode": " "
	},
	{
		"lon": "43.1294038",
		"lat": "47.6209748",
		"number": "19",
		"street": "улица Красноармейская",
		"city": "Котельниково",
		"district": "Котельниковский муниципальный район",
		"postcode": " "
	},
	{
		"lon": "43.1302805",
		"lat": "47.6237884",
		"number": "60",
		"street": "улица Красная",
		"city": "Котельниково",
		"district": "Котельниковский муниципальный район",
		"postcode": " "
	},
	{
		"lon": "43.1371503",
		"lat": "47.6255767",
		"number": "29",
		"street": "улица Луначарского",
		"city": "Котельниково",
		"district": "Котельниковский муниципальный район",
		"postcode": " "
	},
	{
		"lon": "43.1391961",
		"lat": "47.6271778",
		"number": "7",
		"street": "улица Лыкова",
		"city": "Котельниково",
		"district": "Котельниковский муниципальный район",
		"postcode": " "
	},
	{
		"lon": "43.126104",
		"lat": "47.6291604",
		"number": "55",
		"street": "улица Ломоносова",
		"city": "Котельниково",
		"district": "Котельниковский муниципальный район",
		"postcode": " "
	},
	{
		"lon": "43.1277297",
		"lat": "47.6206476",
		"number": "32а",
		"street": "улица Гоголя",
		"city": "Котельниково",
		"district": "Котельниковский муниципальный район",
		"postcode": " "
	},
	{
		"lon": "43.0600246",
		"lat": "49.3149289",
		"number": "23",
		"street": "улица Покальчука",
		"city": "Клетская",
		"district": "Клетский муниципальный район",
		"postcode": " "
	},
	{
		"lon": "43.064046",
		"lat": "49.314368",
		"number": "33",
		"street": "улица Ленина",
		"city": "Клетская",
		"district": "Клетский муниципальный район",
		"postcode": "403562"
	},
	{
		"lon": "43.050831",
		"lat": "49.3153021",
		"number": "2а",
		"street": "переулок Западный",
		"city": "Клетская",
		"district": "Клетский муниципальный район",
		"postcode": "403562"
	},
	{
		"lon": "43.0551759",
		"lat": "49.3178993",
		"number": "50",
		"street": "улица Покальчука",
		"city": "Клетская",
		"district": "Клетский муниципальный район",
		"postcode": "403562"
	},
	{
		"lon": "43.0575502",
		"lat": "49.3145672",
		"number": "40",
		"street": "улица Донская",
		"city": "Клетская",
		"district": "Клетский муниципальный район",
		"postcode": "403562"
	},
	{
		"lon": "43.0538533",
		"lat": "49.3095427",
		"number": "29",
		"street": "улица Дымченко",
		"city": "Клетская",
		"district": "Клетский муниципальный район",
		"postcode": "403562"
	},
	{
		"lon": "43.0599714",
		"lat": "49.3161586",
		"number": "23",
		"street": "улица Донская",
		"city": "Клетская",
		"district": "Клетский муниципальный район",
		"postcode": "403562"
	},
	{
		"lon": "43.0631299",
		"lat": "49.317811",
		"number": "56",
		"street": "улица Блинова",
		"city": "Клетская",
		"district": "Клетский муниципальный район",
		"postcode": "403562"
	},
	{
		"lon": "43.0718564",
		"lat": "49.3163608",
		"number": "4",
		"street": "улица Гагарина",
		"city": "Клетская",
		"district": "Клетский муниципальный район",
		"postcode": "403562"
	},
	{
		"lon": "43.0714795",
		"lat": "49.3147516",
		"number": "41",
		"street": "улица Коммунистическая",
		"city": "Клетская",
		"district": "Клетский муниципальный район",
		"postcode": "403562"
	},
	{
		"lon": "43.0664178",
		"lat": "49.3166458",
		"number": "18",
		"street": "улица Ленина",
		"city": "Клетская",
		"district": "Клетский муниципальный район",
		"postcode": "403562"
	},
	{
		"lon": "43.0562657",
		"lat": "49.3098573",
		"number": "27",
		"street": "улица Красноармейская",
		"city": "Клетская",
		"district": "Клетский муниципальный район",
		"postcode": "403562"
	},
	{
		"lon": "43.0589033",
		"lat": "49.3071986",
		"number": "16",
		"street": "улица Комарова",
		"city": "Клетская",
		"district": "Клетский муниципальный район",
		"postcode": " "
	},
	{
		"lon": "43.0510999",
		"lat": "49.3058485",
		"number": "10",
		"street": "улица Рабочекрестьянская",
		"city": "Клетская",
		"district": "Клетский муниципальный район",
		"postcode": "403562"
	},
	{
		"lon": "43.0655065",
		"lat": "49.3118342",
		"number": "58",
		"street": "улица Пролетарская",
		"city": "Клетская",
		"district": "Клетский муниципальный район",
		"postcode": "403562"
	},
	{
		"lon": "43.0740282",
		"lat": "49.3150076",
		"number": "44",
		"street": "улица Тапилина",
		"city": "Клетская",
		"district": "Клетский муниципальный район",
		"postcode": "403562"
	},
	{
		"lon": "43.0706847",
		"lat": "49.3126358",
		"number": "20",
		"street": "улица Комсомольская",
		"city": "Клетская",
		"district": "Клетский муниципальный район",
		"postcode": "403562"
	},
	{
		"lon": "43.067388",
		"lat": "49.3121462",
		"number": "11",
		"street": "улица Пролетарская",
		"city": "Клетская",
		"district": "Клетский муниципальный район",
		"postcode": "403562"
	},
	{
		"lon": "43.0678451",
		"lat": "49.3155967",
		"number": "18",
		"street": "улица Блинова",
		"city": "Клетская",
		"district": "Клетский муниципальный район",
		"postcode": "403562"
	},
	{
		"lon": "43.0563329",
		"lat": "49.3169327",
		"number": "47",
		"street": "улица Покальчука",
		"city": "Клетская",
		"district": "Клетский муниципальный район",
		"postcode": "403562"
	},
	{
		"lon": "43.0516014",
		"lat": "49.3135973",
		"number": "67",
		"street": "улица Некрасова",
		"city": "Клетская",
		"district": "Клетский муниципальный район",
		"postcode": "403562"
	},
	{
		"lon": "42.0053141",
		"lat": "50.7996588",
		"number": "5/1",
		"street": "Штеменко",
		"city": "Урюпинск",
		"district": "городской округ город Урюпинск",
		"postcode": " "
	},
	{
		"lon": "42.0156834",
		"lat": "50.8142547",
		"number": "37",
		"street": "Штеменко",
		"city": "Урюпинск",
		"district": "городской округ город Урюпинск",
		"postcode": " "
	},
	{
		"lon": "42.017314",
		"lat": "50.8149582",
		"number": "57",
		"street": "Штеменко",
		"city": "Урюпинск",
		"district": "городской округ город Урюпинск",
		"postcode": " "
	},
	{
		"lon": "42.0486439",
		"lat": "50.795788",
		"number": "103",
		"street": "Гора Восточная",
		"city": "Урюпинск",
		"district": "городской округ город Урюпинск",
		"postcode": " "
	},
	{
		"lon": "42.0188858",
		"lat": "50.7746299",
		"number": "151",
		"street": "Гора Восточная",
		"city": "Урюпинск",
		"district": "городской округ город Урюпинск",
		"postcode": " "
	},
	{
		"lon": "42.0299816",
		"lat": "50.7818924",
		"number": "127",
		"street": "Гора Восточная",
		"city": "Урюпинск",
		"district": "городской округ город Урюпинск",
		"postcode": " "
	},
	{
		"lon": "41.9979746",
		"lat": "50.7943127",
		"number": "4",
		"street": "улица Октябрьская",
		"city": "Урюпинск",
		"district": "городской округ город Урюпинск",
		"postcode": " "
	},
	{
		"lon": "43.6450464",
		"lat": "49.7924939",
		"number": "367",
		"street": "улица 40 лет Октября",
		"city": "Фролово",
		"district": "городской округ город Фролово",
		"postcode": " "
	},
	{
		"lon": "43.6592086",
		"lat": "49.782921",
		"number": "23",
		"street": "переулок Степной",
		"city": "Фролово",
		"district": "городской округ город Фролово",
		"postcode": " "
	},
	{
		"lon": "43.6450863",
		"lat": "49.7823285",
		"number": "159",
		"street": "улица Народная",
		"city": "Фролово",
		"district": "городской округ город Фролово",
		"postcode": " "
	},
	{
		"lon": "43.622871",
		"lat": "49.7640541",
		"number": "7",
		"street": "улица Ушакова",
		"city": "Фролово",
		"district": "городской округ город Фролово",
		"postcode": " "
	},
	{
		"lon": "43.6568709",
		"lat": "49.7560368",
		"number": "15",
		"street": "улица Набережная",
		"city": "Фролово",
		"district": "городской округ город Фролово",
		"postcode": " "
	},
	{
		"lon": "43.6541446",
		"lat": "49.7579544",
		"number": "30",
		"street": "Набережная",
		"city": "Фролово",
		"district": "городской округ город Фролово",
		"postcode": " "
	},
	{
		"lon": "43.6738893",
		"lat": "49.7569578",
		"number": "33",
		"street": "улица Обороны",
		"city": "Фролово",
		"district": "городской округ город Фролово",
		"postcode": " "
	},
	{
		"lon": "43.6630723",
		"lat": "49.7598507",
		"number": "36",
		"street": "улица Разина",
		"city": "Фролово",
		"district": "городской округ город Фролово",
		"postcode": " "
	},
	{
		"lon": "43.6665354",
		"lat": "49.7797004",
		"number": "11",
		"street": "улица Металлургов",
		"city": "Фролово",
		"district": "городской округ город Фролово",
		"postcode": " "
	},
	{
		"lon": "43.6651435",
		"lat": "49.7464917",
		"number": "5",
		"street": "переулок Верхний поселок Газоразведки",
		"city": "Фролово",
		"district": "городской округ город Фролово",
		"postcode": " "
	},
	{
		"lon": "43.6477763",
		"lat": "49.8008064",
		"number": "387",
		"street": "улица 40 лет Октября",
		"city": "Фролово",
		"district": "городской округ город Фролово",
		"postcode": " "
	},
	{
		"lon": "43.6678558",
		"lat": "49.7908169",
		"number": "22",
		"street": "улица Металлургов",
		"city": "Фролово",
		"district": "городской округ город Фролово",
		"postcode": "403533"
	},
	{
		"lon": "43.6693577",
		"lat": "49.7384203",
		"number": "34",
		"street": "ЗКО",
		"city": "Фролово",
		"district": "городской округ город Фролово",
		"postcode": " "
	},
	{
		"lon": "43.6879663",
		"lat": "49.7812219",
		"number": "107",
		"street": "улица Хлеборобная",
		"city": "Фролово",
		"district": "городской округ город Фролово",
		"postcode": " "
	},
	{
		"lon": "45.3957511",
		"lat": "49.7646096",
		"number": "47",
		"street": "улица Куйбышева",
		"city": "Быково",
		"district": "Быковский муниципальный район",
		"postcode": " "
	},
	{
		"lon": "43.6288428",
		"lat": "49.7874417",
		"number": "305",
		"street": "улица Пролетарская",
		"city": "Фролово",
		"district": "городской округ город Фролово",
		"postcode": " "
	},
	{
		"lon": "43.627362",
		"lat": "49.7906287",
		"number": "129",
		"street": "улица Кирова",
		"city": "Фролово",
		"district": "городской округ город Фролово",
		"postcode": " "
	},
	{
		"lon": "43.6312325",
		"lat": "49.7909227",
		"number": "11а",
		"street": "улица Геологов",
		"city": "Фролово",
		"district": "городской округ город Фролово",
		"postcode": " "
	},
	{
		"lon": "43.6216223",
		"lat": "49.7917507",
		"number": "367",
		"street": "улица Пролетарская",
		"city": "Фролово",
		"district": "городской округ город Фролово",
		"postcode": " "
	},
	{
		"lon": "43.62146",
		"lat": "49.7959173",
		"number": "73",
		"street": "улица Седова",
		"city": "Фролово",
		"district": "городской округ город Фролово",
		"postcode": " "
	},
	{
		"lon": "43.6260048",
		"lat": "49.7950966",
		"number": "42/2",
		"street": "улица Геологов",
		"city": "Фролово",
		"district": "городской округ город Фролово",
		"postcode": " "
	},
	{
		"lon": "43.6325516",
		"lat": "49.7962208",
		"number": "30",
		"street": "улица Лермонтова",
		"city": "Фролово",
		"district": "городской округ город Фролово",
		"postcode": " "
	},
	{
		"lon": "43.6215227",
		"lat": "49.7969356",
		"number": "57",
		"street": "улица Геологов",
		"city": "Фролово",
		"district": "городской округ город Фролово",
		"postcode": " "
	},
	{
		"lon": "43.6447753",
		"lat": "49.7863739",
		"number": "135а",
		"street": "улица Заводская",
		"city": "Фролово",
		"district": "городской округ город Фролово",
		"postcode": " "
	},
	{
		"lon": "43.6474706",
		"lat": "49.7872693",
		"number": "351",
		"street": "улица 40 лет октября",
		"city": "Фролово",
		"district": "городской округ город Фролово",
		"postcode": " "
	},
	{
		"lon": "43.6504018",
		"lat": "49.7851061",
		"number": "10",
		"street": "переулок Совхозный",
		"city": "Фролово",
		"district": "городской округ город Фролово",
		"postcode": " "
	},
	{
		"lon": "43.6552577",
		"lat": "49.7836051",
		"number": "280",
		"street": "улица подгорная",
		"city": "Фролово",
		"district": "городской округ город Фролово",
		"postcode": " "
	},
	{
		"lon": "43.6580882",
		"lat": "49.7820261",
		"number": "241",
		"street": "улица Октябрьская",
		"city": "Фролово",
		"district": "городской округ город Фролово",
		"postcode": " "
	},
	{
		"lon": "43.6537948",
		"lat": "49.7825028",
		"number": "280",
		"street": "улица Воровского",
		"city": "Фролово",
		"district": "городской округ город Фролово",
		"postcode": " "
	},
	{
		"lon": "43.65205",
		"lat": "49.7822695",
		"number": "39",
		"street": "переулок Мичурина",
		"city": "Фролово",
		"district": "городской округ город Фролово",
		"postcode": " "
	},
	{
		"lon": "43.6546428",
		"lat": "49.7797316",
		"number": "173",
		"street": "улица Воровского",
		"city": "Фролово",
		"district": "городской округ город Фролово",
		"postcode": " "
	},
	{
		"lon": "43.6499845",
		"lat": "49.7795737",
		"number": "215",
		"street": "улица Калинина",
		"city": "Фролово",
		"district": "городской округ город Фролово",
		"postcode": " "
	},
	{
		"lon": "43.6520606",
		"lat": "49.7799311",
		"number": "263",
		"street": "улица 40 лет октября",
		"city": "Фролово",
		"district": "городской округ город Фролово",
		"postcode": " "
	},
	{
		"lon": "43.6283532",
		"lat": "49.7728779",
		"number": "96",
		"street": "улица Дзержинского",
		"city": "Фролово",
		"district": "городской округ город Фролово",
		"postcode": " "
	},
	{
		"lon": "43.6214585",
		"lat": "49.7717158",
		"number": "3а",
		"street": "улица Телеграфная",
		"city": "Фролово",
		"district": "городской округ город Фролово",
		"postcode": " "
	},
	{
		"lon": "43.6362397",
		"lat": "49.77782",
		"number": "19",
		"street": "улица",
		"city": "Фролово",
		"district": "городской округ город Фролово",
		"postcode": " "
	},
	{
		"lon": "43.6406653",
		"lat": "49.7822202",
		"number": "37",
		"street": "улица Кирова",
		"city": "Фролово",
		"district": "городской округ город Фролово",
		"postcode": " "
	},
	{
		"lon": "43.6399467",
		"lat": "49.7846597",
		"number": "68",
		"street": "улица Кирова",
		"city": "Фролово",
		"district": "городской округ город Фролово",
		"postcode": " "
	},
	{
		"lon": "43.6447595",
		"lat": "49.7801203",
		"number": "9а",
		"street": "улица Красноармейская",
		"city": "Фролово",
		"district": "городской округ город Фролово",
		"postcode": " "
	},
	{
		"lon": "43.636831",
		"lat": "49.7856912",
		"number": "81",
		"street": "улица Кирова",
		"city": "Фролово",
		"district": "городской округ город Фролово",
		"postcode": " "
	},
	{
		"lon": "43.638591",
		"lat": "49.7859011",
		"number": "87",
		"street": "улица Красноармейская",
		"city": "Фролово",
		"district": "городской округ город Фролово",
		"postcode": " "
	},
	{
		"lon": "43.6360436",
		"lat": "49.787341",
		"number": "111",
		"street": "улица Красноармейская",
		"city": "Фролово",
		"district": "городской округ город Фролово",
		"postcode": " "
	},
	{
		"lon": "43.6418517",
		"lat": "49.7750544",
		"number": "141",
		"street": "улица Крайняя",
		"city": "Фролово",
		"district": "городской округ город Фролово",
		"postcode": " "
	},
	{
		"lon": "43.6405201",
		"lat": "49.7774484",
		"number": "1",
		"street": "улица Дзержинского",
		"city": "Фролово",
		"district": "городской округ город Фролово",
		"postcode": " "
	},
	{
		"lon": "43.6451332",
		"lat": "49.7740921",
		"number": "32",
		"street": "улица Пионерская",
		"city": "Фролово",
		"district": "городской округ город Фролово",
		"postcode": " "
	},
	{
		"lon": "43.6489894",
		"lat": "49.7723337",
		"number": "72",
		"street": "улица Свердлова",
		"city": "Фролово",
		"district": "городской округ город Фролово",
		"postcode": " "
	},
	{
		"lon": "43.6406356",
		"lat": "49.7723722",
		"number": "71а",
		"street": "улица Пушкина",
		"city": "Фролово",
		"district": "городской округ город Фролово",
		"postcode": " "
	},
	{
		"lon": "43.6478896",
		"lat": "49.7717253",
		"number": "83",
		"street": "улица Свердлова",
		"city": "Фролово",
		"district": "городской округ город Фролово",
		"postcode": " "
	},
	{
		"lon": "43.6451093",
		"lat": "49.769555",
		"number": "72/2",
		"street": "улица Садовая",
		"city": "Фролово",
		"district": "городской округ город Фролово",
		"postcode": " "
	},
	{
		"lon": "43.635679",
		"lat": "49.7707067",
		"number": "34",
		"street": "улица Международная",
		"city": "Фролово",
		"district": "городской округ город Фролово",
		"postcode": " "
	},
	{
		"lon": "43.6348559",
		"lat": "49.7706298",
		"number": "43",
		"street": "улица Международная",
		"city": "Фролово",
		"district": "городской округ город Фролово",
		"postcode": " "
	},
	{
		"lon": "43.6305446",
		"lat": "49.7691024",
		"number": "65",
		"street": "улица Фроловская",
		"city": "Фролово",
		"district": "городской округ город Фролово",
		"postcode": " "
	},
	{
		"lon": "43.6348514",
		"lat": "49.7687428",
		"number": "52",
		"street": "улица Фроловская",
		"city": "Фролово",
		"district": "городской округ город Фролово",
		"postcode": " "
	},
	{
		"lon": "43.6413344",
		"lat": "49.7678711",
		"number": "25",
		"street": "улица Пролетарская",
		"city": "Фролово",
		"district": "городской округ город Фролово",
		"postcode": " "
	},
	{
		"lon": "43.626992",
		"lat": "49.7681001",
		"number": "113",
		"street": "улица Московская",
		"city": "Фролово",
		"district": "городской округ город Фролово",
		"postcode": " "
	},
	{
		"lon": "43.6317383",
		"lat": "49.7655073",
		"number": "26",
		"street": "Кудинова",
		"city": "Фролово",
		"district": "городской округ город Фролово",
		"postcode": " "
	},
	{
		"lon": "43.6295828",
		"lat": "49.7642074",
		"number": "15",
		"street": "Некрасова",
		"city": "Фролово",
		"district": "городской округ город Фролово",
		"postcode": " "
	},
	{
		"lon": "43.630821",
		"lat": "49.7647394",
		"number": "14",
		"street": "Западный",
		"city": "Фролово",
		"district": "городской округ город Фролово",
		"postcode": " "
	},
	{
		"lon": "43.6233653",
		"lat": "49.7664305",
		"number": "80",
		"street": "Западный",
		"city": "Фролово",
		"district": "городской округ город Фролово",
		"postcode": " "
	},
	{
		"lon": "43.6285364",
		"lat": "49.7718669",
		"number": "26",
		"street": "улица Шевченко",
		"city": "Фролово",
		"district": "городской округ город Фролово",
		"postcode": " "
	},
	{
		"lon": "43.6283903",
		"lat": "49.7696904",
		"number": "44",
		"street": "улица Продольная",
		"city": "Фролово",
		"district": "городской округ город Фролово",
		"postcode": " "
	},
	{
		"lon": "43.6267461",
		"lat": "49.7719806",
		"number": "93",
		"street": "улица Дзержинского",
		"city": "Фролово",
		"district": "городской округ город Фролово",
		"postcode": " "
	},
	{
		"lon": "43.6211021",
		"lat": "49.7675895",
		"number": "2",
		"street": "улица Серафимовича",
		"city": "Фролово",
		"district": "городской округ город Фролово",
		"postcode": " "
	},
	{
		"lon": "43.6483484",
		"lat": "49.7517095",
		"number": "9",
		"street": "Заречный",
		"city": "Фролово",
		"district": "городской округ город Фролово",
		"postcode": " "
	},
	{
		"lon": "43.6584416",
		"lat": "49.7562908",
		"number": "16",
		"street": "улица карла либкнехта",
		"city": "Фролово",
		"district": "городской округ город Фролово",
		"postcode": " "
	},
	{
		"lon": "43.6528786",
		"lat": "49.7611472",
		"number": "52",
		"street": "улица Ленина",
		"city": "Фролово",
		"district": "городской округ город Фролово",
		"postcode": " "
	},
	{
		"lon": "43.6560338",
		"lat": "49.7600448",
		"number": "8",
		"street": "улица Спартаковская",
		"city": "Фролово",
		"district": "городской округ город Фролово",
		"postcode": " "
	},
	{
		"lon": "43.6537689",
		"lat": "49.7588204",
		"number": "12",
		"street": "Граничная",
		"city": "Фролово",
		"district": "городской округ город Фролово",
		"postcode": " "
	},
	{
		"lon": "43.6499914",
		"lat": "49.7570029",
		"number": "17",
		"street": "Ленина",
		"city": "Фролово",
		"district": "городской округ город Фролово",
		"postcode": " "
	},
	{
		"lon": "43.6473667",
		"lat": "49.7596606",
		"number": "28",
		"street": "Красная",
		"city": "Фролово",
		"district": "городской округ город Фролово",
		"postcode": " "
	},
	{
		"lon": "43.6452028",
		"lat": "49.7598945",
		"number": "40",
		"street": "Красная",
		"city": "Фролово",
		"district": "городской округ город Фролово",
		"postcode": " "
	},
	{
		"lon": "43.6434446",
		"lat": "49.7546101",
		"number": "10",
		"street": "Гвардейская",
		"city": "Фролово",
		"district": "городской округ город Фролово",
		"postcode": " "
	},
	{
		"lon": "43.6452203",
		"lat": "49.758239",
		"number": "3",
		"street": "Комсомольская",
		"city": "Фролово",
		"district": "городской округ город Фролово",
		"postcode": " "
	},
	{
		"lon": "43.6415333",
		"lat": "49.7607429",
		"number": "72",
		"street": "Красная",
		"city": "Фролово",
		"district": "городской округ город Фролово",
		"postcode": " "
	},
	{
		"lon": "43.6402038",
		"lat": "49.7642323",
		"number": "101",
		"street": "улица Спартаковская",
		"city": "Фролово",
		"district": "городской округ город Фролово",
		"postcode": " "
	},
	{
		"lon": "43.6542969",
		"lat": "49.7593581",
		"number": "13",
		"street": "Первомайская",
		"city": "Фролово",
		"district": "городской округ город Фролово",
		"postcode": " "
	},
	{
		"lon": "43.6472246",
		"lat": "49.7615936",
		"number": "59/1",
		"street": "Первомайская",
		"city": "Фролово",
		"district": "городской округ город Фролово",
		"postcode": " "
	},
	{
		"lon": "43.6367777",
		"lat": "49.7598457",
		"number": "13",
		"street": "Маяковского",
		"city": "Фролово",
		"district": "городской округ город Фролово",
		"postcode": " "
	},
	{
		"lon": "43.6393562",
		"lat": "49.7556369",
		"number": "31",
		"street": "Колхозная",
		"city": "Фролово",
		"district": "городской округ город Фролово",
		"postcode": " "
	},
	{
		"lon": "43.6355697",
		"lat": "49.7636192",
		"number": "13",
		"street": "улица Парковая",
		"city": "Фролово",
		"district": "городской округ город Фролово",
		"postcode": " "
	},
	{
		"lon": "43.6640318",
		"lat": "49.7572793",
		"number": "12",
		"street": "улица 40 лет Октября",
		"city": "Фролово",
		"district": "городской округ город Фролово",
		"postcode": " "
	},
	{
		"lon": "43.6601232",
		"lat": "49.7580271",
		"number": "2",
		"street": "улица Карла Маркса",
		"city": "Фролово",
		"district": "городской округ город Фролово",
		"postcode": " "
	},
	{
		"lon": "43.6626921",
		"lat": "49.7582715",
		"number": "20",
		"street": "улица Фрунзе",
		"city": "Фролово",
		"district": "городской округ город Фролово",
		"postcode": " "
	},
	{
		"lon": "43.6627551",
		"lat": "49.7600274",
		"number": "32",
		"street": "улица Разина",
		"city": "Фролово",
		"district": "городской округ город Фролово",
		"postcode": " "
	},
	{
		"lon": "43.6611297",
		"lat": "49.7624067",
		"number": "21",
		"street": "улица Калинина",
		"city": "Фролово",
		"district": "городской округ город Фролово",
		"postcode": " "
	},
	{
		"lon": "43.6632101",
		"lat": "49.7623461",
		"number": "15",
		"street": "улица Ермольевой",
		"city": "Фролово",
		"district": "городской округ город Фролово",
		"postcode": " "
	},
	{
		"lon": "43.6664585",
		"lat": "49.7639116",
		"number": "20",
		"street": "улица Матросова",
		"city": "Фролово",
		"district": "городской округ город Фролово",
		"postcode": " "
	},
	{
		"lon": "43.6690382",
		"lat": "49.7618078",
		"number": "14",
		"street": "улица Подгорная",
		"city": "Фролово",
		"district": "городской округ город Фролово",
		"postcode": " "
	},
	{
		"lon": "43.674747",
		"lat": "49.7609889",
		"number": "15",
		"street": "улица Рабочая",
		"city": "Фролово",
		"district": "городской округ город Фролово",
		"postcode": " "
	},
	{
		"lon": "43.6729674",
		"lat": "49.7639958",
		"number": "29",
		"street": "улица Строителей",
		"city": "Фролово",
		"district": "городской округ город Фролово",
		"postcode": " "
	},
	{
		"lon": "43.6630527",
		"lat": "49.7644626",
		"number": "90",
		"street": "улица 40 лет Октября",
		"city": "Фролово",
		"district": "городской округ город Фролово",
		"postcode": " "
	},
	{
		"lon": "43.6698896",
		"lat": "49.7662108",
		"number": "86",
		"street": "улица Октябрьская",
		"city": "Фролово",
		"district": "городской округ город Фролово",
		"postcode": " "
	},
	{
		"lon": "43.682711",
		"lat": "49.7679318",
		"number": "7",
		"street": "улица Гринера",
		"city": "Фролово",
		"district": "городской округ город Фролово",
		"postcode": " "
	},
	{
		"lon": "43.6816504",
		"lat": "49.766553",
		"number": "20",
		"street": "улица Енисейская",
		"city": "Фролово",
		"district": "городской округ город Фролово",
		"postcode": " "
	},
	{
		"lon": "43.6805219",
		"lat": "49.7688926",
		"number": "44",
		"street": "улица Енисейская",
		"city": "Фролово",
		"district": "городской округ город Фролово",
		"postcode": " "
	},
	{
		"lon": "43.6788349",
		"lat": "49.764717",
		"number": "4",
		"street": "улица Камская",
		"city": "Фролово",
		"district": "городской округ город Фролово",
		"postcode": " "
	},
	{
		"lon": "43.6617313",
		"lat": "49.7728986",
		"number": "171",
		"street": "улица Подгорная",
		"city": "Фролово",
		"district": "городской округ город Фролово",
		"postcode": " "
	},
	{
		"lon": "43.6675641",
		"lat": "49.7775738",
		"number": "16",
		"street": "улица Овражная",
		"city": "Фролово",
		"district": "городской округ город Фролово",
		"postcode": " "
	},
	{
		"lon": "43.6660076",
		"lat": "49.7795583",
		"number": "12",
		"street": "улица Овражная",
		"city": "Фролово",
		"district": "городской округ город Фролово",
		"postcode": " "
	},
	{
		"lon": "43.6533332",
		"lat": "49.7779803",
		"number": "239",
		"street": "улица 40 лет октября",
		"city": "Фролово",
		"district": "городской округ город Фролово",
		"postcode": " "
	},
	{
		"lon": "43.654914",
		"lat": "49.7769479",
		"number": "234",
		"street": "улица 40 лет октября",
		"city": "Фролово",
		"district": "городской округ город Фролово",
		"postcode": " "
	},
	{
		"lon": "43.6613849",
		"lat": "49.7807668",
		"number": "215",
		"street": "улица Строителлей",
		"city": "Фролово",
		"district": "городской округ город Фролово",
		"postcode": " "
	},
	{
		"lon": "43.6599587",
		"lat": "49.779489",
		"number": "203",
		"street": "улица Октябрьская",
		"city": "Фролово",
		"district": "городской округ город Фролово",
		"postcode": " "
	},
	{
		"lon": "43.657642",
		"lat": "49.7785459",
		"number": "227",
		"street": "улица Подгорная",
		"city": "Фролово",
		"district": "городской округ город Фролово",
		"postcode": " "
	},
	{
		"lon": "43.6578355",
		"lat": "49.7741543",
		"number": "25",
		"street": "улица Гагарина",
		"city": "Фролово",
		"district": "городской округ город Фролово",
		"postcode": " "
	},
	{
		"lon": "43.6607584",
		"lat": "49.77538",
		"number": "176",
		"street": "улица Подгорная",
		"city": "Фролово",
		"district": "городской округ город Фролово",
		"postcode": " "
	},
	{
		"lon": "43.655863",
		"lat": "49.7698544",
		"number": "5",
		"street": "улица Пугачева",
		"city": "Фролово",
		"district": "городской округ город Фролово",
		"postcode": " "
	},
	{
		"lon": "43.661303",
		"lat": "49.7644374",
		"number": "3",
		"street": "улица Матросова",
		"city": "Фролово",
		"district": "городской округ город Фролово",
		"postcode": " "
	},
	{
		"lon": "43.6616708",
		"lat": "49.7706206",
		"number": "128",
		"street": "улица Воровского",
		"city": "Фролово",
		"district": "городской округ город Фролово",
		"postcode": " "
	},
	{
		"lon": "43.6649341",
		"lat": "49.7716861",
		"number": "119",
		"street": "улица Октябрьская",
		"city": "Фролово",
		"district": "городской округ город Фролово",
		"postcode": " "
	},
	{
		"lon": "43.6607125",
		"lat": "49.766876",
		"number": "21",
		"street": "улица Хлеборобная",
		"city": "Фролово",
		"district": "городской округ город Фролово",
		"postcode": " "
	},
	{
		"lon": "43.6625122",
		"lat": "49.7657831",
		"number": "3",
		"street": "улица Гаврилина",
		"city": "Фролово",
		"district": "городской округ город Фролово",
		"postcode": " "
	},
	{
		"lon": "43.6649345",
		"lat": "49.7694539",
		"number": "114",
		"street": "улица Подгорная",
		"city": "Фролово",
		"district": "городской округ город Фролово",
		"postcode": " "
	},
	{
		"lon": "43.6688869",
		"lat": "49.7679732",
		"number": "108",
		"street": "улица Октябрьская",
		"city": "Фролово",
		"district": "городской округ город Фролово",
		"postcode": " "
	},
	{
		"lon": "43.6696667",
		"lat": "49.7684079",
		"number": "8",
		"street": "проезд Школьный",
		"city": "Фролово",
		"district": "городской округ город Фролово",
		"postcode": " "
	},
	{
		"lon": "43.6750878",
		"lat": "49.7699234",
		"number": "2",
		"street": "переулок Нефтяников",
		"city": "Фролово",
		"district": "городской округ город Фролово",
		"postcode": " "
	},
	{
		"lon": "43.670525",
		"lat": "49.7701912",
		"number": "48",
		"street": "улица Хлеборобная",
		"city": "Фролово",
		"district": "городской округ город Фролово",
		"postcode": " "
	},
	{
		"lon": "43.6578074",
		"lat": "49.7682082",
		"number": "114",
		"street": "улица Калинина",
		"city": "Фролово",
		"district": "городской округ город Фролово",
		"postcode": " "
	},
	{
		"lon": "43.6212039",
		"lat": "49.7949169",
		"number": "168",
		"street": "улица Кирова",
		"city": "Фролово",
		"district": "городской округ город Фролово",
		"postcode": " "
	},
	{
		"lon": "42.180577",
		"lat": "50.2871147",
		"number": "29а",
		"street": "переулок Колхозный",
		"city": "Алексеевская",
		"district": "Алексеевский муниципальный район",
		"postcode": " "
	},
	{
		"lon": "42.1933181",
		"lat": "50.2919181",
		"number": "2/1",
		"street": "переулок Шумейко",
		"city": "Алексеевская",
		"district": "Алексеевский муниципальный район",
		"postcode": " "
	},
	{
		"lon": "42.1847918",
		"lat": "50.2873695",
		"number": "17",
		"street": "улица Ленина",
		"city": "Алексеевская",
		"district": "Алексеевский муниципальный район",
		"postcode": " "
	},
	{
		"lon": "42.1893335",
		"lat": "50.282514",
		"number": "17",
		"street": "улица Крестьянская",
		"city": "Алексеевская",
		"district": "Алексеевский муниципальный район",
		"postcode": " "
	},
	{
		"lon": "42.1839962",
		"lat": "50.2979254",
		"number": "85",
		"street": "улица Ленина",
		"city": "Алексеевская",
		"district": "Алексеевский муниципальный район",
		"postcode": " "
	},
	{
		"lon": "42.1871128",
		"lat": "50.2945416",
		"number": "89",
		"street": "улица Красногвардейская",
		"city": "Алексеевская",
		"district": "Алексеевский муниципальный район",
		"postcode": " "
	},
	{
		"lon": "42.1906568",
		"lat": "50.2871405",
		"number": "4а",
		"street": "переулок Колхозный",
		"city": "Алексеевская",
		"district": "Алексеевский муниципальный район",
		"postcode": " "
	},
	{
		"lon": "42.1912016",
		"lat": "50.2892391",
		"number": "3",
		"street": "переулок Гулина",
		"city": "Алексеевская",
		"district": "Алексеевский муниципальный район",
		"postcode": " "
	},
	{
		"lon": "42.1938255",
		"lat": "50.2932657",
		"number": "1",
		"street": "переулок Лазаренко",
		"city": "Алексеевская",
		"district": "Алексеевский муниципальный район",
		"postcode": " "
	},
	{
		"lon": "42.1801958",
		"lat": "50.2881582",
		"number": "9",
		"street": "улица Первомайская",
		"city": "Алексеевская",
		"district": "Алексеевский муниципальный район",
		"postcode": "403241"
	},
	{
		"lon": "42.188463",
		"lat": "50.2859007",
		"number": "8",
		"street": "переулок Пионерский",
		"city": "Алексеевская",
		"district": "Алексеевский муниципальный район",
		"postcode": " "
	},
	{
		"lon": "42.1929309",
		"lat": "50.3025079",
		"number": "4а",
		"street": "улица Мелиораторов",
		"city": "Алексеевская",
		"district": "Алексеевский муниципальный район",
		"postcode": "403241"
	},
	{
		"lon": "42.1798046",
		"lat": "50.2919188",
		"number": "33",
		"street": "улица Первомайская",
		"city": "Алексеевская",
		"district": "Алексеевский муниципальный район",
		"postcode": "403241"
	},
	{
		"lon": "42.1909486",
		"lat": "50.2882665",
		"number": "7/2",
		"street": "переулок Малинина",
		"city": "Алексеевская",
		"district": "Алексеевский муниципальный район",
		"postcode": "403241"
	},
	{
		"lon": "42.1867863",
		"lat": "50.2965211",
		"number": "101",
		"street": "улица Красногвардейская",
		"city": "Алексеевская",
		"district": "Алексеевский муниципальный район",
		"postcode": " "
	},
	{
		"lon": "42.1780251",
		"lat": "50.2904882",
		"number": "11",
		"street": "улица Набережная",
		"city": "Алексеевская",
		"district": "Алексеевский муниципальный район",
		"postcode": " "
	},
	{
		"lon": "43.3166165",
		"lat": "50.8139876",
		"number": "70",
		"street": "улица Средняя",
		"city": "Мачеха",
		"district": "Киквидзенский муниципальный район",
		"postcode": "403232"
	},
	{
		"lon": "41.7360092",
		"lat": "50.4038697",
		"number": "32",
		"street": "улица Юбилейная",
		"city": "Нехаевская",
		"district": "Нехаевский муниципальный район",
		"postcode": "403171"
	},
	{
		"lon": "41.7357122",
		"lat": "50.4038455",
		"number": "34",
		"street": "улица Юбилейная",
		"city": "Нехаевская",
		"district": "Нехаевский муниципальный район",
		"postcode": "403171"
	},
	{
		"lon": "41.7401829",
		"lat": "50.4053651",
		"number": "32",
		"street": "улица Лермонтова",
		"city": "Нехаевская",
		"district": "Нехаевский муниципальный район",
		"postcode": "403171"
	},
	{
		"lon": "41.7607982",
		"lat": "50.410879",
		"number": "22",
		"street": "улица Садовая",
		"city": "Нехаевская",
		"district": "Нехаевский муниципальный район",
		"postcode": "403171"
	},
	{
		"lon": "43.1576273",
		"lat": "47.5859183",
		"number": "5",
		"street": "улица Школьная",
		"city": "Нагольный",
		"district": "Котельниковский муниципальный район",
		"postcode": " "
	},
	{
		"lon": "41.4834634",
		"lat": "50.6388383",
		"number": "13",
		"street": "улица Урюпинская",
		"city": "Успенка",
		"district": "Нехаевский муниципальный район",
		"postcode": "403192"
	},
	{
		"lon": "43.5727668",
		"lat": "47.5980536",
		"number": "14",
		"street": "улица Солнечная",
		"city": "Выпасной",
		"district": "Котельниковский муниципальный район",
		"postcode": "404366"
	},
	{
		"lon": "43.572429",
		"lat": "47.6000263",
		"number": "16",
		"street": "улица им. З.Е. Братусевой",
		"city": "Выпасной",
		"district": "Котельниковский муниципальный район",
		"postcode": " "
	},
	{
		"lon": "43.0419762",
		"lat": "47.6160389",
		"number": "18\\1",
		"street": "улица Прибрежная",
		"city": "Семичный",
		"district": "Котельниковский муниципальный район",
		"postcode": "404362"
	},
	{
		"lon": "41.7783934",
		"lat": "50.3982338",
		"number": "222",
		"street": "улица Колхозная",
		"city": "Павловский",
		"district": "Нехаевский муниципальный район",
		"postcode": "403171"
	},
	{
		"lon": "43.4857863",
		"lat": "47.8444803",
		"number": "15/2",
		"street": "улица молодёжная",
		"city": "равнинный",
		"district": "Котельниковский муниципальный район",
		"postcode": "404385"
	},
	{
		"lon": "41.7557867",
		"lat": "50.4113522",
		"number": "5",
		"street": "улица Гагарина",
		"city": "Нехаевская",
		"district": "Нехаевский муниципальный район",
		"postcode": "403171"
	},
	{
		"lon": "43.4704948",
		"lat": "47.8431356",
		"number": "9",
		"street": "улица целинная",
		"city": "равнинный",
		"district": "Котельниковский муниципальный район",
		"postcode": "404385"
	},
	{
		"lon": "43.0330771",
		"lat": "47.6171191",
		"number": "26",
		"street": "улица Новоселов",
		"city": "Семичный",
		"district": "Котельниковский муниципальный район",
		"postcode": "404362"
	},
	{
		"lon": "43.0289341",
		"lat": "47.6196772",
		"number": "23",
		"street": "улица Зеленая",
		"city": "Семичный",
		"district": "Котельниковский муниципальный район",
		"postcode": "404362"
	},
	{
		"lon": "41.6750619",
		"lat": "50.5182199",
		"number": "72",
		"street": "переулок Шолохова",
		"city": "Нижнедолговское",
		"district": "Нехаевский муниципальный район",
		"postcode": "403191"
	},
	{
		"lon": "43.0383805",
		"lat": "47.6209047",
		"number": "32",
		"street": "улица им.П.С.Фисенко",
		"city": "Семичный",
		"district": "Котельниковский муниципальный район",
		"postcode": "404362"
	},
	{
		"lon": "43.2534436",
		"lat": "50.5488218",
		"number": "21/2",
		"street": "улица Центральная",
		"city": "Мордвинцево",
		"district": "Киквидзенский муниципальный район",
		"postcode": "403212"
	},
	{
		"lon": "45.3172955",
		"lat": "49.6225805",
		"number": "15",
		"street": "улица Историческая",
		"city": "Молодежный",
		"district": "Быковский муниципальный район",
		"postcode": " "
	},
	{
		"lon": "43.0428516",
		"lat": "47.6215245",
		"number": "5",
		"street": "улица им.П.С.Фисенко",
		"city": "Семичный",
		"district": "Котельниковский муниципальный район",
		"postcode": "404362"
	},
	{
		"lon": "44.7015473",
		"lat": "50.9789371",
		"number": "46",
		"street": "улица Зелёная",
		"city": " ",
		"district": "Жирновский муниципальный район",
		"postcode": " "
	},
	{
		"lon": "42.3262812",
		"lat": "49.8550394",
		"number": "19",
		"street": "улица Атамановская",
		"city": "Слащевская",
		"district": "Кумылженский муниципальный район",
		"postcode": "403420"
	},
	{
		"lon": "41.4702966",
		"lat": "50.5009584",
		"number": "1",
		"street": "улица Ленина",
		"city": "Краснополье",
		"district": "Нехаевский муниципальный район",
		"postcode": "403194"
	},
	{
		"lon": "41.6824169",
		"lat": "50.5388522",
		"number": "60",
		"street": "улица Мира",
		"city": "Нижнедолговский",
		"district": "Нехаевский муниципальный район",
		"postcode": "403191"
	},
	{
		"lon": "44.7029675",
		"lat": "50.9800845",
		"number": "3",
		"street": "улица Зеленая",
		"city": " ",
		"district": "Жирновский муниципальный район",
		"postcode": " "
	},
	{
		"lon": "41.7514233",
		"lat": "50.4102654",
		"number": "11",
		"street": "переулок Почтовый",
		"city": "Нехаевская",
		"district": "Нехаевский муниципальный район",
		"postcode": "403171"
	},
	{
		"lon": "41.6546822",
		"lat": "50.2409912",
		"number": "172",
		"street": "улица Шпунта",
		"city": "Динамо",
		"district": "Нехаевский муниципальный район",
		"postcode": "403181"
	},
	{
		"lon": "43.2275501",
		"lat": "48.0007698",
		"number": "3",
		"street": "улица Южная",
		"city": "Генераловский",
		"district": "Котельниковский муниципальный район",
		"postcode": "404372"
	},
	{
		"lon": "42.8162143",
		"lat": "47.7670085",
		"number": "1",
		"street": "переулок Пляжный",
		"city": "Нагавская",
		"district": "Котельниковский муниципальный район",
		"postcode": "404375"
	},
	{
		"lon": "43.1589221",
		"lat": "48.0161582",
		"number": "15",
		"street": "улица Молодежная",
		"city": "Пугачевская",
		"district": "Котельниковский муниципальный район",
		"postcode": "404378"
	},
	{
		"lon": "43.3080396",
		"lat": "50.8064391",
		"number": "13",
		"street": "улица Гриши Яровенко",
		"city": "Мачеха",
		"district": "Киквидзенский муниципальный район",
		"postcode": "403232"
	},
	{
		"lon": "41.6585097",
		"lat": "50.2424362",
		"number": "7",
		"street": "улица Белибо",
		"city": "Динамо",
		"district": "Нехаевский муниципальный район",
		"postcode": "403181"
	},
	{
		"lon": "43.580956",
		"lat": "47.6038035",
		"number": "3",
		"street": "улица Запрудная",
		"city": "Выпасной",
		"district": "Котельниковский муниципальный район",
		"postcode": " "
	},
	{
		"lon": "43.579334",
		"lat": "47.604875",
		"number": "13/1",
		"street": "улица Советская",
		"city": "Выпасной",
		"district": "Котельниковский муниципальный район",
		"postcode": " "
	},
	{
		"lon": "45.3548179",
		"lat": "49.6151555",
		"number": "18",
		"street": "улица Лесная",
		"city": "Зеленый",
		"district": "Быковский муниципальный район",
		"postcode": " "
	},
	{
		"lon": "43.2131137",
		"lat": "50.4936413",
		"number": "20/1",
		"street": "улица Новая",
		"city": "Удодовский",
		"district": "Новоаннинский муниципальный район",
		"postcode": "403993"
	},
	{
		"lon": "43.1613781",
		"lat": "48.0162086",
		"number": "23/1",
		"street": "улица молодежная",
		"city": "Пугачевская",
		"district": "Котельниковский муниципальный район",
		"postcode": "404378"
	},
	{
		"lon": "43.1659511",
		"lat": "48.015909",
		"number": "42",
		"street": "улица Молодежная",
		"city": "Пугачевская",
		"district": "Котельниковский муниципальный район",
		"postcode": "404378"
	},
	{
		"lon": "43.1561496",
		"lat": "48.0151263",
		"number": "5",
		"street": "улица Степана Разина",
		"city": "Пугачевская",
		"district": "Котельниковский муниципальный район",
		"postcode": "404378"
	},
	{
		"lon": "44.7010477",
		"lat": "50.9779601",
		"number": "38",
		"street": "улица Зеленая",
		"city": "Андреевка",
		"district": "Жирновский муниципальный район",
		"postcode": "403768"
	},
	{
		"lon": "42.5754983",
		"lat": "50.6852758",
		"number": "10",
		"street": "улица Киквидзе",
		"city": "Черкесовский",
		"district": "Новоаннинский муниципальный район",
		"postcode": "403980"
	},
	{
		"lon": "42.5422537",
		"lat": "50.4856494",
		"number": "14",
		"street": "улица Молодежная",
		"city": "Староаннинская",
		"district": "Новоаннинский муниципальный район",
		"postcode": "403970"
	},
	{
		"lon": "43.0289756",
		"lat": "47.7186412",
		"number": "4",
		"street": "улица Советская",
		"city": "Похлебин",
		"district": "Котельниковский муниципальный район",
		"postcode": "404386"
	},
	{
		"lon": "42.5904951",
		"lat": "50.5033761",
		"number": "45",
		"street": "улица Дачная",
		"city": "Весёлый",
		"district": "Новоаннинский муниципальный район",
		"postcode": "403970"
	},
	{
		"lon": "43.3277502",
		"lat": "50.8116055",
		"number": "66",
		"street": "улица Гриши Яровенко",
		"city": "Мачеха",
		"district": "Киквидзенский муниципальный район",
		"postcode": "403232"
	},
	{
		"lon": "42.6132778",
		"lat": "50.5519201",
		"number": "2/2",
		"street": "улица Центральная",
		"city": "Березовка 1-я",
		"district": "Новоаннинский муниципальный район",
		"postcode": "403976"
	},
	{
		"lon": "42.5569254",
		"lat": "50.5413918",
		"number": "42",
		"street": "улица Центральная",
		"city": "Березовка 2-я",
		"district": "Новоаннинский муниципальный район",
		"postcode": "403976"
	},
	{
		"lon": "43.3214354",
		"lat": "50.8106372",
		"number": "36",
		"street": "улица Комсомольская",
		"city": "Мачеха",
		"district": "Киквидзенский муниципальный район",
		"postcode": "403232"
	},
	{
		"lon": "43.3245613",
		"lat": "50.807465",
		"number": "8",
		"street": "улица Комсомольская",
		"city": "Мачеха",
		"district": "Киквидзенский муниципальный район",
		"postcode": "403232"
	},
	{
		"lon": "43.3234095",
		"lat": "50.8072709",
		"number": "9",
		"street": "улица Комсомольская",
		"city": "Мачеха",
		"district": "Киквидзенский муниципальный район",
		"postcode": "403232"
	},
	{
		"lon": "43.3139612",
		"lat": "50.8156719",
		"number": "45",
		"street": "улица Степана Разина",
		"city": "Мачеха",
		"district": "Киквидзенский муниципальный район",
		"postcode": "403232"
	},
	{
		"lon": "42.4074518",
		"lat": "50.5284025",
		"number": "77",
		"street": "улица Крестьянская",
		"city": "Клейменовский",
		"district": "Новоаннинский муниципальный район",
		"postcode": " "
	},
	{
		"lon": "43.3085269",
		"lat": "50.7912386",
		"number": "25",
		"street": "улица Благовещенка",
		"city": "Мачеха",
		"district": "Киквидзенский муниципальный район",
		"postcode": "403232"
	},
	{
		"lon": "43.3117317",
		"lat": "50.8142065",
		"number": "23",
		"street": "улица Степана Разина",
		"city": "Мачеха",
		"district": "Киквидзенский муниципальный район",
		"postcode": "403232"
	},
	{
		"lon": "43.5804157",
		"lat": "47.5994388",
		"number": "4",
		"street": "улица Садовая",
		"city": "Выпасной",
		"district": "Котельниковский муниципальный район",
		"postcode": " "
	},
	{
		"lon": "44.8717081",
		"lat": "48.7009278",
		"number": "157",
		"street": "улица С.Разина",
		"city": "Средняя Ахтуба",
		"district": "Среднеахтубинский муниципальный район",
		"postcode": " "
	},
	{
		"lon": "42.9216228",
		"lat": "48.6473212",
		"number": "23",
		"street": "улица Мостовая",
		"city": "Жирковский",
		"district": "Суровикинский муниципальный район",
		"postcode": "404415"
	},
	{
		"lon": "47.1097696",
		"lat": "50.0825384",
		"number": "131",
		"street": "улица Иванчука",
		"city": "Савинка",
		"district": "Палласовский муниципальный район",
		"postcode": "404231"
	},
	{
		"lon": "43.0814361",
		"lat": "48.3576894",
		"number": "1",
		"street": "улица им. Ломоносова",
		"city": "Нижний Чир",
		"district": "Суровикинский муниципальный район",
		"postcode": "404446"
	},
	{
		"lon": "42.9640818",
		"lat": "48.8144304",
		"number": "30",
		"street": "улица Александровская",
		"city": "Добринка",
		"district": "Суровикинский муниципальный район",
		"postcode": "404433"
	},
	{
		"lon": "47.1961165",
		"lat": "50.184818",
		"number": "32",
		"street": "улица Центральная",
		"city": "Кумысолечебница",
		"district": "Палласовский муниципальный район",
		"postcode": "404232"
	},
	{
		"lon": "47.1977538",
		"lat": "50.1853367",
		"number": "33",
		"street": "улица Центральная",
		"city": "Кумысолечебница",
		"district": "Палласовский муниципальный район",
		"postcode": "404232"
	},
	{
		"lon": "43.090723",
		"lat": "48.3533954",
		"number": "21",
		"street": "улица Набережная",
		"city": "Нижний Чир",
		"district": "Суровикинский муниципальный район",
		"postcode": "404446"
	},
	{
		"lon": "43.1793301",
		"lat": "48.9009973",
		"number": "21",
		"street": "улица Набережная",
		"city": "Майоровский",
		"district": "Суровикинский муниципальный район",
		"postcode": "404434"
	},
	{
		"lon": "43.1849025",
		"lat": "48.8936356",
		"number": "3",
		"street": "улица Зеленая",
		"city": "Майоровский",
		"district": "Суровикинский муниципальный район",
		"postcode": "404434"
	},
	{
		"lon": "43.181461",
		"lat": "48.893555",
		"number": "26",
		"street": "улица Центральная",
		"city": "Майоровский",
		"district": "Суровикинский муниципальный район",
		"postcode": "404434"
	},
	{
		"lon": "42.8049428",
		"lat": "48.8692148",
		"number": "3",
		"street": "улица Речная",
		"city": "Киселев",
		"district": "Суровикинский муниципальный район",
		"postcode": "404432"
	},
	{
		"lon": "42.8666609",
		"lat": "48.6002995",
		"number": "1",
		"street": "переулок Тихий",
		"city": "Суровикино",
		"district": "Суровикинский муниципальный район",
		"postcode": "404412"
	},
	{
		"lon": "42.8467898",
		"lat": "48.7925408",
		"number": "25",
		"street": "улица Центральная",
		"city": "Лобакин",
		"district": "Суровикинский муниципальный район",
		"postcode": "404432"
	},
	{
		"lon": "44.4971358",
		"lat": "48.4533112",
		"number": "5",
		"street": "улица Извилистая",
		"city": "Чапурники",
		"district": "Светлоярский муниципальный район",
		"postcode": "404181"
	},
	{
		"lon": "43.1851209",
		"lat": "48.8908155",
		"number": "21",
		"street": "улица Зеленая",
		"city": "Майоровский",
		"district": "Суровикинский муниципальный район",
		"postcode": "404434"
	},
	{
		"lon": "43.0808747",
		"lat": "48.3687596",
		"number": "16",
		"street": "улица Суворова",
		"city": "Нижний Чир",
		"district": "Суровикинский муниципальный район",
		"postcode": "404446"
	},
	{
		"lon": "43.0871135",
		"lat": "48.3563411",
		"number": "33",
		"street": "улица Советская",
		"city": "Нижний Чир",
		"district": "Суровикинский муниципальный район",
		"postcode": "404446"
	},
	{
		"lon": "43.0931357",
		"lat": "48.3540333",
		"number": "4",
		"street": "улица Первомайская",
		"city": "Нижний Чир",
		"district": "Суровикинский муниципальный район",
		"postcode": "404446"
	},
	{
		"lon": "44.8770052",
		"lat": "48.7073137",
		"number": "15",
		"street": "улица Омская",
		"city": "Средняя Ахтуба",
		"district": "Среднеахтубинский муниципальный район",
		"postcode": "404143"
	},
	{
		"lon": "44.8773359",
		"lat": "48.7007145",
		"number": "6",
		"street": "улица Лылова",
		"city": "Средняя Ахтуба",
		"district": "Среднеахтубинский муниципальный район",
		"postcode": "404143"
	},
	{
		"lon": "44.8741348",
		"lat": "48.7013961",
		"number": "6а",
		"street": "переулок Прогонный",
		"city": "Средняя Ахтуба",
		"district": "Среднеахтубинский муниципальный район",
		"postcode": " "
	}
]