[
	{
		"lon": "-105.473129",
		"lat": "42.0106608",
		"number": "24",
		"street": "\"24-72-21",
		"city": "28",
		"district": "32",
		"postcode": "34\""
	},
	{
		"lon": "-122.3512027",
		"lat": "47.5375004",
		"number": "1216",
		"street": "SW OTHELLO ST",
		"city": "SEATTLE",
		"district": "KING",
		"postcode": "98106"
	},
	{
		"lon": "-122.3997155",
		"lat": "47.5673304",
		"number": "4041",
		"street": "52ND PL SW",
		"city": "SEATTLE",
		"district": "KING",
		"postcode": "98116"
	},
	{
		"lon": "-122.3749253",
		"lat": "47.5328394",
		"number": "7740",
		"street": "34TH AVE SW",
		"city": "SEATTLE",
		"district": "KING",
		"postcode": "98126"
	},
	{
		"lon": "-122.272944",
		"lat": "47.5341329",
		"number": "7619",
		"street": "48TH AVE S",
		"city": "SEATTLE",
		"district": "KING",
		"postcode": "98118"
	},
	{
		"lon": "-122.3817966",
		"lat": "47.5631893",
		"number": "4451",
		"street": "39TH AVE SW",
		"city": "SEATTLE",
		"district": "KING",
		"postcode": "98116"
	},
	{
		"lon": "-122.2951603",
		"lat": "47.5889708",
		"number": "1515",
		"street": "29TH AVE S",
		"city": "SEATTLE",
		"district": "KING",
		"postcode": "98144"
	},
	{
		"lon": "-122.3156881",
		"lat": "47.5588651",
		"number": "4868",
		"street": "13TH AVE S",
		"city": "SEATTLE",
		"district": "KING",
		"postcode": "98108"
	},
	{
		"lon": "-122.3863902",
		"lat": "47.5390721",
		"number": "4172",
		"street": "SW ORCHARD ST",
		"city": "SEATTLE",
		"district": "KING",
		"postcode": "98136"
	},
	{
		"lon": "-122.3744779",
		"lat": "47.5724628",
		"number": "3415",
		"street": "33RD AVE SW",
		"city": "SEATTLE",
		"district": "KING",
		"postcode": "98126"
	},
	{
		"lon": "-122.3843085",
		"lat": "47.5709017",
		"number": "3708",
		"street": "41ST AVE SW",
		"city": "SEATTLE",
		"district": "KING",
		"postcode": "98116"
	},
	{
		"lon": "-122.3205384",
		"lat": "47.5469484",
		"number": "6213",
		"street": "CARLETON AVE S",
		"city": "SEATTLE",
		"district": "KING",
		"postcode": "98108"
	},
	{
		"lon": "-122.2938388",
		"lat": "47.5818075",
		"number": "2336",
		"street": "30TH AVE S",
		"city": "SEATTLE",
		"district": "KING",
		"postcode": "98144"
	},
	{
		"lon": "-122.384327",
		"lat": "47.5882387",
		"number": "1638",
		"street": "PALM AVE SW",
		"city": "SEATTLE",
		"district": "KING",
		"postcode": "98116"
	},
	{
		"lon": "-122.2879092",
		"lat": "47.5594527",
		"number": "4743",
		"street": "36TH AVE S",
		"city": "SEATTLE",
		"district": "KING",
		"postcode": "98118"
	},
	{
		"lon": "-122.3900609",
		"lat": "47.53816",
		"number": "7150",
		"street": "45TH AVE SW",
		"city": "SEATTLE",
		"district": "KING",
		"postcode": "98136"
	},
	{
		"lon": "-122.2906957",
		"lat": "47.5348464",
		"number": "7515",
		"street": "BEACON AVE S",
		"city": "SEATTLE",
		"district": "KING",
		"postcode": "98118"
	},
	{
		"lon": "-122.2906815",
		"lat": "47.5741444",
		"number": "3234",
		"street": "33RD AVE S",
		"city": "SEATTLE",
		"district": "KING",
		"postcode": "98144"
	},
	{
		"lon": "-122.3858709",
		"lat": "47.532731",
		"number": "4127",
		"street": "SW PORTLAND ST",
		"city": "SEATTLE",
		"district": "KING",
		"postcode": "98136"
	},
	{
		"lon": "-122.3944351",
		"lat": "47.5737236",
		"number": "3402",
		"street": "49TH AVE SW",
		"city": "SEATTLE",
		"district": "KING",
		"postcode": "98116"
	},
	{
		"lon": "-122.3095321",
		"lat": "47.5794483",
		"number": "1723",
		"street": "S LANDER ST",
		"city": "SEATTLE",
		"district": "KING",
		"postcode": "98144"
	},
	{
		"lon": "-122.395965",
		"lat": "47.5541202",
		"number": "4919",
		"street": "SW CANADA DR",
		"city": "SEATTLE",
		"district": "KING",
		"postcode": "98136"
	},
	{
		"lon": "-122.316293",
		"lat": "47.5655578",
		"number": "4155",
		"street": "13TH AVE S",
		"city": "SEATTLE",
		"district": "KING",
		"postcode": "98108"
	},
	{
		"lon": "-122.4025515",
		"lat": "47.569822",
		"number": "3816",
		"street": "55TH AVE SW",
		"city": "SEATTLE",
		"district": "KING",
		"postcode": "98116"
	},
	{
		"lon": "-122.391779",
		"lat": "47.5706268",
		"number": "3654",
		"street": "47TH AVE SW",
		"city": "SEATTLE",
		"district": "KING",
		"postcode": "98116"
	},
	{
		"lon": "-122.2911079",
		"lat": "47.6136381",
		"number": "1426",
		"street": "32ND AVE",
		"city": "SEATTLE",
		"district": "KING",
		"postcode": "98122"
	},
	{
		"lon": "-122.3093087",
		"lat": "47.5601638",
		"number": "1731",
		"street": "S ANGELINE ST",
		"city": "SEATTLE",
		"district": "KING",
		"postcode": "98108"
	},
	{
		"lon": "-122.2717236",
		"lat": "47.553559",
		"number": "4820",
		"street": "S BRANDON ST",
		"city": "SEATTLE",
		"district": "KING",
		"postcode": "98118"
	},
	{
		"lon": "-122.308456",
		"lat": "47.5797973",
		"number": "2612",
		"street": "19TH AVE S",
		"city": "SEATTLE",
		"district": "KING",
		"postcode": "98144"
	},
	{
		"lon": "-122.3112153",
		"lat": "47.5828366",
		"number": "1621",
		"street": "S COLLEGE ST",
		"city": "SEATTLE",
		"district": "KING",
		"postcode": "98144"
	},
	{
		"lon": "-122.3039788",
		"lat": "47.5492706",
		"number": "5916",
		"street": "23RD AVE S",
		"city": "SEATTLE",
		"district": "KING",
		"postcode": "98108"
	},
	{
		"lon": "-122.2994357",
		"lat": "47.5574675",
		"number": "4935",
		"street": "26TH AVE S",
		"city": "SEATTLE",
		"district": "KING",
		"postcode": "98108"
	},
	{
		"lon": "-122.2671737",
		"lat": "47.55356",
		"number": "5220",
		"street": "S BRANDON ST",
		"city": "SEATTLE",
		"district": "KING",
		"postcode": "98118"
	},
	{
		"lon": "-122.2686991",
		"lat": "47.5546768",
		"number": "5125",
		"street": "S DAWSON ST",
		"city": "SEATTLE",
		"district": "KING",
		"postcode": "98118"
	},
	{
		"lon": "-122.2690914",
		"lat": "47.5394838",
		"number": "5117",
		"street": "S FRONTENAC ST",
		"city": "SEATTLE",
		"district": "KING",
		"postcode": "98118"
	},
	{
		"lon": "-122.3563881",
		"lat": "47.5407866",
		"number": "7005",
		"street": "17TH AVE SW",
		"city": "SEATTLE",
		"district": "KING",
		"postcode": "98106"
	},
	{
		"lon": "-122.2716104",
		"lat": "47.5423006",
		"number": "4827",
		"street": "S HOLLY ST",
		"city": "SEATTLE",
		"district": "KING",
		"postcode": "98118"
	},
	{
		"lon": "-122.3962202",
		"lat": "47.5824858",
		"number": "5041",
		"street": "SW PRINCE ST",
		"city": "SEATTLE",
		"district": "KING",
		"postcode": "98116"
	},
	{
		"lon": "-122.3884407",
		"lat": "47.5664293",
		"number": "4103",
		"street": "44TH AVE SW",
		"city": "SEATTLE",
		"district": "KING",
		"postcode": "98116"
	},
	{
		"lon": "-122.36597",
		"lat": "47.565857",
		"number": "2609",
		"street": "SW ADAMS ST",
		"city": "SEATTLE",
		"district": "KING",
		"postcode": "98126"
	},
	{
		"lon": "-122.3815521",
		"lat": "47.5780343",
		"number": "2907",
		"street": "39TH AVE SW",
		"city": "SEATTLE",
		"district": "KING",
		"postcode": "98116"
	},
	{
		"lon": "-122.3842558",
		"lat": "47.5803868",
		"number": "2625",
		"street": "41ST AVE SW",
		"city": "SEATTLE",
		"district": "KING",
		"postcode": "98116"
	},
	{
		"lon": "-122.3809248",
		"lat": "47.5467795",
		"number": "6057",
		"street": "38TH AVE SW",
		"city": "SEATTLE",
		"district": "KING",
		"postcode": "98126"
	},
	{
		"lon": "-122.303962",
		"lat": "47.612001",
		"number": "969",
		"street": "22ND AVE",
		"city": "SEATTLE",
		"district": "KING",
		"postcode": "98122"
	},
	{
		"lon": "-122.3347874",
		"lat": "47.5562269",
		"number": "5035",
		"street": "1ST AVE S",
		"city": "SEATTLE",
		"district": "KING",
		"postcode": "98134"
	},
	{
		"lon": "-122.3753844",
		"lat": "47.5443704",
		"number": "6507",
		"street": "34TH AVE SW",
		"city": "SEATTLE",
		"district": "KING",
		"postcode": "98126"
	},
	{
		"lon": "-122.3801836",
		"lat": "47.5417086",
		"number": "6738",
		"street": "38TH AVE SW",
		"city": "SEATTLE",
		"district": "KING",
		"postcode": "98126"
	},
	{
		"lon": "-122.3274332",
		"lat": "47.4894773",
		"number": "437",
		"street": "S 126TH ST",
		"city": "BURIEN",
		"district": "KING",
		"postcode": "98168"
	},
	{
		"lon": "-122.2816049",
		"lat": "47.5573762",
		"number": "3942",
		"street": "S HUDSON ST",
		"city": "SEATTLE",
		"district": "KING",
		"postcode": "98118"
	},
	{
		"lon": "-122.2831146",
		"lat": "47.5444399",
		"number": "3901",
		"street": "S ANGEL PL",
		"city": "SEATTLE",
		"district": "KING",
		"postcode": "98118"
	},
	{
		"lon": "-122.3841244",
		"lat": "47.5486174",
		"number": "5956",
		"street": "41ST AVE SW",
		"city": "SEATTLE",
		"district": "KING",
		"postcode": "98136"
	},
	{
		"lon": "-122.3890733",
		"lat": "47.5662061",
		"number": "4110",
		"street": "45TH AVE SW",
		"city": "SEATTLE",
		"district": "KING",
		"postcode": "98116"
	},
	{
		"lon": "-122.3708869",
		"lat": "47.5375213",
		"number": "7156",
		"street": "30TH AVE SW",
		"city": "SEATTLE",
		"district": "KING",
		"postcode": "98126"
	},
	{
		"lon": "-122.3060964",
		"lat": "47.5565202",
		"number": "5103",
		"street": "COLUMBIA DR S",
		"city": "SEATTLE",
		"district": "KING",
		"postcode": "98108"
	},
	{
		"lon": "-122.2795768",
		"lat": "47.5326684",
		"number": "4224",
		"street": "S CHICAGO ST",
		"city": "SEATTLE",
		"district": "KING",
		"postcode": "98118"
	},
	{
		"lon": "-122.2922963",
		"lat": "47.6228581",
		"number": "409",
		"street": "31ST AVE E",
		"city": "SEATTLE",
		"district": "KING",
		"postcode": "98112"
	},
	{
		"lon": "-122.4096727",
		"lat": "47.5796862",
		"number": "2701",
		"street": "ALKI AVE SW",
		"city": "SEATTLE",
		"district": "KING",
		"postcode": "98116"
	},
	{
		"lon": "-122.3629119",
		"lat": "47.5674836",
		"number": "4028",
		"street": "DELRIDGE WAY SW",
		"city": "SEATTLE",
		"district": "KING",
		"postcode": "98106"
	},
	{
		"lon": "-122.2764089",
		"lat": "47.5376109",
		"number": "7144",
		"street": "45TH AVE S",
		"city": "SEATTLE",
		"district": "KING",
		"postcode": "98118"
	},
	{
		"lon": "-122.3015045",
		"lat": "47.5720709",
		"number": "3600",
		"street": "24TH AVE S",
		"city": "SEATTLE",
		"district": "KING",
		"postcode": "98144"
	},
	{
		"lon": "-122.276133",
		"lat": "47.5524972",
		"number": "4553",
		"street": "S LUCILE ST",
		"city": "SEATTLE",
		"district": "KING",
		"postcode": "98118"
	},
	{
		"lon": "-122.281393",
		"lat": "47.540466",
		"number": "4031",
		"street": "S WILLOW ST",
		"city": "SEATTLE",
		"district": "KING",
		"postcode": "98118"
	},
	{
		"lon": "-122.2794606",
		"lat": "47.5329613",
		"number": "7715",
		"street": "RENTON AVE S",
		"city": "SEATTLE",
		"district": "KING",
		"postcode": "98118"
	},
	{
		"lon": "-122.3877584",
		"lat": "47.5744405",
		"number": "3242",
		"street": "44TH AVE SW",
		"city": "SEATTLE",
		"district": "KING",
		"postcode": "98116"
	},
	{
		"lon": "-122.3875973",
		"lat": "47.5413426",
		"number": "4301",
		"street": "SW MILLS ST",
		"city": "SEATTLE",
		"district": "KING",
		"postcode": "98136"
	},
	{
		"lon": "-122.2917102",
		"lat": "47.5369144",
		"number": "7301",
		"street": "32ND AVE S",
		"city": "SEATTLE",
		"district": "KING",
		"postcode": "98118"
	},
	{
		"lon": "-122.3057583",
		"lat": "47.5790362",
		"number": "2717",
		"street": "21ST AVE S",
		"city": "SEATTLE",
		"district": "KING",
		"postcode": "98144"
	},
	{
		"lon": "-122.2897536",
		"lat": "47.549981",
		"number": "3316",
		"street": "S JUNEAU ST",
		"city": "SEATTLE",
		"district": "KING",
		"postcode": "98118"
	},
	{
		"lon": "-122.3759855",
		"lat": "47.5495598",
		"number": "5918",
		"street": "35TH AVE SW",
		"city": "SEATTLE",
		"district": "KING",
		"postcode": "98126"
	},
	{
		"lon": "-122.3742112",
		"lat": "47.5368121",
		"number": "7317",
		"street": "32ND AVE SW",
		"city": "SEATTLE",
		"district": "KING",
		"postcode": "98126"
	},
	{
		"lon": "-122.3868394",
		"lat": "47.5805942",
		"number": "2619",
		"street": "CALIFORNIA AVE SW",
		"city": "SEATTLE",
		"district": "KING",
		"postcode": "98116"
	},
	{
		"lon": "-122.3802698",
		"lat": "47.5413221",
		"number": "6750",
		"street": "38TH AVE SW",
		"city": "SEATTLE",
		"district": "KING",
		"postcode": "98126"
	},
	{
		"lon": "-122.380818",
		"lat": "47.5426025",
		"number": "6711",
		"street": "38TH AVE SW",
		"city": "SEATTLE",
		"district": "KING",
		"postcode": "98126"
	},
	{
		"lon": "-122.3049577",
		"lat": "47.5761438",
		"number": "3016",
		"street": "21ST AVE S",
		"city": "SEATTLE",
		"district": "KING",
		"postcode": "98144"
	},
	{
		"lon": "-122.3633278",
		"lat": "47.5494305",
		"number": "5915",
		"street": "DELRIDGE WAY SW",
		"city": "SEATTLE",
		"district": "KING",
		"postcode": "98106"
	},
	{
		"lon": "-122.4072793",
		"lat": "47.5796839",
		"number": "2623",
		"street": "MARINE AVE SW",
		"city": "SEATTLE",
		"district": "KING",
		"postcode": "98116"
	},
	{
		"lon": "-122.2827746",
		"lat": "47.5483155",
		"number": "0",
		"street": "39TH AVE S",
		"city": "SEATTLE",
		"district": "KING",
		"postcode": "98118"
	},
	{
		"lon": "-122.2896238",
		"lat": "47.6019104",
		"number": "101",
		"street": "EUCLID AVE",
		"city": "SEATTLE",
		"district": "KING",
		"postcode": "98122"
	},
	{
		"lon": "-122.3301287",
		"lat": "47.5543291",
		"number": "316",
		"street": "S BRANDON ST",
		"city": "SEATTLE",
		"district": "KING",
		"postcode": "98108"
	},
	{
		"lon": "-122.2852209",
		"lat": "47.5644113",
		"number": "4163",
		"street": "38TH AVE S",
		"city": "SEATTLE",
		"district": "KING",
		"postcode": "98118"
	},
	{
		"lon": "-122.3540121",
		"lat": "47.5526189",
		"number": "5432",
		"street": "16TH AVE SW",
		"city": "SEATTLE",
		"district": "KING",
		"postcode": "98106"
	},
	{
		"lon": "-122.3741793",
		"lat": "47.576416",
		"number": "3033",
		"street": "FAUNTLEROY AVE SW",
		"city": "SEATTLE",
		"district": "KING",
		"postcode": "98126"
	},
	{
		"lon": "-122.3091254",
		"lat": "47.57855",
		"number": "1801",
		"street": "S MCCLELLAN ST",
		"city": "SEATTLE",
		"district": "KING",
		"postcode": "98144"
	},
	{
		"lon": "-122.3527617",
		"lat": "47.536292",
		"number": "1304",
		"street": "SW WEBSTER ST",
		"city": "SEATTLE",
		"district": "KING",
		"postcode": "98106"
	},
	{
		"lon": "-122.3268148",
		"lat": "47.5237277",
		"number": "535",
		"street": "S CONCORD ST",
		"city": "SEATTLE",
		"district": "KING",
		"postcode": "98108"
	},
	{
		"lon": "-122.2919122",
		"lat": "47.5530917",
		"number": "5411",
		"street": "32ND AVE S",
		"city": "SEATTLE",
		"district": "KING",
		"postcode": "98118"
	},
	{
		"lon": "-122.3708797",
		"lat": "47.5479269",
		"number": "6006",
		"street": "30TH AVE SW",
		"city": "SEATTLE",
		"district": "KING",
		"postcode": "98126"
	},
	{
		"lon": "-122.3784798",
		"lat": "47.5670009",
		"number": "4044",
		"street": "37TH AVE SW",
		"city": "SEATTLE",
		"district": "KING",
		"postcode": "98126"
	},
	{
		"lon": "-122.2902083",
		"lat": "47.5641983",
		"number": "4244",
		"street": "34TH AVE S",
		"city": "SEATTLE",
		"district": "KING",
		"postcode": "98118"
	},
	{
		"lon": "-122.0129015",
		"lat": "47.1899752",
		"number": "3341",
		"street": "LARSEN AVE",
		"city": "ENUMCLAW",
		"district": "KING",
		"postcode": "98022"
	},
	{
		"lon": "-122.3876427",
		"lat": "47.5780289",
		"number": "2744",
		"street": "44TH AVE SW",
		"city": "SEATTLE",
		"district": "KING",
		"postcode": "98116"
	},
	{
		"lon": "-122.3769806",
		"lat": "47.5336285",
		"number": "7617",
		"street": "35TH AVE SW",
		"city": "SEATTLE",
		"district": "KING",
		"postcode": "98126"
	},
	{
		"lon": "-122.3799568",
		"lat": "47.5757536",
		"number": "3058",
		"street": "38TH AVE SW",
		"city": "SEATTLE",
		"district": "KING",
		"postcode": "98126"
	},
	{
		"lon": "-122.2719542",
		"lat": "47.538154",
		"number": "4813",
		"street": "S ORCHARD ST",
		"city": "SEATTLE",
		"district": "KING",
		"postcode": "98118"
	},
	{
		"lon": "-122.400126",
		"lat": "47.5568541",
		"number": "5030",
		"street": "BEACH DR SW",
		"city": "SEATTLE",
		"district": "KING",
		"postcode": "98136"
	},
	{
		"lon": "-122.3866034",
		"lat": "47.5479053",
		"number": "6018",
		"street": "CALIFORNIA AVE SW",
		"city": "SEATTLE",
		"district": "KING",
		"postcode": "98136"
	},
	{
		"lon": "-122.2837302",
		"lat": "47.5463314",
		"number": "6215",
		"street": "39TH AVE S",
		"city": "SEATTLE",
		"district": "KING",
		"postcode": "98118"
	},
	{
		"lon": "-122.398425",
		"lat": "47.5444417",
		"number": "6521",
		"street": "BEACH DR SW",
		"city": "SEATTLE",
		"district": "KING",
		"postcode": "98136"
	},
	{
		"lon": "-122.4154519",
		"lat": "47.5770191",
		"number": "6415",
		"street": "SW STEVENS ST",
		"city": "SEATTLE",
		"district": "KING",
		"postcode": "98116"
	},
	{
		"lon": "-122.3561808",
		"lat": "47.5268557",
		"number": "8448",
		"street": "17TH AVE SW",
		"city": "SEATTLE",
		"district": "KING",
		"postcode": "98106"
	},
	{
		"lon": "-122.2878206",
		"lat": "47.5525531",
		"number": "3615",
		"street": "S LUCILE ST",
		"city": "SEATTLE",
		"district": "KING",
		"postcode": "98118"
	},
	{
		"lon": "-122.3807854",
		"lat": "47.5344308",
		"number": "3732",
		"street": "SW IDA ST",
		"city": "SEATTLE",
		"district": "KING",
		"postcode": "98126"
	},
	{
		"lon": "-122.3736754",
		"lat": "47.5348765",
		"number": "7520",
		"street": "32ND AVE SW",
		"city": "SEATTLE",
		"district": "KING",
		"postcode": "98126"
	},
	{
		"lon": "-122.2466794",
		"lat": "47.5014292",
		"number": "11431",
		"street": "70TH PL S",
		"city": "SEATTLE",
		"district": "KING",
		"postcode": "98178"
	},
	{
		"lon": "-122.2753698",
		"lat": "47.566664",
		"number": "4602",
		"street": "S DAKOTA ST",
		"city": "SEATTLE",
		"district": "KING",
		"postcode": "98118"
	},
	{
		"lon": "-122.2999175",
		"lat": "47.5414304",
		"number": "6832",
		"street": "VISTA AVE S",
		"city": "SEATTLE",
		"district": "KING",
		"postcode": "98108"
	},
	{
		"lon": "-122.3138391",
		"lat": "47.5647397",
		"number": "4321",
		"street": "15TH AVE S",
		"city": "SEATTLE",
		"district": "KING",
		"postcode": "98108"
	},
	{
		"lon": "-122.2597586",
		"lat": "47.5093976",
		"number": "10203",
		"street": "59TH AVE S",
		"city": "SEATTLE",
		"district": "KING",
		"postcode": "98178"
	},
	{
		"lon": "-122.277777",
		"lat": "47.5354026",
		"number": "4400",
		"street": "S WEBSTER ST",
		"city": "SEATTLE",
		"district": "KING",
		"postcode": "98118"
	},
	{
		"lon": "-122.359361",
		"lat": "47.56496",
		"number": "4155",
		"street": "20TH AVE SW",
		"city": "SEATTLE",
		"district": "KING",
		"postcode": "98106"
	},
	{
		"lon": "-122.3827736",
		"lat": "47.5458375",
		"number": "6324",
		"street": "40TH AVE SW",
		"city": "SEATTLE",
		"district": "KING",
		"postcode": "98136"
	},
	{
		"lon": "-122.2855759",
		"lat": "47.5767191",
		"number": "3008",
		"street": "MOUNT SAINT HELENS PL S",
		"city": "SEATTLE",
		"district": "KING",
		"postcode": "98144"
	},
	{
		"lon": "-122.3042027",
		"lat": "47.5726071",
		"number": "3416",
		"street": "21ST AVE S",
		"city": "SEATTLE",
		"district": "KING",
		"postcode": "98144"
	},
	{
		"lon": "-122.3948512",
		"lat": "47.5495428",
		"number": "5922",
		"street": "49TH AVE SW",
		"city": "SEATTLE",
		"district": "KING",
		"postcode": "98136"
	},
	{
		"lon": "-122.300333",
		"lat": "47.5654425",
		"number": "4123",
		"street": "CHEASTY BLVD S",
		"city": "SEATTLE",
		"district": "KING",
		"postcode": "98108"
	},
	{
		"lon": "-122.320996",
		"lat": "47.540384",
		"number": "6920",
		"street": "FLORA AVE S",
		"city": "SEATTLE",
		"district": "KING",
		"postcode": "98108"
	},
	{
		"lon": "-122.3910738",
		"lat": "47.5422515",
		"number": "6729",
		"street": "HOLLY PL SW",
		"city": "SEATTLE",
		"district": "KING",
		"postcode": "98136"
	},
	{
		"lon": "-122.3567042",
		"lat": "47.5356936",
		"number": "1710",
		"street": "SW WEBSTER ST",
		"city": "SEATTLE",
		"district": "KING",
		"postcode": "98106"
	},
	{
		"lon": "-122.308169",
		"lat": "47.5764337",
		"number": "3017",
		"street": "19TH AVE S",
		"city": "SEATTLE",
		"district": "KING",
		"postcode": "98144"
	},
	{
		"lon": "-122.3825777",
		"lat": "47.5563627",
		"number": "5036",
		"street": "40TH AVE SW",
		"city": "SEATTLE",
		"district": "KING",
		"postcode": "98136"
	},
	{
		"lon": "-122.361624",
		"lat": "47.5421526",
		"number": "6727",
		"street": "DELRIDGE WAY SW",
		"city": "SEATTLE",
		"district": "KING",
		"postcode": "98106"
	},
	{
		"lon": "-122.3055013",
		"lat": "47.5478018",
		"number": "6030",
		"street": "21ST AVE S",
		"city": "SEATTLE",
		"district": "KING",
		"postcode": "98108"
	},
	{
		"lon": "-122.3048707",
		"lat": "47.5890893",
		"number": "1514",
		"street": "21ST AVE S",
		"city": "SEATTLE",
		"district": "KING",
		"postcode": "98144"
	},
	{
		"lon": "-122.3044947",
		"lat": "47.49004",
		"number": "12610",
		"street": "22ND AVE S",
		"city": "BURIEN",
		"district": "KING",
		"postcode": "98168"
	},
	{
		"lon": "-122.3805203",
		"lat": "47.5684815",
		"number": "3808",
		"street": "SW ANDOVER ST",
		"city": "SEATTLE",
		"district": "KING",
		"postcode": "98126"
	},
	{
		"lon": "-122.3955331",
		"lat": "47.5511956",
		"number": "5635",
		"street": "49TH AVE SW",
		"city": "SEATTLE",
		"district": "KING",
		"postcode": "98136"
	},
	{
		"lon": "-122.2666166",
		"lat": "47.5375462",
		"number": "7209",
		"street": "54TH AVE S",
		"city": "SEATTLE",
		"district": "KING",
		"postcode": "98118"
	},
	{
		"lon": "-122.3783215",
		"lat": "47.5010105",
		"number": "11405",
		"street": "37TH AVE SW",
		"city": "SEATTLE",
		"district": "KING",
		"postcode": "98146"
	},
	{
		"lon": "-122.2954553",
		"lat": "47.5427901",
		"number": "2908",
		"street": "S HOLLY ST",
		"city": "SEATTLE",
		"district": "KING",
		"postcode": "98108"
	},
	{
		"lon": "-122.2971765",
		"lat": "47.5456786",
		"number": "6319",
		"street": "28TH AVE S",
		"city": "SEATTLE",
		"district": "KING",
		"postcode": "98108"
	},
	{
		"lon": "-122.3205359",
		"lat": "47.5320657",
		"number": "850",
		"street": "S KENYON ST",
		"city": "SEATTLE",
		"district": "KING",
		"postcode": "98108"
	},
	{
		"lon": "-122.300888",
		"lat": "47.5507734",
		"number": "2415",
		"street": "S ORCAS ST",
		"city": "SEATTLE",
		"district": "KING",
		"postcode": "98108"
	},
	{
		"lon": "-122.264121",
		"lat": "47.5423481",
		"number": "5509",
		"street": "S HOLLY ST",
		"city": "SEATTLE",
		"district": "KING",
		"postcode": "98118"
	},
	{
		"lon": "-122.3593594",
		"lat": "47.5672632",
		"number": "4037",
		"street": "20TH AVE SW",
		"city": "SEATTLE",
		"district": "KING",
		"postcode": "98106"
	},
	{
		"lon": "-122.3862435",
		"lat": "47.5367593",
		"number": "7417",
		"street": "GATEWOOD RD SW",
		"city": "SEATTLE",
		"district": "KING",
		"postcode": "98136"
	},
	{
		"lon": "-122.2851184",
		"lat": "47.54261",
		"number": "3736",
		"street": "S HOLLY ST",
		"city": "SEATTLE",
		"district": "KING",
		"postcode": "98118"
	},
	{
		"lon": "-122.3749581",
		"lat": "47.5357112",
		"number": "7356",
		"street": "34TH AVE SW",
		"city": "SEATTLE",
		"district": "KING",
		"postcode": "98126"
	},
	{
		"lon": "-122.3162304",
		"lat": "47.5854166",
		"number": "2003",
		"street": "13TH AVE S",
		"city": "SEATTLE",
		"district": "KING",
		"postcode": "98144"
	},
	{
		"lon": "-122.2526744",
		"lat": "47.5114518",
		"number": "10003",
		"street": "65TH AVE S",
		"city": "SEATTLE",
		"district": "KING",
		"postcode": "98178"
	},
	{
		"lon": "-122.3855646",
		"lat": "47.5320522",
		"number": "4119",
		"street": "SW KENYON ST",
		"city": "SEATTLE",
		"district": "KING",
		"postcode": "98136"
	},
	{
		"lon": "-122.3552061",
		"lat": "47.5463083",
		"number": "6307",
		"street": "16TH AVE SW",
		"city": "SEATTLE",
		"district": "KING",
		"postcode": "98106"
	},
	{
		"lon": "-122.3906858",
		"lat": "47.5309003",
		"number": "8015",
		"street": "45TH AVE SW",
		"city": "SEATTLE",
		"district": "KING",
		"postcode": "98136"
	},
	{
		"lon": "-122.3686027",
		"lat": "47.5648624",
		"number": "2808",
		"street": "SW GENESEE ST",
		"city": "SEATTLE",
		"district": "KING",
		"postcode": "98126"
	},
	{
		"lon": "-122.3519547",
		"lat": "47.5376694",
		"number": "1232",
		"street": "SW OTHELLO ST",
		"city": "SEATTLE",
		"district": "KING",
		"postcode": "98106"
	},
	{
		"lon": "-122.2651173",
		"lat": "47.5032866",
		"number": "10811",
		"street": "55TH AVE S",
		"city": "SEATTLE",
		"district": "KING",
		"postcode": "98178"
	},
	{
		"lon": "-122.2872517",
		"lat": "47.5554058",
		"number": "5063",
		"street": "RENTON AVE S",
		"city": "SEATTLE",
		"district": "KING",
		"postcode": "98118"
	},
	{
		"lon": "-122.3575076",
		"lat": "47.5272577",
		"number": "8436",
		"street": "18TH AVE SW",
		"city": "SEATTLE",
		"district": "KING",
		"postcode": "98106"
	},
	{
		"lon": "-122.2876921",
		"lat": "47.5311566",
		"number": "7916",
		"street": "BEACON AVE S",
		"city": "SEATTLE",
		"district": "KING",
		"postcode": "98118"
	},
	{
		"lon": "-122.3858467",
		"lat": "47.5535859",
		"number": "5407",
		"street": "42ND AVE SW",
		"city": "SEATTLE",
		"district": "KING",
		"postcode": "98136"
	},
	{
		"lon": "-122.2739687",
		"lat": "47.5584837",
		"number": "4708",
		"street": "S FERDINAND ST",
		"city": "SEATTLE",
		"district": "KING",
		"postcode": "98118"
	},
	{
		"lon": "-122.351434",
		"lat": "47.5291372",
		"number": "8132",
		"street": "13TH AVE SW",
		"city": "SEATTLE",
		"district": "KING",
		"postcode": "98106"
	},
	{
		"lon": "-122.3250543",
		"lat": "47.5682274",
		"number": "660",
		"street": "S ANDOVER ST",
		"city": "SEATTLE",
		"district": "KING",
		"postcode": "98108"
	},
	{
		"lon": "-122.3940474",
		"lat": "47.5506013",
		"number": "5655",
		"street": "48TH AVE SW",
		"city": "SEATTLE",
		"district": "KING",
		"postcode": "98136"
	},
	{
		"lon": "-122.317724",
		"lat": "47.491294",
		"number": "12428",
		"street": "12TH AVE S",
		"city": "BURIEN",
		"district": "KING",
		"postcode": "98168"
	},
	{
		"lon": "-122.2950735",
		"lat": "47.5500664",
		"number": "2840",
		"street": "S JUNEAU ST",
		"city": "SEATTLE",
		"district": "KING",
		"postcode": "98108"
	},
	{
		"lon": "-122.3788161",
		"lat": "47.5013374",
		"number": "11253",
		"street": "37TH AVE SW",
		"city": "SEATTLE",
		"district": "KING",
		"postcode": "98146"
	},
	{
		"lon": "-122.4041012",
		"lat": "47.566558",
		"number": "4103",
		"street": "56TH AVE SW",
		"city": "SEATTLE",
		"district": "KING",
		"postcode": "98116"
	},
	{
		"lon": "-122.3170399",
		"lat": "47.5847084",
		"number": "1202",
		"street": "S HILL ST",
		"city": "SEATTLE",
		"district": "KING",
		"postcode": "98144"
	},
	{
		"lon": "-122.2642522",
		"lat": "47.5426386",
		"number": "6558",
		"street": "SEWARD PARK AVE S",
		"city": "SEATTLE",
		"district": "KING",
		"postcode": "98118"
	},
	{
		"lon": "-122.390534",
		"lat": "47.5583775",
		"number": "4832",
		"street": "46TH AVE SW",
		"city": "SEATTLE",
		"district": "KING",
		"postcode": "98116"
	},
	{
		"lon": "-122.3603157",
		"lat": "47.5523365",
		"number": "5447",
		"street": "21ST AVE SW",
		"city": "SEATTLE",
		"district": "KING",
		"postcode": "98106"
	},
	{
		"lon": "-122.3490327",
		"lat": "47.5291718",
		"number": "8132",
		"street": "11TH AVE SW",
		"city": "SEATTLE",
		"district": "KING",
		"postcode": "98106"
	},
	{
		"lon": "-122.3232221",
		"lat": "47.7433499",
		"number": "0",
		"street": "5TH AVE NE",
		"city": "SHORELINE",
		"district": "KING",
		"postcode": "98155"
	},
	{
		"lon": "-122.3525154",
		"lat": "47.5299819",
		"number": "1317",
		"street": "SW ELMGROVE ST",
		"city": "SEATTLE",
		"district": "KING",
		"postcode": "98106"
	},
	{
		"lon": "-122.2561707",
		"lat": "47.503588",
		"number": "10725",
		"street": "62ND AVE S",
		"city": "SEATTLE",
		"district": "KING",
		"postcode": "98178"
	},
	{
		"lon": "-122.3496304",
		"lat": "47.5200179",
		"number": "9233",
		"street": "11TH AVE SW",
		"city": "SEATTLE",
		"district": "KING",
		"postcode": "98106"
	},
	{
		"lon": "-122.3749934",
		"lat": "47.5139217",
		"number": "3318",
		"street": "SW 100TH ST",
		"city": "SEATTLE",
		"district": "KING",
		"postcode": "98146"
	},
	{
		"lon": "-122.29614",
		"lat": "47.5409154",
		"number": "6758",
		"street": "28TH AVE S",
		"city": "SEATTLE",
		"district": "KING",
		"postcode": "98108"
	},
	{
		"lon": "-122.2772785",
		"lat": "47.5286628",
		"number": "4412",
		"street": "S THISTLE PL",
		"city": "SEATTLE",
		"district": "KING",
		"postcode": "98118"
	},
	{
		"lon": "-122.2572881",
		"lat": "47.5135168",
		"number": "9757",
		"street": "61ST AVE S",
		"city": "SEATTLE",
		"district": "KING",
		"postcode": "98118"
	},
	{
		"lon": "-122.3031706",
		"lat": "47.4916205",
		"number": "12420",
		"street": "23RD AVE S",
		"city": "BURIEN",
		"district": "KING",
		"postcode": "98168"
	},
	{
		"lon": "-122.2743373",
		"lat": "47.533474",
		"number": "4619",
		"street": "S HOLDEN ST",
		"city": "SEATTLE",
		"district": "KING",
		"postcode": "98118"
	},
	{
		"lon": "-122.3843595",
		"lat": "47.5150941",
		"number": "9818",
		"street": "41ST AVE SW",
		"city": "SEATTLE",
		"district": "KING",
		"postcode": "98136"
	},
	{
		"lon": "-122.3749574",
		"lat": "47.5366964",
		"number": "7320",
		"street": "34TH AVE SW",
		"city": "SEATTLE",
		"district": "KING",
		"postcode": "98126"
	},
	{
		"lon": "-122.3907489",
		"lat": "47.5852057",
		"number": "2103",
		"street": "46TH AVE SW",
		"city": "SEATTLE",
		"district": "KING",
		"postcode": "98116"
	},
	{
		"lon": "-122.3991687",
		"lat": "47.5840529",
		"number": "2212",
		"street": "BONAIR PL SW",
		"city": "SEATTLE",
		"district": "KING",
		"postcode": "98116"
	},
	{
		"lon": "-122.3913052",
		"lat": "47.5309807",
		"number": "4520",
		"street": "SW HEMLOCK WAY",
		"city": "SEATTLE",
		"district": "KING",
		"postcode": "98136"
	},
	{
		"lon": "-122.3961996",
		"lat": "47.586168",
		"number": "1929",
		"street": "BONAIR DR SW",
		"city": "SEATTLE",
		"district": "KING",
		"postcode": "98116"
	},
	{
		"lon": "-122.2876227",
		"lat": "47.4782886",
		"number": "13794",
		"street": "34TH AVE S",
		"city": "TUKWILA",
		"district": "KING",
		"postcode": "98168"
	},
	{
		"lon": "-122.379068",
		"lat": "47.5217866",
		"number": "9036",
		"street": "37TH AVE SW",
		"city": "SEATTLE",
		"district": "KING",
		"postcode": "98126"
	},
	{
		"lon": "-122.3890898",
		"lat": "47.5387967",
		"number": "7130",
		"street": "WOODSIDE PL SW",
		"city": "SEATTLE",
		"district": "KING",
		"postcode": "98136"
	},
	{
		"lon": "-122.2543695",
		"lat": "47.5152403",
		"number": "9732",
		"street": "ARROWSMITH AVE S",
		"city": "SEATTLE",
		"district": "KING",
		"postcode": "98118"
	},
	{
		"lon": "-122.2924765",
		"lat": "47.5350839",
		"number": "2963",
		"street": "S WEBSTER ST",
		"city": "SEATTLE",
		"district": "KING",
		"postcode": "98108"
	},
	{
		"lon": "-122.3989901",
		"lat": "47.5784033",
		"number": "5226",
		"street": "SW FOREST ST",
		"city": "SEATTLE",
		"district": "KING",
		"postcode": "98116"
	},
	{
		"lon": "-122.3076307",
		"lat": "47.5527166",
		"number": "5521",
		"street": "20TH AVE S",
		"city": "SEATTLE",
		"district": "KING",
		"postcode": "98108"
	},
	{
		"lon": "-122.3741827",
		"lat": "47.5509484",
		"number": "5633",
		"street": "32ND AVE SW",
		"city": "SEATTLE",
		"district": "KING",
		"postcode": "98126"
	},
	{
		"lon": "-122.0580332",
		"lat": "47.3503576",
		"number": "27949",
		"street": "212TH PL SE",
		"city": "MAPLE VALLEY",
		"district": "KING",
		"postcode": "98038"
	},
	{
		"lon": "-122.3715484",
		"lat": "47.5276323",
		"number": "8421",
		"street": "30TH AVE SW",
		"city": "SEATTLE",
		"district": "KING",
		"postcode": "98126"
	},
	{
		"lon": "-122.3184664",
		"lat": "47.5266291",
		"number": "1040",
		"street": "S CLOVERDALE ST",
		"city": "SEATTLE",
		"district": "KING",
		"postcode": "98108"
	},
	{
		"lon": "-122.2869729",
		"lat": "47.5272755",
		"number": "3509",
		"street": "S THISTLE ST",
		"city": "SEATTLE",
		"district": "KING",
		"postcode": "98118"
	},
	{
		"lon": "-122.3457322",
		"lat": "47.4918836",
		"number": "829",
		"street": "SW 124TH ST",
		"city": "BURIEN",
		"district": "KING",
		"postcode": "98146"
	},
	{
		"lon": "-122.3817126",
		"lat": "47.5331904",
		"number": "7708",
		"street": "39TH AVE SW",
		"city": "SEATTLE",
		"district": "KING",
		"postcode": "98136"
	},
	{
		"lon": "-122.2704183",
		"lat": "47.528332",
		"number": "8323",
		"street": "RAINIER AVE S",
		"city": "SEATTLE",
		"district": "KING",
		"postcode": "98118"
	},
	{
		"lon": "-122.3464968",
		"lat": "47.5304616",
		"number": "7948",
		"street": "9TH AVE SW",
		"city": "SEATTLE",
		"district": "KING",
		"postcode": "98106"
	},
	{
		"lon": "-122.2553938",
		"lat": "47.5107997",
		"number": "10028",
		"street": "62ND AVE S",
		"city": "SEATTLE",
		"district": "KING",
		"postcode": "98178"
	},
	{
		"lon": "-122.2719622",
		"lat": "47.5495533",
		"number": "4817",
		"street": "S JUNEAU ST",
		"city": "SEATTLE",
		"district": "KING",
		"postcode": "98118"
	},
	{
		"lon": "-122.2779267",
		"lat": "47.5341081",
		"number": "7533",
		"street": "44TH AVE S",
		"city": "SEATTLE",
		"district": "KING",
		"postcode": "98118"
	},
	{
		"lon": "-122.3162749",
		"lat": "47.524946",
		"number": "1230",
		"street": "S TRENTON ST",
		"city": "SEATTLE",
		"district": "KING",
		"postcode": "98108"
	},
	{
		"lon": "-122.3807713",
		"lat": "47.5354687",
		"number": "3733",
		"street": "SW WEBSTER ST",
		"city": "SEATTLE",
		"district": "KING",
		"postcode": "98126"
	},
	{
		"lon": "-122.396929",
		"lat": "47.5426517",
		"number": "6717",
		"street": "BEACH DR SW",
		"city": "SEATTLE",
		"district": "KING",
		"postcode": "98136"
	},
	{
		"lon": "-122.2901341",
		"lat": "47.5580612",
		"number": "3230",
		"street": "S FERDINAND ST",
		"city": "SEATTLE",
		"district": "KING",
		"postcode": "98118"
	},
	{
		"lon": "-122.3805899",
		"lat": "47.5563354",
		"number": "5039",
		"street": "38TH AVE SW",
		"city": "SEATTLE",
		"district": "KING",
		"postcode": "98126"
	},
	{
		"lon": "-122.1793416",
		"lat": "47.4264035",
		"number": "19608",
		"street": "121ST AVE SE",
		"city": "KENT",
		"district": "KING",
		"postcode": "98031"
	},
	{
		"lon": "-122.3983287",
		"lat": "47.5817014",
		"number": "5120",
		"street": "SW WAITE ST",
		"city": "SEATTLE",
		"district": "KING",
		"postcode": "98116"
	},
	{
		"lon": "-122.2887556",
		"lat": "47.5355417",
		"number": "7353",
		"street": "35TH AVE S",
		"city": "SEATTLE",
		"district": "KING",
		"postcode": "98118"
	},
	{
		"lon": "-122.37947",
		"lat": "47.5877785",
		"number": "1709",
		"street": "HARBOR AVE SW",
		"city": "SEATTLE",
		"district": "KING",
		"postcode": "98126"
	},
	{
		"lon": "-122.3817867",
		"lat": "47.5215281",
		"number": "9046",
		"street": "39TH AVE SW",
		"city": "SEATTLE",
		"district": "KING",
		"postcode": "98136"
	},
	{
		"lon": "-122.2719219",
		"lat": "47.5126364",
		"number": "9756",
		"street": "49TH AVE S",
		"city": "SEATTLE",
		"district": "KING",
		"postcode": "98118"
	},
	{
		"lon": "-122.3489861",
		"lat": "47.5222975",
		"number": "9014",
		"street": "11TH AVE SW",
		"city": "SEATTLE",
		"district": "KING",
		"postcode": "98106"
	},
	{
		"lon": "-122.3786646",
		"lat": "47.5382686",
		"number": "7211",
		"street": "36TH AVE SW",
		"city": "SEATTLE",
		"district": "KING",
		"postcode": "98126"
	},
	{
		"lon": "-122.3947697",
		"lat": "47.5558183",
		"number": "4824",
		"street": "SW DAWSON ST",
		"city": "SEATTLE",
		"district": "KING",
		"postcode": "98136"
	},
	{
		"lon": "-122.2742421",
		"lat": "47.553661",
		"number": "5328",
		"street": "47TH AVE S",
		"city": "SEATTLE",
		"district": "KING",
		"postcode": "98118"
	},
	{
		"lon": "-122.2828771",
		"lat": "47.5173668",
		"number": "9429",
		"street": "CARKEEK DR S",
		"city": "SEATTLE",
		"district": "KING",
		"postcode": "98118"
	},
	{
		"lon": "-122.2977071",
		"lat": "47.5442681",
		"number": "2649",
		"street": "S MORGAN ST",
		"city": "SEATTLE",
		"district": "KING",
		"postcode": "98108"
	},
	{
		"lon": "-122.2895944",
		"lat": "47.5520165",
		"number": "5515",
		"street": "35TH AVE S",
		"city": "SEATTLE",
		"district": "KING",
		"postcode": "98118"
	},
	{
		"lon": "-122.203043",
		"lat": "47.5159947",
		"number": "1200",
		"street": "N 27TH PL",
		"city": "RENTON",
		"district": "KING",
		"postcode": "98056"
	},
	{
		"lon": "-122.2652558",
		"lat": "47.5296927",
		"number": "5321",
		"street": "S BUDD CT",
		"city": "SEATTLE",
		"district": "KING",
		"postcode": "98118"
	},
	{
		"lon": "-122.3442364",
		"lat": "47.4890524",
		"number": "12710",
		"street": "8TH AVE SW",
		"city": "BURIEN",
		"district": "KING",
		"postcode": "98146"
	},
	{
		"lon": "-122.2750487",
		"lat": "47.5456101",
		"number": "6318",
		"street": "RAINIER AVE S",
		"city": "SEATTLE",
		"district": "KING",
		"postcode": "98118"
	},
	{
		"lon": "-122.2718186",
		"lat": "47.5403744",
		"number": "6909",
		"street": "RAINIER AVE S",
		"city": "SEATTLE",
		"district": "KING",
		"postcode": "98118"
	},
	{
		"lon": "-122.391809",
		"lat": "47.5435581",
		"number": "6681",
		"street": "BEVERIDGE PL SW",
		"city": "SEATTLE",
		"district": "KING",
		"postcode": "98136"
	},
	{
		"lon": "-122.3597805",
		"lat": "47.5692893",
		"number": "3826",
		"street": "21ST AVE SW",
		"city": "SEATTLE",
		"district": "KING",
		"postcode": "98106"
	},
	{
		"lon": "-122.2754581",
		"lat": "47.5650956",
		"number": "4603",
		"street": "S ADAMS ST",
		"city": "SEATTLE",
		"district": "KING",
		"postcode": "98118"
	},
	{
		"lon": "-122.2640097",
		"lat": "47.5584414",
		"number": "5506",
		"street": "S FERDINAND ST",
		"city": "SEATTLE",
		"district": "KING",
		"postcode": "98118"
	},
	{
		"lon": "-122.1702489",
		"lat": "47.4995717",
		"number": "3625",
		"street": "NE 10TH CT",
		"city": "RENTON",
		"district": "KING",
		"postcode": "98056"
	},
	{
		"lon": "-122.3111391",
		"lat": "47.5558132",
		"number": "1552",
		"street": "S DAWSON ST",
		"city": "SEATTLE",
		"district": "KING",
		"postcode": "98108"
	},
	{
		"lon": "-122.314162",
		"lat": "47.4869358",
		"number": "1426",
		"street": "S 130TH ST",
		"city": "BURIEN",
		"district": "KING",
		"postcode": "98168"
	},
	{
		"lon": "-122.3835156",
		"lat": "47.5127585",
		"number": "10033",
		"street": "40TH AVE SW",
		"city": "SEATTLE",
		"district": "KING",
		"postcode": "98146"
	},
	{
		"lon": "-122.3029998",
		"lat": "47.4994824",
		"number": "2238",
		"street": "S 116TH ST",
		"city": "BURIEN",
		"district": "KING",
		"postcode": "98168"
	},
	{
		"lon": "-122.2695313",
		"lat": "47.5437336",
		"number": "6516",
		"street": "51ST AVE S",
		"city": "SEATTLE",
		"district": "KING",
		"postcode": "98118"
	},
	{
		"lon": "-122.298897",
		"lat": "47.5455811",
		"number": "2524",
		"street": "S EDDY ST",
		"city": "SEATTLE",
		"district": "KING",
		"postcode": "98108"
	},
	{
		"lon": "-122.3923865",
		"lat": "47.5215365",
		"number": "4705",
		"street": "SW WILDWOOD PL",
		"city": "SEATTLE",
		"district": "KING",
		"postcode": "98136"
	},
	{
		"lon": "-122.2890734",
		"lat": "47.576029",
		"number": "3129",
		"street": "35TH AVE S",
		"city": "SEATTLE",
		"district": "KING",
		"postcode": "98144"
	},
	{
		"lon": "-122.3715812",
		"lat": "47.5144798",
		"number": "9904",
		"street": "31ST AVE SW",
		"city": "SEATTLE",
		"district": "KING",
		"postcode": "98126"
	},
	{
		"lon": "-122.2615895",
		"lat": "47.5161518",
		"number": "9616",
		"street": "57TH AVE S",
		"city": "SEATTLE",
		"district": "KING",
		"postcode": "98118"
	},
	{
		"lon": "-122.2098213",
		"lat": "47.4448969",
		"number": "601",
		"street": "S 38TH CT",
		"city": "RENTON",
		"district": "KING",
		"postcode": "98055"
	},
	{
		"lon": "-122.3831548",
		"lat": "47.5657695",
		"number": "4123",
		"street": "40TH AVE SW",
		"city": "SEATTLE",
		"district": "KING",
		"postcode": "98116"
	},
	{
		"lon": "-122.2915945",
		"lat": "47.6180756",
		"number": "1815",
		"street": "32ND AVE",
		"city": "SEATTLE",
		"district": "KING",
		"postcode": "98122"
	},
	{
		"lon": "-122.3763676",
		"lat": "47.5218986",
		"number": "9030",
		"street": "35TH AVE SW",
		"city": "SEATTLE",
		"district": "KING",
		"postcode": "98126"
	},
	{
		"lon": "-122.2991487",
		"lat": "47.5434847",
		"number": "6602",
		"street": "BEACON AVE S",
		"city": "SEATTLE",
		"district": "KING",
		"postcode": "98108"
	},
	{
		"lon": "-122.3701857",
		"lat": "47.5289404",
		"number": "8137",
		"street": "29TH AVE SW",
		"city": "SEATTLE",
		"district": "KING",
		"postcode": "98126"
	},
	{
		"lon": "-122.3980167",
		"lat": "47.5468677",
		"number": "6046",
		"street": "BEACH DR SW",
		"city": "SEATTLE",
		"district": "KING",
		"postcode": "98136"
	},
	{
		"lon": "-122.27511",
		"lat": "47.5514143",
		"number": "4602",
		"street": "S ORCAS ST",
		"city": "SEATTLE",
		"district": "KING",
		"postcode": "98118"
	},
	{
		"lon": "-122.267667",
		"lat": "47.5185659",
		"number": "9313",
		"street": "52ND AVE S",
		"city": "SEATTLE",
		"district": "KING",
		"postcode": "98118"
	},
	{
		"lon": "-122.3894721",
		"lat": "47.5239397",
		"number": "4347",
		"street": "SW CONCORD ST",
		"city": "SEATTLE",
		"district": "KING",
		"postcode": "98136"
	},
	{
		"lon": "-122.2615395",
		"lat": "47.4958823",
		"number": "5562",
		"street": "S JUNIPER ST",
		"city": "SEATTLE",
		"district": "KING",
		"postcode": "98178"
	},
	{
		"lon": "-122.3017211",
		"lat": "47.4965936",
		"number": "11826",
		"street": "24TH AVE S",
		"city": "BURIEN",
		"district": "KING",
		"postcode": "98168"
	},
	{
		"lon": "-122.0451382",
		"lat": "47.3773465",
		"number": "22120",
		"street": "SE 251ST CT",
		"city": "MAPLE VALLEY",
		"district": "KING",
		"postcode": "98038"
	},
	{
		"lon": "-122.2665906",
		"lat": "47.5383558",
		"number": "5214",
		"street": "S ORCHARD TER",
		"city": "SEATTLE",
		"district": "KING",
		"postcode": "98118"
	},
	{
		"lon": "-122.2835466",
		"lat": "47.5618968",
		"number": "3900",
		"street": "S CONOVER WAY",
		"city": "SEATTLE",
		"district": "KING",
		"postcode": "98118"
	},
	{
		"lon": "-122.350849",
		"lat": "47.523855",
		"number": "8827",
		"street": "12TH AVE SW",
		"city": "SEATTLE",
		"district": "KING",
		"postcode": "98106"
	},
	{
		"lon": "-122.1997511",
		"lat": "47.5139221",
		"number": "2419",
		"street": "MEADOW AVE N",
		"city": "RENTON",
		"district": "KING",
		"postcode": "98056"
	},
	{
		"lon": "-122.3919981",
		"lat": "47.5873606",
		"number": "1712",
		"street": "SUNSET AVE SW",
		"city": "SEATTLE",
		"district": "KING",
		"postcode": "98116"
	},
	{
		"lon": "-122.2697199",
		"lat": "47.5361831",
		"number": "7326",
		"street": "RAINIER AVE S",
		"city": "SEATTLE",
		"district": "KING",
		"postcode": "98118"
	},
	{
		"lon": "-122.3851432",
		"lat": "47.5270051",
		"number": "8463",
		"street": "42ND AVE SW",
		"city": "SEATTLE",
		"district": "KING",
		"postcode": "98136"
	},
	{
		"lon": "-122.3191995",
		"lat": "47.5459011",
		"number": "6256",
		"street": "FLORA AVE S",
		"city": "SEATTLE",
		"district": "KING",
		"postcode": "98108"
	},
	{
		"lon": "-122.3963527",
		"lat": "47.5766417",
		"number": "3026",
		"street": "GARLOUGH AVE SW",
		"city": "SEATTLE",
		"district": "KING",
		"postcode": "98116"
	},
	{
		"lon": "-122.3002016",
		"lat": "47.4914699",
		"number": "2614",
		"street": "S 125TH ST",
		"city": "BURIEN",
		"district": "KING",
		"postcode": "98168"
	},
	{
		"lon": "-122.2923805",
		"lat": "47.5541225",
		"number": "5312",
		"street": "31ST AVE S",
		"city": "SEATTLE",
		"district": "KING",
		"postcode": "98108"
	},
	{
		"lon": "-122.3805374",
		"lat": "47.5158284",
		"number": "3726",
		"street": "SW 98TH ST",
		"city": "SEATTLE",
		"district": "KING",
		"postcode": "98126"
	},
	{
		"lon": "-122.3848082",
		"lat": "47.5071915",
		"number": "4109",
		"street": "SW 107TH ST",
		"city": "SEATTLE",
		"district": "KING",
		"postcode": "98146"
	},
	{
		"lon": "-122.3774531",
		"lat": "47.5321377",
		"number": "3516",
		"street": "SW KENYON ST",
		"city": "SEATTLE",
		"district": "KING",
		"postcode": "98126"
	},
	{
		"lon": "-122.2499365",
		"lat": "47.5112401",
		"number": "10063",
		"street": "ARROWSMITH AVE S",
		"city": "SEATTLE",
		"district": "KING",
		"postcode": "98178"
	},
	{
		"lon": "-122.3888058",
		"lat": "47.5528448",
		"number": "5435",
		"street": "44TH AVE SW",
		"city": "SEATTLE",
		"district": "KING",
		"postcode": "98136"
	},
	{
		"lon": "-122.2912686",
		"lat": "47.5562906",
		"number": "5022",
		"street": "32ND AVE S",
		"city": "SEATTLE",
		"district": "KING",
		"postcode": "98118"
	},
	{
		"lon": "-122.2659168",
		"lat": "47.5273208",
		"number": "8437",
		"street": "SEWARD PARK AVE S",
		"city": "SEATTLE",
		"district": "KING",
		"postcode": "98118"
	},
	{
		"lon": "-122.3301597",
		"lat": "47.4947927",
		"number": "12035",
		"street": "3RD AVE S",
		"city": "BURIEN",
		"district": "KING",
		"postcode": "98168"
	},
	{
		"lon": "-122.2812781",
		"lat": "47.5498581",
		"number": "3950",
		"street": "S JUNEAU ST",
		"city": "SEATTLE",
		"district": "KING",
		"postcode": "98118"
	},
	{
		"lon": "-122.3183502",
		"lat": "47.5495535",
		"number": "950",
		"street": "S NEBRASKA ST",
		"city": "SEATTLE",
		"district": "KING",
		"postcode": "98108"
	},
	{
		"lon": "-122.3027568",
		"lat": "47.5577446",
		"number": "4911",
		"street": "24TH AVE S",
		"city": "SEATTLE",
		"district": "KING",
		"postcode": "98108"
	},
	{
		"lon": "-122.0378298",
		"lat": "47.6047689",
		"number": "0",
		"street": "SE 4TH ST",
		"city": "SAMMAMISH",
		"district": "KING",
		"postcode": "98074"
	},
	{
		"lon": "-122.2744559",
		"lat": "47.5417716",
		"number": "4622",
		"street": "S BRIGHTON ST",
		"city": "SEATTLE",
		"district": "KING",
		"postcode": "98118"
	},
	{
		"lon": "-122.3870886",
		"lat": "47.5149697",
		"number": "9822",
		"street": "CALIFORNIA AVE SW",
		"city": "SEATTLE",
		"district": "KING",
		"postcode": "98136"
	},
	{
		"lon": "-121.9992291",
		"lat": "47.2074504",
		"number": "1756",
		"street": "HARDING ST",
		"city": "ENUMCLAW",
		"district": "KING",
		"postcode": "98022"
	},
	{
		"lon": "-122.3743723",
		"lat": "47.4961624",
		"number": "3317",
		"street": "SW SEOLA LN",
		"city": "BURIEN",
		"district": "KING",
		"postcode": "98146"
	},
	{
		"lon": "-122.3054436",
		"lat": "47.492042",
		"number": "2113",
		"street": "S 124TH ST",
		"city": "BURIEN",
		"district": "KING",
		"postcode": "98168"
	},
	{
		"lon": "-122.2855394",
		"lat": "47.5529988",
		"number": "5414",
		"street": "RENTON AVE S",
		"city": "SEATTLE",
		"district": "KING",
		"postcode": "98118"
	},
	{
		"lon": "-122.2655201",
		"lat": "47.551009",
		"number": "5700",
		"street": "WILSON AVE S",
		"city": "SEATTLE",
		"district": "KING",
		"postcode": "98118"
	},
	{
		"lon": "-122.3457447",
		"lat": "47.533902",
		"number": "7626",
		"street": "8TH AVE SW",
		"city": "SEATTLE",
		"district": "KING",
		"postcode": "98106"
	},
	{
		"lon": "-122.3561712",
		"lat": "47.5187539",
		"number": "9414",
		"street": "DELRIDGE WAY SW",
		"city": "SEATTLE",
		"district": "KING",
		"postcode": "98106"
	},
	{
		"lon": "-122.3590598",
		"lat": "47.5361016",
		"number": "7331",
		"street": "19TH AVE SW",
		"city": "SEATTLE",
		"district": "KING",
		"postcode": "98106"
	},
	{
		"lon": "-122.3895339",
		"lat": "47.5344668",
		"number": "7568",
		"street": "45TH AVE SW",
		"city": "SEATTLE",
		"district": "KING",
		"postcode": "98136"
	},
	{
		"lon": "-122.2546252",
		"lat": "47.5049555",
		"number": "10670",
		"street": "63RD AVE S",
		"city": "SEATTLE",
		"district": "KING",
		"postcode": "98178"
	},
	{
		"lon": "-122.292233",
		"lat": "47.5860309",
		"number": "1903",
		"street": "32ND AVE S",
		"city": "SEATTLE",
		"district": "KING",
		"postcode": "98144"
	},
	{
		"lon": "-122.3448941",
		"lat": "47.4645028",
		"number": "15415",
		"street": "8TH AVE SW",
		"city": "BURIEN",
		"district": "KING",
		"postcode": "98166"
	},
	{
		"lon": "-122.3901149",
		"lat": "47.5173412",
		"number": "4500",
		"street": "SW ROXBURY PL",
		"city": "SEATTLE",
		"district": "KING",
		"postcode": "98136"
	},
	{
		"lon": "-122.2854905",
		"lat": "47.4801192",
		"number": "3726",
		"street": "S 138TH ST",
		"city": "TUKWILA",
		"district": "KING",
		"postcode": "98168"
	},
	{
		"lon": "-122.1868187",
		"lat": "47.4545238",
		"number": "16526",
		"street": "115TH AVE SE",
		"city": "RENTON",
		"district": "KING",
		"postcode": "98055"
	},
	{
		"lon": "-122.3109505",
		"lat": "47.4923628",
		"number": "1640",
		"street": "S 124TH ST",
		"city": "BURIEN",
		"district": "KING",
		"postcode": "98168"
	},
	{
		"lon": "-122.27822",
		"lat": "47.4939523",
		"number": "12205",
		"street": "44TH AVE S",
		"city": "TUKWILA",
		"district": "KING",
		"postcode": "98178"
	},
	{
		"lon": "-122.3059707",
		"lat": "47.5526672",
		"number": "5520",
		"street": "21ST AVE S",
		"city": "SEATTLE",
		"district": "KING",
		"postcode": "98108"
	},
	{
		"lon": "-122.0058517",
		"lat": "47.2006025",
		"number": "1096",
		"street": "SEMANSKI ST",
		"city": "ENUMCLAW",
		"district": "KING",
		"postcode": "98022"
	},
	{
		"lon": "-122.0013185",
		"lat": "47.1970325",
		"number": "762",
		"street": "MELODY LN",
		"city": "ENUMCLAW",
		"district": "KING",
		"postcode": "98022"
	},
	{
		"lon": "-122.3150387",
		"lat": "47.4978852",
		"number": "11728",
		"street": "14TH AVE S",
		"city": "BURIEN",
		"district": "KING",
		"postcode": "98168"
	},
	{
		"lon": "-122.0051971",
		"lat": "47.2012535",
		"number": "1145",
		"street": "SEMANSKI ST",
		"city": "ENUMCLAW",
		"district": "KING",
		"postcode": "98022"
	},
	{
		"lon": "-122.2995563",
		"lat": "47.5879391",
		"number": "1713",
		"street": "26TH AVE S",
		"city": "SEATTLE",
		"district": "KING",
		"postcode": "98144"
	},
	{
		"lon": "-122.3576835",
		"lat": "47.4786928",
		"number": "13829",
		"street": "17TH AVE SW",
		"city": "BURIEN",
		"district": "KING",
		"postcode": "98166"
	},
	{
		"lon": "-122.3893542",
		"lat": "47.5558812",
		"number": "5224",
		"street": "45TH AVE SW",
		"city": "SEATTLE",
		"district": "KING",
		"postcode": "98136"
	},
	{
		"lon": "-122.2454817",
		"lat": "47.5006003",
		"number": "11446",
		"street": "71ST PL S",
		"city": "SEATTLE",
		"district": "KING",
		"postcode": "98178"
	},
	{
		"lon": "-122.3482828",
		"lat": "47.5239515",
		"number": "8823",
		"street": "10TH AVE SW",
		"city": "SEATTLE",
		"district": "KING",
		"postcode": "98106"
	},
	{
		"lon": "-122.3637322",
		"lat": "47.556305",
		"number": "5036",
		"street": "25TH AVE SW",
		"city": "SEATTLE",
		"district": "KING",
		"postcode": "98106"
	},
	{
		"lon": "-122.1903368",
		"lat": "47.511639",
		"number": "2101",
		"street": "NE 23RD ST",
		"city": "RENTON",
		"district": "KING",
		"postcode": "98056"
	},
	{
		"lon": "-122.3809963",
		"lat": "47.5139512",
		"number": "3742",
		"street": "SW 100TH ST",
		"city": "SEATTLE",
		"district": "KING",
		"postcode": "98146"
	},
	{
		"lon": "-122.2624015",
		"lat": "47.5138726",
		"number": "9741",
		"street": "57TH AVE S",
		"city": "SEATTLE",
		"district": "KING",
		"postcode": "98118"
	},
	{
		"lon": "-122.298816",
		"lat": "47.50198",
		"number": "11232",
		"street": "26TH AVE S",
		"city": "BURIEN",
		"district": "KING",
		"postcode": "98168"
	},
	{
		"lon": "-122.2617333",
		"lat": "47.4979742",
		"number": "11733",
		"street": "LUTHER AVE S",
		"city": "SEATTLE",
		"district": "KING",
		"postcode": "98178"
	},
	{
		"lon": "-122.3882776",
		"lat": "47.5474126",
		"number": "6036",
		"street": "44TH AVE SW",
		"city": "SEATTLE",
		"district": "KING",
		"postcode": "98136"
	},
	{
		"lon": "-122.3847532",
		"lat": "47.5107543",
		"number": "10249",
		"street": "41ST AVE SW",
		"city": "SEATTLE",
		"district": "KING",
		"postcode": "98146"
	},
	{
		"lon": "-122.3441906",
		"lat": "47.4874841",
		"number": "12904",
		"street": "8TH AVE SW",
		"city": "BURIEN",
		"district": "KING",
		"postcode": "98146"
	},
	{
		"lon": "-122.2596151",
		"lat": "47.5194909",
		"number": "9276",
		"street": "LIMA TER S",
		"city": "SEATTLE",
		"district": "KING",
		"postcode": "98118"
	},
	{
		"lon": "-122.3487226",
		"lat": "47.4357183",
		"number": "18539",
		"street": "MARINE VIEW DR SW",
		"city": "NORMANDY PARK",
		"district": "KING",
		"postcode": "98166"
	},
	{
		"lon": "-122.2760616",
		"lat": "47.5176451",
		"number": "9351",
		"street": "BEACON AVE S",
		"city": "SEATTLE",
		"district": "KING",
		"postcode": "98118"
	},
	{
		"lon": "-122.1432071",
		"lat": "47.4845539",
		"number": "5634",
		"street": "NE 1ST CIR",
		"city": "RENTON",
		"district": "KING",
		"postcode": "98059"
	},
	{
		"lon": "-122.3457407",
		"lat": "47.5291243",
		"number": "8133",
		"street": "8TH AVE SW",
		"city": "SEATTLE",
		"district": "KING",
		"postcode": "98106"
	},
	{
		"lon": "-122.2843621",
		"lat": "47.5552999",
		"number": "3739",
		"street": "S DAWSON ST",
		"city": "SEATTLE",
		"district": "KING",
		"postcode": "98118"
	},
	{
		"lon": "-122.3716101",
		"lat": "47.520405",
		"number": "9219",
		"street": "30TH AVE SW",
		"city": "SEATTLE",
		"district": "KING",
		"postcode": "98126"
	},
	{
		"lon": "-122.3161093",
		"lat": "47.5240792",
		"number": "1234",
		"street": "S CONCORD ST",
		"city": "SEATTLE",
		"district": "KING",
		"postcode": "98108"
	},
	{
		"lon": "-122.2796866",
		"lat": "47.531722",
		"number": "4220",
		"street": "S KENYON ST",
		"city": "SEATTLE",
		"district": "KING",
		"postcode": "98118"
	},
	{
		"lon": "-122.2696682",
		"lat": "47.5343597",
		"number": "7608",
		"street": "RAINIER AVE S",
		"city": "SEATTLE",
		"district": "KING",
		"postcode": "98118"
	},
	{
		"lon": "-122.2644848",
		"lat": "47.5263375",
		"number": "8612",
		"street": "SEWARD PARK AVE S",
		"city": "SEATTLE",
		"district": "KING",
		"postcode": "98118"
	},
	{
		"lon": "-122.1772939",
		"lat": "47.5515818",
		"number": "5713",
		"street": "122ND AVE SE",
		"city": "BELLEVUE",
		"district": "KING",
		"postcode": "98006"
	},
	{
		"lon": "-122.3853256",
		"lat": "47.5838289",
		"number": "4203",
		"street": "SW WALKER ST",
		"city": "SEATTLE",
		"district": "KING",
		"postcode": "98116"
	},
	{
		"lon": "-122.0489857",
		"lat": "47.3534995",
		"number": "0",
		"street": "219TH AVE SE",
		"city": "MAPLE VALLEY",
		"district": "KING",
		"postcode": "98038"
	},
	{
		"lon": "-122.3147148",
		"lat": "47.7517499",
		"number": "0",
		"street": "NE 170TH ST",
		"city": "SHORELINE",
		"district": "KING",
		"postcode": "98155"
	},
	{
		"lon": "-122.3794426",
		"lat": "47.5056999",
		"number": "10838",
		"street": "MARINE VIEW DR SW",
		"city": "SEATTLE",
		"district": "KING",
		"postcode": "98146"
	},
	{
		"lon": "-122.3143317",
		"lat": "47.5754983",
		"number": "3114",
		"street": "14TH AVE S",
		"city": "SEATTLE",
		"district": "KING",
		"postcode": "98144"
	},
	{
		"lon": "-122.3675839",
		"lat": "47.4961088",
		"number": "11912",
		"street": "27TH PL SW",
		"city": "BURIEN",
		"district": "KING",
		"postcode": "98146"
	},
	{
		"lon": "-122.3210453",
		"lat": "47.4851471",
		"number": "13057",
		"street": "10TH AVE S",
		"city": "BURIEN",
		"district": "KING",
		"postcode": "98168"
	},
	{
		"lon": "-122.3771258",
		"lat": "47.4528918",
		"number": "16909",
		"street": "MAPLEWILD AVE SW",
		"city": "BURIEN",
		"district": "KING",
		"postcode": "98166"
	},
	{
		"lon": "-122.3588064",
		"lat": "47.5239027",
		"number": "8824",
		"street": "20TH AVE SW",
		"city": "SEATTLE",
		"district": "KING",
		"postcode": "98106"
	},
	{
		"lon": "-122.2855038",
		"lat": "47.5194694",
		"number": "9306",
		"street": "37TH AVE S",
		"city": "SEATTLE",
		"district": "KING",
		"postcode": "98118"
	},
	{
		"lon": "-122.3449548",
		"lat": "47.4972339",
		"number": "811",
		"street": "SW 118TH ST",
		"city": "BURIEN",
		"district": "KING",
		"postcode": "98146"
	},
	{
		"lon": "-122.4115159",
		"lat": "47.5721606",
		"number": "6113",
		"street": "SW SPOKANE ST",
		"city": "SEATTLE",
		"district": "KING",
		"postcode": "98116"
	},
	{
		"lon": "-122.0031533",
		"lat": "47.2063134",
		"number": "2614",
		"street": "GRIFFIN AVE",
		"city": "ENUMCLAW",
		"district": "KING",
		"postcode": "98022"
	},
	{
		"lon": "-122.2874932",
		"lat": "47.526725",
		"number": "8438",
		"street": "BEACON AVE S",
		"city": "SEATTLE",
		"district": "KING",
		"postcode": "98118"
	},
	{
		"lon": "-122.273613",
		"lat": "47.4751465",
		"number": "14303",
		"street": "48TH AVE S",
		"city": "TUKWILA",
		"district": "KING",
		"postcode": "98168"
	},
	{
		"lon": "-122.3562248",
		"lat": "47.5679409",
		"number": "4011",
		"street": "17TH AVE SW",
		"city": "SEATTLE",
		"district": "KING",
		"postcode": "98106"
	},
	{
		"lon": "-122.2896542",
		"lat": "47.4847076",
		"number": "13205",
		"street": "34TH AVE S",
		"city": "TUKWILA",
		"district": "KING",
		"postcode": "98168"
	},
	{
		"lon": "-122.1762982",
		"lat": "47.4668583",
		"number": "1660",
		"street": "INDEX AVE SE",
		"city": "RENTON",
		"district": "KING",
		"postcode": "98058"
	},
	{
		"lon": "-122.2101228",
		"lat": "47.4805942",
		"number": "225",
		"street": "LOGAN AVE S",
		"city": "RENTON",
		"district": "KING",
		"postcode": "98057"
	},
	{
		"lon": "-122.009218",
		"lat": "47.2019686",
		"number": "3012",
		"street": "EDITH AVE",
		"city": "ENUMCLAW",
		"district": "KING",
		"postcode": "98022"
	},
	{
		"lon": "-122.3157324",
		"lat": "47.5886851",
		"number": "1544",
		"street": "13TH AVE S",
		"city": "SEATTLE",
		"district": "KING",
		"postcode": "98144"
	},
	{
		"lon": "-122.3912056",
		"lat": "47.5295254",
		"number": "8302",
		"street": "46TH AVE SW",
		"city": "SEATTLE",
		"district": "KING",
		"postcode": "98136"
	},
	{
		"lon": "-122.3541421",
		"lat": "47.4586919",
		"number": "16027",
		"street": "15TH AVE SW",
		"city": "BURIEN",
		"district": "KING",
		"postcode": "98166"
	},
	{
		"lon": "-122.3670578",
		"lat": "47.3290153",
		"number": "2704",
		"street": "SW 305TH ST",
		"city": "FEDERAL WAY",
		"district": "KING",
		"postcode": "98023"
	},
	{
		"lon": "-122.2891084",
		"lat": "47.5463871",
		"number": "6135",
		"street": "35TH AVE S",
		"city": "SEATTLE",
		"district": "KING",
		"postcode": "98118"
	},
	{
		"lon": "-122.3433962",
		"lat": "47.4285602",
		"number": "19416",
		"street": "NORMANDY PARK DR SW",
		"city": "NORMANDY PARK",
		"district": "KING",
		"postcode": "98166"
	},
	{
		"lon": "-122.3806253",
		"lat": "47.5208869",
		"number": "3725",
		"street": "SW BARTON ST",
		"city": "SEATTLE",
		"district": "KING",
		"postcode": "98126"
	},
	{
		"lon": "-122.2666872",
		"lat": "47.5299552",
		"number": "7959",
		"street": "SEWARD PARK AVE S",
		"city": "SEATTLE",
		"district": "KING",
		"postcode": "98118"
	},
	{
		"lon": "-122.1863441",
		"lat": "47.4551758",
		"number": "11517",
		"street": "SE 165TH ST",
		"city": "RENTON",
		"district": "KING",
		"postcode": "98055"
	},
	{
		"lon": "-122.0075307",
		"lat": "47.1940957",
		"number": "2932",
		"street": "LINK AVE",
		"city": "ENUMCLAW",
		"district": "KING",
		"postcode": "98022"
	},
	{
		"lon": "-122.31824",
		"lat": "47.526675",
		"number": "1044",
		"street": "S CLOVERDALE ST",
		"city": "SEATTLE",
		"district": "KING",
		"postcode": "98108"
	},
	{
		"lon": "-122.1932761",
		"lat": "47.6668804",
		"number": "11006",
		"street": "NE 68TH ST",
		"city": "KIRKLAND",
		"district": "KING",
		"postcode": "98033"
	},
	{
		"lon": "-122.2064056",
		"lat": "47.4918015",
		"number": "546",
		"street": "BURNETT AVE N",
		"city": "RENTON",
		"district": "KING",
		"postcode": "98057"
	},
	{
		"lon": "-122.3309858",
		"lat": "47.5226478",
		"number": "217",
		"street": "S HENDERSON ST",
		"city": "SEATTLE",
		"district": "KING",
		"postcode": "98108"
	},
	{
		"lon": "-122.3090699",
		"lat": "47.5763029",
		"number": "3023",
		"street": "18TH AVE S",
		"city": "SEATTLE",
		"district": "KING",
		"postcode": "98144"
	},
	{
		"lon": "-122.0396964",
		"lat": "47.3593612",
		"number": "22621",
		"street": "SE 270TH PL",
		"city": "MAPLE VALLEY",
		"district": "KING",
		"postcode": "98038"
	},
	{
		"lon": "-122.0169346",
		"lat": "47.194314",
		"number": "45317",
		"street": "244TH AVE SE",
		"city": "ENUMCLAW",
		"district": "KING",
		"postcode": "98022"
	},
	{
		"lon": "-122.1745493",
		"lat": "47.4600414",
		"number": "12389",
		"street": "SE 160TH ST",
		"city": "RENTON",
		"district": "KING",
		"postcode": "98058"
	},
	{
		"lon": "-122.3897657",
		"lat": "47.7688912",
		"number": "19311",
		"street": "RICHMOND BEACH DR NW",
		"city": "SHORELINE",
		"district": "KING",
		"postcode": "98177"
	},
	{
		"lon": "-122.3883351",
		"lat": "47.5122233",
		"number": "10122",
		"street": "44TH AVE SW",
		"city": "SEATTLE",
		"district": "KING",
		"postcode": "98146"
	},
	{
		"lon": "-122.1634245",
		"lat": "47.4829539",
		"number": "4126",
		"street": "SE 1ST PL",
		"city": "RENTON",
		"district": "KING",
		"postcode": "98059"
	},
	{
		"lon": "-122.3394142",
		"lat": "47.4962932",
		"number": "413",
		"street": "SW 119TH ST",
		"city": "BURIEN",
		"district": "KING",
		"postcode": "98146"
	},
	{
		"lon": "-122.1781923",
		"lat": "47.5007167",
		"number": "2819",
		"street": "NE SUNSET BLVD",
		"city": "RENTON",
		"district": "KING",
		"postcode": "98056"
	},
	{
		"lon": "-122.1174635",
		"lat": "47.3794441",
		"number": "24819",
		"street": "168TH PL SE",
		"city": "COVINGTON",
		"district": "KING",
		"postcode": "98042"
	},
	{
		"lon": "-122.1740033",
		"lat": "47.4672298",
		"number": "1406",
		"street": "NEWPORT CT SE",
		"city": "RENTON",
		"district": "KING",
		"postcode": "98058"
	},
	{
		"lon": "-122.0492589",
		"lat": "47.38474",
		"number": "21927",
		"street": "SE 242ND ST",
		"city": "MAPLE VALLEY",
		"district": "KING",
		"postcode": "98038"
	},
	{
		"lon": "-122.0024242",
		"lat": "47.2052754",
		"number": "1515",
		"street": "FLORENCE ST",
		"city": "ENUMCLAW",
		"district": "KING",
		"postcode": "98022"
	},
	{
		"lon": "-122.3864103",
		"lat": "47.522652",
		"number": "8927",
		"street": "41ST AVE SW",
		"city": "SEATTLE",
		"district": "KING",
		"postcode": "98136"
	},
	{
		"lon": "-122.0467506",
		"lat": "47.3529044",
		"number": "22041",
		"street": "SE 277TH ST",
		"city": "MAPLE VALLEY",
		"district": "KING",
		"postcode": "98038"
	},
	{
		"lon": "-121.9996976",
		"lat": "47.2099622",
		"number": "2330",
		"street": "KIBLER AVE",
		"city": "ENUMCLAW",
		"district": "KING",
		"postcode": "98022"
	},
	{
		"lon": "-122.0502319",
		"lat": "47.3582886",
		"number": "21813",
		"street": "SE 271ST PL",
		"city": "MAPLE VALLEY",
		"district": "KING",
		"postcode": "98038"
	},
	{
		"lon": "-122.3595449",
		"lat": "47.5497889",
		"number": "5910",
		"street": "21ST AVE SW",
		"city": "SEATTLE",
		"district": "KING",
		"postcode": "98106"
	},
	{
		"lon": "-122.3197962",
		"lat": "47.4981986",
		"number": "11720",
		"street": "10TH AVE S",
		"city": "BURIEN",
		"district": "KING",
		"postcode": "98168"
	},
	{
		"lon": "-122.1668962",
		"lat": "47.488285",
		"number": "3813",
		"street": "NE 4TH ST",
		"city": "RENTON",
		"district": "KING",
		"postcode": "98056"
	},
	{
		"lon": "-122.1513441",
		"lat": "47.3567526",
		"number": "27315",
		"street": "144TH AVE SE",
		"city": "KENT",
		"district": "KING",
		"postcode": "98042"
	},
	{
		"lon": "-122.1714789",
		"lat": "47.4562534",
		"number": "12731",
		"street": "SE 164TH ST",
		"city": "RENTON",
		"district": "KING",
		"postcode": "98058"
	},
	{
		"lon": "-122.3263309",
		"lat": "47.5353765",
		"number": "604",
		"street": "S RIVERSIDE DR",
		"city": "SEATTLE",
		"district": "KING",
		"postcode": "98108"
	},
	{
		"lon": "-122.0373254",
		"lat": "47.3727899",
		"number": "25445",
		"street": "LAKE WILDERNESS LN SE",
		"city": "MAPLE VALLEY",
		"district": "KING",
		"postcode": "98038"
	},
	{
		"lon": "-122.257215",
		"lat": "47.4689849",
		"number": "14923",
		"street": "62ND AVE S",
		"city": "TUKWILA",
		"district": "KING",
		"postcode": "98168"
	},
	{
		"lon": "-122.3634698",
		"lat": "47.5002497",
		"number": "11423",
		"street": "23RD AVE SW",
		"city": "BURIEN",
		"district": "KING",
		"postcode": "98146"
	},
	{
		"lon": "-122.3536198",
		"lat": "47.5392821",
		"number": "1420",
		"street": "SW MYRTLE ST",
		"city": "SEATTLE",
		"district": "KING",
		"postcode": "98106"
	},
	{
		"lon": "-121.8982618",
		"lat": "47.6468825",
		"number": "33090",
		"street": "NE 43RD PL",
		"city": "CARNATION",
		"district": "KING",
		"postcode": "98014"
	},
	{
		"lon": "-122.1829798",
		"lat": "47.448887",
		"number": "17123",
		"street": "120TH LN SE",
		"city": "RENTON",
		"district": "KING",
		"postcode": "98058"
	},
	{
		"lon": "-122.3046404",
		"lat": "47.4963433",
		"number": "11835",
		"street": "MILITARY RD S",
		"city": "BURIEN",
		"district": "KING",
		"postcode": "98168"
	},
	{
		"lon": "-122.2472534",
		"lat": "47.5001842",
		"number": "11457",
		"street": "70TH PL S",
		"city": "SEATTLE",
		"district": "KING",
		"postcode": "98178"
	},
	{
		"lon": "-122.0551955",
		"lat": "47.3632826",
		"number": "0",
		"street": "SE 266TH ST",
		"city": "MAPLE VALLEY",
		"district": "KING",
		"postcode": "98038"
	},
	{
		"lon": "-122.3903078",
		"lat": "47.5569614",
		"number": "5017",
		"street": "ERSKINE WAY SW",
		"city": "SEATTLE",
		"district": "KING",
		"postcode": "98136"
	},
	{
		"lon": "-122.3252717",
		"lat": "47.5287999",
		"number": "8300",
		"street": "7TH AVE S",
		"city": "SEATTLE",
		"district": "KING",
		"postcode": "98108"
	},
	{
		"lon": "-122.3460978",
		"lat": "47.4622827",
		"number": "15633",
		"street": "9TH AVE SW",
		"city": "BURIEN",
		"district": "KING",
		"postcode": "98166"
	},
	{
		"lon": "-122.0430119",
		"lat": "47.3843953",
		"number": "24230",
		"street": "223RD PL SE",
		"city": "MAPLE VALLEY",
		"district": "KING",
		"postcode": "98038"
	},
	{
		"lon": "-122.3493735",
		"lat": "47.4774307",
		"number": "14103",
		"street": "11TH AVE SW",
		"city": "BURIEN",
		"district": "KING",
		"postcode": "98166"
	},
	{
		"lon": "-122.4021122",
		"lat": "47.6690584",
		"number": "5529",
		"street": "34TH AVE NW",
		"city": "SEATTLE",
		"district": "KING",
		"postcode": "98107"
	},
	{
		"lon": "-122.3276883",
		"lat": "47.4876722",
		"number": "12830",
		"street": "4TH AVE S",
		"city": "BURIEN",
		"district": "KING",
		"postcode": "98168"
	},
	{
		"lon": "-122.0106742",
		"lat": "47.2017229",
		"number": "3110",
		"street": "EDEL AVE",
		"city": "ENUMCLAW",
		"district": "KING",
		"postcode": "98022"
	},
	{
		"lon": "-122.3030393",
		"lat": "47.5765677",
		"number": "3000",
		"street": "23RD AVE S",
		"city": "SEATTLE",
		"district": "KING",
		"postcode": "98144"
	},
	{
		"lon": "-122.2882295",
		"lat": "47.478143",
		"number": "13799",
		"street": "34TH AVE S",
		"city": "TUKWILA",
		"district": "KING",
		"postcode": "98168"
	},
	{
		"lon": "-122.2768241",
		"lat": "47.6380029",
		"number": "2032",
		"street": "43RD AVE E",
		"city": "SEATTLE",
		"district": "KING",
		"postcode": "98112"
	},
	{
		"lon": "-122.0458794",
		"lat": "47.3861044",
		"number": "24024",
		"street": "221ST PL SE",
		"city": "MAPLE VALLEY",
		"district": "KING",
		"postcode": "98038"
	},
	{
		"lon": "-122.2701429",
		"lat": "47.485156",
		"number": "13100",
		"street": "48TH AVE S",
		"city": "TUKWILA",
		"district": "KING",
		"postcode": "98168"
	},
	{
		"lon": "-122.267845",
		"lat": "47.4792613",
		"number": "13726",
		"street": "53RD AVE S",
		"city": "TUKWILA",
		"district": "KING",
		"postcode": "98168"
	},
	{
		"lon": "-121.9724906",
		"lat": "47.6010014",
		"number": "27418",
		"street": "SE 8TH PL",
		"city": "SAMMAMISH",
		"district": "KING",
		"postcode": "98075"
	},
	{
		"lon": "-122.3295143",
		"lat": "47.4821382",
		"number": "13432",
		"street": "3RD AVE S",
		"city": "BURIEN",
		"district": "KING",
		"postcode": "98168"
	},
	{
		"lon": "-122.262797",
		"lat": "47.469384",
		"number": "14913",
		"street": "57TH AVE S",
		"city": "TUKWILA",
		"district": "KING",
		"postcode": "98168"
	},
	{
		"lon": "-122.3514646",
		"lat": "47.483885",
		"number": "1224",
		"street": "SW 132ND LN",
		"city": "BURIEN",
		"district": "KING",
		"postcode": "98146"
	},
	{
		"lon": "-122.171208",
		"lat": "47.4896652",
		"number": "3518",
		"street": "NE 4TH ST",
		"city": "RENTON",
		"district": "KING",
		"postcode": "98056"
	},
	{
		"lon": "-122.0631076",
		"lat": "47.5964901",
		"number": "0",
		"street": "208TH AVE SE",
		"city": "SAMMAMISH",
		"district": "KING",
		"postcode": "98075"
	},
	{
		"lon": "-122.2001736",
		"lat": "47.476076",
		"number": "508",
		"street": "RENTON AVE S",
		"city": "RENTON",
		"district": "KING",
		"postcode": "98057"
	},
	{
		"lon": "-122.0502358",
		"lat": "47.3661563",
		"number": "0",
		"street": "SE 262ND PL",
		"city": "MAPLE VALLEY",
		"district": "KING",
		"postcode": "98038"
	},
	{
		"lon": "-122.3666637",
		"lat": "47.4513915",
		"number": "16910",
		"street": "27TH AVE SW",
		"city": "BURIEN",
		"district": "KING",
		"postcode": "98166"
	},
	{
		"lon": "-122.3386966",
		"lat": "47.4955053",
		"number": "12012",
		"street": "4TH AVE SW",
		"city": "BURIEN",
		"district": "KING",
		"postcode": "98146"
	},
	{
		"lon": "-122.3745937",
		"lat": "47.5026617",
		"number": "3202",
		"street": "SW 113TH ST",
		"city": "SEATTLE",
		"district": "KING",
		"postcode": "98146"
	},
	{
		"lon": "-122.1595055",
		"lat": "47.5090795",
		"number": "1910",
		"street": "ANACORTES AVE NE",
		"city": "RENTON",
		"district": "KING",
		"postcode": "98059"
	},
	{
		"lon": "-122.190642",
		"lat": "47.4407929",
		"number": "18007",
		"street": "113TH AVE SE",
		"city": "RENTON",
		"district": "KING",
		"postcode": "98055"
	},
	{
		"lon": "-122.045097",
		"lat": "47.3858957",
		"number": "24036",
		"street": "222ND AVE SE",
		"city": "MAPLE VALLEY",
		"district": "KING",
		"postcode": "98038"
	},
	{
		"lon": "-122.0373377",
		"lat": "47.3732537",
		"number": "25430",
		"street": "LAKE WILDERNESS LN SE",
		"city": "MAPLE VALLEY",
		"district": "KING",
		"postcode": "98038"
	},
	{
		"lon": "-122.2851489",
		"lat": "47.5200111",
		"number": "9247",
		"street": "38TH AVE S",
		"city": "SEATTLE",
		"district": "KING",
		"postcode": "98118"
	},
	{
		"lon": "-122.0475214",
		"lat": "47.3593512",
		"number": "0",
		"street": "SE 270TH ST",
		"city": "MAPLE VALLEY",
		"district": "KING",
		"postcode": "98038"
	},
	{
		"lon": "-122.3657801",
		"lat": "47.4484627",
		"number": "2472",
		"street": "SW 172ND ST",
		"city": "BURIEN",
		"district": "KING",
		"postcode": "98166"
	},
	{
		"lon": "-122.3834037",
		"lat": "47.5354578",
		"number": "3933",
		"street": "SW WEBSTER ST",
		"city": "SEATTLE",
		"district": "KING",
		"postcode": "98136"
	},
	{
		"lon": "-122.1768371",
		"lat": "47.4485642",
		"number": "12315",
		"street": "SE 172ND ST",
		"city": "RENTON",
		"district": "KING",
		"postcode": "98058"
	},
	{
		"lon": "-122.2564466",
		"lat": "47.4548516",
		"number": "335",
		"street": "STRANDER BLVD",
		"city": "TUKWILA",
		"district": "KING",
		"postcode": "98188"
	},
	{
		"lon": "-122.1401216",
		"lat": "47.7614216",
		"number": "14875",
		"street": "NE 185TH ST",
		"city": "WOODINVILLE",
		"district": "KING",
		"postcode": "98072"
	},
	{
		"lon": "-122.1471237",
		"lat": "47.3755075",
		"number": "25209",
		"street": "146TH AVE SE",
		"city": "KENT",
		"district": "KING",
		"postcode": "98042"
	},
	{
		"lon": "-122.0069882",
		"lat": "47.2027429",
		"number": "2904",
		"street": "ELMONT AVE",
		"city": "ENUMCLAW",
		"district": "KING",
		"postcode": "98022"
	},
	{
		"lon": "-122.0196575",
		"lat": "47.5839946",
		"number": "0",
		"street": "SE 28TH ST",
		"city": "SAMMAMISH",
		"district": "KING",
		"postcode": "98075"
	},
	{
		"lon": "-122.0535968",
		"lat": "47.5927749",
		"number": "0",
		"street": "214TH CT SE",
		"city": "SAMMAMISH",
		"district": "KING",
		"postcode": "98075"
	},
	{
		"lon": "-122.0061075",
		"lat": "47.2035626",
		"number": "2874",
		"street": "SUN MOUNTAIN DR",
		"city": "ENUMCLAW",
		"district": "KING",
		"postcode": "98022"
	},
	{
		"lon": "-122.2491743",
		"lat": "47.7164606",
		"number": "6824",
		"street": "NE 129TH ST",
		"city": "KIRKLAND",
		"district": "KING",
		"postcode": "98034"
	},
	{
		"lon": "-122.2130412",
		"lat": "47.4776555",
		"number": "416",
		"street": "SHATTUCK AVE S",
		"city": "RENTON",
		"district": "KING",
		"postcode": "98057"
	},
	{
		"lon": "-122.1662583",
		"lat": "47.5005078",
		"number": "1055",
		"street": "TACOMA AVE NE",
		"city": "RENTON",
		"district": "KING",
		"postcode": "98056"
	},
	{
		"lon": "-122.0646266",
		"lat": "47.570744",
		"number": "0",
		"street": "212TH WAY SE",
		"city": "SAMMAMISH",
		"district": "KING",
		"postcode": "98075"
	},
	{
		"lon": "-122.0471805",
		"lat": "47.3666037",
		"number": "26306",
		"street": "222ND AVE SE",
		"city": "MAPLE VALLEY",
		"district": "KING",
		"postcode": "98038"
	},
	{
		"lon": "-122.3514202",
		"lat": "47.4905018",
		"number": "1303",
		"street": "SW 125TH PL",
		"city": "BURIEN",
		"district": "KING",
		"postcode": "98146"
	},
	{
		"lon": "-122.282758",
		"lat": "47.5273087",
		"number": "3922",
		"street": "S SULLIVAN ST",
		"city": "SEATTLE",
		"district": "KING",
		"postcode": "98118"
	},
	{
		"lon": "-122.3154509",
		"lat": "47.6684163",
		"number": "1157",
		"street": "NE 55TH ST",
		"city": "SEATTLE",
		"district": "KING",
		"postcode": "98105"
	},
	{
		"lon": "-122.17759",
		"lat": "47.493209",
		"number": "683",
		"street": "KIRKLAND AVE NE",
		"city": "RENTON",
		"district": "KING",
		"postcode": "98056"
	},
	{
		"lon": "-122.3250508",
		"lat": "47.482292",
		"number": "13429",
		"street": "7TH AVE S",
		"city": "BURIEN",
		"district": "KING",
		"postcode": "98168"
	},
	{
		"lon": "-121.9999441",
		"lat": "47.1955307",
		"number": "2356",
		"street": "SCANDIA AVE",
		"city": "ENUMCLAW",
		"district": "KING",
		"postcode": "98022"
	},
	{
		"lon": "-122.3482397",
		"lat": "47.4583103",
		"number": "16048",
		"street": "11TH AVE SW",
		"city": "BURIEN",
		"district": "KING",
		"postcode": "98166"
	},
	{
		"lon": "-122.1816482",
		"lat": "47.371203",
		"number": "25700",
		"street": "119TH PL SE",
		"city": "KENT",
		"district": "KING",
		"postcode": "98030"
	},
	{
		"lon": "-122.1657223",
		"lat": "47.4934109",
		"number": "3924",
		"street": "NE 6TH PL",
		"city": "RENTON",
		"district": "KING",
		"postcode": "98056"
	},
	{
		"lon": "-122.0486608",
		"lat": "47.5345431",
		"number": "390",
		"street": "DATEWOOD CT NW",
		"city": "ISSAQUAH",
		"district": "KING",
		"postcode": "98027"
	},
	{
		"lon": "-122.038438",
		"lat": "47.3844026",
		"number": "22748",
		"street": "SE 242ND PL",
		"city": "MAPLE VALLEY",
		"district": "KING",
		"postcode": "98038"
	},
	{
		"lon": "-122.3262182",
		"lat": "47.4739563",
		"number": "561",
		"street": "S 144TH ST",
		"city": "BURIEN",
		"district": "KING",
		"postcode": "98168"
	},
	{
		"lon": "-122.3649347",
		"lat": "47.518758",
		"number": "9411",
		"street": "25TH AVE SW",
		"city": "SEATTLE",
		"district": "KING",
		"postcode": "98106"
	},
	{
		"lon": "-122.2030706",
		"lat": "47.483747",
		"number": "104",
		"street": "PELLY AVE N",
		"city": "RENTON",
		"district": "KING",
		"postcode": "98057"
	},
	{
		"lon": "-122.0074444",
		"lat": "47.1964168",
		"number": "2933",
		"street": "CHRISTIANSON AVE",
		"city": "ENUMCLAW",
		"district": "KING",
		"postcode": "98022"
	},
	{
		"lon": "-122.3482466",
		"lat": "47.4564878",
		"number": "16250",
		"street": "11TH AVE SW",
		"city": "BURIEN",
		"district": "KING",
		"postcode": "98166"
	},
	{
		"lon": "-122.3358796",
		"lat": "47.4189465",
		"number": "20423",
		"street": "1ST AVE S",
		"city": "NORMANDY PARK",
		"district": "KING",
		"postcode": "98198"
	},
	{
		"lon": "-122.2761758",
		"lat": "47.4802212",
		"number": "4521",
		"street": "S 137TH ST",
		"city": "TUKWILA",
		"district": "KING",
		"postcode": "98168"
	},
	{
		"lon": "-122.3664624",
		"lat": "47.4503109",
		"number": "2611",
		"street": "SW 170TH ST",
		"city": "BURIEN",
		"district": "KING",
		"postcode": "98166"
	},
	{
		"lon": "-122.2789985",
		"lat": "47.5550286",
		"number": "4315",
		"street": "S DAWSON ST",
		"city": "SEATTLE",
		"district": "KING",
		"postcode": "98118"
	},
	{
		"lon": "-122.2839597",
		"lat": "47.4722223",
		"number": "4011",
		"street": "S 146TH ST",
		"city": "TUKWILA",
		"district": "KING",
		"postcode": "98168"
	},
	{
		"lon": "-122.0277761",
		"lat": "47.5126141",
		"number": "1571",
		"street": "SYCAMORE DR SE",
		"city": "ISSAQUAH",
		"district": "KING",
		"postcode": "98027"
	},
	{
		"lon": "-122.1921332",
		"lat": "47.667831",
		"number": "11108",
		"street": "NE 68TH ST",
		"city": "KIRKLAND",
		"district": "KING",
		"postcode": "98033"
	},
	{
		"lon": "-122.3904691",
		"lat": "47.5672426",
		"number": "4040",
		"street": "46TH AVE SW",
		"city": "SEATTLE",
		"district": "KING",
		"postcode": "98116"
	},
	{
		"lon": "-122.3441489",
		"lat": "47.4967017",
		"number": "725",
		"street": "SW 119TH ST",
		"city": "BURIEN",
		"district": "KING",
		"postcode": "98146"
	},
	{
		"lon": "-121.9984389",
		"lat": "47.203716",
		"number": "2276",
		"street": "STEVENSON AVE",
		"city": "ENUMCLAW",
		"district": "KING",
		"postcode": "98022"
	},
	{
		"lon": "-122.0287273",
		"lat": "47.3842454",
		"number": "23421",
		"street": "SE 243RD ST",
		"city": "MAPLE VALLEY",
		"district": "KING",
		"postcode": "98038"
	},
	{
		"lon": "-122.1687137",
		"lat": "47.4609666",
		"number": "12901",
		"street": "SE 158TH PL",
		"city": "RENTON",
		"district": "KING",
		"postcode": "98058"
	},
	{
		"lon": "-122.008455",
		"lat": "47.2012761",
		"number": "3004",
		"street": "EDEL AVE",
		"city": "ENUMCLAW",
		"district": "KING",
		"postcode": "98022"
	},
	{
		"lon": "-122.3416484",
		"lat": "47.4398606",
		"number": "438",
		"street": "SW NORMANDY RD",
		"city": "NORMANDY PARK",
		"district": "KING",
		"postcode": "98166"
	},
	{
		"lon": "-122.2840064",
		"lat": "47.5203455",
		"number": "9233",
		"street": "39TH AVE S",
		"city": "SEATTLE",
		"district": "KING",
		"postcode": "98118"
	},
	{
		"lon": "-122.3283088",
		"lat": "47.4751111",
		"number": "14226",
		"street": "4TH AVE S",
		"city": "BURIEN",
		"district": "KING",
		"postcode": "98168"
	},
	{
		"lon": "-122.1914817",
		"lat": "47.64687",
		"number": "11110",
		"street": "NE 41ST DR",
		"city": "KIRKLAND",
		"district": "KING",
		"postcode": "98033"
	},
	{
		"lon": "-122.3395632",
		"lat": "47.4752951",
		"number": "402",
		"street": "SW 143RD ST",
		"city": "BURIEN",
		"district": "KING",
		"postcode": "98166"
	},
	{
		"lon": "-122.209243",
		"lat": "47.4569263",
		"number": "613",
		"street": "S 25TH ST",
		"city": "RENTON",
		"district": "KING",
		"postcode": "98055"
	},
	{
		"lon": "-122.3177771",
		"lat": "47.4820515",
		"number": "13428",
		"street": "12TH AVE S",
		"city": "BURIEN",
		"district": "KING",
		"postcode": "98168"
	},
	{
		"lon": "-122.3779505",
		"lat": "47.5526211",
		"number": "5441",
		"street": "36TH AVE SW",
		"city": "SEATTLE",
		"district": "KING",
		"postcode": "98126"
	},
	{
		"lon": "-122.1833889",
		"lat": "47.4827886",
		"number": "162",
		"street": "FERNDALE AVE SE",
		"city": "RENTON",
		"district": "KING",
		"postcode": "98056"
	},
	{
		"lon": "-122.359726",
		"lat": "47.7404333",
		"number": "0",
		"street": "NW HIGHLAND DR",
		"city": "SHORELINE",
		"district": "KING",
		"postcode": "98177"
	},
	{
		"lon": "-122.3328784",
		"lat": "47.4865591",
		"number": "13001",
		"street": "OCCIDENTAL AVE S",
		"city": "BURIEN",
		"district": "KING",
		"postcode": "98168"
	},
	{
		"lon": "-122.3377861",
		"lat": "47.4440237",
		"number": "225",
		"street": "SW 177TH ST",
		"city": "NORMANDY PARK",
		"district": "KING",
		"postcode": "98166"
	},
	{
		"lon": "-122.3401448",
		"lat": "47.4782815",
		"number": "424",
		"street": "SW 139TH ST",
		"city": "BURIEN",
		"district": "KING",
		"postcode": "98166"
	},
	{
		"lon": "-122.3815495",
		"lat": "47.5212598",
		"number": "3816",
		"street": "SW BARTON ST",
		"city": "SEATTLE",
		"district": "KING",
		"postcode": "98126"
	},
	{
		"lon": "-122.3488345",
		"lat": "47.4384698",
		"number": "18150",
		"street": "MARINE VIEW DR SW",
		"city": "NORMANDY PARK",
		"district": "KING",
		"postcode": "98166"
	},
	{
		"lon": "-122.2840241",
		"lat": "47.5202453",
		"number": "9237",
		"street": "39TH AVE S",
		"city": "SEATTLE",
		"district": "KING",
		"postcode": "98118"
	},
	{
		"lon": "-122.2822241",
		"lat": "47.4796445",
		"number": "13728",
		"street": "41ST AVE S",
		"city": "TUKWILA",
		"district": "KING",
		"postcode": "98168"
	},
	{
		"lon": "-122.3590277",
		"lat": "47.4781998",
		"number": "13848",
		"street": "18TH AVE SW",
		"city": "BURIEN",
		"district": "KING",
		"postcode": "98166"
	},
	{
		"lon": "-122.3485889",
		"lat": "47.4413219",
		"number": "17941",
		"street": "RIVIERA PL SW",
		"city": "NORMANDY PARK",
		"district": "KING",
		"postcode": "98166"
	},
	{
		"lon": "-122.2651507",
		"lat": "47.476469",
		"number": "14110",
		"street": "55TH AVE S",
		"city": "TUKWILA",
		"district": "KING",
		"postcode": "98168"
	},
	{
		"lon": "-122.0526996",
		"lat": "47.3749892",
		"number": "21632",
		"street": "SE 253RD PL",
		"city": "MAPLE VALLEY",
		"district": "KING",
		"postcode": "98038"
	},
	{
		"lon": "-122.1895796",
		"lat": "47.3584492",
		"number": "11328",
		"street": "SE 271ST ST",
		"city": "KENT",
		"district": "KING",
		"postcode": "98030"
	},
	{
		"lon": "-122.0061335",
		"lat": "47.2047287",
		"number": "2871",
		"street": "SUN MOUNTAIN DR",
		"city": "ENUMCLAW",
		"district": "KING",
		"postcode": "98022"
	},
	{
		"lon": "-122.2711896",
		"lat": "47.4928528",
		"number": "12257",
		"street": "51ST PL S",
		"city": "TUKWILA",
		"district": "KING",
		"postcode": "98178"
	},
	{
		"lon": "-122.0149412",
		"lat": "47.3569782",
		"number": "27333",
		"street": "MAPLE RIDGE WAY SE",
		"city": "MAPLE VALLEY",
		"district": "KING",
		"postcode": "98038"
	},
	{
		"lon": "-122.0469929",
		"lat": "47.5243262",
		"number": "740",
		"street": "MOUNT FURY CIR SW",
		"city": "ISSAQUAH",
		"district": "KING",
		"postcode": "98027"
	},
	{
		"lon": "-122.0493653",
		"lat": "47.3523799",
		"number": "27816",
		"street": "219TH AVE SE",
		"city": "MAPLE VALLEY",
		"district": "KING",
		"postcode": "98038"
	},
	{
		"lon": "-122.3237771",
		"lat": "47.4359193",
		"number": "18628",
		"street": "8TH AVE S",
		"city": "SEATAC",
		"district": "KING",
		"postcode": "98148"
	},
	{
		"lon": "-122.0009045",
		"lat": "47.1985292",
		"number": "2458",
		"street": "MARTIN WAY",
		"city": "ENUMCLAW",
		"district": "KING",
		"postcode": "98022"
	},
	{
		"lon": "-122.055401",
		"lat": "47.5172373",
		"number": "3055",
		"street": "QUINALT CT SW",
		"city": "ISSAQUAH",
		"district": "KING",
		"postcode": "98027"
	},
	{
		"lon": "-122.1654507",
		"lat": "47.4914433",
		"number": "4003",
		"street": "NE 5TH PL",
		"city": "RENTON",
		"district": "KING",
		"postcode": "98056"
	},
	{
		"lon": "-122.3380966",
		"lat": "47.4952628",
		"number": "12019",
		"street": "3RD AVE SW",
		"city": "BURIEN",
		"district": "KING",
		"postcode": "98146"
	},
	{
		"lon": "-122.3396829",
		"lat": "47.4793494",
		"number": "410",
		"street": "SW 138TH ST",
		"city": "BURIEN",
		"district": "KING",
		"postcode": "98166"
	},
	{
		"lon": "-121.9735079",
		"lat": "47.601015",
		"number": "27322",
		"street": "SE 8TH PL",
		"city": "SAMMAMISH",
		"district": "KING",
		"postcode": "98075"
	},
	{
		"lon": "-122.3376484",
		"lat": "47.4397015",
		"number": "18223",
		"street": "3RD PL SW",
		"city": "NORMANDY PARK",
		"district": "KING",
		"postcode": "98166"
	},
	{
		"lon": "-122.3424724",
		"lat": "47.4878257",
		"number": "612",
		"street": "SW 129TH ST",
		"city": "BURIEN",
		"district": "KING",
		"postcode": "98146"
	},
	{
		"lon": "-122.009371",
		"lat": "47.352892",
		"number": "24847",
		"street": "SE 278TH ST",
		"city": "MAPLE VALLEY",
		"district": "KING",
		"postcode": "98038"
	},
	{
		"lon": "-122.3455274",
		"lat": "47.4598927",
		"number": "15890",
		"street": "9TH AVE SW",
		"city": "BURIEN",
		"district": "KING",
		"postcode": "98166"
	},
	{
		"lon": "-122.0550987",
		"lat": "47.518248",
		"number": "2005",
		"street": "SQUAK MOUNTAIN LOOP SW",
		"city": "ISSAQUAH",
		"district": "KING",
		"postcode": "98027"
	},
	{
		"lon": "-122.3394883",
		"lat": "47.4755616",
		"number": "14225",
		"street": "4TH AVE SW",
		"city": "BURIEN",
		"district": "KING",
		"postcode": "98166"
	},
	{
		"lon": "-122.0290148",
		"lat": "47.3866238",
		"number": "23928",
		"street": "234TH PL SE",
		"city": "MAPLE VALLEY",
		"district": "KING",
		"postcode": "98038"
	},
	{
		"lon": "-122.2108882",
		"lat": "47.7431722",
		"number": "15821",
		"street": "98TH AVE NE",
		"city": "BOTHELL",
		"district": "KING",
		"postcode": "98011"
	},
	{
		"lon": "-122.0409364",
		"lat": "47.3447023",
		"number": "28629",
		"street": "226TH AVE SE",
		"city": "MAPLE VALLEY",
		"district": "KING",
		"postcode": "98038"
	},
	{
		"lon": "-122.2001363",
		"lat": "47.4780615",
		"number": "356",
		"street": "RENTON AVE S",
		"city": "RENTON",
		"district": "KING",
		"postcode": "98057"
	},
	{
		"lon": "-122.1846076",
		"lat": "47.443342",
		"number": "17809",
		"street": "118TH AVE SE",
		"city": "RENTON",
		"district": "KING",
		"postcode": "98058"
	},
	{
		"lon": "-122.3229038",
		"lat": "47.7399609",
		"number": "0",
		"street": "6TH AVE NE",
		"city": "SHORELINE",
		"district": "KING",
		"postcode": "98155"
	},
	{
		"lon": "-122.2141536",
		"lat": "47.6854272",
		"number": "501",
		"street": "10TH AVE W",
		"city": "KIRKLAND",
		"district": "KING",
		"postcode": "98033"
	},
	{
		"lon": "-122.3404261",
		"lat": "47.4437566",
		"number": "373",
		"street": "SW 176TH PL",
		"city": "NORMANDY PARK",
		"district": "KING",
		"postcode": "98166"
	},
	{
		"lon": "-122.0556707",
		"lat": "47.3613751",
		"number": "21432",
		"street": "SE 268TH PL",
		"city": "MAPLE VALLEY",
		"district": "KING",
		"postcode": "98038"
	},
	{
		"lon": "-122.2766778",
		"lat": "47.4966298",
		"number": "12003",
		"street": "46TH AVE S",
		"city": "TUKWILA",
		"district": "KING",
		"postcode": "98178"
	},
	{
		"lon": "-122.1954486",
		"lat": "47.4561783",
		"number": "16409",
		"street": "109TH AVE SE",
		"city": "RENTON",
		"district": "KING",
		"postcode": "98055"
	},
	{
		"lon": "-122.0229542",
		"lat": "47.3804946",
		"number": "0",
		"street": "SE 247TH PL",
		"city": "MAPLE VALLEY",
		"district": "KING",
		"postcode": "98038"
	},
	{
		"lon": "-122.03885",
		"lat": "47.3598268",
		"number": "22650",
		"street": "SE 270TH PL",
		"city": "MAPLE VALLEY",
		"district": "KING",
		"postcode": "98038"
	},
	{
		"lon": "-122.3432097",
		"lat": "47.4760065",
		"number": "630",
		"street": "SW 142ND ST",
		"city": "BURIEN",
		"district": "KING",
		"postcode": "98166"
	},
	{
		"lon": "-122.2168095",
		"lat": "47.4720032",
		"number": "750",
		"street": "RAINIER AVE S",
		"city": "RENTON",
		"district": "KING",
		"postcode": "98057"
	},
	{
		"lon": "-122.3416979",
		"lat": "47.4385998",
		"number": "433",
		"street": "SW 183RD ST",
		"city": "NORMANDY PARK",
		"district": "KING",
		"postcode": "98166"
	},
	{
		"lon": "-122.0464362",
		"lat": "47.3818596",
		"number": "0",
		"street": "SE 244TH PL",
		"city": "MAPLE VALLEY",
		"district": "KING",
		"postcode": "98038"
	},
	{
		"lon": "-122.1682849",
		"lat": "47.4935804",
		"number": "664",
		"street": "REDMOND AVE NE",
		"city": "RENTON",
		"district": "KING",
		"postcode": "98056"
	},
	{
		"lon": "-122.3420503",
		"lat": "47.5295908",
		"number": "8115",
		"street": "5TH AVE SW",
		"city": "SEATTLE",
		"district": "KING",
		"postcode": "98106"
	},
	{
		"lon": "-122.1834018",
		"lat": "47.4545414",
		"number": "16525",
		"street": "118TH AVE SE",
		"city": "RENTON",
		"district": "KING",
		"postcode": "98058"
	},
	{
		"lon": "-122.1030689",
		"lat": "47.3623606",
		"number": "17838",
		"street": "SE 267TH PL",
		"city": "COVINGTON",
		"district": "KING",
		"postcode": "98042"
	},
	{
		"lon": "-122.3594825",
		"lat": "47.4511132",
		"number": "1932",
		"street": "SW 170TH ST",
		"city": "BURIEN",
		"district": "KING",
		"postcode": "98166"
	},
	{
		"lon": "-122.0026529",
		"lat": "47.3546611",
		"number": "25417",
		"street": "SE 275TH PL",
		"city": "MAPLE VALLEY",
		"district": "KING",
		"postcode": "98038"
	},
	{
		"lon": "-122.3549449",
		"lat": "47.4601072",
		"number": "15838",
		"street": "16TH AVE SW",
		"city": "BURIEN",
		"district": "KING",
		"postcode": "98166"
	},
	{
		"lon": "-122.3602466",
		"lat": "47.4625881",
		"number": "15620",
		"street": "21ST AVE SW",
		"city": "BURIEN",
		"district": "KING",
		"postcode": "98166"
	},
	{
		"lon": "-122.0043284",
		"lat": "47.2103885",
		"number": "2723",
		"street": "KIBLER AVE",
		"city": "ENUMCLAW",
		"district": "KING",
		"postcode": "98022"
	},
	{
		"lon": "-122.2024399",
		"lat": "47.4105539",
		"number": "21312",
		"street": "103RD PL SE",
		"city": "KENT",
		"district": "KING",
		"postcode": "98031"
	},
	{
		"lon": "-122.1881361",
		"lat": "47.6766831",
		"number": "1207",
		"street": "2ND AVE",
		"city": "KIRKLAND",
		"district": "KING",
		"postcode": "98033"
	},
	{
		"lon": "-122.3451964",
		"lat": "47.4795069",
		"number": "677",
		"street": "SW 137TH ST",
		"city": "BURIEN",
		"district": "KING",
		"postcode": "98166"
	},
	{
		"lon": "-122.3542013",
		"lat": "47.4570568",
		"number": "16233",
		"street": "15TH AVE SW",
		"city": "BURIEN",
		"district": "KING",
		"postcode": "98166"
	},
	{
		"lon": "-122.170069",
		"lat": "47.4225542",
		"number": "12806",
		"street": "SE 201ST ST",
		"city": "KENT",
		"district": "KING",
		"postcode": "98031"
	},
	{
		"lon": "-122.269181",
		"lat": "47.4639211",
		"number": "15455",
		"street": "53RD AVE S",
		"city": "TUKWILA",
		"district": "KING",
		"postcode": "98188"
	},
	{
		"lon": "-122.051025",
		"lat": "47.520371",
		"number": "880",
		"street": "IDYLWOOD DR SW",
		"city": "ISSAQUAH",
		"district": "KING",
		"postcode": "98027"
	},
	{
		"lon": "-122.3218969",
		"lat": "47.4754355",
		"number": "833",
		"street": "S 142ND LN",
		"city": "BURIEN",
		"district": "KING",
		"postcode": "98168"
	},
	{
		"lon": "-122.1892267",
		"lat": "47.4660206",
		"number": "1600",
		"street": "BLAINE CT SE",
		"city": "RENTON",
		"district": "KING",
		"postcode": "98055"
	},
	{
		"lon": "-122.353918",
		"lat": "47.4669813",
		"number": "1430",
		"street": "SW 152ND ST",
		"city": "BURIEN",
		"district": "KING",
		"postcode": "98166"
	},
	{
		"lon": "-122.1855833",
		"lat": "47.4413538",
		"number": "11615",
		"street": "SE 180TH ST",
		"city": "RENTON",
		"district": "KING",
		"postcode": "98058"
	},
	{
		"lon": "-122.0484568",
		"lat": "47.3577396",
		"number": "27202",
		"street": "219TH PL SE",
		"city": "MAPLE VALLEY",
		"district": "KING",
		"postcode": "98038"
	},
	{
		"lon": "-122.1845948",
		"lat": "47.6905136",
		"number": "10031",
		"street": "117TH PL NE",
		"city": "KIRKLAND",
		"district": "KING",
		"postcode": "98033"
	},
	{
		"lon": "-122.1757055",
		"lat": "47.3657746",
		"number": "26253",
		"street": "125TH PL SE",
		"city": "KENT",
		"district": "KING",
		"postcode": "98030"
	},
	{
		"lon": "-122.0500394",
		"lat": "47.5320093",
		"number": "815",
		"street": "W SUNSET WAY",
		"city": "ISSAQUAH",
		"district": "KING",
		"postcode": "98027"
	},
	{
		"lon": "-122.2006491",
		"lat": "47.4108221",
		"number": "21321",
		"street": "105TH PL SE",
		"city": "KENT",
		"district": "KING",
		"postcode": "98031"
	},
	{
		"lon": "-122.1761101",
		"lat": "47.6879115",
		"number": "12328",
		"street": "NE 97TH ST",
		"city": "KIRKLAND",
		"district": "KING",
		"postcode": "98033"
	},
	{
		"lon": "-122.0452571",
		"lat": "47.3775147",
		"number": "22116",
		"street": "SE 251ST CT",
		"city": "MAPLE VALLEY",
		"district": "KING",
		"postcode": "98038"
	},
	{
		"lon": "-122.2843337",
		"lat": "47.6060889",
		"number": "3804",
		"street": "E JEFFERSON ST",
		"city": "SEATTLE",
		"district": "KING",
		"postcode": "98122"
	},
	{
		"lon": "-122.3163795",
		"lat": "47.4847308",
		"number": "1241",
		"street": "S 132ND ST",
		"city": "BURIEN",
		"district": "KING",
		"postcode": "98168"
	},
	{
		"lon": "-122.1731336",
		"lat": "47.6833203",
		"number": "9025",
		"street": "126TH AVE NE",
		"city": "KIRKLAND",
		"district": "KING",
		"postcode": "98033"
	},
	{
		"lon": "-122.1921112",
		"lat": "47.6917959",
		"number": "10393",
		"street": "111TH AVE NE",
		"city": "KIRKLAND",
		"district": "KING",
		"postcode": "98033"
	},
	{
		"lon": "-122.1650034",
		"lat": "47.3932291",
		"number": "13203",
		"street": "SE 233RD ST",
		"city": "KENT",
		"district": "KING",
		"postcode": "98042"
	},
	{
		"lon": "-122.0332869",
		"lat": "47.3848979",
		"number": "24210",
		"street": "231ST AVE SE",
		"city": "MAPLE VALLEY",
		"district": "KING",
		"postcode": "98038"
	},
	{
		"lon": "-122.103889",
		"lat": "47.3705504",
		"number": "25811",
		"street": "178TH PL SE",
		"city": "COVINGTON",
		"district": "KING",
		"postcode": "98042"
	},
	{
		"lon": "-122.1272731",
		"lat": "47.3634412",
		"number": "26510",
		"street": "161ST AVE SE",
		"city": "COVINGTON",
		"district": "KING",
		"postcode": "98042"
	},
	{
		"lon": "-122.1781972",
		"lat": "47.706476",
		"number": "11927",
		"street": "124TH AVE NE",
		"city": "KIRKLAND",
		"district": "KING",
		"postcode": "98034"
	},
	{
		"lon": "-122.2275907",
		"lat": "47.3657436",
		"number": "1529",
		"street": "MAPLE LN",
		"city": "KENT",
		"district": "KING",
		"postcode": "98030"
	},
	{
		"lon": "-122.0363106",
		"lat": "47.3804706",
		"number": "24611",
		"street": "230TH WAY SE",
		"city": "MAPLE VALLEY",
		"district": "KING",
		"postcode": "98038"
	},
	{
		"lon": "-122.338136",
		"lat": "47.4426346",
		"number": "17819",
		"street": "3RD AVE SW",
		"city": "NORMANDY PARK",
		"district": "KING",
		"postcode": "98166"
	},
	{
		"lon": "-122.3620911",
		"lat": "47.4956668",
		"number": "11857",
		"street": "22ND AVE SW",
		"city": "BURIEN",
		"district": "KING",
		"postcode": "98146"
	},
	{
		"lon": "-122.0539602",
		"lat": "47.5323547",
		"number": "225",
		"street": "MOUNT RAINIER PL NW",
		"city": "ISSAQUAH",
		"district": "KING",
		"postcode": "98027"
	},
	{
		"lon": "-122.147336",
		"lat": "47.3791326",
		"number": "24801",
		"street": "145TH LN SE",
		"city": "KENT",
		"district": "KING",
		"postcode": "98042"
	},
	{
		"lon": "-122.1925203",
		"lat": "47.4433898",
		"number": "17665",
		"street": "111TH AVE SE",
		"city": "RENTON",
		"district": "KING",
		"postcode": "98055"
	},
	{
		"lon": "-122.3385231",
		"lat": "47.4323526",
		"number": "19017",
		"street": "2ND AVE SW",
		"city": "NORMANDY PARK",
		"district": "KING",
		"postcode": "98166"
	},
	{
		"lon": "-122.2430443",
		"lat": "47.4342496",
		"number": "18802",
		"street": "72ND AVE S",
		"city": "KENT",
		"district": "KING",
		"postcode": "98032"
	},
	{
		"lon": "-122.0469017",
		"lat": "47.3785405",
		"number": "24943",
		"street": "LAKE WILDERNESS COUNTRY CLUB DR SE",
		"city": "MAPLE VALLEY",
		"district": "KING",
		"postcode": "98038"
	},
	{
		"lon": "-122.2024499",
		"lat": "47.413978",
		"number": "10334",
		"street": "SE 210TH PL",
		"city": "KENT",
		"district": "KING",
		"postcode": "98031"
	},
	{
		"lon": "-122.3387925",
		"lat": "47.4770288",
		"number": "13936",
		"street": "4TH AVE SW",
		"city": "BURIEN",
		"district": "KING",
		"postcode": "98166"
	},
	{
		"lon": "-122.1777982",
		"lat": "47.4021422",
		"number": "22310",
		"street": "122ND AVE SE",
		"city": "KENT",
		"district": "KING",
		"postcode": "98031"
	},
	{
		"lon": "-122.1752018",
		"lat": "47.4615548",
		"number": "12342",
		"street": "SE 158TH ST",
		"city": "RENTON",
		"district": "KING",
		"postcode": "98058"
	},
	{
		"lon": "-122.3466638",
		"lat": "47.475695",
		"number": "842",
		"street": "SW 142ND PL",
		"city": "BURIEN",
		"district": "KING",
		"postcode": "98166"
	},
	{
		"lon": "-122.04099",
		"lat": "47.3728784",
		"number": "25514",
		"street": "LAKE WILDERNESS COUNTRY CLUB DR SE",
		"city": "MAPLE VALLEY",
		"district": "KING",
		"postcode": "98038"
	},
	{
		"lon": "-122.3501701",
		"lat": "47.4571619",
		"number": "16233",
		"street": "12TH AVE SW",
		"city": "BURIEN",
		"district": "KING",
		"postcode": "98166"
	},
	{
		"lon": "-122.1476897",
		"lat": "47.3823708",
		"number": "24420",
		"street": "145TH PL SE",
		"city": "KENT",
		"district": "KING",
		"postcode": "98042"
	},
	{
		"lon": "-122.1596395",
		"lat": "47.7583112",
		"number": "17802",
		"street": "134TH AVE NE",
		"city": "WOODINVILLE",
		"district": "KING",
		"postcode": "98072"
	},
	{
		"lon": "-122.1751996",
		"lat": "47.7010539",
		"number": "12413",
		"street": "NE 112TH PL",
		"city": "KIRKLAND",
		"district": "KING",
		"postcode": "98033"
	},
	{
		"lon": "-122.1828714",
		"lat": "47.3618341",
		"number": "26720",
		"street": "119TH AVE SE",
		"city": "KENT",
		"district": "KING",
		"postcode": "98030"
	},
	{
		"lon": "-122.3541925",
		"lat": "47.4561709",
		"number": "1502",
		"street": "SW 164TH ST",
		"city": "BURIEN",
		"district": "KING",
		"postcode": "98166"
	},
	{
		"lon": "-122.196681",
		"lat": "47.4264146",
		"number": "19604",
		"street": "108TH AVE SE",
		"city": "KENT",
		"district": "KING",
		"postcode": "98031"
	},
	{
		"lon": "-122.2028752",
		"lat": "47.7047351",
		"number": "10168",
		"street": "NE 116TH PL",
		"city": "KIRKLAND",
		"district": "KING",
		"postcode": "98034"
	},
	{
		"lon": "-122.1802698",
		"lat": "47.407577",
		"number": "21706",
		"street": "120TH AVE SE",
		"city": "KENT",
		"district": "KING",
		"postcode": "98031"
	},
	{
		"lon": "-122.0116236",
		"lat": "47.3551401",
		"number": "27560",
		"street": "247TH CT SE",
		"city": "MAPLE VALLEY",
		"district": "KING",
		"postcode": "98038"
	},
	{
		"lon": "-122.182221",
		"lat": "47.5133869",
		"number": "2708",
		"street": "NE 24TH ST",
		"city": "RENTON",
		"district": "KING",
		"postcode": "98056"
	},
	{
		"lon": "-122.0088757",
		"lat": "47.3513977",
		"number": "27949",
		"street": "MAPLE RIDGE WAY SE",
		"city": "MAPLE VALLEY",
		"district": "KING",
		"postcode": "98038"
	},
	{
		"lon": "-122.3219308",
		"lat": "47.4807092",
		"number": "908",
		"street": "S 137TH ST",
		"city": "BURIEN",
		"district": "KING",
		"postcode": "98168"
	},
	{
		"lon": "-122.2012254",
		"lat": "47.4317644",
		"number": "19010",
		"street": "104TH PL SE",
		"city": "RENTON",
		"district": "KING",
		"postcode": "98055"
	},
	{
		"lon": "-122.2995548",
		"lat": "47.5961624",
		"number": "718",
		"street": "25TH AVE S",
		"city": "SEATTLE",
		"district": "KING",
		"postcode": "98144"
	},
	{
		"lon": "-122.1831073",
		"lat": "47.3580981",
		"number": "27052",
		"street": "118TH PL SE",
		"city": "KENT",
		"district": "KING",
		"postcode": "98030"
	},
	{
		"lon": "-122.2070234",
		"lat": "47.7101664",
		"number": "10007",
		"street": "NE 123RD ST",
		"city": "KIRKLAND",
		"district": "KING",
		"postcode": "98034"
	},
	{
		"lon": "-122.0025093",
		"lat": "47.1976575",
		"number": "820",
		"street": "MELODY LN",
		"city": "ENUMCLAW",
		"district": "KING",
		"postcode": "98022"
	},
	{
		"lon": "-122.1798319",
		"lat": "47.6783853",
		"number": "12010",
		"street": "NE 84TH LN",
		"city": "KIRKLAND",
		"district": "KING",
		"postcode": "98033"
	},
	{
		"lon": "-122.1941478",
		"lat": "47.6756916",
		"number": "804",
		"street": "KIRKLAND AVE",
		"city": "KIRKLAND",
		"district": "KING",
		"postcode": "98033"
	},
	{
		"lon": "-122.1992745",
		"lat": "47.4235876",
		"number": "19914",
		"street": "106TH AVE SE",
		"city": "RENTON",
		"district": "KING",
		"postcode": "98055"
	},
	{
		"lon": "-122.1668175",
		"lat": "47.4920103",
		"number": "3905",
		"street": "NE 6TH ST",
		"city": "RENTON",
		"district": "KING",
		"postcode": "98056"
	},
	{
		"lon": "-122.1702784",
		"lat": "47.7089027",
		"number": "12720",
		"street": "NE 120TH ST",
		"city": "KIRKLAND",
		"district": "KING",
		"postcode": "98034"
	},
	{
		"lon": "-122.3844005",
		"lat": "47.5627088",
		"number": "4503",
		"street": "41ST AVE SW",
		"city": "SEATTLE",
		"district": "KING",
		"postcode": "98116"
	},
	{
		"lon": "-122.0342995",
		"lat": "47.3654201",
		"number": "23019",
		"street": "SE 263RD ST",
		"city": "MAPLE VALLEY",
		"district": "KING",
		"postcode": "98038"
	},
	{
		"lon": "-122.3524561",
		"lat": "47.4745802",
		"number": "1410",
		"street": "SW 143RD ST",
		"city": "BURIEN",
		"district": "KING",
		"postcode": "98166"
	},
	{
		"lon": "-122.3373754",
		"lat": "47.4445778",
		"number": "212",
		"street": "SW 177TH ST",
		"city": "NORMANDY PARK",
		"district": "KING",
		"postcode": "98166"
	},
	{
		"lon": "-122.2888509",
		"lat": "47.380723",
		"number": "24611",
		"street": "35TH AVE S",
		"city": "KENT",
		"district": "KING",
		"postcode": "98032"
	},
	{
		"lon": "-122.2421938",
		"lat": "47.3773139",
		"number": "25014",
		"street": "74TH AVE S",
		"city": "KENT",
		"district": "KING",
		"postcode": "98032"
	},
	{
		"lon": "-122.3288726",
		"lat": "47.4898703",
		"number": "255",
		"street": "S 126TH ST",
		"city": "BURIEN",
		"district": "KING",
		"postcode": "98168"
	},
	{
		"lon": "-122.0007416",
		"lat": "47.2134832",
		"number": "2436",
		"street": "MCHUGH AVE",
		"city": "ENUMCLAW",
		"district": "KING",
		"postcode": "98022"
	},
	{
		"lon": "-122.1923263",
		"lat": "47.5053817",
		"number": "1422",
		"street": "MONTEREY AVE NE",
		"city": "RENTON",
		"district": "KING",
		"postcode": "98056"
	},
	{
		"lon": "-122.2815064",
		"lat": "47.4720294",
		"number": "14611",
		"street": "42ND AVE S",
		"city": "TUKWILA",
		"district": "KING",
		"postcode": "98168"
	},
	{
		"lon": "-122.0499536",
		"lat": "47.38711",
		"number": "21671",
		"street": "SE 239TH PL",
		"city": "MAPLE VALLEY",
		"district": "KING",
		"postcode": "98038"
	},
	{
		"lon": "-122.1809134",
		"lat": "47.4171507",
		"number": "20616",
		"street": "120TH AVE SE",
		"city": "KENT",
		"district": "KING",
		"postcode": "98031"
	},
	{
		"lon": "-122.350271",
		"lat": "47.5258252",
		"number": "8620",
		"street": "12TH AVE SW",
		"city": "SEATTLE",
		"district": "KING",
		"postcode": "98106"
	},
	{
		"lon": "-122.2049997",
		"lat": "47.6861546",
		"number": "1319",
		"street": "3RD ST",
		"city": "KIRKLAND",
		"district": "KING",
		"postcode": "98033"
	},
	{
		"lon": "-122.3829761",
		"lat": "47.6471585",
		"number": "3016",
		"street": "21ST AVE W",
		"city": "SEATTLE",
		"district": "KING",
		"postcode": "98199"
	},
	{
		"lon": "-122.2339293",
		"lat": "47.6169266",
		"number": "8001",
		"street": "NE 8TH ST",
		"city": "MEDINA",
		"district": "KING",
		"postcode": "98039"
	},
	{
		"lon": "-122.05097",
		"lat": "47.5315722",
		"number": "115",
		"street": "BIG BEAR PL NW",
		"city": "ISSAQUAH",
		"district": "KING",
		"postcode": "98027"
	},
	{
		"lon": "-122.0275619",
		"lat": "47.3657661",
		"number": "26300",
		"street": "235TH AVE SE",
		"city": "MAPLE VALLEY",
		"district": "KING",
		"postcode": "98038"
	},
	{
		"lon": "-122.0136563",
		"lat": "47.3070771",
		"number": "32813",
		"street": "HYDE AVE",
		"city": "BLACK DIAMOND",
		"district": "KING",
		"postcode": "98010"
	},
	{
		"lon": "-122.1870163",
		"lat": "47.7076772",
		"number": "12016",
		"street": "115TH AVE NE",
		"city": "KIRKLAND",
		"district": "KING",
		"postcode": "98034"
	},
	{
		"lon": "-122.1956654",
		"lat": "47.6761001",
		"number": "629",
		"street": "KIRKLAND WAY",
		"city": "KIRKLAND",
		"district": "KING",
		"postcode": "98033"
	},
	{
		"lon": "-122.023519",
		"lat": "47.3803251",
		"number": "23804",
		"street": "SE 248TH ST",
		"city": "MAPLE VALLEY",
		"district": "KING",
		"postcode": "98038"
	},
	{
		"lon": "-122.1914414",
		"lat": "47.6751611",
		"number": "935",
		"street": "KIRKLAND AVE",
		"city": "KIRKLAND",
		"district": "KING",
		"postcode": "98033"
	},
	{
		"lon": "-122.3567715",
		"lat": "47.5208101",
		"number": "9203",
		"street": "17TH AVE SW",
		"city": "SEATTLE",
		"district": "KING",
		"postcode": "98106"
	},
	{
		"lon": "-122.1696171",
		"lat": "47.6957523",
		"number": "12808",
		"street": "NE 106TH PL",
		"city": "KIRKLAND",
		"district": "KING",
		"postcode": "98033"
	},
	{
		"lon": "-122.0521811",
		"lat": "47.3692813",
		"number": "21609",
		"street": "SE 259TH ST",
		"city": "MAPLE VALLEY",
		"district": "KING",
		"postcode": "98038"
	},
	{
		"lon": "-122.2071791",
		"lat": "47.6756964",
		"number": "9",
		"street": "LAKESHORE PLZ",
		"city": "KIRKLAND",
		"district": "KING",
		"postcode": "98033"
	},
	{
		"lon": "-122.2059916",
		"lat": "47.4059515",
		"number": "10030",
		"street": "SE 219TH PL",
		"city": "KENT",
		"district": "KING",
		"postcode": "98031"
	},
	{
		"lon": "-122.0492222",
		"lat": "47.3672778",
		"number": "21768",
		"street": "SE 262ND PL",
		"city": "MAPLE VALLEY",
		"district": "KING",
		"postcode": "98038"
	},
	{
		"lon": "-122.1800179",
		"lat": "47.6795779",
		"number": "12000",
		"street": "NE 85TH ST",
		"city": "KIRKLAND",
		"district": "KING",
		"postcode": "98033"
	},
	{
		"lon": "-122.0415333",
		"lat": "47.3724129",
		"number": "25523",
		"street": "LAKE WILDERNESS COUNTRY CLUB DR SE",
		"city": "MAPLE VALLEY",
		"district": "KING",
		"postcode": "98038"
	},
	{
		"lon": "-122.226817",
		"lat": "47.4285095",
		"number": "19416",
		"street": "84TH AVE S",
		"city": "KENT",
		"district": "KING",
		"postcode": "98032"
	},
	{
		"lon": "-122.3453397",
		"lat": "47.4636642",
		"number": "15448",
		"street": "9TH AVE SW",
		"city": "BURIEN",
		"district": "KING",
		"postcode": "98166"
	},
	{
		"lon": "-122.3394487",
		"lat": "47.4870692",
		"number": "12915",
		"street": "4TH AVE SW",
		"city": "BURIEN",
		"district": "KING",
		"postcode": "98146"
	},
	{
		"lon": "-122.2108588",
		"lat": "47.4149999",
		"number": "20822",
		"street": "96TH PL S",
		"city": "KENT",
		"district": "KING",
		"postcode": "98031"
	},
	{
		"lon": "-122.0621011",
		"lat": "47.3715256",
		"number": "25635",
		"street": "210TH AVE SE",
		"city": "MAPLE VALLEY",
		"district": "KING",
		"postcode": "98038"
	},
	{
		"lon": "-122.0660078",
		"lat": "47.3586776",
		"number": "20629",
		"street": "SE 271ST ST",
		"city": "COVINGTON",
		"district": "KING",
		"postcode": "98042"
	},
	{
		"lon": "-122.3007082",
		"lat": "47.6210963",
		"number": "228",
		"street": "24TH AVE E",
		"city": "SEATTLE",
		"district": "KING",
		"postcode": "98112"
	},
	{
		"lon": "-122.1740955",
		"lat": "47.6650883",
		"number": "12416",
		"street": "NE 65TH LN",
		"city": "KIRKLAND",
		"district": "KING",
		"postcode": "98033"
	},
	{
		"lon": "-122.0079658",
		"lat": "47.2104165",
		"number": "2914",
		"street": "OLYMPIC PL",
		"city": "ENUMCLAW",
		"district": "KING",
		"postcode": "98022"
	},
	{
		"lon": "-122.3255519",
		"lat": "47.4860323",
		"number": "13026",
		"street": "6TH AVE S",
		"city": "BURIEN",
		"district": "KING",
		"postcode": "98168"
	},
	{
		"lon": "-122.2056715",
		"lat": "47.6762954",
		"number": "130",
		"street": "PARK LN",
		"city": "KIRKLAND",
		"district": "KING",
		"postcode": "98033"
	},
	{
		"lon": "-122.1995907",
		"lat": "47.6815624",
		"number": "807",
		"street": "5TH ST",
		"city": "KIRKLAND",
		"district": "KING",
		"postcode": "98033"
	},
	{
		"lon": "-122.2048849",
		"lat": "47.6910253",
		"number": "1839",
		"street": "3RD ST",
		"city": "KIRKLAND",
		"district": "KING",
		"postcode": "98033"
	},
	{
		"lon": "-122.3457552",
		"lat": "47.4692258",
		"number": "829",
		"street": "SW 149TH ST",
		"city": "BURIEN",
		"district": "KING",
		"postcode": "98166"
	},
	{
		"lon": "-122.1705805",
		"lat": "47.6653433",
		"number": "12621",
		"street": "NE 66TH PL",
		"city": "KIRKLAND",
		"district": "KING",
		"postcode": "98033"
	},
	{
		"lon": "-122.2066082",
		"lat": "47.6635964",
		"number": "10107",
		"street": "NE 64TH ST",
		"city": "KIRKLAND",
		"district": "KING",
		"postcode": "98033"
	},
	{
		"lon": "-122.20425",
		"lat": "47.7077705",
		"number": "10238",
		"street": "NE 120TH ST",
		"city": "KIRKLAND",
		"district": "KING",
		"postcode": "98034"
	},
	{
		"lon": "-122.2188691",
		"lat": "47.3738147",
		"number": "818",
		"street": "ELLIS PL",
		"city": "KENT",
		"district": "KING",
		"postcode": "98030"
	},
	{
		"lon": "-122.3112209",
		"lat": "47.2650373",
		"number": "37526",
		"street": "19TH WAY S",
		"city": "FEDERAL WAY",
		"district": "KING",
		"postcode": "98003"
	},
	{
		"lon": "-122.1570907",
		"lat": "47.3846361",
		"number": "24212",
		"street": "138TH AVE SE",
		"city": "KENT",
		"district": "KING",
		"postcode": "98042"
	},
	{
		"lon": "-122.1478702",
		"lat": "47.3848308",
		"number": "24134",
		"street": "145TH AVE SE",
		"city": "KENT",
		"district": "KING",
		"postcode": "98042"
	},
	{
		"lon": "-122.1816477",
		"lat": "47.4642661",
		"number": "1729",
		"street": "FERNDALE AVE SE",
		"city": "RENTON",
		"district": "KING",
		"postcode": "98058"
	},
	{
		"lon": "-122.1051738",
		"lat": "47.3599412",
		"number": "26940",
		"street": "176TH PL SE",
		"city": "COVINGTON",
		"district": "KING",
		"postcode": "98042"
	},
	{
		"lon": "-122.2083108",
		"lat": "47.4091793",
		"number": "21446",
		"street": "99TH AVE S",
		"city": "KENT",
		"district": "KING",
		"postcode": "98031"
	},
	{
		"lon": "-122.2048208",
		"lat": "47.4635566",
		"number": "1900",
		"street": "S PUGET DR",
		"city": "RENTON",
		"district": "KING",
		"postcode": "98055"
	},
	{
		"lon": "-122.3448149",
		"lat": "47.4836754",
		"number": "13303",
		"street": "8TH AVE SW",
		"city": "BURIEN",
		"district": "KING",
		"postcode": "98146"
	},
	{
		"lon": "-122.1968042",
		"lat": "47.6670001",
		"number": "963",
		"street": "6TH ST S",
		"city": "KIRKLAND",
		"district": "KING",
		"postcode": "98033"
	},
	{
		"lon": "-122.1371816",
		"lat": "47.3535903",
		"number": "15315",
		"street": "SE 276TH PL",
		"city": "KENT",
		"district": "KING",
		"postcode": "98042"
	},
	{
		"lon": "-122.3470245",
		"lat": "47.4461068",
		"number": "848",
		"street": "SW 174TH ST",
		"city": "NORMANDY PARK",
		"district": "KING",
		"postcode": "98166"
	},
	{
		"lon": "-122.2065369",
		"lat": "47.410636",
		"number": "10059",
		"street": "SE 213TH PL",
		"city": "KENT",
		"district": "KING",
		"postcode": "98031"
	},
	{
		"lon": "-122.2094527",
		"lat": "47.684245",
		"number": "1116",
		"street": "MARKET ST",
		"city": "KIRKLAND",
		"district": "KING",
		"postcode": "98033"
	},
	{
		"lon": "-122.0484023",
		"lat": "47.3624137",
		"number": "21860",
		"street": "SE 267TH ST",
		"city": "MAPLE VALLEY",
		"district": "KING",
		"postcode": "98038"
	},
	{
		"lon": "-122.202779",
		"lat": "47.7136958",
		"number": "12616",
		"street": "104TH AVE NE",
		"city": "KIRKLAND",
		"district": "KING",
		"postcode": "98034"
	},
	{
		"lon": "-122.2062124",
		"lat": "47.6761774",
		"number": "120",
		"street": "PARK LN",
		"city": "KIRKLAND",
		"district": "KING",
		"postcode": "98033"
	},
	{
		"lon": "-122.2093917",
		"lat": "47.710752",
		"number": "9905",
		"street": "NE 124TH ST",
		"city": "KIRKLAND",
		"district": "KING",
		"postcode": "98034"
	},
	{
		"lon": "-122.2000295",
		"lat": "47.6823653",
		"number": "432",
		"street": "9TH AVE",
		"city": "KIRKLAND",
		"district": "KING",
		"postcode": "98033"
	},
	{
		"lon": "-122.1401715",
		"lat": "47.3536848",
		"number": "15101",
		"street": "SE 276TH PL",
		"city": "KENT",
		"district": "KING",
		"postcode": "98042"
	},
	{
		"lon": "-122.3143222",
		"lat": "47.5241258",
		"number": "1412",
		"street": "S CONCORD ST",
		"city": "SEATTLE",
		"district": "KING",
		"postcode": "98108"
	},
	{
		"lon": "-122.3049858",
		"lat": "47.3193753",
		"number": "2141",
		"street": "S 314TH ST",
		"city": "FEDERAL WAY",
		"district": "KING",
		"postcode": "98003"
	},
	{
		"lon": "-122.1957638",
		"lat": "47.6669824",
		"number": "944",
		"street": "6TH ST S",
		"city": "KIRKLAND",
		"district": "KING",
		"postcode": "98033"
	},
	{
		"lon": "-122.0337991",
		"lat": "47.3619192",
		"number": "26785",
		"street": "231ST PL SE",
		"city": "MAPLE VALLEY",
		"district": "KING",
		"postcode": "98038"
	},
	{
		"lon": "-122.17633",
		"lat": "47.6727549",
		"number": "7533",
		"street": "123RD AVE NE",
		"city": "KIRKLAND",
		"district": "KING",
		"postcode": "98033"
	},
	{
		"lon": "-121.9996357",
		"lat": "47.3518085",
		"number": "27835",
		"street": "257TH AVE SE",
		"city": "MAPLE VALLEY",
		"district": "KING",
		"postcode": "98038"
	},
	{
		"lon": "-122.1701511",
		"lat": "47.4521402",
		"number": "12697",
		"street": "SE 168TH ST",
		"city": "RENTON",
		"district": "KING",
		"postcode": "98058"
	},
	{
		"lon": "-122.2480064",
		"lat": "47.5099493",
		"number": "10050",
		"street": "68TH AVE S",
		"city": "SEATTLE",
		"district": "KING",
		"postcode": "98178"
	},
	{
		"lon": "-122.2135391",
		"lat": "47.423771",
		"number": "19816",
		"street": "TALBOT RD S",
		"city": "RENTON",
		"district": "KING",
		"postcode": "98055"
	},
	{
		"lon": "-122.1193415",
		"lat": "47.362811",
		"number": "26700",
		"street": "166TH PL SE",
		"city": "COVINGTON",
		"district": "KING",
		"postcode": "98042"
	},
	{
		"lon": "-122.3469195",
		"lat": "47.4473317",
		"number": "900",
		"street": "SW EASTBROOK RD",
		"city": "NORMANDY PARK",
		"district": "KING",
		"postcode": "98166"
	},
	{
		"lon": "-122.1775149",
		"lat": "47.4547752",
		"number": "12300",
		"street": "SE 166TH ST",
		"city": "RENTON",
		"district": "KING",
		"postcode": "98058"
	},
	{
		"lon": "-121.9989482",
		"lat": "47.2150789",
		"number": "3424",
		"street": "HARDING ST",
		"city": "ENUMCLAW",
		"district": "KING",
		"postcode": "98022"
	},
	{
		"lon": "-122.3239531",
		"lat": "47.5296572",
		"number": "737",
		"street": "S SOUTHERN ST",
		"city": "SEATTLE",
		"district": "KING",
		"postcode": "98108"
	},
	{
		"lon": "-122.1851875",
		"lat": "47.6644773",
		"number": "6545",
		"street": "116TH PL NE",
		"city": "KIRKLAND",
		"district": "KING",
		"postcode": "98033"
	},
	{
		"lon": "-122.1859916",
		"lat": "47.6893967",
		"number": "9724",
		"street": "116TH AVE NE",
		"city": "KIRKLAND",
		"district": "KING",
		"postcode": "98033"
	},
	{
		"lon": "-122.2049175",
		"lat": "47.7057781",
		"number": "11663",
		"street": "102ND PL NE",
		"city": "KIRKLAND",
		"district": "KING",
		"postcode": "98034"
	},
	{
		"lon": "-122.3495997",
		"lat": "47.523868",
		"number": "8827",
		"street": "11TH AVE SW",
		"city": "SEATTLE",
		"district": "KING",
		"postcode": "98106"
	},
	{
		"lon": "-122.3610457",
		"lat": "47.4657672",
		"number": "15237",
		"street": "21ST AVE SW",
		"city": "BURIEN",
		"district": "KING",
		"postcode": "98166"
	},
	{
		"lon": "-122.3401408",
		"lat": "47.4544818",
		"number": "520",
		"street": "SW 166TH ST",
		"city": "BURIEN",
		"district": "KING",
		"postcode": "98166"
	},
	{
		"lon": "-122.1943566",
		"lat": "47.4101724",
		"number": "11012",
		"street": "SE 214TH ST",
		"city": "KENT",
		"district": "KING",
		"postcode": "98031"
	},
	{
		"lon": "-122.2098833",
		"lat": "47.6809859",
		"number": "737",
		"street": "MARKET ST",
		"city": "KIRKLAND",
		"district": "KING",
		"postcode": "98033"
	},
	{
		"lon": "-122.3377464",
		"lat": "47.4653195",
		"number": "228",
		"street": "SW 154TH ST",
		"city": "BURIEN",
		"district": "KING",
		"postcode": "98166"
	},
	{
		"lon": "-122.1991139",
		"lat": "47.6731381",
		"number": "433",
		"street": "3RD AVE S",
		"city": "KIRKLAND",
		"district": "KING",
		"postcode": "98033"
	},
	{
		"lon": "-122.3435099",
		"lat": "47.4300352",
		"number": "19259",
		"street": "NORMANDY PARK DR SW",
		"city": "NORMANDY PARK",
		"district": "KING",
		"postcode": "98166"
	},
	{
		"lon": "-122.1058044",
		"lat": "47.362436",
		"number": "17636",
		"street": "SE 267TH PL",
		"city": "COVINGTON",
		"district": "KING",
		"postcode": "98042"
	},
	{
		"lon": "-122.1554954",
		"lat": "47.5008751",
		"number": "1060",
		"street": "DUVALL PL NE",
		"city": "RENTON",
		"district": "KING",
		"postcode": "98059"
	},
	{
		"lon": "-121.99918",
		"lat": "47.2126494",
		"number": "3140",
		"street": "HARDING ST",
		"city": "ENUMCLAW",
		"district": "KING",
		"postcode": "98022"
	},
	{
		"lon": "-122.3368306",
		"lat": "47.6615303",
		"number": "1718",
		"street": "N 45TH ST",
		"city": "SEATTLE",
		"district": "KING",
		"postcode": "98103"
	},
	{
		"lon": "-122.1993013",
		"lat": "47.4288471",
		"number": "19244",
		"street": "106TH AVE SE",
		"city": "RENTON",
		"district": "KING",
		"postcode": "98055"
	},
	{
		"lon": "-122.1992024",
		"lat": "47.6543349",
		"number": "10467",
		"street": "NE 52ND ST",
		"city": "KIRKLAND",
		"district": "KING",
		"postcode": "98033"
	},
	{
		"lon": "-122.1714503",
		"lat": "47.4103502",
		"number": "12644",
		"street": "SE 214TH ST",
		"city": "KENT",
		"district": "KING",
		"postcode": "98031"
	},
	{
		"lon": "-122.2118762",
		"lat": "47.4288739",
		"number": "9620",
		"street": "S 194TH ST",
		"city": "RENTON",
		"district": "KING",
		"postcode": "98055"
	},
	{
		"lon": "-122.1581604",
		"lat": "47.3703923",
		"number": "13723",
		"street": "SE 258TH PL",
		"city": "KENT",
		"district": "KING",
		"postcode": "98042"
	},
	{
		"lon": "-122.3401697",
		"lat": "47.4639",
		"number": "417",
		"street": "SW 155TH ST",
		"city": "BURIEN",
		"district": "KING",
		"postcode": "98166"
	},
	{
		"lon": "-122.0246191",
		"lat": "47.5550669",
		"number": "5232",
		"street": "236TH PL SE",
		"city": "ISSAQUAH",
		"district": "KING",
		"postcode": "98029"
	},
	{
		"lon": "-122.205115",
		"lat": "47.677913",
		"number": "225",
		"street": "4TH AVE",
		"city": "KIRKLAND",
		"district": "KING",
		"postcode": "98033"
	},
	{
		"lon": "-122.1947545",
		"lat": "47.4116312",
		"number": "21205",
		"street": "110TH AVE SE",
		"city": "KENT",
		"district": "KING",
		"postcode": "98031"
	},
	{
		"lon": "-122.1809016",
		"lat": "47.6993712",
		"number": "11020",
		"street": "120TH AVE NE",
		"city": "KIRKLAND",
		"district": "KING",
		"postcode": "98033"
	},
	{
		"lon": "-122.2395297",
		"lat": "47.3757838",
		"number": "624",
		"street": "6TH AVE S",
		"city": "KENT",
		"district": "KING",
		"postcode": "98032"
	},
	{
		"lon": "-122.2199346",
		"lat": "47.5287911",
		"number": "8212",
		"street": "AVALON DR",
		"city": "MERCER ISLAND",
		"district": "KING",
		"postcode": "98040"
	},
	{
		"lon": "-122.0422504",
		"lat": "47.3607371",
		"number": "26830",
		"street": "224TH AVE SE",
		"city": "MAPLE VALLEY",
		"district": "KING",
		"postcode": "98038"
	},
	{
		"lon": "-122.0622912",
		"lat": "47.5284638",
		"number": "8202",
		"street": "RENTON ISSAQUAH RD SE",
		"city": "ISSAQUAH",
		"district": "KING",
		"postcode": "98027"
	},
	{
		"lon": "-122.0531604",
		"lat": "47.3616633",
		"number": "21628",
		"street": "SE 268TH ST",
		"city": "MAPLE VALLEY",
		"district": "KING",
		"postcode": "98038"
	},
	{
		"lon": "-122.1802693",
		"lat": "47.407905",
		"number": "21622",
		"street": "120TH AVE SE",
		"city": "KENT",
		"district": "KING",
		"postcode": "98031"
	},
	{
		"lon": "-122.1535173",
		"lat": "47.6706934",
		"number": "13837",
		"street": "NE 74TH ST",
		"city": "REDMOND",
		"district": "KING",
		"postcode": "98052"
	},
	{
		"lon": "-122.1777377",
		"lat": "47.6669778",
		"number": "12116",
		"street": "NE 68TH PL",
		"city": "KIRKLAND",
		"district": "KING",
		"postcode": "98033"
	},
	{
		"lon": "-122.284723",
		"lat": "47.4611345",
		"number": "3767",
		"street": "S 158TH ST",
		"city": "TUKWILA",
		"district": "KING",
		"postcode": "98188"
	},
	{
		"lon": "-122.1481412",
		"lat": "47.381419",
		"number": "24517",
		"street": "145TH PL SE",
		"city": "KENT",
		"district": "KING",
		"postcode": "98042"
	},
	{
		"lon": "-122.1936922",
		"lat": "47.4112454",
		"number": "21222",
		"street": "110TH AVE SE",
		"city": "KENT",
		"district": "KING",
		"postcode": "98031"
	},
	{
		"lon": "-122.2031968",
		"lat": "47.4182737",
		"number": "20510",
		"street": "103RD AVE SE",
		"city": "KENT",
		"district": "KING",
		"postcode": "98031"
	},
	{
		"lon": "-122.1924848",
		"lat": "47.3262642",
		"number": "30805",
		"street": "112TH AVE SE",
		"city": "AUBURN",
		"district": "KING",
		"postcode": "98092"
	},
	{
		"lon": "-122.1650127",
		"lat": "47.3792162",
		"number": "13206",
		"street": "SE 249TH ST",
		"city": "KENT",
		"district": "KING",
		"postcode": "98042"
	},
	{
		"lon": "-122.3109633",
		"lat": "47.3418171",
		"number": "29007",
		"street": "18TH AVE S",
		"city": "FEDERAL WAY",
		"district": "KING",
		"postcode": "98003"
	},
	{
		"lon": "-122.2293885",
		"lat": "47.3343636",
		"number": "25",
		"street": "30TH ST NE",
		"city": "AUBURN",
		"district": "KING",
		"postcode": "98002"
	},
	{
		"lon": "-122.2025462",
		"lat": "47.330538",
		"number": "30315",
		"street": "104TH AVE SE",
		"city": "AUBURN",
		"district": "KING",
		"postcode": "98092"
	},
	{
		"lon": "-122.302487",
		"lat": "47.5991535",
		"number": "2209",
		"street": "S JACKSON ST",
		"city": "SEATTLE",
		"district": "KING",
		"postcode": "98144"
	},
	{
		"lon": "-122.2169204",
		"lat": "47.7082764",
		"number": "12019",
		"street": "93RD PL NE",
		"city": "KIRKLAND",
		"district": "KING",
		"postcode": "98034"
	},
	{
		"lon": "-122.3473475",
		"lat": "47.3282544",
		"number": "841",
		"street": "SW 305TH ST",
		"city": "FEDERAL WAY",
		"district": "KING",
		"postcode": "98023"
	},
	{
		"lon": "-122.2360333",
		"lat": "47.7762594",
		"number": "7650",
		"street": "NE 204TH PL",
		"city": "KENMORE",
		"district": "KING",
		"postcode": "98028"
	},
	{
		"lon": "-122.3626627",
		"lat": "47.5579595",
		"number": "4844",
		"street": "DELRIDGE WAY SW",
		"city": "SEATTLE",
		"district": "KING",
		"postcode": "98106"
	},
	{
		"lon": "-122.0512059",
		"lat": "47.3602553",
		"number": "26917",
		"street": "218TH AVE SE",
		"city": "MAPLE VALLEY",
		"district": "KING",
		"postcode": "98038"
	},
	{
		"lon": "-122.0529121",
		"lat": "47.3569636",
		"number": "21620",
		"street": "SE 273RD PL",
		"city": "MAPLE VALLEY",
		"district": "KING",
		"postcode": "98038"
	},
	{
		"lon": "-122.1826172",
		"lat": "47.4075028",
		"number": "21702",
		"street": "118TH PL SE",
		"city": "KENT",
		"district": "KING",
		"postcode": "98031"
	},
	{
		"lon": "-122.3231795",
		"lat": "47.3371942",
		"number": "29511",
		"street": "9TH PL S",
		"city": "FEDERAL WAY",
		"district": "KING",
		"postcode": "98003"
	},
	{
		"lon": "-122.260129",
		"lat": "47.471167",
		"number": "5805",
		"street": "S 147TH ST",
		"city": "TUKWILA",
		"district": "KING",
		"postcode": "98168"
	},
	{
		"lon": "-122.0008078",
		"lat": "47.2103189",
		"number": "2457",
		"street": "KIBLER AVE",
		"city": "ENUMCLAW",
		"district": "KING",
		"postcode": "98022"
	},
	{
		"lon": "-122.1755022",
		"lat": "47.4558797",
		"number": "12331",
		"street": "SE 164TH ST",
		"city": "RENTON",
		"district": "KING",
		"postcode": "98058"
	},
	{
		"lon": "-122.049685",
		"lat": "47.3425956",
		"number": "21801",
		"street": "SE 289TH ST",
		"city": "BLACK DIAMOND",
		"district": "KING",
		"postcode": "98010"
	},
	{
		"lon": "-122.1755082",
		"lat": "47.4612102",
		"number": "12335",
		"street": "SE 158TH ST",
		"city": "RENTON",
		"district": "KING",
		"postcode": "98058"
	},
	{
		"lon": "-122.1944499",
		"lat": "47.6808937",
		"number": "636",
		"street": "7TH AVE",
		"city": "KIRKLAND",
		"district": "KING",
		"postcode": "98033"
	},
	{
		"lon": "-122.1691674",
		"lat": "47.3794854",
		"number": "24805",
		"street": "129TH PL SE",
		"city": "KENT",
		"district": "KING",
		"postcode": "98030"
	},
	{
		"lon": "-122.3378278",
		"lat": "47.4388199",
		"number": "217",
		"street": "SW 183RD ST",
		"city": "NORMANDY PARK",
		"district": "KING",
		"postcode": "98166"
	},
	{
		"lon": "-122.2806661",
		"lat": "47.3634189",
		"number": "4015",
		"street": "HAMPTON WAY",
		"city": "KENT",
		"district": "KING",
		"postcode": "98032"
	},
	{
		"lon": "-122.1844867",
		"lat": "47.3255053",
		"number": "11695",
		"street": "SE 308TH PL",
		"city": "AUBURN",
		"district": "KING",
		"postcode": "98092"
	},
	{
		"lon": "-122.0838553",
		"lat": "47.3690309",
		"number": "19223",
		"street": "SE 259TH PL",
		"city": "COVINGTON",
		"district": "KING",
		"postcode": "98042"
	},
	{
		"lon": "-122.0847298",
		"lat": "47.3686907",
		"number": "25912",
		"street": "192ND AVE SE",
		"city": "COVINGTON",
		"district": "KING",
		"postcode": "98042"
	},
	{
		"lon": "-122.1861003",
		"lat": "47.6920056",
		"number": "11604",
		"street": "NE 102ND PL",
		"city": "KIRKLAND",
		"district": "KING",
		"postcode": "98033"
	},
	{
		"lon": "-122.3417434",
		"lat": "47.3302169",
		"number": "511",
		"street": "SW 303RD ST",
		"city": "FEDERAL WAY",
		"district": "KING",
		"postcode": "98023"
	},
	{
		"lon": "-122.0484937",
		"lat": "47.3717226",
		"number": "25619",
		"street": "220TH AVE SE",
		"city": "MAPLE VALLEY",
		"district": "KING",
		"postcode": "98038"
	},
	{
		"lon": "-122.0262137",
		"lat": "47.380559",
		"number": "23423",
		"street": "SE 247TH CT",
		"city": "MAPLE VALLEY",
		"district": "KING",
		"postcode": "98038"
	},
	{
		"lon": "-122.190086",
		"lat": "47.3616419",
		"number": "11236",
		"street": "SE 268TH ST",
		"city": "KENT",
		"district": "KING",
		"postcode": "98030"
	},
	{
		"lon": "-122.3479224",
		"lat": "47.7576563",
		"number": "908",
		"street": "N 178TH ST",
		"city": "SHORELINE",
		"district": "KING",
		"postcode": "98133"
	},
	{
		"lon": "-122.1709244",
		"lat": "47.7075062",
		"number": "12707",
		"street": "NE 120TH ST",
		"city": "KIRKLAND",
		"district": "KING",
		"postcode": "98034"
	},
	{
		"lon": "-122.013848",
		"lat": "47.3083752",
		"number": "24716",
		"street": "MASON ST",
		"city": "BLACK DIAMOND",
		"district": "KING",
		"postcode": "98010"
	},
	{
		"lon": "-122.173468",
		"lat": "47.7099964",
		"number": "12528",
		"street": "NE 124TH ST",
		"city": "KIRKLAND",
		"district": "KING",
		"postcode": "98034"
	},
	{
		"lon": "-122.2201032",
		"lat": "47.3740351",
		"number": "1110",
		"street": "E HEMLOCK ST",
		"city": "KENT",
		"district": "KING",
		"postcode": "98030"
	},
	{
		"lon": "-122.3629091",
		"lat": "47.4700744",
		"number": "2226",
		"street": "SW 149TH ST",
		"city": "BURIEN",
		"district": "KING",
		"postcode": "98166"
	},
	{
		"lon": "-122.1557707",
		"lat": "47.3494968",
		"number": "13913",
		"street": "SE 281ST ST",
		"city": "KENT",
		"district": "KING",
		"postcode": "98042"
	},
	{
		"lon": "-122.0732269",
		"lat": "47.3708913",
		"number": "20116",
		"street": "SE 258TH PL",
		"city": "COVINGTON",
		"district": "KING",
		"postcode": "98042"
	},
	{
		"lon": "-122.2092803",
		"lat": "47.6791233",
		"number": "506",
		"street": "MARKET ST",
		"city": "KIRKLAND",
		"district": "KING",
		"postcode": "98033"
	},
	{
		"lon": "-122.0394093",
		"lat": "47.3453708",
		"number": "28602",
		"street": "227TH AVE SE",
		"city": "MAPLE VALLEY",
		"district": "KING",
		"postcode": "98038"
	},
	{
		"lon": "-122.0313606",
		"lat": "47.3678486",
		"number": "26108",
		"street": "232ND PL SE",
		"city": "MAPLE VALLEY",
		"district": "KING",
		"postcode": "98038"
	},
	{
		"lon": "-122.3621862",
		"lat": "47.4546664",
		"number": "16459",
		"street": "MARINE VIEW DR SW",
		"city": "BURIEN",
		"district": "KING",
		"postcode": "98166"
	},
	{
		"lon": "-122.155015",
		"lat": "47.3754859",
		"number": "25224",
		"street": "139TH PL SE",
		"city": "KENT",
		"district": "KING",
		"postcode": "98042"
	},
	{
		"lon": "-122.2022129",
		"lat": "47.6669646",
		"number": "1017",
		"street": "STATE ST S",
		"city": "KIRKLAND",
		"district": "KING",
		"postcode": "98033"
	},
	{
		"lon": "-122.1876771",
		"lat": "47.3462098",
		"number": "11441",
		"street": "SE 284TH ST",
		"city": "AUBURN",
		"district": "KING",
		"postcode": "98092"
	},
	{
		"lon": "-122.1971414",
		"lat": "47.6619148",
		"number": "6019",
		"street": "108TH AVE NE",
		"city": "KIRKLAND",
		"district": "KING",
		"postcode": "98033"
	},
	{
		"lon": "-122.1008768",
		"lat": "47.3632108",
		"number": "18020",
		"street": "SE 266TH PL",
		"city": "COVINGTON",
		"district": "KING",
		"postcode": "98042"
	},
	{
		"lon": "-122.0940542",
		"lat": "47.3534682",
		"number": "18443",
		"street": "SE 279TH PL",
		"city": "COVINGTON",
		"district": "KING",
		"postcode": "98042"
	},
	{
		"lon": "-122.2173137",
		"lat": "47.3722348",
		"number": "1318",
		"street": "E WALNUT ST",
		"city": "KENT",
		"district": "KING",
		"postcode": "98030"
	},
	{
		"lon": "-122.1977188",
		"lat": "47.7107644",
		"number": "12326",
		"street": "107TH PL NE",
		"city": "KIRKLAND",
		"district": "KING",
		"postcode": "98034"
	},
	{
		"lon": "-122.0545611",
		"lat": "47.5361603",
		"number": "605",
		"street": "JASMINE PL NW",
		"city": "ISSAQUAH",
		"district": "KING",
		"postcode": "98027"
	},
	{
		"lon": "-122.1270002",
		"lat": "47.3786255",
		"number": "16032",
		"street": "SE 249TH PL",
		"city": "COVINGTON",
		"district": "KING",
		"postcode": "98042"
	},
	{
		"lon": "-122.2604774",
		"lat": "47.4703564",
		"number": "14718",
		"street": "58TH AVE S",
		"city": "TUKWILA",
		"district": "KING",
		"postcode": "98168"
	},
	{
		"lon": "-122.1713615",
		"lat": "47.676988",
		"number": "8118",
		"street": "126TH PL NE",
		"city": "KIRKLAND",
		"district": "KING",
		"postcode": "98033"
	},
	{
		"lon": "-122.1715149",
		"lat": "47.409961",
		"number": "12643",
		"street": "SE 214TH ST",
		"city": "KENT",
		"district": "KING",
		"postcode": "98031"
	},
	{
		"lon": "-122.202047",
		"lat": "47.6743926",
		"number": "128",
		"street": "STATE ST S",
		"city": "KIRKLAND",
		"district": "KING",
		"postcode": "98033"
	},
	{
		"lon": "-122.388857",
		"lat": "47.3007503",
		"number": "4403",
		"street": "SW 335TH ST",
		"city": "FEDERAL WAY",
		"district": "KING",
		"postcode": "98023"
	},
	{
		"lon": "-122.1939248",
		"lat": "47.3211932",
		"number": "11021",
		"street": "SE 313TH ST",
		"city": "AUBURN",
		"district": "KING",
		"postcode": "98092"
	},
	{
		"lon": "-122.1670267",
		"lat": "47.4047783",
		"number": "22021",
		"street": "131ST PL SE",
		"city": "KENT",
		"district": "KING",
		"postcode": "98031"
	},
	{
		"lon": "-122.212677",
		"lat": "47.3207676",
		"number": "1410",
		"street": "N ST NE",
		"city": "AUBURN",
		"district": "KING",
		"postcode": "98002"
	},
	{
		"lon": "-122.1530344",
		"lat": "47.459718",
		"number": "13945",
		"street": "SE 159TH PL",
		"city": "RENTON",
		"district": "KING",
		"postcode": "98058"
	},
	{
		"lon": "-122.3591207",
		"lat": "47.4570593",
		"number": "2003",
		"street": "SW 162ND CT",
		"city": "BURIEN",
		"district": "KING",
		"postcode": "98166"
	},
	{
		"lon": "-122.1890808",
		"lat": "47.4374599",
		"number": "18524",
		"street": "114TH AVE SE",
		"city": "RENTON",
		"district": "KING",
		"postcode": "98055"
	},
	{
		"lon": "-122.0582062",
		"lat": "47.3617619",
		"number": "21219",
		"street": "SE 268TH ST",
		"city": "MAPLE VALLEY",
		"district": "KING",
		"postcode": "98038"
	},
	{
		"lon": "-122.3581239",
		"lat": "47.4593599",
		"number": "16001",
		"street": "19TH AVE SW",
		"city": "BURIEN",
		"district": "KING",
		"postcode": "98166"
	},
	{
		"lon": "-122.2601244",
		"lat": "47.3339041",
		"number": "6008",
		"street": "S 298TH PL",
		"city": "AUBURN",
		"district": "KING",
		"postcode": "98001"
	},
	{
		"lon": "-122.1911303",
		"lat": "47.6606963",
		"number": "5920",
		"street": "111TH PL NE",
		"city": "KIRKLAND",
		"district": "KING",
		"postcode": "98033"
	},
	{
		"lon": "-122.1773341",
		"lat": "47.3902527",
		"number": "12316",
		"street": "SE 236TH PL",
		"city": "KENT",
		"district": "KING",
		"postcode": "98031"
	},
	{
		"lon": "-122.0463027",
		"lat": "47.358804",
		"number": "22045",
		"street": "SE 271ST ST",
		"city": "MAPLE VALLEY",
		"district": "KING",
		"postcode": "98038"
	},
	{
		"lon": "-122.1731804",
		"lat": "47.6578091",
		"number": "5626",
		"street": "125TH LN NE",
		"city": "KIRKLAND",
		"district": "KING",
		"postcode": "98033"
	},
	{
		"lon": "-122.0907421",
		"lat": "47.3632884",
		"number": "26629",
		"street": "188TH AVE SE",
		"city": "COVINGTON",
		"district": "KING",
		"postcode": "98042"
	},
	{
		"lon": "-122.1597109",
		"lat": "47.3747615",
		"number": "25312",
		"street": "136TH AVE SE",
		"city": "KENT",
		"district": "KING",
		"postcode": "98042"
	},
	{
		"lon": "-122.175266",
		"lat": "47.3344811",
		"number": "12446",
		"street": "SE 299TH PL",
		"city": "AUBURN",
		"district": "KING",
		"postcode": "98092"
	},
	{
		"lon": "-122.1914339",
		"lat": "47.6842968",
		"number": "11109",
		"street": "NE 92ND LN",
		"city": "KIRKLAND",
		"district": "KING",
		"postcode": "98033"
	},
	{
		"lon": "-122.3552515",
		"lat": "47.3262188",
		"number": "30712",
		"street": "16TH AVE SW",
		"city": "FEDERAL WAY",
		"district": "KING",
		"postcode": "98023"
	},
	{
		"lon": "-122.1708621",
		"lat": "47.6930261",
		"number": "12649",
		"street": "NE 104TH ST",
		"city": "KIRKLAND",
		"district": "KING",
		"postcode": "98033"
	},
	{
		"lon": "-122.2021623",
		"lat": "47.6662234",
		"number": "6711",
		"street": "103RD AVE NE",
		"city": "KIRKLAND",
		"district": "KING",
		"postcode": "98033"
	},
	{
		"lon": "-122.3340245",
		"lat": "47.438807",
		"number": "18245",
		"street": "OCCIDENTAL AVE S",
		"city": "BURIEN",
		"district": "KING",
		"postcode": "98148"
	},
	{
		"lon": "-122.3716206",
		"lat": "47.5722825",
		"number": "3419",
		"street": "30TH AVE SW",
		"city": "SEATTLE",
		"district": "KING",
		"postcode": "98126"
	},
	{
		"lon": "-122.1838532",
		"lat": "47.6712335",
		"number": "11642",
		"street": "NE 74TH ST",
		"city": "KIRKLAND",
		"district": "KING",
		"postcode": "98033"
	},
	{
		"lon": "-122.1605523",
		"lat": "47.3721933",
		"number": "13530",
		"street": "SE 257TH ST",
		"city": "KENT",
		"district": "KING",
		"postcode": "98042"
	},
	{
		"lon": "-122.2061078",
		"lat": "47.6677592",
		"number": "20",
		"street": "10TH AVE S",
		"city": "KIRKLAND",
		"district": "KING",
		"postcode": "98033"
	},
	{
		"lon": "-122.3196158",
		"lat": "47.3328527",
		"number": "30015",
		"street": "11TH PL S",
		"city": "FEDERAL WAY",
		"district": "KING",
		"postcode": "98003"
	},
	{
		"lon": "-122.04806",
		"lat": "47.3394655",
		"number": "29288",
		"street": "218TH PL SE",
		"city": "BLACK DIAMOND",
		"district": "KING",
		"postcode": "98010"
	},
	{
		"lon": "-122.0135159",
		"lat": "47.3537731",
		"number": "27646",
		"street": "246TH AVE SE",
		"city": "MAPLE VALLEY",
		"district": "KING",
		"postcode": "98038"
	},
	{
		"lon": "-122.2059564",
		"lat": "47.6214206",
		"number": "1216",
		"street": "100TH PL NE",
		"city": "BELLEVUE",
		"district": "KING",
		"postcode": "98004"
	},
	{
		"lon": "-122.3768271",
		"lat": "47.5357958",
		"number": "7355",
		"street": "35TH AVE SW",
		"city": "SEATTLE",
		"district": "KING",
		"postcode": "98126"
	},
	{
		"lon": "-122.3455421",
		"lat": "47.303724",
		"number": "33020",
		"street": "10TH AVE SW",
		"city": "FEDERAL WAY",
		"district": "KING",
		"postcode": "98023"
	},
	{
		"lon": "-122.026916",
		"lat": "47.3480422",
		"number": "28313",
		"street": "236TH PL SE",
		"city": "MAPLE VALLEY",
		"district": "KING",
		"postcode": "98038"
	},
	{
		"lon": "-122.2829337",
		"lat": "47.4712955",
		"number": "4028",
		"street": "S 148TH ST",
		"city": "TUKWILA",
		"district": "KING",
		"postcode": "98168"
	},
	{
		"lon": "-122.3458075",
		"lat": "47.6998961",
		"number": "942",
		"street": "N 97TH ST",
		"city": "SEATTLE",
		"district": "KING",
		"postcode": "98103"
	},
	{
		"lon": "-122.0365623",
		"lat": "47.3473686",
		"number": "28328",
		"street": "229TH AVE SE",
		"city": "MAPLE VALLEY",
		"district": "KING",
		"postcode": "98038"
	},
	{
		"lon": "-122.1823587",
		"lat": "47.3170097",
		"number": "11824",
		"street": "SE 318TH PL",
		"city": "AUBURN",
		"district": "KING",
		"postcode": "98092"
	},
	{
		"lon": "-122.0018732",
		"lat": "47.3289223",
		"number": "25415",
		"street": "CUMBERLAND WAY",
		"city": "BLACK DIAMOND",
		"district": "KING",
		"postcode": "98010"
	},
	{
		"lon": "-122.1950997",
		"lat": "47.6669719",
		"number": "10832",
		"street": "NE 68TH ST",
		"city": "KIRKLAND",
		"district": "KING",
		"postcode": "98033"
	},
	{
		"lon": "-122.2110154",
		"lat": "47.3047899",
		"number": "1330",
		"street": "3RD ST SE",
		"city": "AUBURN",
		"district": "KING",
		"postcode": "98002"
	},
	{
		"lon": "-122.1323347",
		"lat": "47.6664523",
		"number": "6841",
		"street": "156TH PL NE",
		"city": "REDMOND",
		"district": "KING",
		"postcode": "98052"
	},
	{
		"lon": "-122.040802",
		"lat": "47.5193082",
		"number": "255",
		"street": "SW EDGEWOOD CT",
		"city": "ISSAQUAH",
		"district": "KING",
		"postcode": "98027"
	},
	{
		"lon": "-122.3019995",
		"lat": "47.3586105",
		"number": "2406",
		"street": "S 272ND ST",
		"city": "KENT",
		"district": "KING",
		"postcode": "98032"
	},
	{
		"lon": "-122.3303906",
		"lat": "47.4415624",
		"number": "306",
		"street": "S 180TH CT",
		"city": "BURIEN",
		"district": "KING",
		"postcode": "98148"
	},
	{
		"lon": "-122.1009332",
		"lat": "47.3633996",
		"number": "18016",
		"street": "SE 266TH PL",
		"city": "COVINGTON",
		"district": "KING",
		"postcode": "98042"
	},
	{
		"lon": "-122.3560559",
		"lat": "47.5596389",
		"number": "4767",
		"street": "PUGET WAY SW",
		"city": "SEATTLE",
		"district": "KING",
		"postcode": "98106"
	},
	{
		"lon": "-122.2238642",
		"lat": "47.3101874",
		"number": "401",
		"street": "3RD ST NE",
		"city": "AUBURN",
		"district": "KING",
		"postcode": "98002"
	},
	{
		"lon": "-122.3277738",
		"lat": "47.328133",
		"number": "428",
		"street": "S 306TH ST",
		"city": "FEDERAL WAY",
		"district": "KING",
		"postcode": "98003"
	},
	{
		"lon": "-122.1951876",
		"lat": "47.6697657",
		"number": "715",
		"street": "7TH ST S",
		"city": "KIRKLAND",
		"district": "KING",
		"postcode": "98033"
	},
	{
		"lon": "-122.3330425",
		"lat": "47.3339256",
		"number": "29912",
		"street": "1ST PL S",
		"city": "FEDERAL WAY",
		"district": "KING",
		"postcode": "98003"
	},
	{
		"lon": "-122.1933372",
		"lat": "47.6466261",
		"number": "11006",
		"street": "NE 41ST DR",
		"city": "KIRKLAND",
		"district": "KING",
		"postcode": "98033"
	},
	{
		"lon": "-122.35175",
		"lat": "47.3275478",
		"number": "1304",
		"street": "SW DASH POINT RD",
		"city": "FEDERAL WAY",
		"district": "KING",
		"postcode": "98023"
	},
	{
		"lon": "-122.3425769",
		"lat": "47.7624142",
		"number": "1305",
		"street": "N 184TH CT",
		"city": "SHORELINE",
		"district": "KING",
		"postcode": "98133"
	},
	{
		"lon": "-122.3279864",
		"lat": "47.444071",
		"number": "17786",
		"street": "DES MOINES MEMORIAL DR S",
		"city": "BURIEN",
		"district": "KING",
		"postcode": "98148"
	},
	{
		"lon": "-122.1726811",
		"lat": "47.695084",
		"number": "10604",
		"street": "126TH AVE NE",
		"city": "KIRKLAND",
		"district": "KING",
		"postcode": "98033"
	},
	{
		"lon": "-122.0508535",
		"lat": "47.5251988",
		"number": "470",
		"street": "MOUNT KENYA DR SW",
		"city": "ISSAQUAH",
		"district": "KING",
		"postcode": "98027"
	},
	{
		"lon": "-122.2006857",
		"lat": "47.6716493",
		"number": "505",
		"street": "4TH ST S",
		"city": "KIRKLAND",
		"district": "KING",
		"postcode": "98033"
	},
	{
		"lon": "-122.1709822",
		"lat": "47.7073072",
		"number": "12711",
		"street": "NE 120TH ST",
		"city": "KIRKLAND",
		"district": "KING",
		"postcode": "98034"
	},
	{
		"lon": "-122.1927997",
		"lat": "47.3376267",
		"number": "11123",
		"street": "SE 295TH ST",
		"city": "AUBURN",
		"district": "KING",
		"postcode": "98092"
	},
	{
		"lon": "-122.2044256",
		"lat": "47.6631645",
		"number": "6304",
		"street": "LAKEVIEW DR",
		"city": "KIRKLAND",
		"district": "KING",
		"postcode": "98033"
	},
	{
		"lon": "-122.2093014",
		"lat": "47.7078692",
		"number": "12012",
		"street": "98TH AVE NE",
		"city": "KIRKLAND",
		"district": "KING",
		"postcode": "98034"
	},
	{
		"lon": "-122.04085",
		"lat": "47.5196813",
		"number": "260",
		"street": "SW EDGEWOOD CT",
		"city": "ISSAQUAH",
		"district": "KING",
		"postcode": "98027"
	},
	{
		"lon": "-122.1013956",
		"lat": "47.3658208",
		"number": "26250",
		"street": "180TH AVE SE",
		"city": "COVINGTON",
		"district": "KING",
		"postcode": "98042"
	},
	{
		"lon": "-122.2412053",
		"lat": "47.7497414",
		"number": "16644",
		"street": "74TH AVE NE",
		"city": "KENMORE",
		"district": "KING",
		"postcode": "98028"
	},
	{
		"lon": "-122.1853024",
		"lat": "47.6854572",
		"number": "11618",
		"street": "NE 94TH PL",
		"city": "KIRKLAND",
		"district": "KING",
		"postcode": "98033"
	},
	{
		"lon": "-122.1820707",
		"lat": "47.3118238",
		"number": "11849",
		"street": "SE 323RD PL",
		"city": "AUBURN",
		"district": "KING",
		"postcode": "98092"
	},
	{
		"lon": "-122.1691571",
		"lat": "47.3327911",
		"number": "12924",
		"street": "SE 301ST ST",
		"city": "AUBURN",
		"district": "KING",
		"postcode": "98092"
	},
	{
		"lon": "-122.3836607",
		"lat": "47.3005329",
		"number": "3934",
		"street": "SW 336TH PL",
		"city": "FEDERAL WAY",
		"district": "KING",
		"postcode": "98023"
	},
	{
		"lon": "-122.0517604",
		"lat": "47.5345186",
		"number": "455",
		"street": "EVERWOOD CT NW",
		"city": "ISSAQUAH",
		"district": "KING",
		"postcode": "98027"
	},
	{
		"lon": "-122.1941476",
		"lat": "47.3424602",
		"number": "11024",
		"street": "SE 290TH ST",
		"city": "AUBURN",
		"district": "KING",
		"postcode": "98092"
	},
	{
		"lon": "-122.3087172",
		"lat": "47.3337097",
		"number": "1969",
		"street": "S 299TH PL",
		"city": "FEDERAL WAY",
		"district": "KING",
		"postcode": "98003"
	},
	{
		"lon": "-122.3325404",
		"lat": "47.3294766",
		"number": "208",
		"street": "S 304TH PL",
		"city": "FEDERAL WAY",
		"district": "KING",
		"postcode": "98003"
	},
	{
		"lon": "-122.189775",
		"lat": "47.7049891",
		"number": "11314",
		"street": "NE 117TH PL",
		"city": "KIRKLAND",
		"district": "KING",
		"postcode": "98034"
	},
	{
		"lon": "-122.1073237",
		"lat": "47.3644666",
		"number": "17517",
		"street": "SE 265TH ST",
		"city": "COVINGTON",
		"district": "KING",
		"postcode": "98042"
	},
	{
		"lon": "-122.1671142",
		"lat": "47.3815873",
		"number": "12950",
		"street": "SE 246TH ST",
		"city": "KENT",
		"district": "KING",
		"postcode": "98030"
	},
	{
		"lon": "-122.3591864",
		"lat": "47.4557144",
		"number": "1929",
		"street": "SW 164TH ST",
		"city": "BURIEN",
		"district": "KING",
		"postcode": "98166"
	},
	{
		"lon": "-122.0235691",
		"lat": "47.3771617",
		"number": "25024",
		"street": "238TH AVE SE",
		"city": "MAPLE VALLEY",
		"district": "KING",
		"postcode": "98038"
	},
	{
		"lon": "-122.0513721",
		"lat": "47.5262325",
		"number": "375",
		"street": "MOUNT KENYA DR SW",
		"city": "ISSAQUAH",
		"district": "KING",
		"postcode": "98027"
	},
	{
		"lon": "-122.1934905",
		"lat": "47.6665447",
		"number": "11004",
		"street": "NE 68TH ST",
		"city": "KIRKLAND",
		"district": "KING",
		"postcode": "98033"
	},
	{
		"lon": "-122.3400138",
		"lat": "47.3354343",
		"number": "29730",
		"street": "4TH AVE SW",
		"city": "FEDERAL WAY",
		"district": "KING",
		"postcode": "98023"
	},
	{
		"lon": "-122.2669939",
		"lat": "47.3334024",
		"number": "29914",
		"street": "53RD PL S",
		"city": "AUBURN",
		"district": "KING",
		"postcode": "98001"
	},
	{
		"lon": "-122.1911365",
		"lat": "47.6473392",
		"number": "11122",
		"street": "NE 41ST DR",
		"city": "KIRKLAND",
		"district": "KING",
		"postcode": "98033"
	},
	{
		"lon": "-122.2089238",
		"lat": "47.7151348",
		"number": "9840",
		"street": "NE 128TH ST",
		"city": "KIRKLAND",
		"district": "KING",
		"postcode": "98034"
	},
	{
		"lon": "-122.1912653",
		"lat": "47.7002003",
		"number": "11205",
		"street": "NE 112TH ST",
		"city": "KIRKLAND",
		"district": "KING",
		"postcode": "98033"
	},
	{
		"lon": "-122.3551042",
		"lat": "47.335523",
		"number": "29869",
		"street": "MARINE VIEW DR SW",
		"city": "FEDERAL WAY",
		"district": "KING",
		"postcode": "98023"
	},
	{
		"lon": "-122.1684253",
		"lat": "47.7718802",
		"number": "12881",
		"street": "NE 200TH PL",
		"city": "BOTHELL",
		"district": "KING",
		"postcode": "98011"
	},
	{
		"lon": "-122.1764163",
		"lat": "47.7170211",
		"number": "12239",
		"street": "NE 130TH WAY",
		"city": "KIRKLAND",
		"district": "KING",
		"postcode": "98034"
	},
	{
		"lon": "-122.2132514",
		"lat": "47.4083702",
		"number": "21610",
		"street": "95TH PL S",
		"city": "KENT",
		"district": "KING",
		"postcode": "98031"
	},
	{
		"lon": "-122.3839466",
		"lat": "47.297667",
		"number": "4266",
		"street": "SW 338TH ST",
		"city": "FEDERAL WAY",
		"district": "KING",
		"postcode": "98023"
	},
	{
		"lon": "-122.3241749",
		"lat": "47.3131323",
		"number": "32315",
		"street": "9TH AVE S",
		"city": "FEDERAL WAY",
		"district": "KING",
		"postcode": "98003"
	},
	{
		"lon": "-122.2364384",
		"lat": "47.375497",
		"number": "641",
		"street": "3RD AVE S",
		"city": "KENT",
		"district": "KING",
		"postcode": "98032"
	},
	{
		"lon": "-122.385917",
		"lat": "47.2985663",
		"number": "4222",
		"street": "SW 338TH ST",
		"city": "FEDERAL WAY",
		"district": "KING",
		"postcode": "98023"
	},
	{
		"lon": "-122.4015536",
		"lat": "47.3170438",
		"number": "31624",
		"street": "54TH AVE SW",
		"city": "FEDERAL WAY",
		"district": "KING",
		"postcode": "98023"
	},
	{
		"lon": "-122.2923468",
		"lat": "47.3584659",
		"number": "27115",
		"street": "MILITARY RD S",
		"city": "KENT",
		"district": "KING",
		"postcode": "98032"
	},
	{
		"lon": "-122.2036749",
		"lat": "47.6623364",
		"number": "10216",
		"street": "NE 62ND ST",
		"city": "KIRKLAND",
		"district": "KING",
		"postcode": "98033"
	},
	{
		"lon": "-122.2161384",
		"lat": "47.7140333",
		"number": "12609",
		"street": "94TH AVE NE",
		"city": "KIRKLAND",
		"district": "KING",
		"postcode": "98034"
	},
	{
		"lon": "-122.214038",
		"lat": "47.6825201",
		"number": "338",
		"street": "WAVERLY WAY",
		"city": "KIRKLAND",
		"district": "KING",
		"postcode": "98033"
	},
	{
		"lon": "-122.1832708",
		"lat": "47.3563705",
		"number": "27406",
		"street": "118TH AVE SE",
		"city": "KENT",
		"district": "KING",
		"postcode": "98030"
	},
	{
		"lon": "-122.171935",
		"lat": "47.7050694",
		"number": "12726",
		"street": "NE 116TH LN",
		"city": "KIRKLAND",
		"district": "KING",
		"postcode": "98034"
	},
	{
		"lon": "-122.2016198",
		"lat": "47.6675807",
		"number": "778",
		"street": "STATE ST S",
		"city": "KIRKLAND",
		"district": "KING",
		"postcode": "98033"
	},
	{
		"lon": "-122.1830022",
		"lat": "47.3733344",
		"number": "11805",
		"street": "SE 255TH ST",
		"city": "KENT",
		"district": "KING",
		"postcode": "98030"
	},
	{
		"lon": "-122.2068481",
		"lat": "47.4114422",
		"number": "21233",
		"street": "100TH PL SE",
		"city": "KENT",
		"district": "KING",
		"postcode": "98031"
	},
	{
		"lon": "-122.3192979",
		"lat": "47.3254391",
		"number": "1045",
		"street": "S 308TH ST",
		"city": "FEDERAL WAY",
		"district": "KING",
		"postcode": "98003"
	},
	{
		"lon": "-122.1583194",
		"lat": "47.3875975",
		"number": "13713",
		"street": "SE 239TH ST",
		"city": "KENT",
		"district": "KING",
		"postcode": "98042"
	},
	{
		"lon": "-122.2243285",
		"lat": "47.3098382",
		"number": "219",
		"street": "D ST NE",
		"city": "AUBURN",
		"district": "KING",
		"postcode": "98002"
	},
	{
		"lon": "-122.1764277",
		"lat": "47.7018063",
		"number": "12228",
		"street": "NE 112TH PL",
		"city": "KIRKLAND",
		"district": "KING",
		"postcode": "98033"
	},
	{
		"lon": "-122.0202507",
		"lat": "47.3720745",
		"number": "0",
		"street": "240TH CT SE",
		"city": "MAPLE VALLEY",
		"district": "KING",
		"postcode": "98038"
	},
	{
		"lon": "-122.2117022",
		"lat": "47.7095982",
		"number": "9642",
		"street": "NE 121ST LN",
		"city": "KIRKLAND",
		"district": "KING",
		"postcode": "98034"
	},
	{
		"lon": "-122.260062",
		"lat": "47.3270332",
		"number": "2121",
		"street": "W ST NW",
		"city": "AUBURN",
		"district": "KING",
		"postcode": "98001"
	},
	{
		"lon": "-122.2075187",
		"lat": "47.7032794",
		"number": "10003",
		"street": "NE 115TH LN",
		"city": "KIRKLAND",
		"district": "KING",
		"postcode": "98033"
	},
	{
		"lon": "-122.2035242",
		"lat": "47.3041007",
		"number": "408",
		"street": "U ST SE",
		"city": "AUBURN",
		"district": "KING",
		"postcode": "98002"
	},
	{
		"lon": "-122.1814769",
		"lat": "47.7023032",
		"number": "11403",
		"street": "120TH AVE NE",
		"city": "KIRKLAND",
		"district": "KING",
		"postcode": "98033"
	},
	{
		"lon": "-122.0425403",
		"lat": "47.348733",
		"number": "28205",
		"street": "224TH PL SE",
		"city": "MAPLE VALLEY",
		"district": "KING",
		"postcode": "98038"
	},
	{
		"lon": "-122.1887019",
		"lat": "47.688721",
		"number": "11235",
		"street": "NE 97TH ST",
		"city": "KIRKLAND",
		"district": "KING",
		"postcode": "98033"
	},
	{
		"lon": "-122.2272034",
		"lat": "47.465561",
		"number": "1602",
		"street": "RAYMOND AVE SW",
		"city": "RENTON",
		"district": "KING",
		"postcode": "98057"
	},
	{
		"lon": "-122.2093289",
		"lat": "47.2927108",
		"number": "1801",
		"street": "R ST SE",
		"city": "AUBURN",
		"district": "KING",
		"postcode": "98002"
	},
	{
		"lon": "-122.1793143",
		"lat": "47.706239",
		"number": "11821",
		"street": "124TH AVE NE",
		"city": "KIRKLAND",
		"district": "KING",
		"postcode": "98034"
	},
	{
		"lon": "-122.2049209",
		"lat": "47.692311",
		"number": "1935",
		"street": "3RD ST",
		"city": "KIRKLAND",
		"district": "KING",
		"postcode": "98033"
	},
	{
		"lon": "-122.1829447",
		"lat": "47.3956713",
		"number": "23000",
		"street": "116TH AVE SE",
		"city": "KENT",
		"district": "KING",
		"postcode": "98031"
	},
	{
		"lon": "-122.1728138",
		"lat": "47.3559948",
		"number": "27328",
		"street": "126TH PL SE",
		"city": "KENT",
		"district": "KING",
		"postcode": "98030"
	},
	{
		"lon": "-122.2846632",
		"lat": "47.3623884",
		"number": "3640",
		"street": "MANCHESTER WAY",
		"city": "KENT",
		"district": "KING",
		"postcode": "98032"
	},
	{
		"lon": "-122.3583984",
		"lat": "47.2797361",
		"number": "35930",
		"street": "18TH AVE SW",
		"city": "FEDERAL WAY",
		"district": "KING",
		"postcode": "98023"
	},
	{
		"lon": "-122.2197846",
		"lat": "47.3007031",
		"number": "702",
		"street": "8TH ST SE",
		"city": "AUBURN",
		"district": "KING",
		"postcode": "98002"
	},
	{
		"lon": "-122.1705154",
		"lat": "47.709098",
		"number": "12034",
		"street": "SLATER AVE NE",
		"city": "KIRKLAND",
		"district": "KING",
		"postcode": "98034"
	},
	{
		"lon": "-122.3195179",
		"lat": "47.2976766",
		"number": "33930",
		"street": "9TH AVE S",
		"city": "FEDERAL WAY",
		"district": "KING",
		"postcode": "98003"
	},
	{
		"lon": "-122.200884",
		"lat": "47.66613",
		"number": "6715",
		"street": "104TH AVE NE",
		"city": "KIRKLAND",
		"district": "KING",
		"postcode": "98033"
	},
	{
		"lon": "-122.1918913",
		"lat": "47.6784306",
		"number": "921",
		"street": "5TH AVE",
		"city": "KIRKLAND",
		"district": "KING",
		"postcode": "98033"
	},
	{
		"lon": "-122.1945987",
		"lat": "47.7160817",
		"number": "12842",
		"street": "110TH AVE NE",
		"city": "KIRKLAND",
		"district": "KING",
		"postcode": "98034"
	},
	{
		"lon": "-122.3476394",
		"lat": "47.317333",
		"number": "31645",
		"street": "9TH PL SW",
		"city": "FEDERAL WAY",
		"district": "KING",
		"postcode": "98023"
	},
	{
		"lon": "-122.2969843",
		"lat": "47.3363089",
		"number": "2952",
		"street": "S 296TH ST",
		"city": "FEDERAL WAY",
		"district": "KING",
		"postcode": "98003"
	},
	{
		"lon": "-122.3309953",
		"lat": "47.2971036",
		"number": "163",
		"street": "S 340TH ST",
		"city": "FEDERAL WAY",
		"district": "KING",
		"postcode": "98003"
	},
	{
		"lon": "-122.1763607",
		"lat": "47.4092118",
		"number": "21513",
		"street": "124TH AVE SE",
		"city": "KENT",
		"district": "KING",
		"postcode": "98031"
	},
	{
		"lon": "-122.0733138",
		"lat": "47.3694773",
		"number": "25914",
		"street": "201ST CT SE",
		"city": "COVINGTON",
		"district": "KING",
		"postcode": "98042"
	},
	{
		"lon": "-122.3391173",
		"lat": "47.3216075",
		"number": "31226",
		"street": "4TH AVE SW",
		"city": "FEDERAL WAY",
		"district": "KING",
		"postcode": "98023"
	},
	{
		"lon": "-122.3208419",
		"lat": "47.3274224",
		"number": "30611",
		"street": "10TH AVE S",
		"city": "FEDERAL WAY",
		"district": "KING",
		"postcode": "98003"
	},
	{
		"lon": "-122.3278165",
		"lat": "47.3262196",
		"number": "430",
		"street": "S 308TH ST",
		"city": "FEDERAL WAY",
		"district": "KING",
		"postcode": "98003"
	},
	{
		"lon": "-122.2124483",
		"lat": "47.4211075",
		"number": "9604",
		"street": "S 203RD ST",
		"city": "KENT",
		"district": "KING",
		"postcode": "98031"
	},
	{
		"lon": "-122.2129713",
		"lat": "47.711082",
		"number": "12237",
		"street": "96TH PL NE",
		"city": "KIRKLAND",
		"district": "KING",
		"postcode": "98034"
	},
	{
		"lon": "-122.168512",
		"lat": "47.3900431",
		"number": "23555",
		"street": "130TH CT SE",
		"city": "KENT",
		"district": "KING",
		"postcode": "98031"
	},
	{
		"lon": "-122.2060769",
		"lat": "47.6693598",
		"number": "735",
		"street": "1ST ST S",
		"city": "KIRKLAND",
		"district": "KING",
		"postcode": "98033"
	},
	{
		"lon": "-122.3915765",
		"lat": "47.3121891",
		"number": "4511",
		"street": "SW 323RD ST",
		"city": "FEDERAL WAY",
		"district": "KING",
		"postcode": "98023"
	},
	{
		"lon": "-122.213258",
		"lat": "47.3221182",
		"number": "1321",
		"street": "16TH ST NE",
		"city": "AUBURN",
		"district": "KING",
		"postcode": "98002"
	},
	{
		"lon": "-122.197849",
		"lat": "47.6839315",
		"number": "1025",
		"street": "6TH ST",
		"city": "KIRKLAND",
		"district": "KING",
		"postcode": "98033"
	},
	{
		"lon": "-122.036651",
		"lat": "47.3632669",
		"number": "22822",
		"street": "SE 266TH ST",
		"city": "MAPLE VALLEY",
		"district": "KING",
		"postcode": "98038"
	},
	{
		"lon": "-122.2123253",
		"lat": "47.7133532",
		"number": "9759",
		"street": "NE 126TH PL",
		"city": "KIRKLAND",
		"district": "KING",
		"postcode": "98034"
	},
	{
		"lon": "-122.2156528",
		"lat": "47.3192814",
		"number": "1222",
		"street": "K ST NE",
		"city": "AUBURN",
		"district": "KING",
		"postcode": "98002"
	},
	{
		"lon": "-122.1046278",
		"lat": "47.3719622",
		"number": "17729",
		"street": "SE 257TH ST",
		"city": "COVINGTON",
		"district": "KING",
		"postcode": "98042"
	},
	{
		"lon": "-122.2162524",
		"lat": "47.7104112",
		"number": "12317",
		"street": "93RD LN NE",
		"city": "KIRKLAND",
		"district": "KING",
		"postcode": "98034"
	},
	{
		"lon": "-122.3854406",
		"lat": "47.3172573",
		"number": "31712",
		"street": "42ND AVE SW",
		"city": "FEDERAL WAY",
		"district": "KING",
		"postcode": "98023"
	},
	{
		"lon": "-122.1713672",
		"lat": "47.6762772",
		"number": "12625",
		"street": "NE 81ST PL",
		"city": "KIRKLAND",
		"district": "KING",
		"postcode": "98033"
	},
	{
		"lon": "-122.2043551",
		"lat": "47.6652043",
		"number": "6525",
		"street": "102ND AVE NE",
		"city": "KIRKLAND",
		"district": "KING",
		"postcode": "98033"
	},
	{
		"lon": "-122.2040158",
		"lat": "47.6643113",
		"number": "10206",
		"street": "NE 65TH ST",
		"city": "KIRKLAND",
		"district": "KING",
		"postcode": "98033"
	},
	{
		"lon": "-122.3438171",
		"lat": "47.7047843",
		"number": "1111",
		"street": "N NORTHGATE WAY",
		"city": "SEATTLE",
		"district": "KING",
		"postcode": "98133"
	},
	{
		"lon": "-122.1254991",
		"lat": "47.3721285",
		"number": "16202",
		"street": "SE 256TH PL",
		"city": "COVINGTON",
		"district": "KING",
		"postcode": "98042"
	},
	{
		"lon": "-122.3193363",
		"lat": "47.3420777",
		"number": "28916",
		"street": "12TH AVE S",
		"city": "FEDERAL WAY",
		"district": "KING",
		"postcode": "98003"
	},
	{
		"lon": "-122.3367439",
		"lat": "47.4378929",
		"number": "142",
		"street": "SW 185TH ST",
		"city": "NORMANDY PARK",
		"district": "KING",
		"postcode": "98166"
	},
	{
		"lon": "-122.3233995",
		"lat": "47.3344312",
		"number": "29805",
		"street": "8TH PL S",
		"city": "FEDERAL WAY",
		"district": "KING",
		"postcode": "98003"
	},
	{
		"lon": "-122.1060524",
		"lat": "47.3613947",
		"number": "17610",
		"street": "SE 268TH PL",
		"city": "COVINGTON",
		"district": "KING",
		"postcode": "98042"
	},
	{
		"lon": "-122.1642715",
		"lat": "47.3936391",
		"number": "23262",
		"street": "132ND PL SE",
		"city": "KENT",
		"district": "KING",
		"postcode": "98042"
	},
	{
		"lon": "-122.3211337",
		"lat": "47.3359632",
		"number": "29628",
		"street": "9TH PL S",
		"city": "FEDERAL WAY",
		"district": "KING",
		"postcode": "98003"
	},
	{
		"lon": "-122.2026542",
		"lat": "47.6791176",
		"number": "316",
		"street": "5TH AVE",
		"city": "KIRKLAND",
		"district": "KING",
		"postcode": "98033"
	},
	{
		"lon": "-122.1874163",
		"lat": "47.3538981",
		"number": "27630",
		"street": "114TH AVE SE",
		"city": "KENT",
		"district": "KING",
		"postcode": "98030"
	},
	{
		"lon": "-122.1940082",
		"lat": "47.668919",
		"number": "815",
		"street": "8TH ST S",
		"city": "KIRKLAND",
		"district": "KING",
		"postcode": "98033"
	},
	{
		"lon": "-122.3934322",
		"lat": "47.7725993",
		"number": "19703",
		"street": "27TH AVE NW",
		"city": "SHORELINE",
		"district": "KING",
		"postcode": "98177"
	},
	{
		"lon": "-122.3725758",
		"lat": "47.3192186",
		"number": "31427",
		"street": "31ST AVE SW",
		"city": "FEDERAL WAY",
		"district": "KING",
		"postcode": "98023"
	},
	{
		"lon": "-122.2115099",
		"lat": "47.6938031",
		"number": "732",
		"street": "20TH AVE W",
		"city": "KIRKLAND",
		"district": "KING",
		"postcode": "98033"
	},
	{
		"lon": "-122.1840248",
		"lat": "47.3641044",
		"number": "26504",
		"street": "118TH WAY SE",
		"city": "KENT",
		"district": "KING",
		"postcode": "98030"
	},
	{
		"lon": "-122.251019",
		"lat": "47.2855865",
		"number": "337",
		"street": "6TH AVE N",
		"city": "ALGONA",
		"district": "KING",
		"postcode": "98001"
	},
	{
		"lon": "-122.1708226",
		"lat": "47.6915491",
		"number": "12725",
		"street": "NE 102ND PL",
		"city": "KIRKLAND",
		"district": "KING",
		"postcode": "98033"
	},
	{
		"lon": "-122.1770291",
		"lat": "47.7093651",
		"number": "12421",
		"street": "TOTEM LAKE BLVD NE",
		"city": "KIRKLAND",
		"district": "KING",
		"postcode": "98034"
	},
	{
		"lon": "-122.1722733",
		"lat": "47.7172037",
		"number": "12617",
		"street": "NE 130TH WAY",
		"city": "KIRKLAND",
		"district": "KING",
		"postcode": "98034"
	},
	{
		"lon": "-122.1963765",
		"lat": "47.316638",
		"number": "31805",
		"street": "109TH AVE SE",
		"city": "AUBURN",
		"district": "KING",
		"postcode": "98092"
	},
	{
		"lon": "-122.2179297",
		"lat": "47.2657821",
		"number": "4809",
		"street": "MILL POND LOOP SE",
		"city": "AUBURN",
		"district": "KING",
		"postcode": "98092"
	},
	{
		"lon": "-122.1651286",
		"lat": "47.3361031",
		"number": "29624",
		"street": "132ND AVE SE",
		"city": "AUBURN",
		"district": "KING",
		"postcode": "98092"
	},
	{
		"lon": "-122.2970587",
		"lat": "47.3501456",
		"number": "28105",
		"street": "29TH AVE S",
		"city": "FEDERAL WAY",
		"district": "KING",
		"postcode": "98003"
	},
	{
		"lon": "-122.2390466",
		"lat": "47.3754266",
		"number": "639",
		"street": "5TH AVE S",
		"city": "KENT",
		"district": "KING",
		"postcode": "98032"
	},
	{
		"lon": "-122.3916771",
		"lat": "47.576251",
		"number": "3042",
		"street": "47TH AVE SW",
		"city": "SEATTLE",
		"district": "KING",
		"postcode": "98116"
	},
	{
		"lon": "-122.2115787",
		"lat": "47.2898897",
		"number": "1320",
		"street": "21ST ST SE",
		"city": "AUBURN",
		"district": "KING",
		"postcode": "98002"
	},
	{
		"lon": "-122.1794504",
		"lat": "47.4555356",
		"number": "12024",
		"street": "SE 165TH ST",
		"city": "RENTON",
		"district": "KING",
		"postcode": "98058"
	},
	{
		"lon": "-122.2039869",
		"lat": "47.6746449",
		"number": "203",
		"street": "1ST AVE S",
		"city": "KIRKLAND",
		"district": "KING",
		"postcode": "98033"
	},
	{
		"lon": "-122.2342987",
		"lat": "47.5379473",
		"number": "7218",
		"street": "78TH AVE SE",
		"city": "MERCER ISLAND",
		"district": "KING",
		"postcode": "98040"
	},
	{
		"lon": "-122.3193398",
		"lat": "47.3172545",
		"number": "1027",
		"street": "S 317TH ST",
		"city": "FEDERAL WAY",
		"district": "KING",
		"postcode": "98003"
	},
	{
		"lon": "-122.219886",
		"lat": "47.3143667",
		"number": "641",
		"street": "H ST NE",
		"city": "AUBURN",
		"district": "KING",
		"postcode": "98002"
	},
	{
		"lon": "-122.3419735",
		"lat": "47.3279833",
		"number": "30524",
		"street": "6TH AVE SW",
		"city": "FEDERAL WAY",
		"district": "KING",
		"postcode": "98023"
	},
	{
		"lon": "-122.1979919",
		"lat": "47.7005807",
		"number": "10620",
		"street": "NE 112TH ST",
		"city": "KIRKLAND",
		"district": "KING",
		"postcode": "98033"
	},
	{
		"lon": "-122.2334982",
		"lat": "47.2716297",
		"number": "224",
		"street": "ELLINGSON DR",
		"city": "PACIFIC",
		"district": "KING",
		"postcode": "98047"
	},
	{
		"lon": "-122.3283596",
		"lat": "47.3063726",
		"number": "315",
		"street": "S 331ST PL",
		"city": "FEDERAL WAY",
		"district": "KING",
		"postcode": "98003"
	},
	{
		"lon": "-122.0473249",
		"lat": "47.3384281",
		"number": "29430",
		"street": "218TH PL SE",
		"city": "BLACK DIAMOND",
		"district": "KING",
		"postcode": "98010"
	},
	{
		"lon": "-122.0452925",
		"lat": "47.5223325",
		"number": "480",
		"street": "SW FOREST DR",
		"city": "ISSAQUAH",
		"district": "KING",
		"postcode": "98027"
	},
	{
		"lon": "-122.1710995",
		"lat": "47.7057646",
		"number": "12528",
		"street": "NE 117TH PL",
		"city": "KIRKLAND",
		"district": "KING",
		"postcode": "98034"
	},
	{
		"lon": "-122.1900014",
		"lat": "47.3158671",
		"number": "31908",
		"street": "113TH PL SE",
		"city": "AUBURN",
		"district": "KING",
		"postcode": "98092"
	},
	{
		"lon": "-122.1904455",
		"lat": "47.6760237",
		"number": "1004",
		"street": "KIRKLAND AVE",
		"city": "KIRKLAND",
		"district": "KING",
		"postcode": "98033"
	},
	{
		"lon": "-122.300784",
		"lat": "47.3337056",
		"number": "2517",
		"street": "S 299TH ST",
		"city": "FEDERAL WAY",
		"district": "KING",
		"postcode": "98003"
	},
	{
		"lon": "-122.2502568",
		"lat": "47.2855944",
		"number": "639",
		"street": "CHICAGO AVE",
		"city": "ALGONA",
		"district": "KING",
		"postcode": "98001"
	},
	{
		"lon": "-122.1794707",
		"lat": "47.418745",
		"number": "20418",
		"street": "121ST WAY SE",
		"city": "KENT",
		"district": "KING",
		"postcode": "98031"
	},
	{
		"lon": "-122.1807224",
		"lat": "47.6901265",
		"number": "12002",
		"street": "NE 100TH PL",
		"city": "KIRKLAND",
		"district": "KING",
		"postcode": "98033"
	},
	{
		"lon": "-122.1897172",
		"lat": "47.6915808",
		"number": "11207",
		"street": "NE 103RD PL",
		"city": "KIRKLAND",
		"district": "KING",
		"postcode": "98033"
	},
	{
		"lon": "-122.2045025",
		"lat": "47.4628841",
		"number": "1920",
		"street": "S PUGET DR",
		"city": "RENTON",
		"district": "KING",
		"postcode": "98055"
	},
	{
		"lon": "-122.345031",
		"lat": "47.2849967",
		"number": "713",
		"street": "SW 353RD PL",
		"city": "FEDERAL WAY",
		"district": "KING",
		"postcode": "98023"
	},
	{
		"lon": "-122.1949511",
		"lat": "47.287028",
		"number": "2535",
		"street": "25TH ST SE",
		"city": "AUBURN",
		"district": "KING",
		"postcode": "98002"
	},
	{
		"lon": "-122.1929377",
		"lat": "47.6684593",
		"number": "816",
		"street": "9TH AVE S",
		"city": "KIRKLAND",
		"district": "KING",
		"postcode": "98033"
	},
	{
		"lon": "-122.3324949",
		"lat": "47.3266611",
		"number": "30644",
		"street": "2ND AVE S",
		"city": "FEDERAL WAY",
		"district": "KING",
		"postcode": "98003"
	},
	{
		"lon": "-121.9980204",
		"lat": "47.313611",
		"number": "32512",
		"street": "MCKAY LN",
		"city": "BLACK DIAMOND",
		"district": "KING",
		"postcode": "98010"
	},
	{
		"lon": "-122.2294829",
		"lat": "47.3041027",
		"number": "320",
		"street": "S DIVISION ST",
		"city": "AUBURN",
		"district": "KING",
		"postcode": "98001"
	},
	{
		"lon": "-122.1695784",
		"lat": "47.3853889",
		"number": "12842",
		"street": "SE 242ND CT",
		"city": "KENT",
		"district": "KING",
		"postcode": "98030"
	},
	{
		"lon": "-122.2441106",
		"lat": "47.2628007",
		"number": "304",
		"street": "BUTTE PL",
		"city": "PACIFIC",
		"district": "KING",
		"postcode": "98047"
	},
	{
		"lon": "-122.035572",
		"lat": "47.3592405",
		"number": "27021",
		"street": "229TH PL SE",
		"city": "MAPLE VALLEY",
		"district": "KING",
		"postcode": "98038"
	},
	{
		"lon": "-122.2959043",
		"lat": "47.3361806",
		"number": "2973",
		"street": "S 296TH ST",
		"city": "FEDERAL WAY",
		"district": "KING",
		"postcode": "98003"
	},
	{
		"lon": "-122.218368",
		"lat": "47.3026449",
		"number": "805",
		"street": "6TH ST SE",
		"city": "AUBURN",
		"district": "KING",
		"postcode": "98002"
	},
	{
		"lon": "-122.2044082",
		"lat": "47.32877",
		"number": "30441",
		"street": "103RD CT SE",
		"city": "AUBURN",
		"district": "KING",
		"postcode": "98092"
	},
	{
		"lon": "-122.3393239",
		"lat": "47.3365349",
		"number": "306",
		"street": "SW 297TH ST",
		"city": "FEDERAL WAY",
		"district": "KING",
		"postcode": "98023"
	},
	{
		"lon": "-122.3307194",
		"lat": "47.3261778",
		"number": "316",
		"street": "S 308TH ST",
		"city": "FEDERAL WAY",
		"district": "KING",
		"postcode": "98003"
	},
	{
		"lon": "-122.0470827",
		"lat": "47.3526147",
		"number": "22029",
		"street": "SE 277TH ST",
		"city": "MAPLE VALLEY",
		"district": "KING",
		"postcode": "98038"
	},
	{
		"lon": "-122.2689644",
		"lat": "47.3401308",
		"number": "5209",
		"street": "S 292ND ST",
		"city": "AUBURN",
		"district": "KING",
		"postcode": "98001"
	},
	{
		"lon": "-122.3966672",
		"lat": "47.3072667",
		"number": "4935",
		"street": "SW 329TH WAY",
		"city": "FEDERAL WAY",
		"district": "KING",
		"postcode": "98023"
	},
	{
		"lon": "-122.2445551",
		"lat": "47.4653361",
		"number": "0",
		"street": "FUN CENTER WAY",
		"city": "TUKWILA",
		"district": "KING",
		"postcode": "98188"
	},
	{
		"lon": "-122.2013721",
		"lat": "47.425651",
		"number": "19623",
		"street": "105TH AVE SE",
		"city": "RENTON",
		"district": "KING",
		"postcode": "98055"
	},
	{
		"lon": "-122.1873364",
		"lat": "47.3142462",
		"number": "11532",
		"street": "SE 321ST PL",
		"city": "AUBURN",
		"district": "KING",
		"postcode": "98092"
	},
	{
		"lon": "-122.1728706",
		"lat": "47.6991682",
		"number": "12623",
		"street": "NE 110TH ST",
		"city": "KIRKLAND",
		"district": "KING",
		"postcode": "98033"
	},
	{
		"lon": "-122.3232796",
		"lat": "47.3088448",
		"number": "817",
		"street": "S 327TH ST",
		"city": "FEDERAL WAY",
		"district": "KING",
		"postcode": "98003"
	},
	{
		"lon": "-122.2061777",
		"lat": "47.6450218",
		"number": "3734",
		"street": "101ST WAY NE",
		"city": "KIRKLAND",
		"district": "KING",
		"postcode": "98033"
	},
	{
		"lon": "-122.1758249",
		"lat": "47.6740874",
		"number": "7820",
		"street": "123RD AVE NE",
		"city": "KIRKLAND",
		"district": "KING",
		"postcode": "98033"
	},
	{
		"lon": "-122.2815405",
		"lat": "47.4677187",
		"number": "15105",
		"street": "42ND AVE S",
		"city": "TUKWILA",
		"district": "KING",
		"postcode": "98188"
	},
	{
		"lon": "-122.3769268",
		"lat": "47.7685838",
		"number": "19200",
		"street": "15TH AVE NW",
		"city": "SHORELINE",
		"district": "KING",
		"postcode": "98177"
	},
	{
		"lon": "-122.1827806",
		"lat": "47.747206",
		"number": "16392",
		"street": "118TH CT NE",
		"city": "BOTHELL",
		"district": "KING",
		"postcode": "98011"
	},
	{
		"lon": "-122.1658267",
		"lat": "47.6796908",
		"number": "13020",
		"street": "NE 85TH ST",
		"city": "KIRKLAND",
		"district": "KING",
		"postcode": "98033"
	},
	{
		"lon": "-122.3487131",
		"lat": "47.3329131",
		"number": "30013",
		"street": "10TH AVE SW",
		"city": "FEDERAL WAY",
		"district": "KING",
		"postcode": "98023"
	},
	{
		"lon": "-122.2694579",
		"lat": "47.3302597",
		"number": "5134",
		"street": "S 303RD PL",
		"city": "AUBURN",
		"district": "KING",
		"postcode": "98001"
	},
	{
		"lon": "-122.1877234",
		"lat": "47.680092",
		"number": "11412",
		"street": "NE 86TH ST",
		"city": "KIRKLAND",
		"district": "KING",
		"postcode": "98033"
	},
	{
		"lon": "-122.3169051",
		"lat": "47.3221563",
		"number": "31207",
		"street": "13TH AVE S",
		"city": "FEDERAL WAY",
		"district": "KING",
		"postcode": "98003"
	}
]